{"version": 0.6, "generator": "Overpass API 0.7.61.5 4133829e", "osm3s": {"timestamp_osm_base": "2023-10-04T20:14:16Z", "copyright": "The data included in this document is from www.openstreetmap.org. The data is made available under ODbL."}, "elements": [{"type": "node", "id": 252958952, "lat": 48.8646895, "lon": 2.2880988, "tags": {"amenity": "pub", "brewery": "Frog Natural Blonde", "contact:city": "Paris", "contact:housenumber": "110 bis", "contact:phone": "+33 1 47 27 88 88", "contact:postcode": "75116", "contact:street": "Avenue Kl\u00e9ber", "contact:website": "https://www.frogpubs.com/fr/pub-XVI-paris.php", "diet:vegan": "yes", "microbrewery": "yes", "name": "Frog XVI", "survey:date": "2023-08-04", "terrace": "yes", "toilets:wheelchair": "yes", "wheelchair": "limited"}}, {"type": "node", "id": 254494167, "lat": 48.8600296, "lon": 2.3006336, "tags": {"amenity": "restaurant", "cuisine": "french", "name": "Le Clos des Gourmets"}}, {"type": "node", "id": 254497766, "lat": 48.8604171, "lon": 2.305956, "tags": {"addr:city": "Paris", "addr:housenumber": "27", "addr:postcode": "75007", "addr:street": "Rue Malar", "amenity": "restaurant", "cuisine": "french", "name": "Chez l'Ami Jean", "opening_hours": "Tu-Sa 12:00-14:00,19:00-24:00", "phone": "+33 1 47 05 86 89", "website": "http://www.lamijean.fr/"}}, {"type": "node", "id": 255060753, "lat": 48.8650879, "lon": 2.2899274, "tags": {"addr:city": "Paris", "addr:housenumber": "32", "addr:postcode": "75016", "addr:street": "Rue de Longchamp", "amenity": "restaurant", "name": "L'Astrance", "phone": "+33 1 40 50 84 40", "website": "https://www.astranceparis.fr", "wikidata": "Q6455614"}}, {"type": "node", "id": 308684349, "lat": 48.8609068, "lon": 2.3015143, "tags": {"amenity": "cafe", "dinner": "yes", "facebook": "https://www.facebook.com/Caf\u00e9-de-lalma-350090191753899/", "name": "Caf\u00e9 de l'Alma", "name:fr": "Caf\u00e9 de l'Alma", "outdoor_seating": "yes", "payment:credit_cards": "yes", "phone": "+33 1 45 51 56 74", "toilets": "yes"}}, {"type": "node", "id": 322684264, "lat": 48.856812, "lon": 2.3062305, "tags": {"amenity": "restaurant", "name": "Tribeca", "toilets:wheelchair": "yes", "wheelchair": "yes"}}, {"type": "node", "id": 490737598, "lat": 48.8650517, "lon": 2.3018704, "tags": {"amenity": "restaurant", "cuisine": "french", "diet:vegetarian": "only", "name": "Chez Francis"}}, {"type": "node", "id": 582552434, "lat": 48.8585847, "lon": 2.3032822, "tags": {"amenity": "pub", "indoor_seating": "yes", "name": "Campanela", "outdoor_seating": "yes", "source": "survey"}}, {"type": "node", "id": 582743160, "lat": 48.8567473, "lon": 2.3041925, "tags": {"amenity": "restaurant", "cuisine": "japanese", "name": "Okinawa"}}, {"type": "node", "id": 582743234, "lat": 48.85622, "lon": 2.3044115, "tags": {"amenity": "restaurant", "cuisine": "sushi", "name": "La Maison du Sushi"}}, {"type": "node", "id": 582743808, "lat": 48.8560475, "lon": 2.3045247, "tags": {"amenity": "restaurant", "cuisine": "french", "name": "Le Bosquet"}}, {"type": "node", "id": 582745395, "lat": 48.855529, "lon": 2.3047711, "tags": {"addr:housenumber": "54", "addr:street": "Avenue Bosquet", "amenity": "restaurant", "cuisine": "chinese", "name": "La Fontaine de Jade"}}, {"type": "node", "id": 582745476, "lat": 48.8555818, "lon": 2.3053301, "tags": {"amenity": "restaurant", "cuisine": "italian", "name": "Ricci Family"}}, {"type": "node", "id": 582746799, "lat": 48.8549627, "lon": 2.3050611, "tags": {"addr:city": "Paris", "addr:housenumber": "64", "addr:postcode": "75007", "addr:street": "Avenue Bosquet", "amenity": "restaurant", "name": "Le Gatsby"}}, {"type": "node", "id": 582747740, "lat": 48.8547805, "lon": 2.3051304, "tags": {"amenity": "restaurant", "name": "Septi\u00e8me Vin"}}, {"type": "node", "id": 582747931, "lat": 48.8549635, "lon": 2.3056659, "tags": {"amenity": "restaurant", "name": "Milagro", "opening_hours": "Tu-Fr 12:00-14:30,19:00-22:00; Sa 19:00-22:00", "phone": "+33 9 54 50 83 31", "website": "https://www.milagroparis.com/"}}, {"type": "node", "id": 582748051, "lat": 48.8547343, "lon": 2.305806, "tags": {"amenity": "cafe", "name": "La Terrasse", "name:fr": "La Terrasse", "outdoor_seating": "terrace"}}, {"type": "node", "id": 582748201, "lat": 48.8544587, "lon": 2.306226, "tags": {"amenity": "cafe", "name": "Le Tourville", "name:fr": "Le Tourville"}}, {"type": "node", "id": 582748454, "lat": 48.8546375, "lon": 2.3064864, "tags": {"amenity": "cafe", "name": "La Commanderie", "name:fr": "La Commanderie", "old_name": "Comptoir du Sept"}}, {"type": "node", "id": 681275677, "lat": 48.8529165, "lon": 2.2869649}, {"type": "node", "id": 681275745, "lat": 48.8530035, "lon": 2.286854}, {"type": "node", "id": 681276081, "lat": 48.852898, "lon": 2.2870132}, {"type": "node", "id": 681276097, "lat": 48.8528163, "lon": 2.2869445}, {"type": "node", "id": 681276099, "lat": 48.8529286, "lon": 2.2869279}, {"type": "node", "id": 681276142, "lat": 48.8529439, "lon": 2.2869482}, {"type": "node", "id": 681276180, "lat": 48.8529085, "lon": 2.2869568}, {"type": "node", "id": 681276236, "lat": 48.852915, "lon": 2.2867305}, {"type": "node", "id": 681276245, "lat": 48.8528903, "lon": 2.286739}, {"type": "node", "id": 681276274, "lat": 48.8529174, "lon": 2.2869308}, {"type": "node", "id": 684572787, "lat": 48.8517565, "lon": 2.2895333, "tags": {"addr:housenumber": "30", "amenity": "restaurant", "check_date:opening_hours": "2021-07-28", "cuisine": "japanese", "name": "Yako", "opening_hours": "Mo-Sa 11:30-15:00,18:00-22:30; Su 18:00-22:30", "phone": "+33 1 45 78 67 58", "source": "cadastre-dgi-fr source : Direction G\u00e9n\u00e9rale des Imp\u00f4ts - Cadastre ; mise \u00e0 jour : 2010"}}, {"type": "node", "id": 684572823, "lat": 48.8527624, "lon": 2.2872737, "tags": {"addr:housenumber": "22", "alt_name": "Akim", "amenity": "restaurant", "cuisine": "moroccan", "name": "Au Royal Couscous", "phone": "+33145772517", "source": "cadastre-dgi-fr source : Direction G\u00e9n\u00e9rale des Imp\u00f4ts - Cadastre ; mise \u00e0 jour : 2010", "website": "http://www.tupalo.net/en/paris/au-royal-couscous", "wheelchair": "no"}}, {"type": "node", "id": 684572977, "lat": 48.8528539, "lon": 2.2868396, "tags": {"addr:housenumber": "1", "source": "cadastre-dgi-fr source : Direction G\u00e9n\u00e9rale des Imp\u00f4ts - Cadastre ; mise \u00e0 jour : 2010"}}, {"type": "node", "id": 828509984, "lat": 48.8542308, "lon": 2.2999331}, {"type": "node", "id": 828510186, "lat": 48.8541708, "lon": 2.2998968}, {"type": "node", "id": 828511522, "lat": 48.854214, "lon": 2.2999596}, {"type": "node", "id": 828511678, "lat": 48.8541874, "lon": 2.29987}, {"type": "node", "id": 831943767, "lat": 48.8660598, "lon": 2.3017043, "tags": {"amenity": "restaurant", "name": "Le Comptoir de Thiou", "source": "cadastre-dgi-fr source : Direction G\u00e9n\u00e9rale des Imp\u00f4ts - Cadastre. Mise \u00e0 jour : 2010"}}, {"type": "node", "id": 833088605, "lat": 48.8650906, "lon": 2.3007462, "tags": {"amenity": "cafe", "name": "Bert's", "name:fr": "Bert's", "source": "survey"}}, {"type": "node", "id": 833088665, "lat": 48.8651464, "lon": 2.3005883, "tags": {"amenity": "restaurant", "name": "Mascotte Caf\u00e9", "source": "survey"}}, {"type": "node", "id": 913935034, "lat": 48.8577516, "lon": 2.3064675, "tags": {"addr:housenumber": "159", "addr:street": "Rue de Grenelle", "amenity": "bar", "name": "Alain Milliat", "source": "cadastre-dgi-fr source : Direction G\u00e9n\u00e9rale des Imp\u00f4ts - Cadastre. Mise \u00e0 jour : 2010"}}, {"type": "node", "id": 913935932, "lat": 48.8565154, "lon": 2.3029604, "tags": {"addr:housenumber": "212", "addr:street": "Rue de Grenelle", "amenity": "restaurant", "name": "Le Royal", "opening_hours": "Mo-Fr 07:30-23:00", "source": "cadastre-dgi-fr source : Direction G\u00e9n\u00e9rale des Imp\u00f4ts - Cadastre. Mise \u00e0 jour : 2010", "wheelchair": "yes"}}, {"type": "node", "id": 925526425, "lat": 48.865893, "lon": 2.2979628, "tags": {"amenity": "restaurant", "fax": "+33147205042", "fixme": "V\u00e9rifier les horaires", "name": "Balilli", "opening_hours": "Mo-Sa", "phone": "+33147205052", "source": "survey"}}, {"type": "node", "id": 925740428, "lat": 48.8664834, "lon": 2.2970052, "tags": {"amenity": "cafe", "name": "Le Galliera", "name:fr": "Le Galliera", "opening_hours": "Mo-Fr 06:00-01:00; Sa 06:00-20:00", "source": "cadastre-dgi-fr source : Direction G\u00e9n\u00e9rale des Imp\u00f4ts - Cadastre. Mise \u00e0 jour : 2010", "website": "https://le-galliera-restaurant-paris.eatbu.com/"}}, {"type": "node", "id": 929366729, "lat": 48.8658567, "lon": 2.2895816, "tags": {"amenity": "cafe", "name": "Pub Kl\u00e9ber", "name:fr": "Pub Kl\u00e9ber", "source": "cadastre-dgi-fr source : Direction G\u00e9n\u00e9rale des Imp\u00f4ts - Cadastre. Mise \u00e0 jour : 2010", "toilets:wheelchair": "no", "wheelchair": "yes"}}, {"type": "node", "id": 929372126, "lat": 48.8670044, "lon": 2.2897764, "tags": {"amenity": "restaurant", "name": "Le Kl\u00e9ber", "outdoor_seating": "yes", "source": "cadastre-dgi-fr source : Direction G\u00e9n\u00e9rale des Imp\u00f4ts - Cadastre. Mise \u00e0 jour : 2010", "wheelchair": "no"}}, {"type": "node", "id": 929536184, "lat": 48.8634497, "lon": 2.2880782, "tags": {"amenity": "cafe", "name": "L\u2019Ancien Trocad\u00e9ro", "name:fr": "L\u2019Ancien Trocad\u00e9ro", "source": "cadastre-dgi-fr source : Direction G\u00e9n\u00e9rale des Imp\u00f4ts - Cadastre. Mise \u00e0 jour : 2010"}}, {"type": "node", "id": 929536321, "lat": 48.863525, "lon": 2.2879692, "tags": {"amenity": "cafe", "name": "Le Coq", "name:fr": "Le Coq", "source": "cadastre-dgi-fr source : Direction G\u00e9n\u00e9rale des Imp\u00f4ts - Cadastre. Mise \u00e0 jour : 2010"}}, {"type": "node", "id": 929536356, "lat": 48.8649301, "lon": 2.2889961, "tags": {"amenity": "cafe", "name": "Corso", "name:fr": "Corso", "source": "cadastre-dgi-fr source : Direction G\u00e9n\u00e9rale des Imp\u00f4ts - Cadastre. Mise \u00e0 jour : 2010", "toilets:wheelchair": "no", "wheelchair": "limited"}}, {"type": "node", "id": 929551930, "lat": 48.8643697, "lon": 2.2885932}, {"type": "node", "id": 929551961, "lat": 48.8645891, "lon": 2.2887868}, {"type": "node", "id": 929552072, "lat": 48.8645605, "lon": 2.2887655}, {"type": "node", "id": 929552105, "lat": 48.8644421, "lon": 2.2886776}, {"type": "node", "id": 929552178, "lat": 48.8646348, "lon": 2.2888203}, {"type": "node", "id": 929552304, "lat": 48.8646616, "lon": 2.288807}, {"type": "node", "id": 929552327, "lat": 48.8644198, "lon": 2.2886297}, {"type": "node", "id": 929552431, "lat": 48.8646429, "lon": 2.2887933}, {"type": "node", "id": 929552466, "lat": 48.8644119, "lon": 2.2886552}, {"type": "node", "id": 929552566, "lat": 48.8644907, "lon": 2.2886816}, {"type": "node", "id": 929552793, "lat": 48.8644825, "lon": 2.2887076}, {"type": "node", "id": 929552840, "lat": 48.8642989, "lon": 2.2885429}, {"type": "node", "id": 929552851, "lat": 48.8643622, "lon": 2.2886187}, {"type": "node", "id": 929552871, "lat": 48.8643007, "lon": 2.2884357}, {"type": "node", "id": 929552894, "lat": 48.8645684, "lon": 2.288739}, {"type": "node", "id": 929552938, "lat": 48.8642913, "lon": 2.2885663}, {"type": "node", "id": 929552971, "lat": 48.8642734, "lon": 2.2885231}, {"type": "node", "id": 929553005, "lat": 48.8646901, "lon": 2.2887175}, {"type": "node", "id": 932276881, "lat": 48.8637238, "lon": 2.2872368, "tags": {"amenity": "restaurant", "contact:city": "Paris", "contact:housenumber": "4", "contact:postcode": "75016", "contact:street": "Place du Trocad\u00e9ro et du 11 Novembre 1918", "name": "Carette", "opening_hours": "Mo-Su 07:30-24:00", "source": "cadastre-dgi-fr source : Direction G\u00e9n\u00e9rale des Imp\u00f4ts - Cadastre. Mise \u00e0 jour : 2010"}}, {"type": "node", "id": 932277107, "lat": 48.863715, "lon": 2.2873701, "tags": {"amenity": "cafe", "name": "Caf\u00e9 Kl\u00e9ber", "name:fr": "Caf\u00e9 Kl\u00e9ber", "phone": "+33 1 47 27 86 65", "source": "cadastre-dgi-fr source : Direction G\u00e9n\u00e9rale des Imp\u00f4ts - Cadastre. Mise \u00e0 jour : 2010", "toilets:wheelchair": "no", "wheelchair": "no"}}, {"type": "node", "id": 932277394, "lat": 48.8637222, "lon": 2.2870818, "tags": {"amenity": "cafe", "name": "Le Malakoff", "name:fr": "Le Malakoff", "source": "cadastre-dgi-fr source : Direction G\u00e9n\u00e9rale des Imp\u00f4ts - Cadastre. Mise \u00e0 jour : 2010"}}, {"type": "node", "id": 932282751, "lat": 48.8636287, "lon": 2.286627, "tags": {"amenity": "restaurant", "contact:city": "Paris", "contact:housenumber": "8", "contact:phone": "+33 1 44 05 37 00", "contact:postcode": "75116", "contact:street": "Place du Trocad\u00e9ro et du 11 Novembre 1918", "contact:website": "www.cafedutrocadero.com", "internet_access": "yes", "name": "Caf\u00e9 du Trocad\u00e9ro", "opening_hours": "Mo-Su 09:00-02:00", "outdoor_seating": "yes", "reservation": "yes", "source": "cadastre-dgi-fr source : Direction G\u00e9n\u00e9rale des Imp\u00f4ts - Cadastre. Mise \u00e0 jour : 2010", "toilets": "yes", "wheelchair": "limited"}}, {"type": "node", "id": 932339882, "lat": 48.8651941, "lon": 2.2867285, "tags": {"amenity": "cafe", "name": "Le Poincar\u00e9", "name:fr": "Le Poincar\u00e9", "source": "cadastre-dgi-fr source : Direction G\u00e9n\u00e9rale des Imp\u00f4ts - Cadastre. Mise \u00e0 jour : 2010"}}, {"type": "node", "id": 938864846, "lat": 48.8665016, "lon": 2.2891682, "tags": {"addr:housenumber": "1", "addr:street": "Rue L\u00e9o Delibes", "amenity": "restaurant", "source": "cadastre-dgi-fr source : Direction G\u00e9n\u00e9rale des Imp\u00f4ts - Cadastre. Mise \u00e0 jour : 2010", "wheelchair": "no"}}, {"type": "node", "id": 938872964, "lat": 48.8658188, "lon": 2.2908422, "tags": {"amenity": "fast_food", "contact:city": "Paris", "contact:housenumber": "14", "contact:postcode": "75116", "contact:street": "Rue du Bouquet de Longchamp", "name": "L'Uzine", "source": "cadastre-dgi-fr source : Direction G\u00e9n\u00e9rale des Imp\u00f4ts - Cadastre. Mise \u00e0 jour : 2010"}}, {"type": "node", "id": 938873274, "lat": 48.864416, "lon": 2.2885192, "tags": {"addr:housenumber": "85"}}, {"type": "node", "id": 938887894, "lat": 48.86373, "lon": 2.2933315, "tags": {"addr:housenumber": "10", "addr:street": "Avenue d'I\u00e9na", "amenity": "restaurant", "name": "Shang Palace", "source": "cadastre-dgi-fr source : Direction G\u00e9n\u00e9rale des Imp\u00f4ts - Cadastre. Mise \u00e0 jour : 2010", "stars": "1"}}, {"type": "node", "id": 942670657, "lat": 48.8654332, "lon": 2.2855483, "tags": {"amenity": "restaurant", "contact:city": "Paris", "contact:housenumber": "129", "contact:postcode": "75116", "contact:street": "Rue Lauriston", "cuisine": "french", "name": "La Table Lauriston", "source": "cadastre-dgi-fr source : Direction G\u00e9n\u00e9rale des Imp\u00f4ts - Cadastre. Mise \u00e0 jour : 2010"}}, {"type": "node", "id": 963925097, "lat": 48.8599401, "lon": 2.2804099, "tags": {"addr:housenumber": "65", "addr:street": "Avenue Paul Doumer", "amenity": "fast_food", "cuisine": "sushi", "drive_through": "no", "name": "Plan\u00e8te Sushi", "outdoor_seating": "yes", "phone": "+33140721515", "smoking": "outside", "takeaway": "yes", "toilets:wheelchair": "no", "wheelchair": "yes"}}, {"type": "node", "id": 963925190, "lat": 48.8606416, "lon": 2.282689, "tags": {"amenity": "fast_food", "contact:city": "Paris", "contact:housenumber": "35", "contact:phone": "+33 9 83 58 58 20", "contact:postcode": "75016", "contact:street": "Avenue Paul Doumer", "contact:website": "https://www.manjeandco.com", "cuisine": "italian_pizza;cake;noodles;pasta;sandwich;coffee_shop;french", "name": "Manj\u00e9 & co", "opening_hours": "Mo-Fr 10:00-16:00", "source": "cadastre-dgi-fr source : Direction G\u00e9n\u00e9rale des Imp\u00f4ts - Cadastre. Mise \u00e0 jour : 2010"}}, {"type": "node", "id": 976124458, "lat": 48.8566763, "lon": 2.2861188, "tags": {"amenity": "restaurant", "name": "Aux Trois Nagas"}}, {"type": "node", "id": 976164034, "lat": 48.854672, "lon": 2.2831002, "tags": {"addr:city": "Paris", "addr:housenumber": "2", "addr:postcode": "75016", "addr:street": "Avenue de Lamballe", "amenity": "restaurant", "internet_access": "wlan", "name": "Le Tournesol", "opening_hours": "Mo-Su 12:00-15:00,19:30-23:00", "outdoor_seating": "yes", "phone": "+33 1 45 25 95 94", "source": "cadastre-dgi-fr source : Direction G\u00e9n\u00e9rale des Imp\u00f4ts - Cadastre. Mise \u00e0 jour : 2010", "website": "http://www.le-tournesol.fr/"}}, {"type": "node", "id": 1006225678, "lat": 48.8655911, "lon": 2.3030514, "tags": {"amenity": "restaurant", "name": "Maison Blanche", "phone": "+33147235599", "website": "http://www.maison-blanche.fr/"}}, {"type": "node", "id": 1163568199, "lat": 48.8488396, "lon": 2.2977794, "tags": {"amenity": "fast_food", "brand": "McDonald's", "brand:wikidata": "Q38076", "brand:wikipedia": "fr:McDonald's", "check_date": "2023-07-06", "cuisine": "burger", "indoor_seating": "yes", "name": "McDonald's", "operator": "McDonald's", "outdoor_seating": "no", "takeaway": "yes", "toilets:wheelchair": "yes", "wheelchair": "yes"}}, {"type": "node", "id": 1179696276, "lat": 48.8584177, "lon": 2.3025456, "tags": {"amenity": "restaurant", "contact:city": "Paris", "contact:housenumber": "129", "contact:phone": "+33 1 47 05 46 44", "contact:postcode": "75007", "contact:street": "Rue Saint-Dominique", "contact:website": "http://www.fontainedemars.com/", "cuisine": "fine_dining", "name": "La Fontaine de Mars", "source": "cadastre-dgi-fr source : Direction G\u00e9n\u00e9rale des Imp\u00f4ts - Cadastre. Mise \u00e0 jour : 2011", "wheelchair": "yes"}}, {"type": "node", "id": 1181634263, "lat": 48.8569001, "lon": 2.303583, "tags": {"amenity": "fast_food", "cuisine": "burger", "name": "L'Artisan du Burger", "outdoor_seating": "no", "source": "cadastre-dgi-fr source : Direction G\u00e9n\u00e9rale des Imp\u00f4ts - Cadastre. Mise \u00e0 jour : 2011", "takeaway": "yes", "wheelchair": "yes"}}, {"type": "node", "id": 1181634390, "lat": 48.8594682, "lon": 2.298537, "tags": {"addr:housenumber": "20", "amenity": "restaurant", "name": "20 Eiffel", "source": "cadastre-dgi-fr source : Direction G\u00e9n\u00e9rale des Imp\u00f4ts - Cadastre. Mise \u00e0 jour : 2011"}}, {"type": "node", "id": 1181634478, "lat": 48.8581564, "lon": 2.3025566, "tags": {"addr:housenumber": "4", "addr:street": "Rue de l'Exposition", "amenity": "restaurant", "cuisine": "french", "name": "Pottoka", "opening_hours": "Mo-Su 12:00-14:30, 19:30-22:30", "phone": "+33145518838", "source": "cadastre-dgi-fr source : Direction G\u00e9n\u00e9rale des Imp\u00f4ts - Cadastre. Mise \u00e0 jour : 2011", "website": "https://pottoka.fr/"}}, {"type": "node", "id": 1181635071, "lat": 48.8598224, "lon": 2.3002796, "tags": {"addr:housenumber": "4", "addr:postcode": "75007", "addr:street": "Rue de Monttessuy", "amenity": "restaurant", "cuisine": "italian", "name": "II Sorrentino", "source": "cadastre-dgi-fr source : Direction G\u00e9n\u00e9rale des Imp\u00f4ts - Cadastre. Mise \u00e0 jour : 2011", "wheelchair": "no"}}, {"type": "node", "id": 1183500950, "lat": 48.855445, "lon": 2.3054013, "tags": {"addr:housenumber": "79", "addr:street": "Avenue Bosquet", "amenity": "cafe", "cuisine": "breakfast;french", "name": "Kozy Bosquet", "name:en": "Kozy Bosquet", "name:fr": "Kozy Bosquet", "opening_hours": "Mo-Sa 08:00-20:00; Su 09:00-19:00", "source": "cadastre-dgi-fr source : Direction G\u00e9n\u00e9rale des Imp\u00f4ts - Cadastre. Mise \u00e0 jour : 2011", "website": "http://www.kozy.fr"}}, {"type": "node", "id": 1223768234, "lat": 48.8577097, "lon": 2.3005438, "tags": {"amenity": "restaurant", "name": "Restaurant Do\u00efna", "source": "cadastre-dgi-fr source : Direction G\u00e9n\u00e9rale des Imp\u00f4ts - Cadastre. Mise \u00e0 jour : 2011"}}, {"type": "node", "id": 1223768263, "lat": 48.8576592, "lon": 2.3004661, "tags": {"amenity": "cafe", "name": "Caf\u00e9 Le D\u00f4me", "name:fr": "Caf\u00e9 Le D\u00f4me", "source": "cadastre-dgi-fr source : Direction G\u00e9n\u00e9rale des Imp\u00f4ts - Cadastre. Mise \u00e0 jour : 2011", "wheelchair": "limited"}}, {"type": "node", "id": 1223805591, "lat": 48.8516079, "lon": 2.3004811, "tags": {"amenity": "restaurant", "contact:city": "Paris", "contact:housenumber": "73", "contact:phone": "+33 1 47 34 90 56", "contact:postcode": "75007", "contact:street": "Avenue de Suffren", "cuisine": "pizza", "indoor_seating": "yes", "name": "Carmine", "outdoor_seating": "yes", "source": "cadastre-dgi-fr source : Direction G\u00e9n\u00e9rale des Imp\u00f4ts - Cadastre. Mise \u00e0 jour : 2011", "wheelchair": "yes"}}, {"type": "node", "id": 1224673311, "lat": 48.8569007, "lon": 2.2922198, "tags": {"amenity": "restaurant", "contact:city": "Paris", "contact:housenumber": "5", "contact:phone": "+33 1 47 34 16 98", "contact:postcode": "75007", "contact:street": "Avenue de Suffren", "cuisine": "french", "name": "Castel Cafe", "source": "cadastre-dgi-fr source : Direction G\u00e9n\u00e9rale des Imp\u00f4ts - Cadastre. Mise \u00e0 jour : 2011", "toilets:wheelchair": "no", "wheelchair": "yes"}}, {"type": "node", "id": 1227145008, "lat": 48.8555451, "lon": 2.3008102}, {"type": "node", "id": 1343225908, "lat": 48.8543168, "lon": 2.3064455, "tags": {"amenity": "cafe", "name": "Caf\u00e9 des Officiers", "name:fr": "Caf\u00e9 des Officiers", "toilets:wheelchair": "no", "wheelchair": "yes"}}, {"type": "node", "id": 1343230023, "lat": 48.8564566, "lon": 2.3025481, "tags": {"amenity": "restaurant", "name": "Pizza la Gourmandise", "wheelchair": "limited"}}, {"type": "node", "id": 1473397603, "lat": 48.8566013, "lon": 2.3030438, "tags": {"amenity": "restaurant", "name": "Le Petit Caillou", "wheelchair": "limited"}}, {"type": "node", "id": 1499641686, "lat": 48.8493398, "lon": 2.2978655, "tags": {"amenity": "cafe", "indoor_seating": "yes", "name": "Le Bouquet de Grenelle", "name:fr": "Le Bouquet de Grenelle", "outdoor_seating": "yes", "toilets:wheelchair": "yes", "wheelchair": "limited"}}, {"type": "node", "id": 1499642085, "lat": 48.8501986, "lon": 2.295134, "tags": {"amenity": "cafe", "bar": "yes", "name": "Le M\u00e9tropolitan", "name:fr": "Le M\u00e9tropolitan", "outdoor_seating": "yes", "wheelchair": "no"}}, {"type": "node", "id": 1677212113, "lat": 48.8486947, "lon": 2.2966096, "tags": {"amenity": "restaurant", "contact:city": "Paris", "contact:housenumber": "26", "contact:phone": "+33 1 45 75 20 00", "contact:postcode": "75015", "contact:street": "Rue Tiphaine", "contact:website": "https://www.jium.art/", "cuisine": "korean", "level": "0", "name": "Jium", "opening_hours": "Mo 19:00-22:00; Tu-Sa 12:00-15:00,19:00-22:00", "outdoor_seating": "no", "smoking": "no", "stars": "L'assiette Michelin", "toilets": "yes", "toilets:access": "customers", "toilets:disposal": "flush", "toilets:position": "seated", "toilets:wheelchair": "no", "wheelchair": "no"}}, {"type": "node", "id": 1682819498, "lat": 48.8673862, "lon": 2.2911822, "tags": {"amenity": "restaurant", "contact:city": "Paris 16eme Arrondissement", "contact:housenumber": "6", "contact:phone": "+33 1 47 23 72 72", "contact:postcode": "75116", "contact:street": "Rue Galil\u00e9e", "contact:website": "https://www.salons-aeroclub.com", "cuisine": "french", "name": "Restaurant L'a\u00e9roclub De France", "source": "https://www.salons-aeroclub.com", "sport": "multi", "website": "https://www.prestige-sodexo.com/collection/les-salons-de-laero-club-de-france?utm_source=google_my_business&utm_medium=referencement_local&utm_campaign=fiche_aero_club_france"}}, {"type": "node", "id": 1695622635, "lat": 48.8597088, "lon": 2.3086607, "tags": {"addr:city": "Paris", "addr:postcode": "75007", "addr:street": "Rue Saint-Dominique", "amenity": "restaurant", "contact:housenumber": "79", "contact:postcode": "75007", "contact:street": "Rue Saint-Dominique", "cuisine": "french", "description": "Brasserie", "name": "Thoumieux", "source": "www.thoumieux.fr", "website": "www.thoumieux.fr"}}, {"type": "node", "id": 1746634556, "lat": 48.8510173, "lon": 2.2932405, "tags": {"addr:housenumber": "5", "addr:postcode": "75015", "addr:street": "Rue Humblot", "amenity": "restaurant", "cuisine": "chinese", "internet_access": "wlan", "name": "JIA YAN", "website": "https://www.tripadvisor.com/Restaurant_Review-g187147-d9468440-Reviews-JIA_YAN-Paris_Ile_de_France.html"}}, {"type": "node", "id": 1746655068, "lat": 48.8509119, "lon": 2.2937166, "tags": {"addr:housenumber": "8", "addr:postcode": "75015", "addr:street": "Rue Humblot", "amenity": "restaurant", "contact:website": "http://www.tajmahalparis.fr/", "cuisine": "indian", "diet:vegan": "yes", "diet:vegetarian": "yes", "name": "Taj Mahal", "opening_hours": "Mo-Su 11:30-14:30; 18:30-23:30", "phone": "+33 1 45 75 56 85", "takeaway": "yes"}}, {"type": "node", "id": 1746658386, "lat": 48.850869, "lon": 2.2932272, "tags": {"amenity": "restaurant", "name": "La Cigalle"}}, {"type": "node", "id": 1937157675, "lat": 48.8502006, "lon": 2.2918459, "tags": {"amenity": "restaurant", "contact:city": "Paris", "contact:housenumber": "8", "contact:postcode": "75015", "contact:street": "Rue de Lourmel", "cuisine": "lebanese", "name": "Feyrouz", "source": "survey"}}, {"type": "node", "id": 1937157677, "lat": 48.8505634, "lon": 2.2924206, "tags": {"amenity": "cafe", "bar": "yes", "brewery": "Kronenbourg", "contact:housenumber": "62", "contact:street": "Boulevard de Grenelle", "name": "Le Dupleix", "name:fr": "Le Dupleix", "opening_hours": "06:30-00-00", "outdoor_seating": "yes", "wheelchair": "yes"}}, {"type": "node", "id": 1937168433, "lat": 48.8501155, "lon": 2.2920291, "tags": {"amenity": "restaurant", "contact:city": "Paris", "contact:housenumber": "7", "contact:phone": "+33 1 45 77 66 47", "contact:postcode": "75015", "contact:street": "Rue de Lourmel", "contact:website": "https://www.pastadelnonno.fr", "cuisine": "italian", "name": "Pasta del Nonno", "source": "survey"}}, {"type": "node", "id": 1937255967, "lat": 48.8517926, "lon": 2.2918748, "tags": {"amenity": "cafe", "name": "La Gitane", "name:fr": "La Gitane", "opening_hours": "Mo-Fr 06:30-22:00; Sa 07:30-22:00; Su 07:30-20:00", "wheelchair": "no"}}, {"type": "node", "id": 1987166777, "lat": 48.8656555, "lon": 2.2894172, "tags": {"amenity": "restaurant", "contact:city": "Paris", "contact:housenumber": "69", "contact:phone": "+33 1 47 27 92 30", "contact:postcode": "75116", "contact:street": "Avenue Kl\u00e9ber", "cuisine": "chinese", "name": "Chez Zhong", "wheelchair": "no"}}, {"type": "node", "id": 1987166830, "lat": 48.8674107, "lon": 2.2901476, "tags": {"amenity": "cafe", "name": "Le Rallye \u00c9toile", "name:fr": "Le Rallye Etoile"}}, {"type": "node", "id": 1987166833, "lat": 48.8655729, "lon": 2.2888144, "tags": {"amenity": "fast_food", "name": "We Are Juice", "toilets:wheelchair": "no", "wheelchair": "yes"}}, {"type": "node", "id": 1987166834, "lat": 48.8652925, "lon": 2.2891532, "tags": {"amenity": "restaurant", "cuisine": "chinese", "name": "Mandarin de Ming", "wheelchair": "no"}}, {"type": "node", "id": 1987166835, "lat": 48.8654023, "lon": 2.2892331, "tags": {"amenity": "fast_food", "name": "Manj\u00e9 & Co", "wheelchair": "no"}}, {"type": "node", "id": 1987166842, "lat": 48.8659106, "lon": 2.2896026, "tags": {"amenity": "fast_food", "name": "PeGast", "toilets:wheelchair": "no", "wheelchair": "yes"}}, {"type": "node", "id": 1987166845, "lat": 48.8666727, "lon": 2.2896122, "tags": {"amenity": "fast_food", "brand": "Pomme de Pain", "brand:wikidata": "Q3276265", "cuisine": "sandwich", "name": "Pomme de Pain", "operator": "Pomme de Pain", "takeaway": "yes", "website": "http://pommedepain.fr/accueil/nos-adresses/paris-2/", "wheelchair": "limited"}}, {"type": "node", "id": 1987166858, "lat": 48.8657015, "lon": 2.2894505, "tags": {"amenity": "fast_food", "contact:phone": "3678", "cuisine": "pizza", "delivery": "yes", "name": "Speed Rabbit Pizza", "wheelchair": "limited"}}, {"type": "node", "id": 1987166989, "lat": 48.8651108, "lon": 2.2892829, "tags": {"amenity": "cafe"}}, {"type": "node", "id": 1987167004, "lat": 48.8654719, "lon": 2.2892837, "tags": {"amenity": "restaurant", "cuisine": "italian", "wheelchair": "no"}}, {"type": "node", "id": 2126310150, "lat": 48.8495349, "lon": 2.2915103, "tags": {"amenity": "restaurant", "contact:city": "Paris", "contact:housenumber": "17", "contact:phone": "+33 1 45 78 80 01", "contact:postcode": "75015", "contact:street": "Rue de Lourmel", "cuisine": "japanese", "name": "Okayama", "source": "survey"}}, {"type": "node", "id": 2126313751, "lat": 48.8494723, "lon": 2.2914581, "tags": {"amenity": "restaurant", "contact:city": "Paris", "contact:housenumber": "17 bis", "contact:phone": "+33 1 40 59 82 38", "contact:postcode": "75015", "contact:street": "Rue de Lourmel", "cuisine": "italian", "name": "Chez Thomas"}}, {"type": "node", "id": 2290944626, "lat": 48.8500212, "lon": 2.2919369, "tags": {"amenity": "fast_food", "contact:city": "Paris", "contact:housenumber": "9", "contact:phone": "+33 1 45 77 03 39", "contact:postcode": "75015", "contact:street": "Rue de Lourmel", "craft": "caterer", "cuisine": "chinese", "name": "JU BIN", "opening_hours": "Mo-Su 10:30-23:00", "source": "survey"}}, {"type": "node", "id": 2361683137, "lat": 48.8501547, "lon": 2.2998928, "tags": {"addr:city": "Paris", "addr:housenumber": "53", "addr:postcode": "75015", "addr:street": "Avenue de la Motte-Picquet", "amenity": "cafe", "indoor_seating": "yes", "name": "Le Siempre", "name:fr": "Le Siempre", "outdoor_seating": "yes", "wheelchair": "yes"}}, {"type": "node", "id": 2363182975, "lat": 48.8563545, "lon": 2.3025991, "tags": {"amenity": "restaurant", "name": "Gusto Italia", "wheelchair": "limited"}}, {"type": "node", "id": 2363182980, "lat": 48.8562747, "lon": 2.302839, "tags": {"amenity": "restaurant", "contact:city": "Paris", "contact:housenumber": "199", "contact:postcode": "75007", "contact:street": "Rue de Grenelle", "name": "Gusto Italia", "wheelchair": "no"}}, {"type": "node", "id": 2450486148, "lat": 48.8566728, "lon": 2.3031742, "tags": {"amenity": "restaurant", "cuisine": "japanese", "name": "Tott Ori", "wheelchair": "limited"}}, {"type": "node", "id": 2498389815, "lat": 48.8509886, "lon": 2.3003532, "tags": {"amenity": "restaurant", "cuisine": "regional", "indoor_seating": "yes", "name": "Le Piquet", "outdoor_seating": "yes", "wheelchair": "yes"}}, {"type": "node", "id": 2530845107, "lat": 48.8535544, "lon": 2.2900587, "tags": {"amenity": "restaurant", "cuisine": "japanese", "name": "Fukushima"}}, {"type": "node", "id": 2530845117, "lat": 48.8533015, "lon": 2.2903128, "tags": {"amenity": "restaurant", "cuisine": "lebanese", "name": "Samaya"}}, {"type": "node", "id": 2530845120, "lat": 48.8542704, "lon": 2.2893594, "tags": {"amenity": "fast_food", "brand": "Subway", "brand:wikidata": "Q244457", "brand:wikipedia": "en:Subway (restaurant)", "cuisine": "sandwich", "name": "Subway", "operator": "Subway", "takeaway": "yes", "toilets:wheelchair": "no", "wheelchair": "yes"}}, {"type": "node", "id": 2543366177, "lat": 48.8533652, "lon": 2.2880737, "tags": {"amenity": "restaurant", "cuisine": "french", "name": "Le Bistrot", "opening_hours": "Mo-Su 12:00-22:00", "phone": "+33 1 45 75 00 58", "source": "survey 2019"}}, {"type": "node", "id": 2543953632, "lat": 48.8534799, "lon": 2.2951266, "tags": {"addr:city": "Paris", "addr:country": "FR", "addr:housenumber": "56", "addr:postcode": "75015", "addr:street": "Rue de la F\u00e9d\u00e9ration", "amenity": "restaurant", "name": "Le Casse Noix", "name:fr": "Le Casse Noix", "source": "cadastre-dgi-fr source : Direction G\u00e9n\u00e9rale des Imp\u00f4ts - Cadastre. Mise \u00e0 jour : 2013"}}, {"type": "node", "id": 2544195427, "lat": 48.8507385, "lon": 2.3006549, "tags": {"addr:city": "Paris", "addr:country": "FR", "addr:housenumber": "45", "addr:postcode": "75015", "addr:street": "Avenue de la Motte-Picquet", "amenity": "restaurant", "source": "cadastre-dgi-fr source : Direction G\u00e9n\u00e9rale des Imp\u00f4ts - Cadastre. Mise \u00e0 jour : 2013", "wheelchair": "yes"}}, {"type": "node", "id": 2544195428, "lat": 48.8536887, "lon": 2.2966637, "tags": {"amenity": "restaurant", "contact:city": "Paris", "contact:housenumber": "46", "contact:postcode": "75015", "contact:street": "Avenue de Suffren", "name": "Al Bacto Italia", "name:en": "Tasca", "source": "cadastre-dgi-fr source : Direction G\u00e9n\u00e9rale des Imp\u00f4ts - Cadastre. Mise \u00e0 jour : 2013", "wheelchair": "no"}}, {"type": "node", "id": 2544195429, "lat": 48.8506165, "lon": 2.3004771, "tags": {"addr:city": "Paris", "addr:country": "FR", "addr:housenumber": "47", "addr:postcode": "75015", "addr:street": "Avenue de la Motte-Picquet", "amenity": "restaurant", "cuisine": "french", "indoor_seating": "yes", "name": "La Cabane 47", "outdoor_seating": "yes", "wheelchair": "yes"}}, {"type": "node", "id": 2544195448, "lat": 48.8496053, "lon": 2.2989883, "tags": {"addr:city": "Paris", "addr:country": "FR", "addr:housenumber": "59", "addr:postcode": "75015", "addr:street": "Avenue de la Motte-Picquet", "amenity": "restaurant", "indoor_seating": "yes", "name": "La Gauloise", "outdoor_seating": "yes", "source": "cadastre-dgi-fr source : Direction G\u00e9n\u00e9rale des Imp\u00f4ts - Cadastre. Mise \u00e0 jour : 2013", "wheelchair": "limited"}}, {"type": "node", "id": 2545226420, "lat": 48.8519412, "lon": 2.288952, "tags": {"amenity": "restaurant", "contact:facebook": "www.facebook.com/labreuvoir75015", "cuisine": "brasserie", "diet:vegan": "yes", "diet:vegetarian": "yes", "name": "L'Abreuvoir", "opening_hours": "Mo-Fr 00:00-01:00,08:00-24:00; Sa,Su 00:00-01:00,09:00-24:00", "outdoor_seating": "yes", "phone": "+33 1 45 77 14 59", "toilets:wheelchair": "yes", "wheelchair": "yes"}}, {"type": "node", "id": 2545226433, "lat": 48.8531605, "lon": 2.2878209, "tags": {"addr:city": "Paris", "amenity": "restaurant", "cuisine": "japanese", "fax": "+33 1 40 58 12 12", "name": "Le Concert de Cuisine", "opening_hours": "Th-Fr 12:00-14:00,19:30-22:00; Mo 19:30-22:00; Sa 19:30-22:00", "phone": "+33 1 40 58 10 15", "website": "http://www.leconcertdecuisine.com/"}}, {"type": "node", "id": 2556489497, "lat": 48.8503692, "lon": 2.2930824, "tags": {"amenity": "pub", "brewery": "1664;chouffe;Delirium Tremens", "name": "Au Dernier M\u00e9tro", "source": "cadastre-dgi-fr source : Direction G\u00e9n\u00e9rale des Imp\u00f4ts - Cadastre. Mise \u00e0 jour : 2013"}}, {"type": "node", "id": 2556489563, "lat": 48.850159, "lon": 2.2937116, "tags": {"amenity": "restaurant", "cuisine": "french", "name": "Les Prolongations", "phone": "+33145756205", "source": "cadastre-dgi-fr source : Direction G\u00e9n\u00e9rale des Imp\u00f4ts - Cadastre. Mise \u00e0 jour : 2013"}}, {"type": "node", "id": 2556489615, "lat": 48.850119, "lon": 2.2938779, "tags": {"amenity": "restaurant", "cuisine": "asian", "name": "Traiteur Ji Li", "phone": "+33145788219", "source": "cadastre-dgi-fr source : Direction G\u00e9n\u00e9rale des Imp\u00f4ts - Cadastre ; mise \u00e0 jour : 2009"}}, {"type": "node", "id": 2556945898, "lat": 48.8527451, "lon": 2.2909129, "tags": {"amenity": "restaurant", "cuisine": "french", "name": "Comptoir Principal"}}, {"type": "node", "id": 2558804679, "lat": 48.8529501, "lon": 2.2867795, "tags": {"addr:housenumber": "27", "source": "cadastre-dgi-fr source : Direction G\u00e9n\u00e9rale des Imp\u00f4ts - Cadastre. Mise \u00e0 jour : 2013"}}, {"type": "node", "id": 2562921722, "lat": 48.850104, "lon": 2.2917529, "tags": {"amenity": "restaurant", "contact:city": "Paris", "contact:housenumber": "10", "contact:postcode": "75015", "contact:street": "Rue de Lourmel", "cuisine": "fish", "name": "Feyrouz C\u00f4t\u00e9 Mer"}}, {"type": "node", "id": 2626551371, "lat": 48.8597393, "lon": 2.3087639, "tags": {"amenity": "pub", "brewery": "guinness;affligem;Wel Scotch", "contact:housenumber": "77", "contact:street": "Rue Saint-Dominique", "internet_access": "wlan", "name": "O'Brien's", "opening_hours": "Mo-Su 17:00-2:00", "phone": "+33145517587", "source": "cadastre-dgi-fr source : Direction G\u00e9n\u00e9rale des Imp\u00f4ts - Cadastre. Mise \u00e0 jour : 2010", "website": "http://www.obriens-pub.com/"}}, {"type": "node", "id": 2626551375, "lat": 48.8598677, "lon": 2.3086797, "tags": {"amenity": "restaurant", "cuisine": "japanese", "name": "Toyotaka", "phone": "+33145560763"}}, {"type": "node", "id": 2668407315, "lat": 48.8494586, "lon": 2.2981124, "tags": {"addr:city": "Paris", "addr:postcode": "75015", "addr:street": "Avenue de la Motte-Picquet", "amenity": "cafe", "brand": "Starbucks", "brand:wikidata": "Q37158", "brand:wikipedia": "en:Starbucks", "cuisine": "coffee_shop", "indoor_seating": "yes", "name": "Starbucks", "name:fr": "Starbucks", "official_name": "Starbucks Coffee", "operator": "Starbucks", "outdoor_seating": "yes", "takeaway": "yes", "toilets:wheelchair": "yes", "website": "https://www.starbucks.fr/", "wheelchair": "yes"}}, {"type": "node", "id": 2694170131, "lat": 48.8555796, "lon": 2.3008017, "tags": {"amenity": "restaurant", "email": "contact@labonbonnieredemarie.fr", "name": "La Bonbonni\u00e8re de Marie", "phone": "+33 1 45 50 21 39", "website": "http://www.labonbonnieredemarie.fr/"}}, {"type": "node", "id": 2745637218, "lat": 48.8558979, "lon": 2.3067417, "tags": {"amenity": "restaurant", "name": "Aux PTT"}}, {"type": "node", "id": 2745637256, "lat": 48.8566648, "lon": 2.3063442, "tags": {"amenity": "cafe", "name": "Caf\u00e9 du March\u00e9"}}, {"type": "node", "id": 2745637273, "lat": 48.8569816, "lon": 2.3061799, "tags": {"amenity": "bar", "name": "L'\u00c9clair"}}, {"type": "node", "id": 2855433293, "lat": 48.8618088, "lon": 2.2825036, "tags": {"amenity": "restaurant", "contact:city": "Paris", "contact:housenumber": "32", "contact:phone": "+33 1 47 27 88 45", "contact:postcode": "75016", "contact:street": "Rue Scheffer", "cuisine": "japanese", "name": "Dream Sushi", "opening_hours": "Mo- Sa 11:45-14:30,18:45-22:30"}}, {"type": "node", "id": 2855453686, "lat": 48.8613662, "lon": 2.2830289, "tags": {"amenity": "restaurant", "contact:city": "Paris", "contact:housenumber": "22", "contact:phone": "+33 1 47 27 81 11", "contact:postcode": "75016", "contact:street": "Rue Scheffer", "cuisine": "french", "name": "Le Scheffer", "opening_hours": "Mo-Sa 12:00-14:30,19:30-22:30"}}, {"type": "node", "id": 2855686754, "lat": 48.861306, "lon": 2.2830779, "tags": {"amenity": "restaurant", "contact:city": "Paris", "contact:housenumber": "20", "contact:phone": "+33 1 45 05 58 35", "contact:postcode": "75016", "contact:street": "Rue Scheffer", "cuisine": "vietnamese", "name": "Sourire du Vietnam", "opening_hours": "Mo-Su 12:00-14:30,19:30-23:00"}}, {"type": "node", "id": 2855818856, "lat": 48.8652864, "lon": 2.2854968, "tags": {"amenity": "restaurant", "contact:city": "Paris", "contact:housenumber": "70", "contact:phone": "+33 1 44 07 03 11", "contact:postcode": "75016", "contact:street": "Rue de Longchamp", "contact:website": "https://www.yushi.fr/", "cuisine": "japanese", "name": "Yushi 16", "opening_hours": "Tu-Su 12:00-14:30,19:00-22:00"}}, {"type": "node", "id": 2873093233, "lat": 48.8659239, "lon": 2.2858358, "tags": {"amenity": "restaurant", "contact:city": "Paris", "contact:housenumber": "116", "contact:phone": "+33 1 47 04 65 50", "contact:postcode": "75116", "contact:street": "Rue Lauriston", "cuisine": "pizza", "name": "Pizza Mario"}}, {"type": "node", "id": 2873127285, "lat": 48.8657556, "lon": 2.2858886, "tags": {"amenity": "restaurant", "contact:city": "Paris", "contact:housenumber": "123", "contact:postcode": "75116", "contact:street": "Rue Lauriston", "cuisine": "french", "name": "Bistrot Paul Ch\u00eane"}}, {"type": "node", "id": 2902918483, "lat": 48.8519361, "lon": 2.2987977, "tags": {"amenity": "restaurant", "cuisine": "vietnamese"}}, {"type": "node", "id": 2915892587, "lat": 48.8656456, "lon": 2.3001103, "tags": {"amenity": "bar", "name": "Le Baron", "wikidata": "Q3220305"}}, {"type": "node", "id": 2917276588, "lat": 48.8546868, "lon": 2.2950925, "tags": {"amenity": "restaurant", "name": "Le Petit Suffren", "toilets:wheelchair": "no", "wheelchair": "limited"}}, {"type": "node", "id": 2951604594, "lat": 48.8589454, "lon": 2.2846779, "tags": {"amenity": "cafe", "name": "Franklin' Cafe", "name:fr": "Franklin' Cafe", "toilets:wheelchair": "no", "wheelchair": "yes"}}, {"type": "node", "id": 2954931823, "lat": 48.8592799, "lon": 2.2849225, "tags": {"amenity": "restaurant", "cuisine": "japanese", "name": "Yi Sushi", "wheelchair": "no"}}, {"type": "node", "id": 3027624990, "lat": 48.8544458, "lon": 2.2891916, "tags": {"amenity": "cafe", "contact:housenumber": "1", "contact:phone": "+33 9 80 97 36 42", "contact:postcode": "75015", "contact:street": "Boulevard de Grenelle", "cuisine": "coffee_shop", "name": "Le Bistrot de la Tour", "name:fr": "Le Bistrot de la Tour", "ref:FR:SIRET": "478 151 459 00011", "wheelchair": "no"}}, {"type": "node", "id": 3032830669, "lat": 48.8527246, "lon": 2.3060632, "tags": {"amenity": "restaurant", "cuisine": "french", "name": "Rotonde Gabriel"}}, {"type": "node", "id": 3066550124, "lat": 48.856029, "lon": 2.2801363, "tags": {"amenity": "restaurant", "contact:city": "Paris", "contact:email": "izabykura@gmail.com", "contact:housenumber": "9", "contact:phone": "+33 1 40 72 82 86", "contact:postcode": "75016", "contact:street": "Rue de l'Annonciation", "contact:website": "https://www.izabykura.com/", "cuisine": "japanese", "description:en": "Japanese Tapas, Sake & Ramen", "name": "Iza by Kura", "opening_hours": "Tu-Sa 11:30-14:30,19:00-23:00", "operator": "Edostar"}}, {"type": "node", "id": 3066550126, "lat": 48.8588998, "lon": 2.2853182, "tags": {"amenity": "restaurant", "cuisine": "korean", "description": "Pizza & Pasta", "name": "Marcello", "name:ko": "\uc6b0\uc815", "wheelchair": "yes"}}, {"type": "node", "id": 3134285382, "lat": 48.8582474, "lon": 2.2944389, "tags": {"amenity": "bar", "fixme": "position estimated", "level": "3", "min_height": "276.13", "note": "Bar \u00e0 champagne"}}, {"type": "node", "id": 3134287564, "lat": 48.8582817, "lon": 2.2942113}, {"type": "node", "id": 3134287601, "lat": 48.8583716, "lon": 2.2940699}, {"type": "node", "id": 3134287612, "lat": 48.8584511, "lon": 2.2944601}, {"type": "node", "id": 3134287617, "lat": 48.858541, "lon": 2.2943187}, {"type": "node", "id": 3135278479, "lat": 48.8581328, "lon": 2.2944968, "tags": {"addr:housename": "Tour Eiffel", "addr:postcode": "75007", "addr:street": "Avenue Gustave Eiffel", "amenity": "restaurant", "cuisine": "french", "indoor_seating": "no", "level": "2", "name": "Le Jules Verne", "outdoor_seating": "yes", "source": "www.lejulesverne-paris.com", "stars": "1", "website": "https://www.lejulesverne-paris.com", "wheelchair": "yes", "wikidata": "Q3223818"}}, {"type": "node", "id": 3296495371, "lat": 48.8598965, "lon": 2.3075931, "tags": {"amenity": "restaurant", "cuisine": "greek", "name": "Apollon"}}, {"type": "node", "id": 3396587249, "lat": 48.8608625, "lon": 2.2916712, "tags": {"amenity": "fast_food", "name": "Cr\u00eapes"}}, {"type": "node", "id": 3396587306, "lat": 48.8637301, "lon": 2.2855982, "tags": {"amenity": "restaurant", "cuisine": "deli", "delivery": "yes", "name": "Schwartz's Deli", "phone": "+33 1 47 04 73 61", "takeaway": "yes", "website": "http://schwartzsdeli.fr"}}, {"type": "node", "id": 3435006721, "lat": 48.85426, "lon": 2.3071457, "tags": {"amenity": "restaurant", "contact:phone": "+33 177183916", "contact:website": "http://www.la-verriere.fr", "diet:vegan": "no", "diet:vegetarian": "only", "name": "La Verri\u00e8re", "opening_hours": "Mo-Sa 12:30-21:30; Su 11:00-16:00", "organic": "yes", "source": "cadastre-dgi-fr source : Direction G\u00e9n\u00e9rale des Imp\u00f4ts - Cadastre. Mise \u00e0 jour : 2015"}}, {"type": "node", "id": 3522038519, "lat": 48.8491716, "lon": 2.2984279, "tags": {"amenity": "cafe", "bar": "yes", "name": "Le Pierrot", "name:fr": "Le Pierrot", "opening_hours": "Mo-Su 07:30-02:00", "outdoor_seating": "yes", "source": "local Knowledge", "toilets:wheelchair": "no", "wheelchair": "yes"}}, {"type": "node", "id": 3525252587, "lat": 48.8498088, "lon": 2.2948223, "tags": {"amenity": "cafe", "contact:housenumber": "92", "contact:street": "Boulevard de Grenelle", "cuisine": "french", "name": "Au Moka", "name:fr": "Au Moka", "toilets:wheelchair": "yes", "wheelchair": "yes"}}, {"type": "node", "id": 3551122472, "lat": 48.8550985, "lon": 2.2950194, "tags": {"amenity": "restaurant", "cuisine": "asian", "indoor_seating": "yes", "name": "Au Ciel de Shanghai", "outdoor_seating": "no", "smoking": "no", "source": "cadastre-dgi-fr source : Direction G\u00e9n\u00e9rale des Imp\u00f4ts - Cadastre. Mise \u00e0 jour : 2015", "toilets:wheelchair": "no", "wheelchair": "limited"}}, {"type": "node", "id": 3551122475, "lat": 48.8544715, "lon": 2.2949225, "tags": {"amenity": "restaurant", "cuisine": "french", "name": "Restaurant De La Tour", "source": "cadastre-dgi-fr source : Direction G\u00e9n\u00e9rale des Imp\u00f4ts - Cadastre. Mise \u00e0 jour : 2015"}}, {"type": "node", "id": 3551122476, "lat": 48.8551112, "lon": 2.2944545, "tags": {"amenity": "restaurant", "contact:city": "Paris", "contact:housenumber": "28", "contact:postcode": "75015", "contact:street": "Avenue de Suffren", "cuisine": "french", "name": "Restaurant Le Beaujolais", "source": "cadastre-dgi-fr source : Direction G\u00e9n\u00e9rale des Imp\u00f4ts - Cadastre. Mise \u00e0 jour : 2015", "toilets:wheelchair": "no", "wheelchair": "limited"}}, {"type": "node", "id": 3615969493, "lat": 48.8582703, "lon": 2.3023952, "tags": {"amenity": "restaurant", "contact:city": "Paris", "contact:housenumber": "131", "contact:postcode": "75007", "contact:street": "Rue Saint-Dominique", "name": "Bistro Saint-Dominique", "toilets:wheelchair": "no", "wheelchair": "limited"}}, {"type": "node", "id": 3622384595, "lat": 48.856467, "lon": 2.3064503, "tags": {"amenity": "restaurant", "contact:city": "Paris", "contact:housenumber": "40", "contact:postcode": "75007", "contact:street": "Rue Cler", "name": "Caf\u00e9 Central", "wheelchair": "yes"}}, {"type": "node", "id": 3726422825, "lat": 48.8514176, "lon": 2.2922548, "tags": {"amenity": "restaurant", "bar": "yes", "cuisine": "french", "name": "La Cantine du Troquet", "opening_hours": "Mo-Fr 08:00-23:00;Sa-Su 09:00-23:00", "outdoor_seating": "yes"}}, {"type": "node", "id": 3726438928, "lat": 48.8496523, "lon": 2.2952955, "tags": {"amenity": "restaurant", "name": "Chez Luigi"}}, {"type": "node", "id": 3726439828, "lat": 48.8494954, "lon": 2.2973213, "tags": {"amenity": "fast_food", "name": "Grenelle Sandwich", "wheelchair": "limited"}}, {"type": "node", "id": 3726439829, "lat": 48.8493596, "lon": 2.2977474, "tags": {"amenity": "fast_food", "cuisine": "asian", "name": "Aux D\u00e9lices de Grenelle", "wheelchair": "no"}}, {"type": "node", "id": 3726440026, "lat": 48.8496214, "lon": 2.2953917, "tags": {"amenity": "restaurant", "cuisine": "italian", "name": "Les Artistes"}}, {"type": "node", "id": 3726440028, "lat": 48.8495096, "lon": 2.2972699, "tags": {"amenity": "fast_food", "name": "Grenelle Food", "wheelchair": "no"}}, {"type": "node", "id": 3726440029, "lat": 48.8493913, "lon": 2.2976509, "tags": {"amenity": "restaurant", "cuisine": "pizza", "name": "Pizza Grenella", "wheelchair": "no"}}, {"type": "node", "id": 3811331579, "lat": 48.8655564, "lon": 2.2952522, "tags": {"amenity": "restaurant", "name": "Caf\u00e9 L\u00e9on"}}, {"type": "node", "id": 3811331580, "lat": 48.8656506, "lon": 2.2954099, "tags": {"amenity": "restaurant", "name": "Waknine"}}, {"type": "node", "id": 3811331581, "lat": 48.8657276, "lon": 2.2955289, "tags": {"amenity": "restaurant", "name": "Caf\u00e9 Valentin"}}, {"type": "node", "id": 3811331583, "lat": 48.8668404, "lon": 2.2971101, "tags": {"amenity": "restaurant", "name": "Ancora tu"}}, {"type": "node", "id": 3811331868, "lat": 48.8672534, "lon": 2.2975331, "tags": {"amenity": "fast_food", "cuisine": "asian", "name": "Asie House"}}, {"type": "node", "id": 3811355262, "lat": 48.8673236, "lon": 2.297624, "tags": {"amenity": "restaurant", "cuisine": "french", "delivery": "yes", "name": "Substance", "phone": "+33 1 47 20 08 90", "stars": "1", "takeaway": "yes", "website": "https://www.substance.paris"}}, {"type": "node", "id": 3897093925, "lat": 48.8489807, "lon": 2.2943766, "tags": {"amenity": "pub", "name": "Chez Pan", "source": "survey"}}, {"type": "node", "id": 3980333607, "lat": 48.857022, "lon": 2.2864802, "tags": {"amenity": "cafe", "name": "Kennedy Eiffel", "name:fr": "Kennedy Eiffel", "outdoor_seating": "yes", "shop": "newsagent"}}, {"type": "node", "id": 3980793504, "lat": 48.8656626, "lon": 2.3032208, "tags": {"amenity": "restaurant", "name": "Maison blanche Mako"}}, {"type": "node", "id": 4108410077, "lat": 48.8582007, "lon": 2.301885, "tags": {"amenity": "restaurant", "contact:city": "Paris", "contact:housenumber": "135", "contact:postcode": "75007", "contact:street": "Rue Saint-Dominique", "contact:website": "http://www.maisonconstant.com/violon-ingres/", "name": "Le Violon d'Ingres", "stars": "1", "takeaway": "no", "wheelchair": "limited"}}, {"type": "node", "id": 4119007740, "lat": 48.864555, "lon": 2.2892192, "tags": {"amenity": "restaurant", "contact:city": "Paris", "contact:housenumber": "11", "contact:phone": "+33 1 45 53 02 77", "contact:postcode": "75116", "contact:street": "Rue de Magdebourg", "contact:website": "http://www.tongmingthai.com", "cuisine": "thai", "delivery": "yes", "name": "Tong-Ming", "opening_hours": "12:00-14:30; 19:00-23:30", "smoking": "outside", "takeaway": "yes"}}, {"type": "node", "id": 4146737998, "lat": 48.8586182, "lon": 2.3027385, "tags": {"amenity": "restaurant", "name": "Gloria", "wheelchair": "limited"}}, {"type": "node", "id": 4209684694, "lat": 48.8677274, "lon": 2.2918221, "tags": {"amenity": "restaurant", "cuisine": "french", "name": "Comptoir Kl\u00e9ber", "smoking": "outside"}}, {"type": "node", "id": 4236992791, "lat": 48.859568, "lon": 2.3063772, "tags": {"amenity": "restaurant", "name": "Le Malabar"}}, {"type": "node", "id": 4279941115, "lat": 48.856904, "lon": 2.3015659, "tags": {"amenity": "cafe", "contact:city": "Paris", "contact:housenumber": "67", "contact:phone": "+33 1 45 50 37 39", "contact:postcode": "75007", "contact:street": "Avenue de la Bourdonnais", "contact:website": "https://www.terresdecafe.com/", "cuisine": "coffee_shop", "internet_access": "wlan", "name": "Terres de Caf\u00e9", "name:fr": "Terres de Caf\u00e9", "opening_hours": "Mo-Fr 09:30-19:00; Sa,Su 10:00-19:00"}}, {"type": "node", "id": 4331160117, "lat": 48.8641936, "lon": 2.2969003, "tags": {"addr:housenumber": "20", "addr:street": "Avenue de New York", "amenity": "restaurant", "description": "Fancy restaurant", "diet:vegan": "yes", "name": "Monsieur Bleu", "website": "https://monsieurbleu.com/"}}, {"type": "node", "id": 4337482313, "lat": 48.8509092, "lon": 2.3002401, "tags": {"amenity": "restaurant", "indoor_seating": "yes", "name": "Picchetto", "outdoor_seating": "yes", "wheelchair": "yes"}}, {"type": "node", "id": 4424838693, "lat": 48.8495221, "lon": 2.2989026, "tags": {"addr:housenumber": "61", "addr:street": "Avenue de la Motte-Picquet", "amenity": "cafe", "check_date": "2023-04-22", "indoor_seating": "yes", "name": "Le Zinc", "name:fr": "Le Zinc", "outdoor_seating": "yes", "toilets:wheelchair": "no", "wheelchair": "limited"}}, {"type": "node", "id": 4424859189, "lat": 48.8496963, "lon": 2.2984934, "tags": {"addr:city": "Paris", "addr:housenumber": "64", "addr:postcode": "75015", "addr:street": "Avenue de la Motte-Picquet", "amenity": "cafe", "cuisine": "french;coffee_shop", "indoor_seating": "yes", "name": "Primerose", "name:fr": "Primerose", "outdoor_seating": "yes", "wheelchair": "no"}}, {"type": "node", "id": 4424859589, "lat": 48.8494467, "lon": 2.298792, "tags": {"addr:housenumber": "61bis", "addr:street": "Avenue de la Motte-Picquet", "amenity": "fast_food", "check_date": "2023-04-22", "name": "La Sandwicherie du XVe", "wheelchair": "limited"}}, {"type": "node", "id": 4457436589, "lat": 48.8491567, "lon": 2.2951953, "tags": {"amenity": "restaurant", "cuisine": "thai", "level": "0", "name": "Ayothaya", "opening_hours": "Mo-Sa 12:00-15:00, 18:00-23:00", "outdoor_seating": "no", "phone": "+33 9 81 91 75 15", "source": "survey", "wheelchair": "no"}}, {"type": "node", "id": 4460499943, "lat": 48.8605266, "lon": 2.280734, "tags": {"amenity": "restaurant", "cuisine": "chinese", "name": "Jonque d'Or", "opening_hours": "Sep-Jun: Mo-Sa 12:00-15:00,19:00-23:00, Sep-Jun: Su 19:00-23:00, Jul-Aug: Mo-Sa 12:00-15:00,19:00-23:00", "wheelchair": "no"}}, {"type": "node", "id": 4462604025, "lat": 48.856921, "lon": 2.3009577, "tags": {"amenity": "restaurant", "cuisine": "french", "cuisine:fr": "sud-ouest", "name": "Au Petit Sud Ouest", "name:fr": "Au Petit Sud Ouest", "name:zh": "\u91d1\u73c0\u8482\u5357\u57fa\u9152\u5e97", "opening_hours": "Tu-Sa 12:00-14:30,18:00-22:00", "phone": "+33 1 45 55 59 59", "website": "https://www.au-petit-sud-ouest.fr/"}}, {"type": "node", "id": 4465691889, "lat": 48.8585547, "lon": 2.2842331, "tags": {"addr:city": "Paris", "addr:housenumber": "2", "addr:postcode": "75016", "addr:street": "Rue de Passy", "amenity": "bar", "name": "Le Passy Bistro Resto", "name:fr": "Le Passy Bistro Resto", "phone": "+33 1 42 88 31 02", "website": "https://www.lepassy.fr/"}}, {"type": "node", "id": 4547593297, "lat": 48.8561324, "lon": 2.3041092, "tags": {"addr:city": "Paris", "addr:housenumber": "22", "addr:postcode": "75007", "addr:street": "Rue du Champ de Mars", "amenity": "restaurant", "cuisine": "italian", "name": "La Taverna"}}, {"type": "node", "id": 4555809263, "lat": 48.8580951, "lon": 2.301575, "tags": {"addr:city": "Paris", "addr:postcode": "75007", "addr:street": "Rue Saint-Dominique", "amenity": "cafe", "name": "Caf\u00e9 Constant", "name:fr": "Caf\u00e9 Constant", "wheelchair": "limited"}}, {"type": "node", "id": 4555809265, "lat": 48.8525885, "lon": 2.2910584, "tags": {"amenity": "bar", "name": "Le Bistrot Park"}}, {"type": "node", "id": 4575410500, "lat": 48.8574198, "lon": 2.3061919, "tags": {"amenity": "restaurant", "cuisine": "french", "name": "Le Petit Cler"}}, {"type": "node", "id": 4697577191, "lat": 48.8571775, "lon": 2.304707, "tags": {"addr:housenumber": "175", "addr:street": "Rue de Grenelle", "amenity": "restaurant", "cuisine": "italian", "name": "Il Giramondo", "name:en": "Il Giramondo", "name:fr": "Il Giramondo", "opening_hours": "Tu-Sa 09:00-22:30", "phone": "+33145511065"}}, {"type": "node", "id": 4762043842, "lat": 48.8588442, "lon": 2.2850527, "tags": {"amenity": "restaurant", "name": "Amourette", "wheelchair": "yes"}}, {"type": "node", "id": 4784619437, "lat": 48.859081, "lon": 2.3075873, "tags": {"amenity": "restaurant", "name": "Bistrot Chez France", "name:fr": "Bistrot Chez France"}}, {"type": "node", "id": 4796227321, "lat": 48.8661621, "lon": 2.287061, "tags": {"amenity": "restaurant", "name": "Ye's", "name:fr": "Ye's"}}, {"type": "node", "id": 4804433221, "lat": 48.8665305, "lon": 2.2992048, "tags": {"amenity": "restaurant", "contact:city": "Paris", "contact:housenumber": "21", "contact:postcode": "75008", "contact:street": "Avenue Marceau", "cuisine": "lebanese", "name": "Le Pavillon by Noura", "name:fr": "Le Pavillon by Noura"}}, {"type": "node", "id": 4849800425, "lat": 48.8650774, "lon": 2.2872892, "tags": {"amenity": "cafe", "name": "Le Petit Troca", "name:fr": "Le Petit Troca", "source": "survey 2018"}}, {"type": "node", "id": 4889944021, "lat": 48.8577289, "lon": 2.3064748, "tags": {"addr:housenumber": "159", "addr:street": "Rue de Grenelle", "amenity": "cafe", "cuisine": "french;american", "email": "contact@restaurantmarlon.fr", "name": "Marcelle", "name:fr": "Restaurant Marlon", "opening_hours": "Mo-Fr 08:30-18:00; Sa, Su 09:00-18:00", "website": "http://restaurantmarcelle.fr"}}, {"type": "node", "id": 4905285040, "lat": 48.8511902, "lon": 2.3005659, "tags": {"amenity": "cafe", "contact:city": "Paris", "contact:housenumber": "84", "contact:phone": "+33 1 45 66 97 86", "contact:postcode": "75015", "contact:street": "Avenue de Suffren", "cuisine": "seafood;french", "indoor_seating": "yes", "name": "Suffren", "name:fr": "Suffren", "opening_hours": "Mo-Su 07:00-23:45", "outdoor_seating": "yes", "smoking": "no", "takeaway": "yes", "wheelchair": "yes"}}, {"type": "node", "id": 4919534330, "lat": 48.8531193, "lon": 2.2877653, "tags": {"amenity": "restaurant", "contact:city": "Paris", "contact:housenumber": "14", "contact:postcode": "75015", "contact:street": "Rue N\u00e9laton", "cuisine": "japanese", "name": "Yumi Bowl", "opening_hours": "Mo-Fr 09:00-21:00; Sa 10:00-21:00", "outdoor_seating": "no", "takeaway": "yes"}}, {"type": "node", "id": 4936558528, "lat": 48.8574568, "lon": 2.3061748, "tags": {"amenity": "cafe", "name": "Le Petit Cler"}}, {"type": "node", "id": 4936561923, "lat": 48.849079, "lon": 2.2911383, "tags": {"amenity": "cafe", "contact:city": "Paris", "contact:email": "ocoffeeshop.contact@gmail.com", "contact:housenumber": "23", "contact:postcode": "75015", "contact:street": "Rue de Lourmel", "contact:website": "http://www.facebook.com/pg/O-Coffee-shop-899618906724142", "name": "O Coffee Shop", "name:fr": "O Coffee Shop"}}, {"type": "node", "id": 4944559721, "lat": 48.8499078, "lon": 2.2912783, "tags": {"amenity": "restaurant", "contact:housenumber": "13", "contact:phone": "+33 1 45 75 27 67", "contact:postcode": "75015", "contact:street": "Rue B\u00e9atrix Dussane", "contact:website": "http://levolantbasque.fr", "name": "Le Volant Basque", "opening_hours": "Tu-Sa 12:00-22:45; Mo 19:00-22:45"}}, {"type": "node", "id": 4944559921, "lat": 48.854553, "lon": 2.295332, "tags": {"amenity": "restaurant", "contact:city": "Paris", "contact:housenumber": "38 bis", "contact:phone": "+33 1 47 34 27 91", "contact:postcode": "75015", "contact:street": "Avenue de Suffren", "cuisine": "pasta;italian;pizza", "indoor_seating": "yes", "name": "Firmine", "name:en": "Firmine", "name:fr": "Firmine", "opening_hours": "Mo-Su 11:30-23:30", "outdoor_seating": "yes", "smoking": "outside", "wheelchair": "no"}}, {"type": "node", "id": 5029882726, "lat": 48.8597074, "lon": 2.2992208, "tags": {"addr:housenumber": "14", "addr:postcode": "75007", "addr:street": "Rue de Monttessuy", "amenity": "restaurant", "cuisine": "french", "name": "Au Bon Accueil", "phone": "+33 1 47 05 46 11", "website": "http://www.aubonaccueilparis.com/", "wheelchair": "no"}}, {"type": "node", "id": 5029882727, "lat": 48.8556914, "lon": 2.3080031, "tags": {"addr:housenumber": "19", "amenity": "restaurant", "cuisine": "french", "name": "Le Florimond", "opening_hours": "Mo-Fr 12:00-14:00, 19:00-22:15", "phone": "+33 1 45 55 40 38", "website": "http://www.leflorimond.com/"}}, {"type": "node", "id": 5029893921, "lat": 48.8559955, "lon": 2.3056826, "tags": {"addr:housenumber": "24", "addr:postcode": "75007", "addr:street": "Rue Bosquet", "amenity": "restaurant", "name": "Restaurant Mariette", "phone": "+33 1 45 51 78 82"}}, {"type": "node", "id": 5030449621, "lat": 48.8638104, "lon": 2.2934885, "tags": {"addr:housenumber": "10", "addr:postcode": "75016", "addr:street": "Avenue d'I\u00e9na", "amenity": "restaurant", "cuisine": "fine_dining", "name": "L'Abeille", "phone": "+33 1 53 67 19 90", "website": "http://www.shangri-la.com/paris/shangrila/dining/restaurants/labeille/"}}, {"type": "node", "id": 5030450924, "lat": 48.8657634, "lon": 2.2909156, "tags": {"amenity": "restaurant", "contact:city": "Paris", "contact:housenumber": "14", "contact:phone": "+33 1 45 05 11 41", "contact:postcode": "75016", "contact:street": "Rue du Bouquet de Longchamp", "contact:website": "https://restaurant-etude.fr/", "cuisine": "fine_dining", "name": "\u00c9tude"}}, {"type": "node", "id": 5030608126, "lat": 48.8584425, "lon": 2.3075505, "tags": {"addr:housenumber": "18", "addr:postcode": "75007", "addr:street": "Rue Am\u00e9lie", "amenity": "restaurant", "cuisine": "crepe", "name": "Le Cr\u00e9puscule", "phone": "+33 1 80 06 14 32"}}, {"type": "node", "id": 5075955021, "lat": 48.8539675, "lon": 2.2881944, "tags": {"addr:housenumber": "7", "addr:postcode": "75015", "addr:street": "Quai de Grenelle", "amenity": "restaurant", "name": "Pizza Fiorentina"}}, {"type": "node", "id": 5149490322, "lat": 48.8650744, "lon": 2.2874324, "tags": {"amenity": "restaurant", "cuisine": "burger", "name": "Baagaa", "opening_hours": "Mo-Su 12:00-22:30", "phone": "+33 1 85 09 13 30", "website": "http://www.baagaa-burger.com", "wheelchair": "no"}}, {"type": "node", "id": 5178213521, "lat": 48.8639328, "lon": 2.2875892, "tags": {"amenity": "restaurant", "cuisine": "italian_pizza", "name": "Mokus L'Ecureuil"}}, {"type": "node", "id": 5221114451, "lat": 48.8581761, "lon": 2.301809, "tags": {"amenity": "restaurant", "contact:city": "Paris", "contact:housenumber": "135", "contact:postcode": "75007", "contact:street": "Rue Saint-Dominique", "cuisine": "french", "name": "Les Cocottes"}}, {"type": "node", "id": 5245548022, "lat": 48.8597621, "lon": 2.3076874, "tags": {"amenity": "restaurant", "contact:city": "Paris", "contact:housenumber": "74", "contact:postcode": "75007", "contact:street": "Rue Saint-Dominique", "cuisine": "cake", "name": "Lemoine"}}, {"type": "node", "id": 5282498755, "lat": 48.8495124, "lon": 2.2911593, "tags": {"amenity": "restaurant", "capacity": "20", "contact:city": "Paris", "contact:housenumber": "22", "contact:phone": "+33 6 95 44 40 68", "contact:postcode": "75015", "contact:street": "Rue de Lourmel", "cuisine": "italian_pizza", "name": "Il Tronchetto", "takeaway": "yes"}}, {"type": "node", "id": 5412233621, "lat": 48.8659666, "lon": 2.3016928, "tags": {"amenity": "restaurant", "contact:city": "Paris", "contact:housenumber": "12", "contact:postcode": "75008", "contact:street": "Avenue George V", "cuisine": "italian", "name": "Cantina di Luca"}}, {"type": "node", "id": 5421912910, "lat": 48.8570742, "lon": 2.3034841, "tags": {"addr:city": "Paris", "addr:country": "FR", "addr:housenumber": "29", "addr:postcode": "75007", "addr:street": "Rue de l'Exposition", "amenity": "restaurant", "cuisine": "french", "email": "restaurantpertinence@gmail.com", "name": "Pertinence", "phone": "+33 1 45 55 20 96", "stars": "1", "website": "https://www.restaurantpertinence.com/"}}, {"type": "node", "id": 5430785258, "lat": 48.8542757, "lon": 2.3068258, "tags": {"amenity": "restaurant", "name": "Le Bistrot des Gascons"}}, {"type": "node", "id": 5430785260, "lat": 48.8542696, "lon": 2.3070381, "tags": {"amenity": "fast_food", "name": "Tour Food"}}, {"type": "node", "id": 5432286922, "lat": 48.8538851, "lon": 2.3071262, "tags": {"amenity": "cafe", "name": "La Comtesse", "name:fr": "La Comtesse"}}, {"type": "node", "id": 5442278425, "lat": 48.8552043, "lon": 2.3055268, "tags": {"addr:city": "Paris", "addr:housenumber": "81", "addr:postcode": "75007", "addr:street": "Rue Bosquet", "amenity": "restaurant", "name": "Vesper", "outdoor_seating": "sidewalk", "phone": "+33 1 45 33 81 25", "website": "https://vesperparis.com/"}}, {"type": "node", "id": 5442418125, "lat": 48.8633584, "lon": 2.2959364, "tags": {"addr:city": "Paris", "addr:housenumber": "26", "addr:postcode": "75116", "addr:street": "Avenue de New York", "amenity": "restaurant", "cuisine": "russian", "email": "lacantine@gmail.com", "name": "La Cantine Russe", "opening_hours": "Mo-Sa 12:00-15:00,19:00-24:00", "phone": "+33 9 70 95 02 90", "website": "http://www.lacantinerusse.com/fr/contact.html"}}, {"type": "node", "id": 5453439621, "lat": 48.8542452, "lon": 2.3074524, "tags": {"amenity": "cafe"}}, {"type": "node", "id": 5555805772, "lat": 48.8537126, "lon": 2.3073636, "tags": {"amenity": "restaurant", "description": "cantine contemporaine", "name": "Sumac", "wheelchair": "no"}}, {"type": "node", "id": 5630948723, "lat": 48.8645552, "lon": 2.2961934, "tags": {"amenity": "restaurant", "name": "Les Grands Verres"}}, {"type": "node", "id": 5667715665, "lat": 48.8656547, "lon": 2.2940839, "tags": {"amenity": "restaurant", "building": "commercial", "contact:city": "Paris 16eme Arrondissement", "contact:housenumber": "9", "contact:phone": "+33 1 40 69 27 00", "contact:postcode": "75116", "contact:street": "Bis Av. D'i\u00e9na", "name": "Restaurant Les Arts", "website": "https://www.salons-artsetmetiers.com/restaurant-les-arts-paris16.html"}}, {"type": "node", "id": 5681918722, "lat": 48.8651958, "lon": 2.2860445, "tags": {"amenity": "restaurant", "cuisine": "thai", "name": "Bangkok", "source": "survey 2018"}}, {"type": "node", "id": 5775935073, "lat": 48.8622322, "lon": 2.2875513, "tags": {"amenity": "restaurant", "contact:city": "Paris", "contact:housenumber": "17", "contact:postcode": "75116", "contact:street": "Place du Trocad\u00e9ro et du 11 Novembre 1918", "cuisine": "french", "name": "Caf\u00e9 de l'Homme", "note": "Bad service towards foreigners according to online reviews.", "opening_hours": "Mo-Su 12:00-02:00", "outdoor_seating": "yes", "smoking": "outside", "wheelchair": "yes"}}, {"type": "node", "id": 5876604057, "lat": 48.8569263, "lon": 2.3036923, "tags": {"amenity": "restaurant", "cuisine": "asian", "name": "Bambou d'Or", "takeaway": "only", "wheelchair": "limited"}}, {"type": "node", "id": 5928486958, "lat": 48.8493051, "lon": 2.2964256, "tags": {"amenity": "restaurant", "name": "Roi du Couscous", "wheelchair": "no"}}, {"type": "node", "id": 5989201994, "lat": 48.8603733, "lon": 2.2956703, "tags": {"amenity": "restaurant", "name": "Brasserie Tour Eiffel", "source": "survey 2018", "toilets:wheelchair": "no", "wheelchair": "limited"}}, {"type": "node", "id": 6039063907, "lat": 48.8592503, "lon": 2.3013114}, {"type": "node", "id": 6039063908, "lat": 48.8592356, "lon": 2.3012562}, {"type": "node", "id": 6039063909, "lat": 48.8591467, "lon": 2.3013162}, {"type": "node", "id": 6039063910, "lat": 48.8591629, "lon": 2.3013694}, {"type": "node", "id": 6060452922, "lat": 48.8645836, "lon": 2.2964749, "tags": {"amenity": "bar", "contact:city": "Paris", "contact:housenumber": "13", "contact:postcode": "75116", "contact:street": "Avenue du Pr\u00e9sident Wilson", "name": "Readymade", "opening_hours": "We-Mo 12:00-24:00", "operator": "Palais de Tokyo"}}, {"type": "node", "id": 6188836410, "lat": 48.8528875, "lon": 2.297132, "tags": {"amenity": "restaurant", "cuisine": "french", "cuisine:fr": "brasserie", "name": "Le Presles", "toilets:wheelchair": "yes", "wheelchair": "limited"}}, {"type": "node", "id": 6189982885, "lat": 48.8545591, "lon": 2.3075491, "tags": {"addr:city": "Paris", "addr:housenumber": "34", "addr:postcode": "75007", "addr:street": "Rue Chevert", "amenity": "restaurant", "cuisine": "japanese", "name": "Ko\u00ef", "opening_hours": "Mo-Sa 11:30-14:45,18:00-22:45; Su 18:00-22:45", "outdoor_seating": "no", "phone": "+33 1 45 55 71 48", "smoking": "no", "takeaway": "yes"}}, {"type": "node", "id": 6295684355, "lat": 48.8565791, "lon": 2.308579, "tags": {"addr:housenumber": "16", "amenity": "restaurant", "cuisine": "french", "name": "Auberge Bressane", "outdoor_seating": "yes"}}, {"type": "node", "id": 6295684356, "lat": 48.8558711, "lon": 2.3082775, "tags": {"addr:city": "Paris", "addr:housenumber": "17", "addr:postcode": "75007", "addr:street": "Avenue de la Motte-Picquet", "amenity": "restaurant", "diet:vegetarian": "yes", "name": "Les Parisiennes", "outdoor_seating": "yes", "phone": "+33 1 47 05 07 37"}}, {"type": "node", "id": 6295684357, "lat": 48.8565244, "lon": 2.3084878, "tags": {"addr:housenumber": "16", "amenity": "cafe", "name": "Miss Marple", "name:fr": "Miss Marple"}}, {"type": "node", "id": 6308575585, "lat": 48.8594278, "lon": 2.301867, "tags": {"addr:housenumber": "3", "addr:street": "Rue Dupont des Loges", "amenity": "cafe", "name": "Le Cairn - Coffee shop & Naturopathie", "name:fr": "Le Cairn - Coffee shop & Naturopathie", "opening_hours": "Mo-Sa 08:00-18:00", "toilets:wheelchair": "no", "wheelchair": "yes"}}, {"type": "node", "id": 6309967885, "lat": 48.8578173, "lon": 2.3061688, "tags": {"addr:housenumber": "184", "addr:street": "Rue de Grenelle", "amenity": "cafe", "name": "Bleu Olive", "name:fr": "Bleu Olive", "opening_hours": "Mo-Th 08:30-18:00; Fr 08:30-21:00; Sa 10:00-18:00"}}, {"type": "node", "id": 6311407986, "lat": 48.8650765, "lon": 2.2902238, "tags": {"amenity": "restaurant", "contact:city": "Paris", "contact:housenumber": "30", "contact:postcode": "75116", "contact:street": "Rue de Longchamp", "cuisine": "indian", "name": "New Jawad Longchamp", "opening_hours": "Mo-Su 12:00-14:30, 18:30-23:30"}}, {"type": "node", "id": 6316646687, "lat": 48.8667946, "lon": 2.2976962, "tags": {"amenity": "restaurant", "name": "Monak"}}, {"type": "node", "id": 6328739085, "lat": 48.8652469, "lon": 2.3011265, "tags": {"amenity": "restaurant", "contact:city": "Paris", "contact:housenumber": "1", "contact:postcode": "75008", "contact:street": "Avenue George V", "name": "George V"}}, {"type": "node", "id": 6385575885, "lat": 48.8600499, "lon": 2.3075284, "tags": {"addr:housenumber": "22bis", "addr:postcode": "75007", "addr:street": "Rue Jean Nicot", "amenity": "restaurant", "brand": "Pizza Hut", "brand:wikidata": "Q191615", "brand:wikipedia": "en:Pizza Hut", "cuisine": "pizza", "name": "Pizza Hut", "opening_hours": "Mo-Fr 11:30-14:30, 18:00-23:00; Sa-Su 11:30-23:00", "phone": "+33 1 44 18 09 99", "website": "https://www.pizzahut.fr/huts/fr-1/103-jean-nicot"}}, {"type": "node", "id": 6392995085, "lat": 48.8649171, "lon": 2.3009044, "tags": {"amenity": "restaurant", "name": "Grand Corona", "phone": "+33 1 47 20 70 27"}}, {"type": "node", "id": 6392995385, "lat": 48.8651206, "lon": 2.3012161, "tags": {"amenity": "cafe", "name": "Shirvan", "name:fr": "Shirvan"}}, {"type": "node", "id": 6404138285, "lat": 48.8580452, "lon": 2.2998447, "tags": {"amenity": "restaurant", "name": "Alfio"}}, {"type": "node", "id": 6408979608, "lat": 48.8601867, "lon": 2.2932469, "tags": {"amenity": "restaurant", "name": "Le Bistro Parisien"}}, {"type": "node", "id": 6438640685, "lat": 48.8509615, "lon": 2.2916907, "tags": {"amenity": "restaurant", "contact:city": "Paris", "contact:housenumber": "54", "contact:phone": "+33 1 45 79 42 28", "contact:postcode": "75015", "contact:street": "Rue du Docteur Finlay", "cuisine": "japanese", "name": "Taki", "opening_hours": "Mo-Sa 12:00-14:15,19:00-22:15", "takeaway": "yes"}}, {"type": "node", "id": 6449290677, "lat": 48.8555825, "lon": 2.3007495}, {"type": "node", "id": 6449290678, "lat": 48.8556163, "lon": 2.3007977}, {"type": "node", "id": 6449290679, "lat": 48.855579, "lon": 2.3008584}, {"type": "node", "id": 6537086592, "lat": 48.8500012, "lon": 2.2890808, "tags": {"amenity": "restaurant", "cuisine": "crepe", "facebook": "https://www.facebook.com/faistacrepe/", "name": "Fais ta Cr\u00eape"}}, {"type": "node", "id": 6537089776, "lat": 48.8501563, "lon": 2.2902192, "tags": {"amenity": "restaurant", "contact:city": "Paris", "contact:housenumber": "4", "contact:postcode": "75015", "contact:street": "Rue B\u00e9atrix Dussane", "cuisine": "corean", "name": "Oppa cantine", "website": "https://www.oppa-cantine.fr/"}}, {"type": "node", "id": 6537089778, "lat": 48.8501476, "lon": 2.2898628, "tags": {"amenity": "restaurant", "contact:city": "Paris", "contact:housenumber": "25", "contact:phone": "+33 1 45 79 06 05", "contact:postcode": "75015", "contact:street": "Rue Viala", "name": "Le Kouriet"}}, {"type": "node", "id": 6537151445, "lat": 48.8506801, "lon": 2.2917534, "tags": {"amenity": "restaurant", "cuisine": "italian", "name": "Amalfi", "takeaway": "yes", "toilets:wheelchair": "no", "wheelchair": "limited"}}, {"type": "node", "id": 6537230921, "lat": 48.8516535, "lon": 2.2897169, "tags": {"amenity": "restaurant", "name": "Le Saint Martin's"}}, {"type": "node", "id": 6537294303, "lat": 48.8504727, "lon": 2.2887182, "tags": {"amenity": "cafe", "name": "Stam Kf\u00e9", "name:fr": "Stam Kf\u00e9"}}, {"type": "node", "id": 6537549675, "lat": 48.849377, "lon": 2.2901556, "tags": {"addr:city": "Paris", "addr:housenumber": "51", "addr:postcode": "75015", "addr:street": "Rue Rouelle", "amenity": "restaurant", "cuisine": "marocaine", "name": "Les Saveurs du Maroc", "opening_hours": "Tu-Su 12:00-14:30, Tu-Su 19:00-23:00", "phone": "+33145795772", "website": "https://lessaveursdumarocparis15.fr"}}, {"type": "node", "id": 6556321686, "lat": 48.8579342, "lon": 2.2999417, "tags": {"amenity": "cafe", "name": "Le Champ de Mars"}}, {"type": "node", "id": 6578308159, "lat": 48.8499236, "lon": 2.2887396, "tags": {"amenity": "restaurant", "cuisine": "caribbean", "name": "Kf\u00e9 del Twins"}}, {"type": "node", "id": 6677773686, "lat": 48.8674558, "lon": 2.2901564, "tags": {"amenity": "restaurant", "contact:city": "Paris", "contact:housenumber": "74", "contact:postcode": "75116", "contact:street": "Avenue Kl\u00e9ber", "name": "Paris Follie's"}}, {"type": "node", "id": 6726249613, "lat": 48.8570837, "lon": 2.3045936, "tags": {"addr:city": "Paris", "addr:housenumber": "49", "addr:postcode": "75007", "addr:street": "Avenue Bosquet", "amenity": "fast_food", "cuisine": "burger;american", "delivery": "yes", "diet:meat": "yes", "diet:vegetarian": "yes", "drive_through": "no", "name": "Birdy", "opening_hours": "Mo-Fr 11:30-15:00, Mo-Fr 18:30-23:00, Sa-Su 11:30-23:00", "outdoor_seating": "yes", "payment:cards": "yes", "payment:cash": "yes", "payment:contactless": "yes", "payment:credit_cards": "yes", "payment:debit_cards": "yes", "payment:visa": "yes", "phone": "+33 1 84 25 09 88", "source": "local knowledge", "takeaway": "yes", "website": "http://birdyhamburgers.com/"}}, {"type": "node", "id": 6776812985, "lat": 48.8606043, "lon": 2.280213, "tags": {"amenity": "cafe", "name": "Tabac de la Tour", "name:fr": "Tabac de la Tour"}}, {"type": "node", "id": 6855217391, "lat": 48.8577544, "lon": 2.3006773, "tags": {"addr:street": "Rue Saint-Dominique", "amenity": "restaurant", "name": "Cafe Il Grigio Italian", "name:en": "Cafe Il Grigio Italian"}}, {"type": "node", "id": 6905389285, "lat": 48.8489247, "lon": 2.296287, "tags": {"amenity": "cafe", "name": "Tiphaine Caf\u00e9", "name:fr": "Tiphaine Caf\u00e9", "opening_hours": "Mo,We 10:00-21:30; Tu,Th-Sa 10:00-22:00; Su 10:00-20:30"}}, {"type": "node", "id": 6957379586, "lat": 48.8502271, "lon": 2.2965365, "tags": {"amenity": "restaurant", "cuisine": "chinese", "name": "Lido", "phone": "+33 1 43 06 46 19"}}, {"type": "node", "id": 6957449287, "lat": 48.8545651, "lon": 2.2891423, "tags": {"amenity": "restaurant", "cuisine": "pizza;burger", "indoor_seating": "yes", "name": "Iolanda", "outdoor_seating": "yes"}}, {"type": "node", "id": 6970303855, "lat": 48.8671831, "lon": 2.2899298, "tags": {"amenity": "fast_food", "brand": "Cojean", "brand:wikidata": "Q2981929", "name": "Cojean", "takeaway": "yes"}}, {"type": "node", "id": 6993244761, "lat": 48.8607379, "lon": 2.302259, "tags": {"amenity": "restaurant", "cuisine": "vietnamese", "name": "La Table du Vietnam"}}, {"type": "node", "id": 7008093692, "lat": 48.8536819, "lon": 2.2972108, "tags": {"amenity": "restaurant", "name": "Aux Cerises", "wheelchair": "yes"}}, {"type": "node", "id": 7008116686, "lat": 48.8564807, "lon": 2.2928406, "tags": {"amenity": "cafe", "name": "Caf\u00e9 Ribe", "name:fr": "Caf\u00e9 Ribe", "toilets:wheelchair": "no", "wheelchair": "yes"}}, {"type": "node", "id": 7008116687, "lat": 48.8567551, "lon": 2.2923773, "tags": {"amenity": "cafe", "name": "Le Bailli de Suffren", "name:fr": "Le Bailli de Suffren", "toilets:wheelchair": "no", "wheelchair": "yes"}}, {"type": "node", "id": 7019236186, "lat": 48.8588768, "lon": 2.298554, "tags": {"addr:housenumber": "31", "addr:postcode": "75007", "addr:street": "Avenue de la Bourdonnais", "amenity": "restaurant", "delivery:covid19": "yes", "description:covid19": "existence d'un site Chez pippo traiteur", "indoor_seating": "yes", "name": "Chez Pippo", "outdoor_seating": "yes", "phone": "+33 1 73 70 54 50", "smoking": "outside", "takeaway:covid19": "yes", "toilets": "yes", "toilets:wheelchair": "limited", "website": "http://chezpippo.fr", "wheelchair": "limited"}}, {"type": "node", "id": 7115558294, "lat": 48.8497796, "lon": 2.2985535, "tags": {"amenity": "restaurant", "indoor_seating": "yes", "name": "Les tomettes", "outdoor_seating": "yes"}}, {"type": "node", "id": 7203269486, "lat": 48.8516304, "lon": 2.2998763, "tags": {"amenity": "restaurant", "contact:city": "Paris", "contact:housenumber": "80", "contact:phone": "+33 9 86 30 39 20", "contact:postcode": "75015", "contact:street": "Avenue de Suffren", "cuisine": "italian", "name": "Sapori di Parma", "wheelchair": "limited"}}, {"type": "node", "id": 7285082585, "lat": 48.8585296, "lon": 2.2824349, "tags": {"addr:housenumber": "8", "addr:postcode": "75016", "addr:street": "Rue Gavarni", "amenity": "restaurant", "cuisine": "japanese", "name": "Sushi Passy", "opening_hours": "Mo-Sa 12:00-14:30, 19:00-22:30", "phone": "+33145258828"}}, {"type": "node", "id": 7557230826, "lat": 48.8650857, "lon": 2.2900483, "tags": {"amenity": "bar", "description": "bar \u00e0 narguil\u00e9", "facebook": "https://www.facebook.com/maram75016/", "name": "Chez Maram"}}, {"type": "node", "id": 7598908643, "lat": 48.8562947, "lon": 2.3065211, "tags": {"amenity": "ice_cream", "brand": "Amorino", "brand:wikidata": "Q2843884", "brand:wikipedia": "fr:Amorino", "name": "Amorino", "opening_hours": "Su-Th 10:30-23:50; Fr,Sa 10:30-12:00", "outdoor_seating": "yes", "website": "https://www.amorino.com/fr/boutique/paris-cler.7.html"}}, {"type": "node", "id": 7598908644, "lat": 48.8563494, "lon": 2.3065016, "tags": {"amenity": "restaurant", "cuisine": "asian", "name": "New Asia"}}, {"type": "node", "id": 7683284816, "lat": 48.856496, "lon": 2.306684, "tags": {"amenity": "restaurant", "cuisine": "japanese", "name": "Oniwa", "outdoor_seating": "yes", "takeaway": "yes"}}, {"type": "node", "id": 7699108167, "lat": 48.8670056, "lon": 2.2972736, "tags": {"amenity": "restaurant", "name": "Cha\u00ef"}}, {"type": "node", "id": 7761272085, "lat": 48.8485765, "lon": 2.2937832, "tags": {"amenity": "cafe", "contact:city": "Paris", "contact:housenumber": "20", "contact:postcode": "75015", "contact:street": "Rue Violet", "name": "Mama' Lou", "name:en": "Mama Lou", "name:fr": "Mama' Lou"}}, {"type": "node", "id": 7808074685, "lat": 48.8573875, "lon": 2.3020651, "tags": {"addr:housenumber": "11", "addr:postcode": "75007", "addr:street": "Rue Augereau", "amenity": "restaurant", "name": "Caf\u00e9 de Mars", "phone": "+33 1 45 50 10 90", "website": "http://www.cafedemars.com"}}, {"type": "node", "id": 8660108759, "lat": 48.858407, "lon": 2.2930926, "tags": {"amenity": "cafe", "name": "fruit stand"}}, {"type": "node", "id": 8695621897, "lat": 48.8625556, "lon": 2.2887639, "tags": {"addr:city": "Paris", "addr:housenumber": "1", "addr:postcode": "75016", "addr:street": "Place du Trocad\u00e9ro et du 11 Novembre 1918", "amenity": "restaurant", "cuisine": "seafood", "name": "Girafe", "phone": "+33140627061", "website": "https://www.girafeparis.com/fr"}}, {"type": "node", "id": 8758093409, "lat": 48.860656, "lon": 2.3008329, "tags": {"addr:city": "Paris", "addr:housenumber": "6", "addr:postcode": "75007", "addr:street": "Avenue Rapp", "amenity": "restaurant", "cuisine": "italian", "level": "0", "name": "Trattoria Dell'Angelo", "opening_hours": "Mo-Su 08:00-21:00", "outdoor_seating": "yes", "phone": "+33144189012", "source": "https://www.thefork.fr/restaurant/trattoria-dell-angelo-r662165", "takeaway": "yes"}}, {"type": "node", "id": 8758106498, "lat": 48.8602559, "lon": 2.3007106, "tags": {"addr:city": "Paris", "addr:housenumber": "12", "addr:postcode": "75007", "addr:street": "Avenue Rapp", "amenity": "restaurant", "cuisine": "indian", "name": "New jawad", "opening_hours": "Mo-Su 11:30-14:30, 18:30-23:30", "phone": "+33147059137", "source": "https://www.newjawad.fr", "website": "https://www.newjawad.fr"}}, {"type": "node", "id": 8825556809, "lat": 48.8584767, "lon": 2.2805319, "tags": {"addr:housenumber": "9", "addr:street": "Rue Nicolo", "amenity": "restaurant", "cuisine": "japanese", "name": "Akasaka", "opening_hours": "Tu-Sa 12:00-14:00,19:00-22:00", "opening_hours:covid19": "Tu-Sa 11:30-14:30,18:00-21:00", "phone": "+33 1 42 88 77 86", "source": "cadastre-dgi-fr source : Direction G\u00e9n\u00e9rale des Imp\u00f4ts - Cadastre. Mise \u00e0 jour : 2010", "takeaway:covid19": "only", "website": "http://www.akasaka.fr/"}}, {"type": "node", "id": 8825556811, "lat": 48.8581997, "lon": 2.2807911, "tags": {"addr:city": "Paris", "addr:housenumber": "4", "addr:postcode": "75016", "addr:street": "Rue Nicolo", "amenity": "restaurant", "check_date:opening_hours": "2023-06-15", "cuisine": "italian;pizza;pasta;burger", "diet:vegetarian": "yes", "name": "Ricci", "opening_hours": "Mo-Su 12:00-14:30,19:30-22:30", "phone": "+33 9 80 36 89 72", "website": "https://www.ricci-paris.fr/"}}, {"type": "node", "id": 8832682442, "lat": 48.8570106, "lon": 2.2804557, "tags": {"addr:city": "Paris", "addr:housenumber": "10", "addr:postcode": "75016", "addr:street": "Rue de l'Abb\u00e9 Gillet", "amenity": "cafe", "cuisine": "tea;coffee;cake;juice;salad", "name": "Th\u00e9 Cool", "opening_hours": "Mo-Fr 12:00-18:00; Sa 12:00-19:00", "outdoor_seating": "yes", "phone": "+33 1 42 24 69 13"}}, {"type": "node", "id": 8833359029, "lat": 48.8572834, "lon": 2.2801782, "tags": {"amenity": "restaurant", "contact:city": "Paris", "contact:housenumber": "14", "contact:phone": "+33 1 71 50 51 11", "contact:postcode": "75016", "contact:street": "Rue Jean Bologne", "contact:website": "https://bowlypoke.com", "cuisine": "poke", "diet:fish": "yes", "name": "Bowly Passy", "opening_hours": "Mo-Sa 09:00-15:30,19:00-22:00", "takeaway": "yes"}}, {"type": "node", "id": 8860430618, "lat": 48.8503112, "lon": 2.3000904, "tags": {"amenity": "restaurant", "indoor_seating": "yes", "name": "Le P\u00e8re Claude", "outdoor_seating": "yes"}}, {"type": "node", "id": 8869871239, "lat": 48.8583965, "lon": 2.2875546, "tags": {"addr:city": "Paris", "addr:housenumber": "4", "addr:postcode": "75016", "addr:street": "Rue Beethoven", "amenity": "restaurant", "cuisine": "french", "name": "\u00d4rtensia", "website": "https://www.restaurantortensia.com/"}}, {"type": "node", "id": 8921286646, "lat": 48.8610375, "lon": 2.3054139, "tags": {"amenity": "restaurant", "name": "Caf\u00e9 de l'univers", "outdoor_seating": "yes"}}, {"type": "node", "id": 8931314177, "lat": 48.8583358, "lon": 2.3022746, "tags": {"addr:city": "Paris", "addr:housenumber": "131", "addr:postcode": "75007", "addr:street": "Rue Saint-Dominique", "amenity": "restaurant", "name": "Les Fables de la Fontaine"}}, {"type": "node", "id": 8931314178, "lat": 48.8581336, "lon": 2.3016858, "tags": {"addr:city": "Paris", "addr:housenumber": "137", "addr:postcode": "75007", "addr:street": "Rue Saint-Dominique", "amenity": "restaurant", "cuisine": "italian", "name": "Il Piccolo"}}, {"type": "node", "id": 8968567050, "lat": 48.8575878, "lon": 2.3029059, "tags": {"amenity": "restaurant", "name": "Philippe Excoffier"}}, {"type": "node", "id": 8968803101, "lat": 48.8604329, "lon": 2.2917343, "tags": {"amenity": "restaurant", "cuisine": "french", "name": "Ducasse sur Seine"}}, {"type": "node", "id": 8969097288, "lat": 48.8574991, "lon": 2.3029677, "tags": {"amenity": "restaurant", "name": "Ryuk I Shin"}}, {"type": "node", "id": 8989331417, "lat": 48.8581532, "lon": 2.2878913, "tags": {"addr:housenumber": "68", "addr:postcode": "75016", "addr:street": "Avenue de New York", "amenity": "restaurant", "name": "Pinky Bloom"}}, {"type": "node", "id": 9073537947, "lat": 48.850908, "lon": 2.2918286, "tags": {"addr:city": "Paris", "addr:housenumber": "56", "addr:postcode": "75015", "addr:street": "Rue du Docteur Finlay", "amenity": "restaurant", "diet:vegan": "yes", "diet:vegetarian": "only", "name": "Casa Veg", "opening_hours": "Mo-Sa 09:30-21:30", "phone": "+33 9 88 40 05 35", "takeaway": "yes"}}, {"type": "node", "id": 9377250517, "lat": 48.8577962, "lon": 2.3060348, "tags": {"addr:city": "Paris", "addr:housenumber": "186", "addr:postcode": "75007", "addr:street": "Rue de Grenelle", "amenity": "restaurant", "bar": "yes", "cuisine": "french", "diet:vegetarian": "yes", "internet_access": "wlan", "name": "Le Roussillon", "website": "http://IG:lerossillon.cafe"}}, {"type": "node", "id": 9480818191, "lat": 48.8639443, "lon": 2.2958817, "tags": {"addr:city": "Paris", "addr:country": "FR", "addr:housenumber": "5", "addr:postcode": "75116", "addr:street": "Rue de la Manutention", "amenity": "restaurant", "contact:facebook": "www.facebook.com/restaurantlesmarches/", "contact:tripadvisor": "www.tripadvisor.fr/Restaurant_Review-g187147-d1641969-Reviews-Les_Marches-Paris_Ile_de_France.html", "cuisine": "french", "name": "Les Marches", "opening_hours:kitchen": "Mo-Su 12:00-14:30,19:30-22:30", "outdoor_seating": "yes", "phone": "+33 1 47 23 52 80", "website": "www.lesmarches-restaurant.com"}}, {"type": "node", "id": 9528031317, "lat": 48.8597921, "lon": 2.3001026, "tags": {"addr:housenumber": "6", "addr:street": "Rue de Monttessuy", "amenity": "restaurant", "name": "Chez Ming"}}, {"type": "node", "id": 9554059817, "lat": 48.8659427, "lon": 2.2896317, "tags": {"amenity": "fast_food", "cuisine": "burger", "diet:vegetarian": "yes", "drive_through": "no", "name": "Birdy", "takeaway": "yes", "wheelchair": "limited"}}, {"type": "node", "id": 9558740517, "lat": 48.8490883, "lon": 2.2986388, "tags": {"amenity": "bar", "name": "L\u2019Asphalte"}}, {"type": "node", "id": 9572792638, "lat": 48.8499086, "lon": 2.2932004, "tags": {"amenity": "restaurant", "name": "Mongkok", "opening_hours": "Mo-Su 18:30-22:30; Th-Su 12:00-15:00", "phone": "01 45 79 26 03", "website": "https://mongkokresto.com"}}, {"type": "node", "id": 9664147117, "lat": 48.8645716, "lon": 2.2967053, "tags": {"amenity": "restaurant", "name": "Bambini"}}, {"type": "node", "id": 9718100882, "lat": 48.861112, "lon": 2.2985572, "tags": {"addr:housenumber": "27", "addr:street": "Quai Branly", "amenity": "restaurant", "name": "Les Ombres", "name:fr": "Les Ombres", "source": "cadastre-dgi-fr source : Direction G\u00e9n\u00e9rale des Imp\u00f4ts - Cadastre. Mise \u00e0 jour : 2011", "wheelchair": "yes"}}, {"type": "node", "id": 9721455217, "lat": 48.8590529, "lon": 2.28319, "tags": {"addr:housenumber": "11", "addr:postcode": "75116", "addr:street": "Rue de la Tour", "amenity": "restaurant", "name": "La Petite Tour"}}, {"type": "node", "id": 9724121917, "lat": 48.8593457, "lon": 2.2829791, "tags": {"addr:housenumber": "24", "addr:street": "Rue de la Tour", "amenity": "restaurant", "name": "MON PETIT POULET PASSY"}}, {"type": "node", "id": 9724123817, "lat": 48.8583398, "lon": 2.2842047, "tags": {"addr:housenumber": "1", "addr:street": "Rue de Passy", "amenity": "restaurant", "name": "Le Comptoir Belge"}}, {"type": "node", "id": 9742145878, "lat": 48.8560076, "lon": 2.2801651, "tags": {"amenity": "fast_food", "contact:city": "Paris", "contact:housenumber": "9", "contact:postcode": "75016", "contact:street": "Rue de l'Annonciation", "contact:website": "http://minato.house", "cuisine": "japanese", "name": "Minato", "operator": "Edostar"}}, {"type": "node", "id": 9742156663, "lat": 48.8558392, "lon": 2.2804336, "tags": {"amenity": "restaurant", "brand": "Pizza Hut", "brand:wikidata": "Q191615", "contact:city": "Paris", "contact:housenumber": "5", "contact:phone": "+33 1 42 88 18 18", "contact:postcode": "75016", "contact:street": "Rue de l'Annonciation", "contact:website": "https://www.pizzahut.fr/huts/fr-1/7-paris-16eme-passy/", "cuisine": "pizza", "delivery": "yes", "name": "Pizza Hut", "opening_hours": "Mo 11:30-22:30; Tu-Sa 11:30-23:00; Su 12:00-23:00", "takeaway": "yes"}}, {"type": "node", "id": 9742512685, "lat": 48.8570639, "lon": 2.2798644, "tags": {"amenity": "fast_food", "branch": "Passy Plaza", "brand": "Monoprix", "brand:wikidata": "Q3321241", "contact:city": "Paris", "contact:housenumber": "56", "contact:postcode": "75016", "contact:street": "Rue de Passy", "contact:website": "https://www.monoprix.fr/monoprix-passy-plaza-paris-75016-s", "level": "0", "name": "Monoprix", "opening_hours": "Mo-Sa 10:00-19:30"}}, {"type": "node", "id": 9846577012, "lat": 48.8489962, "lon": 2.2907357, "tags": {"addr:city": "Paris", "addr:housenumber": "28", "addr:postcode": "75015", "addr:street": "Rue de Lourmel", "amenity": "bar", "name": "Plan B", "opening_hours": "Mo-Sa 17:00-02:00", "website": "https://www.planb15.com"}}, {"type": "node", "id": 9858350217, "lat": 48.8543147, "lon": 2.2998268, "tags": {"amenity": "cafe", "name": "Chalet Man\u00e8ge"}}, {"type": "node", "id": 9879701217, "lat": 48.855642, "lon": 2.3052995, "tags": {"amenity": "fast_food"}}, {"type": "node", "id": 9888443817, "lat": 48.8656742, "lon": 2.3032743, "tags": {"addr:city": "Paris", "addr:housenumber": "15", "addr:postcode": "75008", "addr:street": "Avenue Montaigne", "amenity": "restaurant", "name": "Manko", "phone": "+33 (0)1 82 28 00 15", "website": "https://manko-paris.com/"}}, {"type": "node", "id": 9911344193, "lat": 48.8575128, "lon": 2.3006259, "tags": {"addr:housenumber": "49", "amenity": "fast_food", "cuisine": "sandwich;coffee;crepe", "name": "Sandwicherie", "opening_hours": "Mo, Tu, Th-Su 12:00-19:00; We off", "outdoor_seating": "yes", "takeaway": "yes"}}, {"type": "node", "id": 9972985533, "lat": 48.8495819, "lon": 2.2990055, "tags": {"amenity": "restaurant", "cuisine": "french", "indoor_seating": "yes", "name": "La Gauloise", "outdoor_seating": "yes"}}, {"type": "node", "id": 10017529553, "lat": 48.8627122, "lon": 2.3011867, "tags": {"amenity": "cafe", "name": "Caf\u00e9 Pierre Herm\u00e9", "outdoor_seating": "yes"}}, {"type": "node", "id": 10081230514, "lat": 48.8646401, "lon": 2.2886813, "tags": {"addr:housenumber": "83"}}, {"type": "node", "id": 10106531468, "lat": 48.8569554, "lon": 2.3064261, "tags": {"amenity": "ice_cream", "name": "Martine Lambert"}}, {"type": "node", "id": 10106542141, "lat": 48.8579627, "lon": 2.3068487, "tags": {"addr:housenumber": "178", "addr:street": "Rue de Grenelle", "amenity": "cafe", "diet:vegan": "only", "name": "Love Juice Bar"}}, {"type": "node", "id": 10106542143, "lat": 48.856914, "lon": 2.3062178, "tags": {"amenity": "restaurant", "name": "Davoli", "website": "https://www.davoli.fr"}}, {"type": "node", "id": 10106586897, "lat": 48.8572579, "lon": 2.3060285, "tags": {"amenity": "restaurant", "contact:city": "Paris", "contact:housenumber": "28", "contact:postcode": "75007", "contact:street": "Rue Cler", "food": "fish", "name": "La Sablaise D\u00e9gustation"}}, {"type": "node", "id": 10118422541, "lat": 48.8499843, "lon": 2.2996477, "tags": {"addr:housenumber": "53 bis", "addr:street": "Avenue de la Motte-Picquet", "amenity": "restaurant", "name": "Tikino"}}, {"type": "node", "id": 10118583964, "lat": 48.8502201, "lon": 2.2999966, "tags": {"amenity": "restaurant", "indoor_seating": "yes", "name": "Le Phare St Louis", "outdoor_seating": "yes"}}, {"type": "node", "id": 10118583965, "lat": 48.8500369, "lon": 2.2997267, "tags": {"amenity": "cafe", "name": "Pavillon"}}, {"type": "node", "id": 10204472071, "lat": 48.8585227, "lon": 2.2840467, "tags": {"addr:housenumber": "2", "addr:street": "Rue de Passy", "amenity": "restaurant", "cuisine": "japanese", "name": "Matsuri Passy", "phone": "+33970 84 5115", "website": "www.matsuri.fr"}}, {"type": "node", "id": 10204472077, "lat": 48.8578409, "lon": 2.2809112, "tags": {"amenity": "restaurant", "name": "La Favorite"}}, {"type": "node", "id": 10253004438, "lat": 48.857146, "lon": 2.3032161, "tags": {"addr:housenumber": "28", "addr:street": "rue de l'exposition", "amenity": "restaurant", "name": "Le P'tit Troquet", "website": "https://www.leptittroquet.fr/"}}, {"type": "node", "id": 10253011987, "lat": 48.8568788, "lon": 2.3034079, "tags": {"addr:housenumber": "34", "addr:street": "rue de l'exposition", "amenity": "restaurant", "name": "Restaurant 7 Nouilles", "phone": "09 82 41 07 81", "website": "https://restaurant7nouilles.com/"}}, {"type": "node", "id": 10282454074, "lat": 48.8500645, "lon": 2.2893686, "tags": {"amenity": "cafe", "name": "Cafet'o - Les Saveurs Latines"}}, {"type": "node", "id": 10572285479, "lat": 48.8649013, "lon": 2.2897401, "tags": {"amenity": "restaurant", "name": "My Fair Garden"}}, {"type": "node", "id": 10600694735, "lat": 48.8537595, "lon": 2.2939203, "tags": {"amenity": "cafe", "bar": "yes", "name": "Le Rosco"}}, {"type": "node", "id": 10604130705, "lat": 48.8651121, "lon": 2.2892094, "tags": {"addr:housenumber": "40", "addr:street": "Rue de Longchamp", "amenity": "restaurant", "cuisine": "portuguese", "name": "Le Bistrot de Longchamp", "opening_hours": "Mo-Fr 07:00-21:00", "phone": "01 47 27 53 50", "website": "https://lebistrodelongchamp.fr/"}}, {"type": "node", "id": 10740269357, "lat": 48.8542212, "lon": 2.2894172, "tags": {"amenity": "restaurant", "indoor_seating": "yes", "name": "Fiorentina", "outdoor_seating": "yes"}}, {"type": "node", "id": 10747554650, "lat": 48.857137, "lon": 2.3022359, "tags": {"addr:housenumber": "15", "addr:street": "Rue Augereau", "amenity": "restaurant", "name": "Chez Lucie", "phone": "0145550874", "website": "http://www.restaurant-chez-lucie.fr/"}}, {"type": "node", "id": 10782444606, "lat": 48.8565111, "lon": 2.30571, "tags": {"addr:city": "PARIS", "addr:housenumber": "12", "addr:postcode": "75007", "addr:street": "Rue du Champ de Mars", "amenity": "restaurant", "check_date": "2023-04-02", "cuisine": "pizza;regional", "name": "Popu", "opening_hours": "Mo-Su 09:30-23:00", "phone": "+33 1 40 60 73 76", "smoking": "outside", "toilets": "yes", "website": "https://popupizza.fr/"}}, {"type": "node", "id": 10902348506, "lat": 48.8667786, "lon": 2.2987154, "tags": {"addr:housenumber": "6", "addr:postcode": "75116", "addr:street": "Rue Georges Bizet", "amenity": "restaurant", "cuisine": "french", "name": "Le Bizetro", "opening_hours": "Tu-Fr 12:00-15:00, 19:00-23:00; Mo 12:00-15:00", "phone": "+33147238541", "website": "https://m.facebook.com/lebizetro"}}, {"type": "node", "id": 10911311886, "lat": 48.8657165, "lon": 2.303305, "tags": {"addr:city": "Paris", "addr:housenumber": "15", "addr:postcode": "75008", "addr:street": "Avenue Montaigne", "amenity": "restaurant", "name": "Gigi Paris", "phone": "0147235599", "website": "https://gigi-restaurant.com/?utm_source=Yext&utm_medium=GMB&y_source=1_MjU3NjI3OTMtNzE1LWxvY2F0aW9uLndlYnNpdGU%3D"}}, {"type": "node", "id": 11026355357, "lat": 48.8581037, "lon": 2.2814492, "tags": {"addr:housenumber": "28", "addr:street": "Rue de Passy", "amenity": "restaurant", "cuisine": "chinese", "name": "La Mandarine", "opening_hours": "Mo-Su 10:30-22:00", "phone": "+33142151899"}}, {"type": "node", "id": 11044490971, "lat": 48.8671626, "lon": 2.2990055, "tags": {"amenity": "restaurant", "name": "Noura"}}, {"type": "node", "id": 11071025706, "lat": 48.8517063, "lon": 2.3003665, "tags": {"amenity": "restaurant", "name": "Vin & Mar\u00e9e"}}, {"type": "way", "id": 54033785, "nodes": [681276142, 681276099, 681276274, 681276180, 681275677, 681276081, 681276097, 684572977, 681276245, 681276236, 2558804679, 681275745, 681276142], "tags": {"amenity": "restaurant", "building": "yes", "contact:city": "Paris", "contact:housenumber": "27", "contact:postcode": "75015", "contact:street": "Quai de Grenelle", "cuisine": "japanese", "name": "Okito", "source": "cadastre-dgi-fr source : Direction G\u00e9n\u00e9rale des Imp\u00f4ts - Cadastre;mise \u00e0 jour : 2010"}}, {"type": "way", "id": 69032641, "nodes": [828511522, 828509984, 828511678, 828510186, 828511522], "tags": {"amenity": "food_court", "building": "yes", "name:signed": "no", "source": "cadastre-dgi-fr source : Direction G\u00e9n\u00e9rale des Imp\u00f4ts - Cadastre. Mise \u00e0 jour : 2010"}}, {"type": "way", "id": 79658074, "nodes": [929553005, 10081230514, 938873274, 929552871, 929552971, 929552840, 929552938, 929552851, 929551930, 929552327, 929552466, 929552105, 929552793, 929552566, 929552894, 929552072, 929551961, 929552178, 929552431, 929552304, 929553005], "tags": {"amenity": "restaurant", "building": "yes", "building:levels": "7", "capacity": "200", "cuisine": "french", "name": "Restaurant Hexagone", "phone": "+33 1 42 25 98 85", "smoking": "outside", "source": "cadastre-dgi-fr source : Direction G\u00e9n\u00e9rale des Imp\u00f4ts - Cadastre. Mise \u00e0 jour : 2010", "website": "http://www.hexagone-paris.fr/"}}, {"type": "way", "id": 308145239, "nodes": [3134287564, 3134287601, 3134287617, 3134287612, 3134287564], "tags": {"amenity": "restaurant", "building:part": "yes", "height": "64", "layer": "3", "level": "1", "min_height": "57.63", "name": "58 tour Eiffel"}}, {"type": "way", "id": 641198244, "nodes": [6039063907, 6039063908, 6039063909, 6039063910, 6039063907], "tags": {"addr:housenumber": "2", "addr:street": "Rue S\u00e9dillot", "amenity": "restaurant", "building": "yes", "capacity": "30", "cuisine": "italian", "name": "Veramente", "takeaway": "no"}}, {"type": "way", "id": 687924368, "nodes": [6449290677, 6449290678, 6449290679, 1227145008, 6449290677], "tags": {"amenity": "restaurant", "building": "yes", "name": "La Bonbonni\u00e8re de Marie"}}]}