{"version": 0.6, "generator": "Overpass API 0.7.61.5 4133829e", "osm3s": {"timestamp_osm_base": "2023-12-09T23:49:30Z", "copyright": "The data included in this document is from www.openstreetmap.org. The data is made available under ODbL."}, "elements": [{"type": "node", "id": 235377792, "lat": 48.8842416, "lon": 2.3670741, "tags": {"STIF:zone": "1", "name": "Stalingrad", "name:ru": "\u0421\u0442\u0430\u043b\u0438\u043d\u0433\u0440\u0430\u0434", "old_name": "Aubervilliers", "public_transport": "station", "railway": "station", "ref:FR:FANTOIR": "75119S536F", "ref:FR:RATP": "1627", "ref:FR:STIF": "22107", "source": "STIF - 12/2016", "station": "subway", "subway": "yes", "type:RATP": "metro", "wheelchair": "yes", "wikidata": "Q1418821", "wikipedia": "fr:Stalingrad (m\u00e9tro de Paris)"}}, {"type": "node", "id": 243358029, "lat": 48.8809263, "lon": 2.3739077, "tags": {"STIF:zone": "1", "name": "Bolivar", "public_transport": "stop_position", "railway": "station", "ref:FR:FANTOIR": "75119S046Y", "ref:FR:RATP": "2014", "ref:FR:STIF": "24685", "source": "STIF - 12/2016", "station": "subway", "subway": "yes", "type:RATP": "metro", "wikidata": "Q891362", "wikipedia": "fr:Bolivar (m\u00e9tro de Paris)"}}, {"type": "node", "id": 243496025, "lat": 48.8834886, "lon": 2.3336343, "tags": {"STIF:zone": "1", "name": "Blanche", "public_transport": "station", "railway": "station", "ref:FR:FANTOIR": "75118S043B", "ref:FR:RATP": "2009", "ref:FR:STIF": "22125", "source": "STIF - 12/2016", "station": "subway", "subway": "yes", "type:RATP": "metro", "wheelchair": "no", "wikidata": "Q881406", "wikipedia": "fr:Blanche (m\u00e9tro de Paris)"}}, {"type": "node", "id": 249335596, "lat": 48.8905061, "lon": 2.3599967, "tags": {"STIF:zone": "1", "name": "Marx Dormoy", "old_name": "Torcy", "public_transport": "stop_position", "railway": "station", "ref:FR:FANTOIR": "75118S324G", "ref:FR:RATP": "1831", "ref:FR:STIF": "22053", "source": "STIF - 12/2016", "station": "subway", "subway": "yes", "type:RATP": "metro", "wheelchair": "no", "wikidata": "Q1622759", "wikipedia": "fr:Marx Dormoy (m\u00e9tro de Paris)"}}, {"type": "node", "id": 264505115, "lat": 48.8845677, "lon": 2.3379294, "tags": {"STIF:zone": "1", "name": "Abbesses", "name:ru": "\u0410\u0431\u0431\u0435\u0441", "public_transport": "station", "railway": "station", "ref:FR:FANTOIR": "75118S001F", "ref:FR:RATP": "1975", "ref:FR:STIF": "22059", "source": "STIF - 12/2016", "station": "subway", "subway": "yes", "type:RATP": "metro", "wheelchair": "no", "wikidata": "Q306256", "wikipedia": "fr:Abbesses (m\u00e9tro de Paris)"}}, {"type": "node", "id": 264505153, "lat": 48.8897543, "lon": 2.3388254, "tags": {"STIF:zone": "1", "name": "Lamarck - Caulaincourt", "name:ru": "\u041b\u0430\u043c\u0430\u0440\u043a \u2014 \u041a\u043e\u043b\u0435\u043d\u043a\u0443\u0440", "public_transport": "station", "railway": "station", "ref:FR:FANTOIR": "75118S282L", "ref:FR:RATP": "1879", "ref:FR:STIF": "22055", "source": "STIF - 12/2016", "station": "subway", "subway": "yes", "type:RATP": "metro", "wheelchair": "no", "wikidata": "Q980380", "wikipedia": "fr:Lamarck - Caulaincourt (m\u00e9tro de Paris)"}}, {"type": "node", "id": 264505450, "lat": 48.8924628, "lon": 2.3446394, "tags": {"STIF:zone": "1", "name": "Jules Joffrin", "name:ru": "\u0416\u044e\u043b\u044c \u0416\u043e\u0444\u0444\u0440\u0435\u043d", "public_transport": "station", "railway": "station", "ref:FR:FANTOIR": "75118S257J", "ref:FR:RATP": "1865", "ref:FR:STIF": "22054", "source": "STIF - 12/2016", "station": "subway", "subway": "yes", "type:RATP": "metro", "wheelchair": "no", "wikidata": "Q617430", "wikipedia": "fr:Jules Joffrin (m\u00e9tro de Paris)"}}, {"type": "node", "id": 264505930, "lat": 48.8977035, "lon": 2.3594563, "tags": {"STIF:zone": "1", "layer": "-4", "name": "Porte de la Chapelle", "public_transport": "stop_position", "railway": "station", "ref:FR:RATP": "1734", "ref:FR:STIF": "22041", "source": "STIF - 12/2016", "station": "subway", "subway": "yes", "type:RATP": "metro", "wheelchair": "limited", "wikidata": "Q382659", "wikipedia": "fr:Porte de la Chapelle (m\u00e9tro de Paris)"}}, {"type": "node", "id": 264505993, "lat": 48.8938481, "lon": 2.3478412, "tags": {"STIF:zone": "1", "name": "Simplon", "operator": "RATP", "public_transport": "stop_position", "railway": "station", "ref:FR:FANTOIR": "75118S534K", "ref:FR:RATP": "1621", "ref:FR:STIF": "22133", "source": "STIF - 12/2016", "station": "subway", "subway": "yes", "type:RATP": "metro", "wheelchair": "no", "wikidata": "Q163879", "wikipedia": "fr:Simplon (m\u00e9tro de Paris)"}}, {"type": "node", "id": 264776028, "lat": 48.8884812, "lon": 2.3742226, "tags": {"STIF:zone": "1", "name": "Riquet", "public_transport": "stop_position", "railway": "station", "ref:FR:FANTOIR": "75119S489E", "ref:FR:RATP": "1666", "ref:FR:STIF": "22371", "source": "STIF - 12/2016", "station": "subway", "subway": "yes", "type:RATP": "metro", "wheelchair": "no", "wikidata": "Q1772478", "wikipedia": "fr:Riquet (m\u00e9tro de Paris)"}}, {"type": "node", "id": 264776029, "lat": 48.8908513, "lon": 2.3773681, "tags": {"STIF:zone": "1", "name": "Crim\u00e9e", "public_transport": "stop_position", "railway": "station", "ref:FR:FANTOIR": "75119S107P", "ref:FR:RATP": "1894", "ref:FR:STIF": "22392", "source": "STIF - 12/2016;survey;local knowledge;streetlevel imagery", "station": "subway", "subway": "yes", "type:RATP": "metro", "wheelchair": "no", "wikidata": "Q746288", "wikipedia": "fr:Crim\u00e9e (m\u00e9tro de Paris)"}}, {"type": "node", "id": 264776910, "lat": 48.8947282, "lon": 2.3823046, "tags": {"STIF:zone": "1", "name": "Corentin Cariou", "old_name": "Pont de Flandre", "public_transport": "stop_position", "railway": "station", "ref:FR:FANTOIR": "75119S101H", "ref:FR:RATP": "1888", "ref:FR:STIF": "22389", "source": "STIF - 12/2016", "station": "subway", "subway": "yes", "type:RATP": "metro", "wheelchair": "no", "wikidata": "Q120303", "wikipedia": "fr:Corentin Cariou (m\u00e9tro de Paris)"}}, {"type": "node", "id": 264778142, "lat": 48.8974039, "lon": 2.385591, "tags": {"STIF:zone": "1", "alt_name": "Porte de la Villette (Cit\u00e9 des Sciences et de l'Industrie)", "name": "Porte de la Villette", "public_transport": "stop_position", "railway": "station", "ref:FR:FANTOIR": "75119S449L", "ref:FR:RATP": "1735", "ref:FR:STIF": "22374", "source": "STIF - 12/2016", "station": "subway", "subway": "yes", "type:RATP": "metro", "wikidata": "Q571446", "wikipedia": "fr:Porte de la Villette (m\u00e9tro de Paris)"}}, {"type": "node", "id": 329974472, "lat": 48.8808038, "lon": 2.3587094, "tags": {"STIF:zone": "1", "layer": "-3", "name": "Magenta", "network": "RER", "note": "Please do not add the tag public_transport=station, it is already on the way that defines the footprint of the station", "operator": "SNCF", "railway": "station", "ref:FR:RATP": "51923", "ref:FR:STIF": "41126", "ref:FR:uic8": "87281873", "source": "\u00cele-de-France Mobilit\u00e9s - 03/2022", "start_date": "1999-07-14", "train": "yes", "type:RATP": "rer", "uic_ref": "8728187", "wheelchair": "limited", "wikidata": "Q608428", "wikipedia": "fr:Gare de Magenta"}}, {"type": "node", "id": 1481147746, "lat": 48.8914837, "lon": 2.3497296, "tags": {"STIF:zone": "1", "name": "Marcadet - Poissonniers", "operator": "RATP", "public_transport": "stop_position", "railway": "station", "ref:FR:RATP": "1828", "ref:FR:STIF": "22052", "source": "STIF - 12/2016", "station": "subway", "subway": "yes", "type:RATP": "metro", "wheelchair": "no", "wikidata": "Q1892927", "wikipedia": "fr:Marcadet - Poissonniers (m\u00e9tro de Paris)"}}, {"type": "node", "id": 1780486821, "lat": 48.8973976, "lon": 2.3448521, "tags": {"STIF:zone": "1", "name": "Porte de Clignancourt", "operator": "RATP", "public_transport": "stop_position", "railway": "station", "ref:FR:FANTOIR": "75118S435C", "ref:FR:RATP": "1726", "ref:FR:STIF": "22141", "source": "STIF - 12/2016", "station": "subway", "subway": "yes", "type:RATP": "metro", "wheelchair": "no", "wikidata": "Q1969480", "wikipedia": "fr:Porte de Clignancourt (m\u00e9tro de Paris)"}}, {"type": "node", "id": 1997722992, "lat": 48.8825949, "lon": 2.3703263, "tags": {"STIF:zone": "1", "addr:city": "Paris", "name": "Jaur\u00e8s", "old_name": "Rue d\u2019Allemagne", "public_transport": "station", "railway": "station", "ref:FR:FANTOIR": "75119S254Z;75110S254L", "ref:FR:RATP": "1861", "ref:FR:STIF": "24680", "source": "STIF - 12/2016", "station": "subway", "subway": "yes", "type:RATP": "metro", "wheelchair": "no", "wikidata": "Q568195", "wikipedia": "fr:Jaur\u00e8s (m\u00e9tro de Paris)"}}, {"type": "node", "id": 3047470635, "lat": 48.9082256, "lon": 2.3778513, "tags": {"STIF:zone": "1", "name": "Aim\u00e9 C\u00e9saire", "public_transport": "stop_position", "railway": "station", "station": "subway", "subway": "yes", "wheelchair": "yes", "wikidata": "Q766186"}}, {"type": "node", "id": 3047470637, "lat": 48.9142765, "lon": 2.3809116, "tags": {"STIF:zone": "1", "name": "Mairie d'Aubervilliers", "public_transport": "stop_position", "railway": "station", "station": "subway", "subway": "yes", "type:RATP": "metro", "wheelchair": "yes"}}, {"type": "node", "id": 3090733718, "lat": 48.8804003, "lon": 2.3549733, "tags": {"SNCF:stop_name": "Paris-Nord", "STIF:zone": "1", "addr:city": "Paris", "addr:country": "FR", "addr:housenumber": "112", "addr:postcode": "75010", "addr:street": "rue de Maubeuge", "internet_access": "wlan", "name": "Paris Gare du Nord", "name:de": "Paris Nordbahnhof", "name:ru": "\u0421\u0435\u0432\u0435\u0440\u043d\u044b\u0439 \u0432\u043e\u043a\u0437\u0430\u043b", "network": "SNCF.", "note": "Please do not add the tag public_transport=station, it is already on the way that defines the footprint of the station", "old_name": "Embarcad\u00e8re du Chemin de Fer du Nord", "operator": "SNCF", "railway": "station", "railway:ref:DB": "XFPN", "ref:FR:STIF": "41071", "ref:FR:uic8": "87271007;87271031", "train": "yes", "uic_ref": "8727100;8727103", "website": "https://www.garesetconnexions.sncf/fr/gare/frpno/paris-gare-du-nord", "wheelchair": "yes", "wikidata": "Q745942", "wikipedia": "fr:Gare de Paris-Nord"}}, {"type": "node", "id": 3417692493, "lat": 48.8828803, "lon": 2.3442565, "tags": {"STIF:zone": "1", "name": "Anvers", "public_transport": "station", "railway": "station", "ref:FR:FANTOIR": "75118S009P", "ref:FR:RATP": "1984", "ref:FR:STIF": "22123", "source": "STIF - 12/2016", "station": "subway", "subway": "yes", "type:RATP": "metro", "wheelchair": "no", "wikidata": "Q612971", "wikipedia": "fr:Anvers (m\u00e9tro de Paris)"}}, {"type": "node", "id": 3417692497, "lat": 48.8846923, "lon": 2.3426644, "tags": {"STIF:zone": "1", "alt_name": "Funiculaire Gare basse", "name": "Funiculaire Montmartre - Station Inf\u00e9rieure", "operator": "RATP", "public_transport": "station", "railway": "station", "ref:FR:RATP": "2021", "ref:FR:STIF": "463175", "source": "Bing", "station": "funicular", "wheelchair": "yes"}}, {"type": "node", "id": 3417692499, "lat": 48.8856581, "lon": 2.3425549, "tags": {"STIF:zone": "1", "alt_name": "Funiculaire Gare haute", "name": "Funiculaire Montmartre - Station Sup\u00e9rieure", "operator": "RATP", "public_transport": "station", "railway": "station", "ref:FR:RATP": "2022", "ref:FR:STIF": "412355", "source": "Bing", "station": "funicular", "wheelchair": "yes"}}, {"type": "node", "id": 3417692501, "lat": 48.8844068, "lon": 2.3603057, "tags": {"STIF:zone": "1", "name": "La Chapelle", "public_transport": "station", "railway": "station", "ref:FR:FANTOIR": "75110S081Y", "ref:FR:RATP": "1868", "ref:FR:STIF": "22119", "source": "STIF - 12/2016", "station": "subway", "subway": "yes", "type:RATP": "metro", "wheelchair": "no", "wikidata": "Q1577103", "wikipedia": "fr:La Chapelle (m\u00e9tro de Paris)"}}, {"type": "node", "id": 3884781096, "lat": 48.8964867, "lon": 2.3740572, "tags": {"STIF:zone": "1", "name": "Rosa Parks", "network": "RER", "operator": "SNCF", "railway": "station", "ref:FR:STIF": "75119", "ref:FR:uic8": "87654798", "source": "\u00cele-de-France Mobilit\u00e9s - 03/2022", "start_date": "2015-12-13", "train": "yes", "type:RATP": "rer", "uic_ref": "8765479", "wheelchair": "limited", "wikidata": "Q3095535", "wikipedia": "fr:Gare Rosa Parks"}}, {"type": "node", "id": 4067925155, "lat": 48.8822982, "lon": 2.3380899, "tags": {"STIF:zone": "1", "name": "Pigalle", "name:ru": "\u041f\u0438\u0433\u0430\u043b\u044c", "public_transport": "station", "railway": "station", "ref:FR:FANTOIR": "75109S415R", "ref:FR:RATP": "1787", "ref:FR:STIF": "22114", "source": "STIF - 12/2016", "station": "subway", "subway": "yes", "type:RATP": "metro", "wheelchair": "no", "wikidata": "Q338898", "wikipedia": "fr:Pigalle (m\u00e9tro de Paris)"}}, {"type": "node", "id": 4075421186, "lat": 48.8872884, "lon": 2.3495532, "tags": {"STIF:zone": "1", "check_date:wheelchair": "2023-04-11", "name": "Ch\u00e2teau Rouge", "operator": "RATP", "public_transport": "station", "railway": "station", "ref:FR:FANTOIR": "75118S088A", "ref:FR:RATP": "1960", "ref:FR:STIF": "22152", "source": "STIF - 12/2016", "station": "subway", "subway": "yes", "type:RATP": "metro", "wheelchair": "no", "wikidata": "Q957172", "wikipedia": "fr:Ch\u00e2teau Rouge (m\u00e9tro de Paris)"}}, {"type": "node", "id": 5226708287, "lat": 48.8837466, "lon": 2.3496958, "tags": {"STIF:zone": "1", "name": "Barb\u00e8s - Rochechouart", "operator": "RATP", "public_transport": "station", "railway": "station", "ref:FR:FANTOIR": "75109S035C", "ref:FR:RATP": "1999", "ref:FR:STIF": "22127", "source": "STIF - 12/2016", "station": "subway", "subway": "yes", "type:RATP": "metro", "wheelchair": "no", "wikidata": "Q807893", "wikipedia": "fr:Barb\u00e8s - Rochechouart (m\u00e9tro de Paris)"}}, {"type": "node", "id": 5228032207, "lat": 48.8815943, "lon": 2.3657982, "tags": {"STIF:zone": "1", "name": "Louis Blanc", "public_transport": "station", "railway": "station", "ref:FR:FANTOIR": "75110S290A", "ref:FR:RATP": "1806", "ref:FR:STIF": "24681", "source": "STIF - 12/2016", "station": "subway", "subway": "yes", "type:RATP": "metro", "wheelchair": "no", "wikidata": "Q1537255", "wikipedia": "fr:Louis Blanc (m\u00e9tro de Paris)"}}, {"type": "node", "id": 5230752679, "lat": 48.881399, "lon": 2.357438, "tags": {"STIF:zone": "1", "alt_name": "Paris Nord RER", "layer": "-2", "name": "Gare du Nord (RER)", "official_name": "PARIS NORD (GARE DU NORD)", "operator": "SNCF", "railway": "station", "railway:traffic_mode": "passenger", "ref": "RER B,D", "ref:FR:RATP": "1843", "ref:FR:STIF": "41071", "ref:FR:uic8": "87271023;87271007", "short_name": "Gare du Nord", "train": "yes", "type:RATP": "rer", "uic_ref": "8727102;8727100", "wheelchair": "yes", "wikidata": "Q745942", "wikipedia": "fr:Gare de Paris-Nord"}}, {"type": "node", "id": 5357256568, "lat": 48.9131621, "lon": 2.3346585, "tags": {"STIF:zone": "1", "fixme": "ajouter acc\u00e8s + correspondance vers station ligne 13", "layer": "-2", "location": "underground", "name": "Mairie de Saint-Ouen", "network": "RATP", "opening_date": "2020-12-14", "operator": "RATP", "public_transport": "station", "railway": "station", "ref:FR:RATP": "1818", "station": "subway", "subway": "yes", "tunnel": "yes", "type:RATP": "metro", "wheelchair": "yes", "wikidata": "Q1885854", "wikipedia": "fr:Mairie de Saint-Ouen (m\u00e9tro de Paris)"}}, {"type": "node", "id": 5363611404, "lat": 48.9123017, "lon": 2.3342679, "tags": {"STIF:zone": "1", "name": "Mairie de Saint-Ouen", "network": "RATP", "opening_date": "1952-06-30", "opening_hours": "Mo-Su 05:00-1:30", "operator": "RATP", "owner": "RATP", "public_transport": "station", "railway": "station", "ref:FR:RATP": "1818", "ref:FR:STIF": "22243", "source": "STIF - 12/2016", "station": "subway", "subway": "yes", "train": "yes", "type:RATP": "metro", "wikidata": "Q1885854", "wikipedia": "fr:Mairie de Saint-Ouen (m\u00e9tro de Paris)"}}, {"type": "node", "id": 5726284556, "lat": 48.9064513, "lon": 2.3659403, "tags": {"STIF:zone": "2", "name": "Front Populaire", "public_transport": "station", "railway": "station", "ref:FR:STIF": "24679", "source": "STIF - 12/2016", "start_date": "2012-12-18", "station": "subway", "subway": "yes", "type:RATP": "metro", "wheelchair": "yes", "wikidata": "Q1185683", "wikipedia": "fr:Front Populaire (m\u00e9tro de Paris)"}}, {"type": "node", "id": 6539839766, "lat": 48.8851647, "lon": 2.3794369, "tags": {"STIF:zone": "1", "name": "Laumi\u00e8re", "public_transport": "station", "railway": "station", "ref:FR:FANTOIR": "75119S286J", "ref:FR:RATP": "1882", "ref:FR:STIF": "22012", "source": "STIF - 12/2016", "station": "subway", "subway": "yes", "type:RATP": "metro", "wheelchair": "no", "wikidata": "Q1572249", "wikipedia": "fr:Laumi\u00e8re (m\u00e9tro de Paris)"}}, {"type": "node", "id": 6539840340, "lat": 48.8870772, "lon": 2.38664, "tags": {"STIF:zone": "1", "check_date:wheelchair": "2022-05-07", "name": "Ourcq", "public_transport": "station", "railway": "station", "ref:FR:FANTOIR": "75119S385S", "ref:FR:RATP": "1773", "ref:FR:STIF": "22005", "source": "STIF - 12/2016", "station": "subway", "subway": "yes", "type:RATP": "metro", "wheelchair": "no", "wikidata": "Q1495676", "wikipedia": "fr:Ourcq (m\u00e9tro de Paris)"}}, {"type": "node", "id": 8930818864, "lat": 48.9126523, "lon": 2.3341651}, {"type": "node", "id": 8930818865, "lat": 48.9136831, "lon": 2.3354326}, {"type": "node", "id": 8930818866, "lat": 48.913793, "lon": 2.3352256}, {"type": "node", "id": 8930818867, "lat": 48.9127622, "lon": 2.3339583}, {"type": "node", "id": 8930818868, "lat": 48.912688, "lon": 2.334098}, {"type": "node", "id": 8930818869, "lat": 48.9137179, "lon": 2.3353669}, {"type": "node", "id": 8930818870, "lat": 48.9137583, "lon": 2.335291}, {"type": "node", "id": 8930818871, "lat": 48.9127272, "lon": 2.3340241}, {"type": "way", "id": 965391885, "nodes": [8930818864, 8930818865, 8930818869, 8930818870, 8930818866, 8930818867, 8930818871, 8930818868, 8930818864], "tags": {"building": "yes", "fixme": "ajouter acc\u00e8s + correspondance vers station ligne 13", "layer": "-1", "location": "underground", "name": "Mairie de Saint-Ouen", "network": "M\u00e9tro de Paris", "operator": "RATP", "public_transport": "station", "railway": "station", "start_date": "2020-12-14", "station": "subway", "subway": "yes", "wheelchair": "yes"}}]}