{"version": 0.6, "generator": "Overpass API 0.7.61.5 4133829e", "osm3s": {"timestamp_osm_base": "2023-12-09T23:49:30Z", "copyright": "The data included in this document is from www.openstreetmap.org. The data is made available under ODbL."}, "elements": [{"type": "node", "id": 235377792, "lat": 48.8842416, "lon": 2.3670741, "tags": {"STIF:zone": "1", "name": "Stalingrad", "name:ru": "\u0421\u0442\u0430\u043b\u0438\u043d\u0433\u0440\u0430\u0434", "old_name": "Aubervilliers", "public_transport": "station", "railway": "station", "ref:FR:FANTOIR": "75119S536F", "ref:FR:RATP": "1627", "ref:FR:STIF": "22107", "source": "STIF - 12/2016", "station": "subway", "subway": "yes", "type:RATP": "metro", "wheelchair": "yes", "wikidata": "Q1418821", "wikipedia": "fr:Stalingrad (m\u00e9tro de Paris)"}}, {"type": "node", "id": 243357000, "lat": 48.8783961, "lon": 2.3812008, "tags": {"STIF:zone": "1", "name": "Buttes Chaumont", "public_transport": "stop_position", "railway": "station", "ref:FR:FANTOIR": "75119S055H", "ref:FR:RATP": "1936", "ref:FR:STIF": "24683", "source": "STIF - 12/2016", "station": "subway", "subway": "yes", "type:RATP": "metro", "wheelchair": "no", "wikidata": "Q1018164", "wikipedia": "fr:Buttes Chaumont (m\u00e9tro de Paris)"}}, {"type": "node", "id": 243358029, "lat": 48.8809263, "lon": 2.3739077, "tags": {"STIF:zone": "1", "name": "Bolivar", "public_transport": "stop_position", "railway": "station", "ref:FR:FANTOIR": "75119S046Y", "ref:FR:RATP": "2014", "ref:FR:STIF": "24685", "source": "STIF - 12/2016", "station": "subway", "subway": "yes", "type:RATP": "metro", "wikidata": "Q891362", "wikipedia": "fr:Bolivar (m\u00e9tro de Paris)"}}, {"type": "node", "id": 243490761, "lat": 48.8667079, "lon": 2.3833739, "tags": {"STIF:zone": "1", "name": "M\u00e9nilmontant", "public_transport": "stop_position", "railway": "station", "ref:FR:FANTOIR": "75111S328P", "ref:FR:RATP": "1754", "ref:FR:STIF": "22116", "source": "STIF - 12/2016", "station": "subway", "subway": "yes", "type:RATP": "metro", "wheelchair": "no", "wikidata": "Q119911", "wikipedia": "fr:M\u00e9nilmontant (m\u00e9tro de Paris)"}}, {"type": "node", "id": 243493845, "lat": 48.872053, "lon": 2.3769446, "tags": {"STIF:zone": "1", "alt_name": "Belleville-Commune de Paris 1871", "name": "Belleville", "public_transport": "station", "railway": "station", "ref:FR:FANTOIR": "75110S038B", "ref:FR:RATP": "2004", "ref:FR:STIF": "21998", "source": "STIF - 12/2016", "station": "subway", "subway": "yes", "type:RATP": "metro", "wheelchair": "no", "wikidata": "Q815946", "wikipedia": "fr:Belleville (m\u00e9tro de Paris)"}}, {"type": "node", "id": 243493846, "lat": 48.869062, "lon": 2.3804698, "tags": {"STIF:zone": "1", "name": "Couronnes", "public_transport": "stop_position", "railway": "station", "ref:FR:FANTOIR": "75111S106Y", "ref:FR:RATP": "1893", "ref:FR:STIF": "22126", "source": "STIF - 12/2016", "station": "subway", "subway": "yes", "type:RATP": "metro", "wheelchair": "no", "wikidata": "Q1137705", "wikipedia": "fr:Couronnes (m\u00e9tro de Paris)"}}, {"type": "node", "id": 243493916, "lat": 48.8774215, "lon": 2.3710197, "tags": {"STIF:zone": "1", "name": "Colonel Fabien", "old_name": "Combat", "public_transport": "stop_position", "railway": "station", "ref:FR:FANTOIR": "75110S097R", "ref:FR:RATP": "1972", "ref:FR:STIF": "22120", "source": "STIF - 12/2016", "station": "subway", "subway": "yes", "type:RATP": "metro", "wheelchair": "no", "wikidata": "Q1110656", "wikipedia": "fr:Colonel Fabien (m\u00e9tro de Paris)"}}, {"type": "node", "id": 243496025, "lat": 48.8834886, "lon": 2.3336343, "tags": {"STIF:zone": "1", "name": "Blanche", "public_transport": "station", "railway": "station", "ref:FR:FANTOIR": "75118S043B", "ref:FR:RATP": "2009", "ref:FR:STIF": "22125", "source": "STIF - 12/2016", "station": "subway", "subway": "yes", "type:RATP": "metro", "wheelchair": "no", "wikidata": "Q881406", "wikipedia": "fr:Blanche (m\u00e9tro de Paris)"}}, {"type": "node", "id": 243507789, "lat": 48.8643338, "lon": 2.3794812, "tags": {"STIF:zone": "1", "name": "Rue Saint-Maur", "name:ru": "\u0420\u044e-\u0421\u0435\u043d-\u041c\u043e\u0440", "public_transport": "station", "railway": "station", "ref:FR:FANTOIR": "75111S520Y", "ref:FR:RATP": "1693", "ref:FR:STIF": "22025", "source": "STIF - 12/2016", "station": "subway", "subway": "yes", "type:RATP": "metro", "wheelchair": "no", "wikidata": "Q1315757", "wikipedia": "fr:Rue Saint-Maur (m\u00e9tro de Paris)"}}, {"type": "node", "id": 243507790, "lat": 48.8653786, "lon": 2.3739112, "tags": {"STIF:zone": "1", "name": "Parmentier", "name:ru": "\u041f\u0430\u0440\u043c\u0430\u043d\u0442\u044c\u0435", "public_transport": "station", "railway": "station", "ref:FR:FANTOIR": "75111S404X", "ref:FR:RATP": "1779", "ref:FR:STIF": "22019", "source": "STIF - 12/2016", "station": "subway", "subway": "yes", "type:RATP": "metro", "wheelchair": "no", "wikidata": "Q1970334", "wikipedia": "fr:Parmentier (m\u00e9tro de Paris)"}}, {"type": "node", "id": 243507792, "lat": 48.8664991, "lon": 2.3607114, "tags": {"STIF:zone": "1", "addr:city": "Paris", "name": "Temple", "name:fr": "Temple", "name:ru": "\u0422\u0430\u043c\u043f\u043b\u044c", "public_transport": "station", "railway": "station", "ref:FR:FANTOIR": "75103S562B", "ref:FR:RATP": "1634", "ref:FR:STIF": "22026", "source": "STIF - 12/2016", "station": "subway", "subway": "yes", "type:RATP": "metro", "wheelchair": "no", "wikidata": "Q1660212", "wikipedia": "fr:Temple (m\u00e9tro de Paris)"}}, {"type": "node", "id": 243507793, "lat": 48.8654414, "lon": 2.3561316, "tags": {"STIF:zone": "1", "addr:city": "Paris", "check_date:wheelchair": "2021-02-01", "name": "Arts et M\u00e9tiers", "name:ru": "\u0410\u0440-\u044d-\u041c\u0435\u0442\u044c\u0435", "operator": "RATP", "public_transport": "station", "railway": "station", "ref:FR:RATP": "1988", "ref:FR:STIF": "21994", "source": "STIF - 12/2016", "station": "subway", "subway": "yes", "type:RATP": "metro", "wheelchair": "no", "wikidata": "Q713944", "wikipedia": "fr:Arts et M\u00e9tiers (m\u00e9tro de Paris)"}}, {"type": "node", "id": 243510334, "lat": 48.8686333, "lon": 2.3414766, "tags": {"STIF:zone": "1", "name": "Bourse", "name:ru": "\u0411\u0443\u0440\u0441", "public_transport": "station", "railway": "station", "ref:FR:FANTOIR": "75102S052B", "ref:FR:RATP": "1930", "ref:FR:STIF": "22033", "source": "STIF - 12/2016", "station": "subway", "type:RATP": "metro", "wheelchair": "no", "wikidata": "Q895259", "wikipedia": "fr:Bourse (m\u00e9tro de Paris)"}}, {"type": "node", "id": 243510335, "lat": 48.8695954, "lon": 2.3359026, "tags": {"STIF:zone": "1", "name": "Quatre Septembre", "name:fr": "Quatre Septembre", "name:ru": "\u041a\u0430\u0442\u0440-\u0421\u0435\u043f\u0442\u0430\u043c\u0431\u0440", "public_transport": "station", "railway": "station", "ref:FR:FANTOIR": "75102S473J", "ref:FR:RATP": "1744", "ref:FR:STIF": "22024", "source": "STIF - 12/2016", "station": "subway", "subway": "yes", "type:RATP": "metro", "wheelchair": "no", "wikidata": "Q945229", "wikipedia": "fr:Quatre-Septembre (m\u00e9tro de Paris)"}}, {"type": "node", "id": 243510336, "lat": 48.8706446, "lon": 2.33233, "tags": {"STIF:zone": "1", "name": "Op\u00e9ra", "name:ru": "\u041e\u043f\u0435\u0440\u0430", "railway": "station", "ref:FR:FANTOIR": "75109S383F", "ref:FR:RATP": "1771", "ref:FR:STIF": "22030", "source": "STIF - 12/2016", "station": "subway", "type:RATP": "metro", "wheelchair": "no", "wikidata": "Q1392037", "wikipedia": "fr:Op\u00e9ra (m\u00e9tro de Paris)"}}, {"type": "node", "id": 249335596, "lat": 48.8905061, "lon": 2.3599967, "tags": {"STIF:zone": "1", "name": "Marx Dormoy", "old_name": "Torcy", "public_transport": "stop_position", "railway": "station", "ref:FR:FANTOIR": "75118S324G", "ref:FR:RATP": "1831", "ref:FR:STIF": "22053", "source": "STIF - 12/2016", "station": "subway", "subway": "yes", "type:RATP": "metro", "wheelchair": "no", "wikidata": "Q1622759", "wikipedia": "fr:Marx Dormoy (m\u00e9tro de Paris)"}}, {"type": "node", "id": 251387813, "lat": 48.8711191, "lon": 2.3607546, "tags": {"STIF:zone": "1", "name": "Jacques Bonsergent", "old_name": "Lancry", "public_transport": "stop_position", "railway": "station", "ref:FR:FANTOIR": "75110S251H", "ref:FR:RATP": "1859", "ref:FR:STIF": "22011", "source": "STIF - 12/2016", "station": "subway", "subway": "yes", "type:RATP": "metro", "wheelchair": "yes", "wikidata": "Q1677923", "wikipedia": "fr:Jacques Bonsergent (m\u00e9tro de Paris)"}}, {"type": "node", "id": 256896059, "lat": 48.8640529, "lon": 2.3694165, "tags": {"STIF:zone": "1", "name": "Oberkampf", "public_transport": "station", "railway": "station", "ref:FR:FANTOIR": "75111S381X", "ref:FR:RATP": "1769", "ref:FR:STIF": "21925", "source": "STIF - 12/2016", "station": "subway", "subway": "yes", "type:RATP": "metro", "wheelchair": "no", "wikidata": "Q1578030", "wikipedia": "fr:Oberkampf (m\u00e9tro de Paris)"}}, {"type": "node", "id": 256897078, "lat": 48.8706233, "lon": 2.3487498, "tags": {"STIF:zone": "1", "name": "Bonne Nouvelle", "public_transport": "station", "railway": "station", "ref:FR:FANTOIR": "75102P003Z;75102P004A", "ref:FR:RATP": "2015", "ref:FR:STIF": "21933", "source": "STIF - 12/2016", "station": "subway", "subway": "yes", "type:RATP": "metro", "wheelchair": "no", "wikidata": "Q892720", "wikipedia": "fr:Bonne-Nouvelle (m\u00e9tro de Paris)"}}, {"type": "node", "id": 256897079, "lat": 48.8714412, "lon": 2.3434953, "tags": {"STIF:zone": "1", "name": "Grands Boulevards", "old_name": "Montmartre; rue Montmartre", "public_transport": "station", "railway": "station", "ref:FR:RATP": "1671", "ref:FR:STIF": "21909", "source": "STIF - 12/2016", "station": "subway", "subway": "yes", "type:RATP": "metro", "wheelchair": "no", "wikidata": "Q1543053", "wikipedia": "fr:Grands Boulevards (m\u00e9tro de Paris)"}}, {"type": "node", "id": 264495077, "lat": 48.8763251, "lon": 2.3326415, "tags": {"STIF:zone": "1", "name": "Trinit\u00e9 d'Estienne d'Orves", "name:ru": "\u0422\u0440\u0438\u043d\u0438\u0442\u0435 \u2014 \u0434\u2019\u042d\u0441\u0442\u044c\u0435\u043d \u0434\u2019\u041e\u0440\u0432", "railway": "station", "ref:FR:FANTOIR": "75109S565D", "ref:FR:RATP": "1638;3108", "ref:FR:STIF": "22046", "source": "STIF - 12/2016", "station": "subway", "type:RATP": "metro", "wheelchair": "no", "wikidata": "Q1316395", "wikipedia": "fr:Trinit\u00e9 - d'Estienne d'Orves (m\u00e9tro de Paris)"}}, {"type": "node", "id": 264495078, "lat": 48.8759935, "lon": 2.3385437, "tags": {"STIF:zone": "1", "name": "Notre-Dame de Lorette", "name:ru": "\u041d\u043e\u0442\u0440-\u0414\u0430\u043c-\u0434\u0435-\u041b\u043e\u0440\u0435\u0442", "railway": "station", "ref:FR:FANTOIR": "75109S365L", "ref:FR:RATP": "1767;3109", "ref:FR:STIF": "22050", "source": "STIF - 12/2016", "station": "subway", "type:RATP": "metro", "wheelchair": "no", "wikidata": "Q575604", "wikipedia": "fr:Notre-Dame-de-Lorette (m\u00e9tro de Paris)"}}, {"type": "node", "id": 264504832, "lat": 48.8784469, "lon": 2.337458, "tags": {"STIF:zone": "1", "name": "Saint-Georges", "name:ru": "\u0421\u0435\u043d-\u0416\u043e\u0440\u0436", "public_transport": "station", "railway": "station", "ref:FR:FANTOIR": "75109S514Y", "ref:FR:RATP": "3110;1686", "ref:FR:STIF": "22044", "source": "STIF - 12/2016", "station": "subway", "subway": "yes", "type:RATP": "metro", "wheelchair": "no", "wikidata": "Q1937499", "wikipedia": "fr:Saint-Georges (m\u00e9tro de Paris)"}}, {"type": "node", "id": 264505115, "lat": 48.8845677, "lon": 2.3379294, "tags": {"STIF:zone": "1", "name": "Abbesses", "name:ru": "\u0410\u0431\u0431\u0435\u0441", "public_transport": "station", "railway": "station", "ref:FR:FANTOIR": "75118S001F", "ref:FR:RATP": "1975", "ref:FR:STIF": "22059", "source": "STIF - 12/2016", "station": "subway", "subway": "yes", "type:RATP": "metro", "wheelchair": "no", "wikidata": "Q306256", "wikipedia": "fr:Abbesses (m\u00e9tro de Paris)"}}, {"type": "node", "id": 264505153, "lat": 48.8897543, "lon": 2.3388254, "tags": {"STIF:zone": "1", "name": "Lamarck - Caulaincourt", "name:ru": "\u041b\u0430\u043c\u0430\u0440\u043a \u2014 \u041a\u043e\u043b\u0435\u043d\u043a\u0443\u0440", "public_transport": "station", "railway": "station", "ref:FR:FANTOIR": "75118S282L", "ref:FR:RATP": "1879", "ref:FR:STIF": "22055", "source": "STIF - 12/2016", "station": "subway", "subway": "yes", "type:RATP": "metro", "wheelchair": "no", "wikidata": "Q980380", "wikipedia": "fr:Lamarck - Caulaincourt (m\u00e9tro de Paris)"}}, {"type": "node", "id": 264505450, "lat": 48.8924628, "lon": 2.3446394, "tags": {"STIF:zone": "1", "name": "Jules Joffrin", "name:ru": "\u0416\u044e\u043b\u044c \u0416\u043e\u0444\u0444\u0440\u0435\u043d", "public_transport": "station", "railway": "station", "ref:FR:FANTOIR": "75118S257J", "ref:FR:RATP": "1865", "ref:FR:STIF": "22054", "source": "STIF - 12/2016", "station": "subway", "subway": "yes", "type:RATP": "metro", "wheelchair": "no", "wikidata": "Q617430", "wikipedia": "fr:Jules Joffrin (m\u00e9tro de Paris)"}}, {"type": "node", "id": 264505930, "lat": 48.8977035, "lon": 2.3594563, "tags": {"STIF:zone": "1", "layer": "-4", "name": "Porte de la Chapelle", "public_transport": "stop_position", "railway": "station", "ref:FR:RATP": "1734", "ref:FR:STIF": "22041", "source": "STIF - 12/2016", "station": "subway", "subway": "yes", "type:RATP": "metro", "wheelchair": "limited", "wikidata": "Q382659", "wikipedia": "fr:Porte de la Chapelle (m\u00e9tro de Paris)"}}, {"type": "node", "id": 264505993, "lat": 48.8938481, "lon": 2.3478412, "tags": {"STIF:zone": "1", "name": "Simplon", "operator": "RATP", "public_transport": "stop_position", "railway": "station", "ref:FR:FANTOIR": "75118S534K", "ref:FR:RATP": "1621", "ref:FR:STIF": "22133", "source": "STIF - 12/2016", "station": "subway", "subway": "yes", "type:RATP": "metro", "wheelchair": "no", "wikidata": "Q163879", "wikipedia": "fr:Simplon (m\u00e9tro de Paris)"}}, {"type": "node", "id": 264508548, "lat": 48.8762027, "lon": 2.3579127, "tags": {"STIF:zone": "1", "addr:city": "Paris", "addr:postcode": "75010", "alt_name": "Gare de l'Est (Verdun)", "name": "Gare de l'Est", "network": "M\u00e9tro de Paris;RATP", "operator": "RATP", "public_transport": "station", "railway": "station", "ref:FR:FANTOIR": "75110S184K", "ref:FR:RATP": "1841", "ref:FR:STIF": "41010", "source": "STIF - 12/2016", "station": "subway", "subway": "yes", "type:RATP": "metro", "wikidata": "Q1494172", "wikipedia": "fr:Gare de l'Est (m\u00e9tro de Paris)"}}, {"type": "node", "id": 264591604, "lat": 48.8699854, "lon": 2.3710671, "tags": {"STIF:zone": "1", "alt_name": "Goncourt (H\u00f4pital Saint-Louis)", "name": "Goncourt", "public_transport": "stop_position", "railway": "station", "ref:FR:FANTOIR": "75111S195V", "ref:FR:RATP": "1849", "ref:FR:STIF": "21996", "source": "STIF - 12/2016", "station": "subway", "subway": "yes", "type:RATP": "metro", "wheelchair": "no", "wikidata": "Q1536969", "wikipedia": "fr:Goncourt (m\u00e9tro de Paris)"}}, {"type": "node", "id": 264776028, "lat": 48.8884812, "lon": 2.3742226, "tags": {"STIF:zone": "1", "name": "Riquet", "public_transport": "stop_position", "railway": "station", "ref:FR:FANTOIR": "75119S489E", "ref:FR:RATP": "1666", "ref:FR:STIF": "22371", "source": "STIF - 12/2016", "station": "subway", "subway": "yes", "type:RATP": "metro", "wheelchair": "no", "wikidata": "Q1772478", "wikipedia": "fr:Riquet (m\u00e9tro de Paris)"}}, {"type": "node", "id": 264776029, "lat": 48.8908513, "lon": 2.3773681, "tags": {"STIF:zone": "1", "name": "Crim\u00e9e", "public_transport": "stop_position", "railway": "station", "ref:FR:FANTOIR": "75119S107P", "ref:FR:RATP": "1894", "ref:FR:STIF": "22392", "source": "STIF - 12/2016;survey;local knowledge;streetlevel imagery", "station": "subway", "subway": "yes", "type:RATP": "metro", "wheelchair": "no", "wikidata": "Q746288", "wikipedia": "fr:Crim\u00e9e (m\u00e9tro de Paris)"}}, {"type": "node", "id": 264776910, "lat": 48.8947282, "lon": 2.3823046, "tags": {"STIF:zone": "1", "name": "Corentin Cariou", "old_name": "Pont de Flandre", "public_transport": "stop_position", "railway": "station", "ref:FR:FANTOIR": "75119S101H", "ref:FR:RATP": "1888", "ref:FR:STIF": "22389", "source": "STIF - 12/2016", "station": "subway", "subway": "yes", "type:RATP": "metro", "wheelchair": "no", "wikidata": "Q120303", "wikipedia": "fr:Corentin Cariou (m\u00e9tro de Paris)"}}, {"type": "node", "id": 326309672, "lat": 48.8788923, "lon": 2.3624779, "tags": {"STIF:zone": "1", "name": "Ch\u00e2teau Landon", "public_transport": "stop_position", "railway": "station", "ref:FR:FANTOIR": "75110S087E", "ref:FR:RATP": "1963", "ref:FR:STIF": "22367", "source": "STIF - 12/2016", "station": "subway", "subway": "yes", "type:RATP": "metro", "wheelchair": "no", "wikidata": "Q1090315", "wikipedia": "fr:Ch\u00e2teau-Landon (m\u00e9tro de Paris)"}}, {"type": "node", "id": 329974472, "lat": 48.8808038, "lon": 2.3587094, "tags": {"STIF:zone": "1", "layer": "-3", "name": "Magenta", "network": "RER", "note": "Please do not add the tag public_transport=station, it is already on the way that defines the footprint of the station", "operator": "SNCF", "railway": "station", "ref:FR:RATP": "51923", "ref:FR:STIF": "41126", "ref:FR:uic8": "87281873", "source": "\u00cele-de-France Mobilit\u00e9s - 03/2022", "start_date": "1999-07-14", "train": "yes", "type:RATP": "rer", "uic_ref": "8728187", "wheelchair": "limited", "wikidata": "Q608428", "wikipedia": "fr:Gare de Magenta"}}, {"type": "node", "id": 1481147746, "lat": 48.8914837, "lon": 2.3497296, "tags": {"STIF:zone": "1", "name": "Marcadet - Poissonniers", "operator": "RATP", "public_transport": "stop_position", "railway": "station", "ref:FR:RATP": "1828", "ref:FR:STIF": "22052", "source": "STIF - 12/2016", "station": "subway", "subway": "yes", "type:RATP": "metro", "wheelchair": "no", "wikidata": "Q1892927", "wikipedia": "fr:Marcadet - Poissonniers (m\u00e9tro de Paris)"}}, {"type": "node", "id": 1780486821, "lat": 48.8973976, "lon": 2.3448521, "tags": {"STIF:zone": "1", "name": "Porte de Clignancourt", "operator": "RATP", "public_transport": "stop_position", "railway": "station", "ref:FR:FANTOIR": "75118S435C", "ref:FR:RATP": "1726", "ref:FR:STIF": "22141", "source": "STIF - 12/2016", "station": "subway", "subway": "yes", "type:RATP": "metro", "wheelchair": "no", "wikidata": "Q1969480", "wikipedia": "fr:Porte de Clignancourt (m\u00e9tro de Paris)"}}, {"type": "node", "id": 1997722992, "lat": 48.8825949, "lon": 2.3703263, "tags": {"STIF:zone": "1", "addr:city": "Paris", "name": "Jaur\u00e8s", "old_name": "Rue d\u2019Allemagne", "public_transport": "station", "railway": "station", "ref:FR:FANTOIR": "75119S254Z;75110S254L", "ref:FR:RATP": "1861", "ref:FR:STIF": "24680", "source": "STIF - 12/2016", "station": "subway", "subway": "yes", "type:RATP": "metro", "wheelchair": "no", "wikidata": "Q568195", "wikipedia": "fr:Jaur\u00e8s (m\u00e9tro de Paris)"}}, {"type": "node", "id": 2506241285, "lat": 48.8770979, "lon": 2.3594905, "tags": {"SNCF:stop_name": "Paris-Est", "STIF:zone": "1", "addr:city": "Paris", "addr:postcode": "75010", "addr:street": "Place du 11 Novembre 1918", "alt_name": "Paris-Est;Gare de Paris-Est;Gare de l'Est", "bench": "yes", "internet_access": "wlan", "internet_access:fee": "no", "name": "Paris Gare de l'Est", "name:de": "Paris Ostbahnhof", "name:ru": "\u0412\u043e\u0441\u0442\u043e\u0447\u043d\u044b\u0439 \u0432\u043e\u043a\u0437\u0430\u043b", "note": "Please do not add public_transport=station on this node as it is already present on the polygon", "operator": "SNCF", "owner": "SNCF Gares & Connexions", "railway": "station", "railway:ref": "PE", "railway:ref:DBAG": "XFPO", "ref:FR:STIF": "22387", "ref:FR:uic8": "87113001", "ref_name": "Paris Gare de l'Est", "shelter": "yes", "source": "STIF - 12/2016", "start_date": "1849-07-05", "train": "yes", "uic_ref": "8711300", "website": "https://www.garesetconnexions.sncf/fr", "wheelchair": "yes", "wikidata": "Q757180", "wikipedia": "fr:Gare de Paris-Est"}}, {"type": "node", "id": 3090733718, "lat": 48.8804003, "lon": 2.3549733, "tags": {"SNCF:stop_name": "Paris-Nord", "STIF:zone": "1", "addr:city": "Paris", "addr:country": "FR", "addr:housenumber": "112", "addr:postcode": "75010", "addr:street": "rue de Maubeuge", "internet_access": "wlan", "name": "Paris Gare du Nord", "name:de": "Paris Nordbahnhof", "name:ru": "\u0421\u0435\u0432\u0435\u0440\u043d\u044b\u0439 \u0432\u043e\u043a\u0437\u0430\u043b", "network": "SNCF.", "note": "Please do not add the tag public_transport=station, it is already on the way that defines the footprint of the station", "old_name": "Embarcad\u00e8re du Chemin de Fer du Nord", "operator": "SNCF", "railway": "station", "railway:ref:DB": "XFPN", "ref:FR:STIF": "41071", "ref:FR:uic8": "87271007;87271031", "train": "yes", "uic_ref": "8727100;8727103", "website": "https://www.garesetconnexions.sncf/fr/gare/frpno/paris-gare-du-nord", "wheelchair": "yes", "wikidata": "Q745942", "wikipedia": "fr:Gare de Paris-Nord"}}, {"type": "node", "id": 3197007911, "lat": 48.8676215, "lon": 2.3637014, "tags": {"STIF:zone": "1", "location": "underground", "name": "R\u00e9publique", "name:de": "Republik", "name:fr": "R\u00e9publique", "name:ru": "\u0420\u0435\u043f\u044e\u0431\u043b\u0438\u043a", "network": "RATP", "operator": "RATP", "public_transport": "station", "railway": "station", "ref:FR:FANTOIR": "75111S485K", "ref:FR:RATP": "1679", "ref:FR:STIF": "21903", "source": "STIF - 12/2016", "station": "subway", "subway": "yes", "type:RATP": "metro", "wheelchair": "yes", "wikidata": "Q1341849"}}, {"type": "node", "id": 3417692493, "lat": 48.8828803, "lon": 2.3442565, "tags": {"STIF:zone": "1", "name": "Anvers", "public_transport": "station", "railway": "station", "ref:FR:FANTOIR": "75118S009P", "ref:FR:RATP": "1984", "ref:FR:STIF": "22123", "source": "STIF - 12/2016", "station": "subway", "subway": "yes", "type:RATP": "metro", "wheelchair": "no", "wikidata": "Q612971", "wikipedia": "fr:Anvers (m\u00e9tro de Paris)"}}, {"type": "node", "id": 3417692497, "lat": 48.8846923, "lon": 2.3426644, "tags": {"STIF:zone": "1", "alt_name": "Funiculaire Gare basse", "name": "Funiculaire Montmartre - Station Inf\u00e9rieure", "operator": "RATP", "public_transport": "station", "railway": "station", "ref:FR:RATP": "2021", "ref:FR:STIF": "463175", "source": "Bing", "station": "funicular", "wheelchair": "yes"}}, {"type": "node", "id": 3417692499, "lat": 48.8856581, "lon": 2.3425549, "tags": {"STIF:zone": "1", "alt_name": "Funiculaire Gare haute", "name": "Funiculaire Montmartre - Station Sup\u00e9rieure", "operator": "RATP", "public_transport": "station", "railway": "station", "ref:FR:RATP": "2022", "ref:FR:STIF": "412355", "source": "Bing", "station": "funicular", "wheelchair": "yes"}}, {"type": "node", "id": 3417692501, "lat": 48.8844068, "lon": 2.3603057, "tags": {"STIF:zone": "1", "name": "La Chapelle", "public_transport": "station", "railway": "station", "ref:FR:FANTOIR": "75110S081Y", "ref:FR:RATP": "1868", "ref:FR:STIF": "22119", "source": "STIF - 12/2016", "station": "subway", "subway": "yes", "type:RATP": "metro", "wheelchair": "no", "wikidata": "Q1577103", "wikipedia": "fr:La Chapelle (m\u00e9tro de Paris)"}}, {"type": "node", "id": 3430515272, "lat": 48.8677091, "lon": 2.3457466, "tags": {"STIF:zone": "1", "addr:city": "Paris", "name": "Sentier", "name:ru": "\u0421\u0430\u043d\u0442\u044c\u0435", "public_transport": "station", "railway": "station", "ref:FR:FANTOIR": "75102S531X", "ref:FR:RATP": "1702", "ref:FR:STIF": "22029", "source": "STIF - 12/2016", "station": "subway", "subway": "yes", "type:RATP": "metro", "wheelchair": "no", "wikidata": "Q1783889", "wikipedia": "fr:Sentier (m\u00e9tro de Paris)"}}, {"type": "node", "id": 3884781096, "lat": 48.8964867, "lon": 2.3740572, "tags": {"STIF:zone": "1", "name": "Rosa Parks", "network": "RER", "operator": "SNCF", "railway": "station", "ref:FR:STIF": "75119", "ref:FR:uic8": "87654798", "source": "\u00cele-de-France Mobilit\u00e9s - 03/2022", "start_date": "2015-12-13", "train": "yes", "type:RATP": "rer", "uic_ref": "8765479", "wheelchair": "limited", "wikidata": "Q3095535", "wikipedia": "fr:Gare Rosa Parks"}}, {"type": "node", "id": 4067925155, "lat": 48.8822982, "lon": 2.3380899, "tags": {"STIF:zone": "1", "name": "Pigalle", "name:ru": "\u041f\u0438\u0433\u0430\u043b\u044c", "public_transport": "station", "railway": "station", "ref:FR:FANTOIR": "75109S415R", "ref:FR:RATP": "1787", "ref:FR:STIF": "22114", "source": "STIF - 12/2016", "station": "subway", "subway": "yes", "type:RATP": "metro", "wheelchair": "no", "wikidata": "Q338898", "wikipedia": "fr:Pigalle (m\u00e9tro de Paris)"}}, {"type": "node", "id": 4075421186, "lat": 48.8872884, "lon": 2.3495532, "tags": {"STIF:zone": "1", "check_date:wheelchair": "2023-04-11", "name": "Ch\u00e2teau Rouge", "operator": "RATP", "public_transport": "station", "railway": "station", "ref:FR:FANTOIR": "75118S088A", "ref:FR:RATP": "1960", "ref:FR:STIF": "22152", "source": "STIF - 12/2016", "station": "subway", "subway": "yes", "type:RATP": "metro", "wheelchair": "no", "wikidata": "Q957172", "wikipedia": "fr:Ch\u00e2teau Rouge (m\u00e9tro de Paris)"}}, {"type": "node", "id": 5226630386, "lat": 48.8693002, "lon": 2.3542855, "tags": {"STIF:zone": "1", "check_date:opening_hours": "2021-10-26", "name": "Strasbourg - Saint-Denis", "old_name": "Boulevard Saint-Denis", "opening_hours": "Mo-Su 05:00-01:30", "operator": "RATP", "public_transport": "station", "railway": "station", "ref:FR:FANTOIR": "75102S537D", "ref:FR:RATP": "1628", "ref:FR:STIF": "22159", "source": "STIF - 12/2016", "station": "subway", "subway": "yes", "type:RATP": "metro", "wheelchair": "no", "wikidata": "Q1403165", "wikipedia": "fr:Strasbourg - Saint-Denis (m\u00e9tro de Paris)"}}, {"type": "node", "id": 5226708287, "lat": 48.8837466, "lon": 2.3496958, "tags": {"STIF:zone": "1", "name": "Barb\u00e8s - Rochechouart", "operator": "RATP", "public_transport": "station", "railway": "station", "ref:FR:FANTOIR": "75109S035C", "ref:FR:RATP": "1999", "ref:FR:STIF": "22127", "source": "STIF - 12/2016", "station": "subway", "subway": "yes", "type:RATP": "metro", "wheelchair": "no", "wikidata": "Q807893", "wikipedia": "fr:Barb\u00e8s - Rochechouart (m\u00e9tro de Paris)"}}, {"type": "node", "id": 5228032207, "lat": 48.8815943, "lon": 2.3657982, "tags": {"STIF:zone": "1", "name": "Louis Blanc", "public_transport": "station", "railway": "station", "ref:FR:FANTOIR": "75110S290A", "ref:FR:RATP": "1806", "ref:FR:STIF": "24681", "source": "STIF - 12/2016", "station": "subway", "subway": "yes", "type:RATP": "metro", "wheelchair": "no", "wikidata": "Q1537255", "wikipedia": "fr:Louis Blanc (m\u00e9tro de Paris)"}}, {"type": "node", "id": 5230752679, "lat": 48.881399, "lon": 2.357438, "tags": {"STIF:zone": "1", "alt_name": "Paris Nord RER", "layer": "-2", "name": "Gare du Nord (RER)", "official_name": "PARIS NORD (GARE DU NORD)", "operator": "SNCF", "railway": "station", "railway:traffic_mode": "passenger", "ref": "RER B,D", "ref:FR:RATP": "1843", "ref:FR:STIF": "41071", "ref:FR:uic8": "87271023;87271007", "short_name": "Gare du Nord", "train": "yes", "type:RATP": "rer", "uic_ref": "8727102;8727100", "wheelchair": "yes", "wikidata": "Q745942", "wikipedia": "fr:Gare de Paris-Nord"}}, {"type": "node", "id": 5364676905, "lat": 48.8795666, "lon": 2.3572124, "tags": {"STIF:zone": "1", "addr:city": "Paris", "addr:postcode": "75010", "name": "Gare du Nord (M\u00e9tro)", "network": "RATP", "operator": "RATP", "public_transport": "station", "railway": "station", "ref:FR:FANTOIR": "75110S186M", "ref:FR:RATP": "1842", "ref:FR:STIF": "22007;22149", "short_name": "Gare du Nord", "start_date": "1907-11-15", "station": "subway", "subway": "yes", "type:RATP": "metro", "wheelchair": "no", "wikidata": "Q1494174", "wikipedia": "fr:Gare du Nord (m\u00e9tro de Paris)"}}, {"type": "node", "id": 5527829149, "lat": 48.8662481, "lon": 2.3526084, "tags": {"STIF:zone": "1", "addr:city": "Paris", "name": "R\u00e9aumur - S\u00e9bastopol", "name:fr": "R\u00e9aumur - S\u00e9bastopol", "name:ru": "\u0420\u0435\u043e\u043c\u044e\u0440 \u2014 \u0421\u0435\u0431\u0430\u0441\u0442\u043e\u043f\u043e\u043b\u044c", "old_name": "Rue Saint-Denis", "operator": "RATP", "public_transport": "station", "railway": "station", "ref:FR:FANTOIR": "75102S484W", "ref:FR:RATP": "1676", "ref:FR:STIF": "22018", "station": "subway", "subway": "yes", "type:RATP": "metro", "wheelchair": "no", "wikidata": "Q669850", "wikipedia": "fr:R\u00e9aumur - S\u00e9bastopol (m\u00e9tro de Paris)"}}, {"type": "node", "id": 5527829165, "lat": 48.8638718, "lon": 2.3490301, "tags": {"STIF:zone": "1", "addr:city": "Paris", "name": "\u00c9tienne Marcel", "operator": "RATP", "public_transport": "station", "railway": "station", "ref:FR:FANTOIR": "75101S146H", "ref:FR:RATP": "1914", "ref:FR:STIF": "22147", "station": "subway", "subway": "yes", "type:RATP": "metro", "wheelchair": "no", "wikidata": "Q289916", "wikipedia": "fr:\u00c9tienne Marcel (m\u00e9tro de Paris)"}}, {"type": "node", "id": 5527859168, "lat": 48.8728888, "lon": 2.3563528, "tags": {"STIF:zone": "1", "heritage": "3", "heritage:operator": "mhs", "mhs:inscription_date": "1978", "name": "Ch\u00e2teau d'Eau", "operator": "RATP", "public_transport": "station", "railway": "station", "ref:FR:FANTOIR": "75110S086D", "ref:FR:RATP": "1961", "ref:FR:STIF": "22153", "ref:mhs": "PA00086508", "source": "STIF - 12/2016", "station": "subway", "subway": "yes", "type:RATP": "metro", "wheelchair": "no", "wikidata": "Q1090753", "wikipedia": "fr:Ch\u00e2teau d'Eau (m\u00e9tro de Paris)"}}, {"type": "node", "id": 5528174509, "lat": 48.8730441, "lon": 2.3332127, "tags": {"STIF:zone": "1", "name": "Chauss\u00e9e d'Antin - La Fayette", "public_transport": "station", "railway": "station", "ref:FR:FANTOIR": "75109S092P", "ref:FR:RATP": "1957", "ref:FR:STIF": "21932;22388", "station": "subway", "subway": "yes", "type:RATP": "metro", "wheelchair": "no", "wikidata": "Q951466", "wikipedia": "fr:Chauss\u00e9e d'Antin - La Fayette (m\u00e9tro de Paris)"}}, {"type": "node", "id": 5528174511, "lat": 48.8748603, "lon": 2.340218, "tags": {"STIF:zone": "1", "name": "Le Peletier", "public_transport": "station", "railway": "station", "ref:FR:FANTOIR": "75109S288C", "ref:FR:RATP": "1795", "ref:FR:STIF": "22382", "source": "STIF - 12/2016", "station": "subway", "subway": "yes", "type:RATP": "metro", "wikidata": "Q1784008", "wikipedia": "fr:Le Peletier (m\u00e9tro de Paris)"}}, {"type": "node", "id": 5528174520, "lat": 48.8759778, "lon": 2.3444894, "tags": {"STIF:zone": "1", "name": "Cadet", "public_transport": "station", "railway": "station", "ref:FR:FANTOIR": "75109S071S", "ref:FR:RATP": "1939", "ref:FR:STIF": "22390", "source": "STIF - 12/2016", "station": "subway", "subway": "yes", "type:RATP": "metro", "wheelchair": "no", "wikidata": "Q1025135", "wikipedia": "fr:Cadet (m\u00e9tro de Paris)"}}, {"type": "node", "id": 5528176223, "lat": 48.8771197, "lon": 2.3487446, "tags": {"STIF:zone": "1", "addr:city": "Paris", "addr:postcode": "75009;75010", "addr:street": "Rue La Fayette", "name": "Poissonni\u00e8re", "network": "M\u00e9tro de Paris;RATP", "operator": "RATP", "public_transport": "station", "railway": "station", "ref:FR:FANTOIR": "75109S420W", "ref:FR:RATP": "1706", "ref:FR:STIF": "22377", "source": "STIF - 12/2016", "station": "subway", "subway": "yes", "type:RATP": "metro", "wheelchair": "no", "wikidata": "Q764106", "wikipedia": "fr:Poissonni\u00e8re (m\u00e9tro de Paris)"}}, {"type": "node", "id": 5528264337, "lat": 48.8657452, "lon": 2.3344687, "tags": {"STIF:zone": "1", "name": "Pyramides", "public_transport": "station", "railway": "station", "ref:FR:FANTOIR": "75101S452R", "ref:FR:RATP": "1738;50047", "ref:FR:STIF": "22375", "source": "STIF - 12/2016", "station": "subway", "subway": "yes", "type:RATP": "metro", "wheelchair": "limited", "wikidata": "Q1501462", "wikipedia": "fr:Pyramides (m\u00e9tro de Paris)"}}, {"type": "node", "id": 6368126235, "lat": 48.8715492, "lon": 2.3309148}, {"type": "node", "id": 6368126236, "lat": 48.8728498, "lon": 2.3286055}, {"type": "node", "id": 6368126237, "lat": 48.8727997, "lon": 2.3285403}, {"type": "node", "id": 6368126238, "lat": 48.8714991, "lon": 2.3308496}, {"type": "node", "id": 6368126240, "lat": 48.8729019, "lon": 2.3286747}, {"type": "node", "id": 6368126241, "lat": 48.8716034, "lon": 2.3309826}, {"type": "node", "id": 6368126242, "lat": 48.871653, "lon": 2.3310442}, {"type": "node", "id": 6368126243, "lat": 48.8729504, "lon": 2.3287378}, {"type": "node", "id": 6368126255, "lat": 48.8728643, "lon": 2.3286247}, {"type": "node", "id": 6368126256, "lat": 48.8715883, "lon": 2.3309636}, {"type": "node", "id": 6539839766, "lat": 48.8851647, "lon": 2.3794369, "tags": {"STIF:zone": "1", "name": "Laumi\u00e8re", "public_transport": "station", "railway": "station", "ref:FR:FANTOIR": "75119S286J", "ref:FR:RATP": "1882", "ref:FR:STIF": "22012", "source": "STIF - 12/2016", "station": "subway", "subway": "yes", "type:RATP": "metro", "wheelchair": "no", "wikidata": "Q1572249", "wikipedia": "fr:Laumi\u00e8re (m\u00e9tro de Paris)"}}, {"type": "node", "id": 8515111483, "lat": 48.8719671, "lon": 2.3392504, "tags": {"STIF:zone": "1", "level": "-2", "name": "Richelieu - Drouot", "name:ru": "\u0420\u0438\u0448\u0435\u043b\u044c\u0451 \u2014 \u0414\u0440\u0443\u043e", "network": "RATP", "operator": "RATP", "public_transport": "station", "railway": "station", "ref:FR:FANTOIR": "75109S488V", "ref:FR:RATP": "1665", "ref:FR:STIF": "22196", "source": "STIF - 12/2016", "station": "subway", "subway": "yes", "type:RATP": "metro", "wheelchair": "no", "wikidata": "Q1412692", "wikipedia": "fr:Richelieu - Drouot (m\u00e9tro de Paris)"}}, {"type": "node", "id": 11027628099, "lat": 48.8729414, "lon": 2.3287538}, {"type": "node", "id": 11027642780, "lat": 48.8721605, "lon": 2.3296753}, {"type": "way", "id": 680119434, "nodes": [6368126237, 6368126236, 6368126255, 6368126240, 6368126243, 11027628099, 6368126242, 6368126241, 6368126256, 6368126235, 6368126238, 11027642780, 6368126237], "tags": {"addr:city": "Paris", "addr:postcode": "75009", "addr:street": "Rue Auber", "layer": "-5", "level": "-5", "location": "underground", "name": "Auber", "network": "RER Parisien;RATP", "operator": "RATP", "public_transport": "station", "railway": "station", "start_date": "1971-11-23", "train": "yes", "wheelchair": "yes"}}]}