{"version": 0.6, "generator": "Overpass API 0.7.61.5 4133829e", "osm3s": {"timestamp_osm_base": "2023-12-09T23:49:30Z", "copyright": "The data included in this document is from www.openstreetmap.org. The data is made available under ODbL."}, "elements": [{"type": "node", "id": 282489109, "lat": 48.8739628, "lon": 2.3483713, "tags": {"amenity": "bicycle_rental", "bicycle_rental": "docking_station", "brand": "V\u00e9lib\u2019 M\u00e9tropole", "brand:wikidata": "Q1120762", "brand:wikipedia": "fr:V\u00e9lib' M\u00e9tropole", "capacity": "18", "disused:amenity": "bicycle_rental", "end_date": "2017-10-01", "name": "Petites \u00c9curies - Faubourg Poissonni\u00e8re", "network": "V\u00e9lib\u2019 M\u00e9tropole", "network:wikidata": "Q1120762", "network:wikipedia": "fr:V\u00e9lib' M\u00e9tropole", "operator": "Smovengo", "operator:wikidata": "Q47008427", "operator:wikipedia": "fr:Smovengo", "ref": "10005", "source": "Autolib Velib M\u00e9tropole - 04/2020", "wikidata": "Q86253014"}}, {"type": "node", "id": 416674461, "lat": 48.879237, "lon": 2.3686218, "tags": {"amenity": "bicycle_rental", "bicycle_rental": "docking_station", "brand": "V\u00e9lib\u2019 M\u00e9tropole", "brand:wikidata": "Q1120762", "brand:wikipedia": "fr:V\u00e9lib' M\u00e9tropole", "capacity": "31", "disused:amenity": "bicycle_rental", "end_date": "2017-10-01", "name": "Louis Blanc - Jemmapes", "network": "V\u00e9lib\u2019 M\u00e9tropole", "network:wikidata": "Q1120762", "network:wikipedia": "fr:V\u00e9lib' M\u00e9tropole", "operator": "Smovengo", "operator:wikidata": "Q47008427", "operator:wikipedia": "fr:Smovengo", "ref": "10110", "source": "Autolib Velib M\u00e9tropole - 04/2019", "wikidata": "Q86252980"}}, {"type": "node", "id": 428508903, "lat": 48.8803674, "lon": 2.3528307, "tags": {"amenity": "bicycle_rental", "bicycle_rental": "docking_station", "brand": "V\u00e9lib\u2019 M\u00e9tropole", "brand:wikidata": "Q1120762", "brand:wikipedia": "fr:V\u00e9lib' M\u00e9tropole", "capacity": "29", "name": "Gare du Nord - Dunkerque", "network": "V\u00e9lib\u2019 M\u00e9tropole", "network:wikidata": "Q1120762", "network:wikipedia": "fr:V\u00e9lib' M\u00e9tropole", "operator": "Smovengo", "operator:wikidata": "Q47008427", "operator:wikipedia": "fr:Smovengo", "ref": "10028", "source": "survey 10/2018", "wheelchair": "no", "wikidata": "Q86252960"}}, {"type": "node", "id": 439852117, "lat": 48.8643764, "lon": 2.3661622, "tags": {"amenity": "bicycle_rental", "bicycle_rental": "docking_station", "brand": "V\u00e9lib\u2019 M\u00e9tropole", "brand:wikidata": "Q1120762", "brand:wikipedia": "fr:V\u00e9lib' M\u00e9tropole", "capacity": "36", "fee": "yes", "name": "Temple - Jean-Pierre Timbaud", "network": "V\u00e9lib\u2019 M\u00e9tropole", "network:wikidata": "Q1120762", "network:wikipedia": "fr:V\u00e9lib' M\u00e9tropole", "operator": "Smovengo", "operator:wikidata": "Q47008427", "operator:wikipedia": "fr:Smovengo", "ref": "11040", "source": "Autolib Velib M\u00e9tropole - 04/2020", "unsigned_ref": "15298647", "wheelchair": "no", "wikidata": "Q86254490"}}, {"type": "node", "id": 998020842, "lat": 48.8667755, "lon": 2.3343748, "tags": {"amenity": "bicycle_rental", "bicycle_rental": "docking_station", "brand": "V\u00e9lib\u2019 M\u00e9tropole", "brand:wikidata": "Q1120762", "brand:wikipedia": "fr:V\u00e9lib' M\u00e9tropole", "capacity": "27", "name": "Ventadour - Op\u00e9ra", "network": "V\u00e9lib\u2019 M\u00e9tropole", "network:wikidata": "Q1120762", "network:wikipedia": "fr:V\u00e9lib' M\u00e9tropole", "operator": "Smovengo", "operator:wikidata": "Q47008427", "operator:wikipedia": "fr:Smovengo", "ref": "1116", "wikidata": "Q86255061"}}, {"type": "node", "id": 2350539184, "lat": 48.8862282, "lon": 2.3688612, "tags": {"amenity": "bicycle_rental", "bicycle_rental": "docking_station", "brand": "V\u00e9lib\u2019 M\u00e9tropole", "brand:wikidata": "Q1120762", "brand:wikipedia": "fr:V\u00e9lib' M\u00e9tropole", "capacity": "19", "name": "Tanger - Place du Maroc", "network": "V\u00e9lib\u2019 M\u00e9tropole", "network:wikidata": "Q1120762", "network:wikipedia": "fr:V\u00e9lib' M\u00e9tropole", "operator": "Smovengo", "operator:wikidata": "Q47008427", "operator:wikipedia": "fr:Smovengo", "ref": "19109", "source": "Autolib Velib M\u00e9tropole - 04/2019", "wikidata": "Q86254929"}}, {"type": "node", "id": 2358812897, "lat": 48.8668046, "lon": 2.3654899, "tags": {"amenity": "bicycle_rental", "bicycle_rental": "docking_station", "brand": "V\u00e9lib\u2019 M\u00e9tropole", "brand:wikidata": "Q1120762", "brand:wikipedia": "fr:V\u00e9lib' M\u00e9tropole", "capacity": "19", "name": "Place de la R\u00e9publique - Voltaire", "network": "V\u00e9lib\u2019 M\u00e9tropole", "network:wikidata": "Q1120762", "network:wikipedia": "fr:V\u00e9lib' M\u00e9tropole", "operator": "Smovengo", "operator:wikidata": "Q47008427", "operator:wikipedia": "fr:Smovengo", "ref": "11046", "source": "Autolib Velib M\u00e9tropole - 04/2020", "wikidata": "Q86254495"}}, {"type": "node", "id": 4982774223, "lat": 48.8669059, "lon": 2.3823236, "tags": {"amenity": "bicycle_rental", "bicycle_rental": "docking_station", "brand": "V\u00e9lib\u2019 M\u00e9tropole", "brand:wikidata": "Q1120762", "brand:wikipedia": "fr:V\u00e9lib' M\u00e9tropole", "capacity": "40", "description": "Deuxi\u00e8me partie de la station, abonnement uniquement.", "name": "M\u00e9nilmontant - Oberkampf", "network": "V\u00e9lib\u2019 M\u00e9tropole", "network:wikidata": "Q1120762", "network:wikipedia": "fr:V\u00e9lib' M\u00e9tropole", "operator": "Smovengo", "operator:wikidata": "Q47008427", "operator:wikipedia": "fr:Smovengo", "ref": "11029", "wikidata": "Q86254514"}}, {"type": "node", "id": 5422046619, "lat": 48.8866841, "lon": 2.361445, "tags": {"amenity": "bicycle_rental", "bicycle_rental": "docking_station", "brand": "V\u00e9lib\u2019 M\u00e9tropole", "brand:wikidata": "Q1120762", "brand:wikipedia": "fr:V\u00e9lib' M\u00e9tropole", "capacity": "19", "name": "Departement - Pajol", "network": "V\u00e9lib\u2019 M\u00e9tropole", "network:wikidata": "Q1120762", "network:wikipedia": "fr:V\u00e9lib' M\u00e9tropole", "operator": "Smovengo", "operator:wikidata": "Q47008427", "operator:wikipedia": "fr:Smovengo", "ref": "18110", "source": "Autolib Velib M\u00e9tropole - 04/2019", "wikidata": "Q86254459"}}, {"type": "node", "id": 5422420400, "lat": 48.890199, "lon": 2.3603326, "tags": {"amenity": "bicycle_rental", "bicycle_rental": "dropoff_point", "brand": "V\u00e9lib'", "capacity": "29", "name": "Riquet - Marx Dormoy", "network": "V\u00e9lib\u2019", "operator": "Smovengo", "ref": "18010", "source": "Connaissance locale", "wikidata": "Q86254436"}}, {"type": "node", "id": 5470979535, "lat": 48.889479, "lon": 2.3627914, "tags": {"amenity": "bicycle_rental", "bicycle_rental": "docking_station", "brand": "V\u00e9lib\u2019 M\u00e9tropole", "brand:wikidata": "Q1120762", "brand:wikipedia": "fr:V\u00e9lib' M\u00e9tropole", "capacity": "47", "name": "Pajol - Riquet", "network": "V\u00e9lib\u2019 M\u00e9tropole", "network:wikidata": "Q1120762", "network:wikipedia": "fr:V\u00e9lib' M\u00e9tropole", "operator": "Smovengo", "operator:wikidata": "Q47008427", "operator:wikipedia": "fr:Smovengo", "payment:credit_cards": "yes", "ref": "18109", "source": "Autolib Velib M\u00e9tropole - 2021-03", "wikidata": "Q86254444"}}, {"type": "node", "id": 5540287647, "lat": 48.8798271, "lon": 2.3454459}, {"type": "node", "id": 5540287648, "lat": 48.8798141, "lon": 2.3454382}, {"type": "node", "id": 5540287649, "lat": 48.8798674, "lon": 2.3452076}, {"type": "node", "id": 5540287650, "lat": 48.8798815, "lon": 2.3452153}, {"type": "node", "id": 5569041170, "lat": 48.8935069, "lon": 2.3366674, "tags": {"amenity": "bicycle_rental", "bicycle_rental": "docking_station", "capacity": "30", "name": "Damr\u00e9mont - Ordener", "network": "V\u00e9lib\u2019", "operator": "Smovengo", "ref": "18027", "source": "Autolib Velib M\u00e9tropole - 2021-03", "wikidata": "Q86254466"}}, {"type": "node", "id": 5569041179, "lat": 48.8912197, "lon": 2.3512598, "tags": {"amenity": "bicycle_rental", "capacity": "35", "name": "Ordener - Poissonniers", "network": "V\u00e9lib\u2019", "operator": "Smovengo", "ref": "18023", "source": "Autolib Velib M\u00e9tropole - 2021-03", "wikidata": "Q86253526"}}, {"type": "node", "id": 5596256890, "lat": 48.8829038, "lon": 2.3463669, "tags": {"amenity": "bicycle_rental", "bicycle_rental": "docking_station", "brand": "V\u00e9lib\u2019 M\u00e9tropole", "brand:wikidata": "Q1120762", "brand:wikipedia": "fr:V\u00e9lib' M\u00e9tropole", "capacity": "21", "name": "G\u00e9rando - Rochechouart", "network": "V\u00e9lib\u2019 M\u00e9tropole", "network:wikidata": "Q1120762", "network:wikipedia": "fr:V\u00e9lib' M\u00e9tropole", "operator": "Smovengo", "operator:wikidata": "Q47008427", "operator:wikipedia": "fr:Smovengo", "ref": "9004", "source": "Autolib Velib M\u00e9tropole - 04/2019", "vending": "no", "wikidata": "Q86254667"}}, {"type": "node", "id": 5596257214, "lat": 48.8826283, "lon": 2.3449016, "tags": {"amenity": "bicycle_rental", "bicycle_rental": "docking_station", "brand": "V\u00e9lib\u2019 M\u00e9tropole", "brand:wikidata": "Q1120762", "brand:wikipedia": "fr:V\u00e9lib' M\u00e9tropole", "capacity": "33", "name": "Square d'Anvers", "network": "V\u00e9lib\u2019 M\u00e9tropole", "network:wikidata": "Q1120762", "network:wikipedia": "fr:V\u00e9lib' M\u00e9tropole", "operator": "Smovengo", "operator:wikidata": "Q47008427", "operator:wikipedia": "fr:Smovengo", "ref": "9005", "source": "Autolib Velib M\u00e9tropole - 04/2020", "vending": "no", "wikidata": "Q86254701"}}, {"type": "node", "id": 5627118343, "lat": 48.8645723, "lon": 2.3463019, "tags": {"amenity": "bicycle_rental", "bicycle_rental": "docking_station", "brand": "V\u00e9lib\u2019 M\u00e9tropole", "brand:wikidata": "Q1120762", "brand:wikipedia": "fr:V\u00e9lib' M\u00e9tropole", "capacity": "28", "name": "\u00c9tienne Marcel - Montorgueil", "network": "V\u00e9lib\u2019 M\u00e9tropole", "network:wikidata": "Q1120762", "network:wikipedia": "fr:V\u00e9lib' M\u00e9tropole", "operator": "Smovengo", "operator:wikidata": "Q47008427", "operator:wikipedia": "fr:Smovengo", "ref": "2002", "source": "Autolib Velib M\u00e9tropole - 2021-03", "wikidata": "Q86255072"}}, {"type": "node", "id": 5659056369, "lat": 48.8661047, "lon": 2.3454362, "tags": {"amenity": "bicycle_rental", "bicycle_rental": "docking_station", "brand": "V\u00e9lib\u2019 M\u00e9tropole", "brand:wikidata": "Q1120762", "brand:wikipedia": "fr:V\u00e9lib' M\u00e9tropole", "capacity": "33", "name": "Bachaumont - Montmartre", "network": "V\u00e9lib\u2019 M\u00e9tropole", "network:wikidata": "Q1120762", "network:wikipedia": "fr:V\u00e9lib' M\u00e9tropole", "note": "localisation aproximative dans open data paris (de 50m)", "operator": "Smovengo", "operator:wikidata": "Q47008427", "operator:wikipedia": "fr:Smovengo", "ref": "2101", "source": "Autolib Velib M\u00e9tropole - 04/2020", "wikidata": "Q86254761"}}, {"type": "node", "id": 5838535122, "lat": 48.8655857, "lon": 2.3561633, "tags": {"amenity": "bicycle_rental", "bicycle_rental": "docking_station", "brand": "V\u00e9lib\u2019 M\u00e9tropole", "brand:wikidata": "Q1120762", "brand:wikipedia": "fr:V\u00e9lib' M\u00e9tropole", "capacity": "31", "name": "Turbigo - R\u00e9aumur", "network": "V\u00e9lib\u2019 M\u00e9tropole", "network:wikidata": "Q1120762", "network:wikipedia": "fr:V\u00e9lib' M\u00e9tropole", "operator": "Smovengo", "operator:wikidata": "Q47008427", "operator:wikipedia": "fr:Smovengo", "ref": "3011", "source": "Autolib Velib M\u00e9tropole - 2021-03", "wikidata": "Q86255157"}}, {"type": "node", "id": 5882629462, "lat": 48.8645182, "lon": 2.3616458, "tags": {"amenity": "bicycle_rental", "bicycle_rental": "docking_station", "brand": "V\u00e9lib\u2019 M\u00e9tropole", "brand:wikidata": "Q1120762", "capacity": "32", "name": "Mairie du 3\u00e8me", "network": "V\u00e9lib\u2019 M\u00e9tropole", "network:wikidata": "Q1120762", "operator": "Smovengo", "operator:wikidata": "Q47008427", "ref": "3006", "source": "Autolib Velib M\u00e9tropole - 2021-03", "wikidata": "Q86255132"}}, {"type": "node", "id": 5925974721, "lat": 48.8652434, "lon": 2.3516713, "tags": {"amenity": "bicycle_rental", "bicycle_rental": "docking_station", "brand": "V\u00e9lib\u2019 M\u00e9tropole", "brand:wikidata": "Q1120762", "brand:wikipedia": "fr:V\u00e9lib' M\u00e9tropole", "capacity": "30", "name": "Greneta - Sebastopol", "network": "V\u00e9lib\u2019 M\u00e9tropole", "network:wikidata": "Q1120762", "network:wikipedia": "fr:V\u00e9lib' M\u00e9tropole", "operator": "Smovengo", "operator:wikidata": "Q47008427", "operator:wikipedia": "fr:Smovengo", "ref": "2001", "source": "Autolib Velib M\u00e9tropole - 04/2020", "wikidata": "Q86254755"}}, {"type": "node", "id": 5925974722, "lat": 48.8661916, "lon": 2.3508795, "tags": {"amenity": "bicycle_rental", "bicycle_rental": "docking_station", "brand": "V\u00e9lib\u2019 M\u00e9tropole", "brand:wikidata": "Q1120762", "brand:wikipedia": "fr:V\u00e9lib' M\u00e9tropole", "capacity": "32", "name": "Saint-Denis - R\u00e9aumur", "network": "V\u00e9lib\u2019 M\u00e9tropole", "network:wikidata": "Q1120762", "network:wikipedia": "fr:V\u00e9lib' M\u00e9tropole", "operator": "Smovengo", "operator:wikidata": "Q47008427", "operator:wikipedia": "fr:Smovengo", "ref": "2003", "source": "Autolib Velib M\u00e9tropole - 2021-03", "wikidata": "Q86254732"}}, {"type": "node", "id": 5932559744, "lat": 48.8731596, "lon": 2.379849, "tags": {"amenity": "bicycle_rental", "bicycle_rental": "docking_station", "brand": "V\u00e9lib\u2019 M\u00e9tropole", "brand:wikidata": "Q1120762", "brand:wikipedia": "fr:V\u00e9lib' M\u00e9tropole", "capacity": "17", "name": "Rampal - Belleville", "network": "V\u00e9lib\u2019 M\u00e9tropole", "network:wikidata": "Q1120762", "network:wikipedia": "fr:V\u00e9lib' M\u00e9tropole", "operator": "Smovengo", "operator:wikidata": "Q47008427", "operator:wikipedia": "fr:Smovengo", "ref": "19102", "source": "survey 09/2018", "wikidata": "Q86254826"}}, {"type": "node", "id": 5957673015, "lat": 48.8638545, "lon": 2.3425244}, {"type": "node", "id": 5957673016, "lat": 48.8638515, "lon": 2.3424921}, {"type": "node", "id": 6003453210, "lat": 48.8703409, "lon": 2.3842505, "tags": {"amenity": "bicycle_rental", "bicycle_rental": "docking_station", "brand": "V\u00e9lib\u2019 M\u00e9tropole", "brand:wikidata": "Q1120762", "brand:wikipedia": "fr:V\u00e9lib' M\u00e9tropole", "capacity": "26", "name": "Parc de Belleville - Julien Lacroix", "network": "V\u00e9lib\u2019 M\u00e9tropole", "network:wikidata": "Q1120762", "network:wikipedia": "fr:V\u00e9lib' M\u00e9tropole", "operator": "Smovengo", "operator:wikidata": "Q47008427", "operator:wikipedia": "fr:Smovengo", "ref": "20040", "source": "Autolib Velib M\u00e9tropole - 04/2020", "unsigned_ref": "74620630", "wikidata": "Q86253260"}}, {"type": "node", "id": 6126588905, "lat": 48.8961258, "lon": 2.3744823, "tags": {"amenity": "bicycle_rental", "bicycle_rental": "docking_station", "brand": "V\u00e9lib\u2019 M\u00e9tropole", "brand:wikidata": "Q1120762", "brand:wikipedia": "fr:V\u00e9lib' M\u00e9tropole", "capacity": "37", "name": "Gaston Tessier - Rosa Parks RER", "network": "V\u00e9lib\u2019 M\u00e9tropole", "network:wikidata": "Q1120762", "network:wikipedia": "fr:V\u00e9lib' M\u00e9tropole", "operator": "Smovengo", "operator:wikidata": "Q47008427", "operator:wikipedia": "fr:Smovengo", "ref": "19108", "source": "survey 2018-12", "wikidata": "Q86254810"}}, {"type": "node", "id": 6134818406, "lat": 48.8768665, "lon": 2.3327976, "tags": {"amenity": "bicycle_rental", "bicycle_rental": "docking_station", "brand": "V\u00e9lib\u2019 M\u00e9tropole", "brand:wikidata": "Q1120762", "brand:wikipedia": "fr:V\u00e9lib' M\u00e9tropole", "capacity": "39", "name": "Saint-Lazare - Place d'Estienne d'Orves", "network": "V\u00e9lib\u2019 M\u00e9tropole", "network:wikidata": "Q1120762", "network:wikipedia": "fr:V\u00e9lib' M\u00e9tropole", "operator": "Smovengo", "operator:wikidata": "Q47008427", "operator:wikipedia": "fr:Smovengo", "ref": "9029", "source": "Autolib Velib M\u00e9tropole - 04/2020", "wikidata": "Q86254588"}}, {"type": "node", "id": 6178003146, "lat": 48.87288, "lon": 2.3762286, "tags": {"amenity": "bicycle_rental", "bicycle_rental": "docking_station", "brand": "V\u00e9lib\u2019 M\u00e9tropole", "brand:wikidata": "Q1120762", "brand:wikipedia": "fr:V\u00e9lib' M\u00e9tropole", "capacity": "48", "name": "Villette - Belleville", "network": "V\u00e9lib\u2019 M\u00e9tropole", "network:wikidata": "Q1120762", "network:wikipedia": "fr:V\u00e9lib' M\u00e9tropole", "operator": "Smovengo", "operator:wikidata": "Q47008427", "operator:wikipedia": "fr:Smovengo", "ref": "19032", "source": "survey 09/2018", "unsigned_ref": "549876068", "wikidata": "Q86254971"}}, {"type": "node", "id": 6203928293, "lat": 48.8765329, "lon": 2.3559806, "tags": {"amenity": "bicycle_rental", "bicycle_rental": "docking_station", "brand": "V\u00e9lib\u2019 M\u00e9tropole", "brand:wikidata": "Q1120762", "brand:wikipedia": "fr:V\u00e9lib' M\u00e9tropole", "capacity": "24", "name": "Magenta - Chabrol", "network": "V\u00e9lib\u2019 M\u00e9tropole", "network:wikidata": "Q1120762", "network:wikipedia": "fr:V\u00e9lib' M\u00e9tropole", "operator": "Smovengo", "operator:wikidata": "Q47008427", "operator:wikipedia": "fr:Smovengo", "ref": "10201", "source": "survey 2019-01", "wikidata": "Q86252933"}}, {"type": "node", "id": 6268237385, "lat": 48.874409, "lon": 2.3737971, "tags": {"amenity": "bicycle_rental", "bicycle_rental": "docking_station", "brand": "V\u00e9lib\u2019 M\u00e9tropole", "brand:wikidata": "Q1120762", "brand:wikipedia": "fr:V\u00e9lib' M\u00e9tropole", "capacity": "25", "name": "Sambre et Meuse - Villette", "network": "V\u00e9lib\u2019 M\u00e9tropole", "network:wikidata": "Q1120762", "network:wikipedia": "fr:V\u00e9lib' M\u00e9tropole", "operator": "Smovengo", "operator:wikidata": "Q47008427", "operator:wikipedia": "fr:Smovengo", "ref": "10039", "source": "survey 02/2019", "unsigned_ref": "27414924", "wikidata": "Q86252999"}}, {"type": "node", "id": 6338334564, "lat": 48.8710547, "lon": 2.3792237, "tags": {"amenity": "bicycle_rental", "bicycle_rental": "docking_station", "brand": "V\u00e9lib\u2019 M\u00e9tropole", "brand:wikidata": "Q1120762", "brand:wikipedia": "fr:V\u00e9lib' M\u00e9tropole", "capacity": "44", "name": "Ramponeau - Belleville", "network": "V\u00e9lib\u2019 M\u00e9tropole", "network:wikidata": "Q1120762", "network:wikipedia": "fr:V\u00e9lib' M\u00e9tropole", "operator": "Smovengo", "operator:wikidata": "Q47008427", "operator:wikipedia": "fr:Smovengo", "ref": "20143", "source": "Autolib Velib M\u00e9tropole - 04/2019", "wikidata": "Q86253139"}}, {"type": "node", "id": 6356590085, "lat": 48.8679361, "lon": 2.3649665, "tags": {"amenity": "bicycle_rental", "bicycle_rental": "docking_station", "brand": "V\u00e9lib\u2019 M\u00e9tropole", "brand:wikidata": "Q1120762", "brand:wikipedia": "fr:V\u00e9lib' M\u00e9tropole", "capacity": "38", "check_date": "2023-03-19", "name": "Faubourg Du Temple - Republique", "network": "V\u00e9lib\u2019 M\u00e9tropole", "network:wikidata": "Q1120762", "network:wikipedia": "fr:V\u00e9lib' M\u00e9tropole", "operator": "Smovengo", "operator:wikidata": "Q47008427", "operator:wikipedia": "fr:Smovengo", "ref": "11037", "source": "Autolib Velib M\u00e9tropole - 2021-03", "unsigned_ref": "312165511", "wikidata": "Q86254502"}}, {"type": "node", "id": 6360315837, "lat": 48.8716565, "lon": 2.3639089, "tags": {"amenity": "bicycle_rental", "bicycle_rental": "docking_station", "brand": "V\u00e9lib\u2019 M\u00e9tropole", "brand:wikidata": "Q1120762", "brand:wikipedia": "fr:V\u00e9lib' M\u00e9tropole", "capacity": "55", "name": "Marseille - Beaurepaire", "network": "V\u00e9lib\u2019 M\u00e9tropole", "network:wikidata": "Q1120762", "network:wikipedia": "fr:V\u00e9lib' M\u00e9tropole", "operator": "Smovengo", "operator:wikidata": "Q47008427", "operator:wikipedia": "fr:Smovengo", "ref": "10014", "source": "Autolib Velib M\u00e9tropole - 04/2020", "wikidata": "Q86252920"}}, {"type": "node", "id": 6379760208, "lat": 48.8678728, "lon": 2.372704, "tags": {"amenity": "bicycle_rental", "bicycle_rental": "docking_station", "brand": "V\u00e9lib\u2019 M\u00e9tropole", "brand:wikidata": "Q1120762", "brand:wikipedia": "fr:V\u00e9lib' M\u00e9tropole", "capacity": "48", "check_date": "2023-03-11", "name": "Parmentier - Fontaine au Roi", "network": "V\u00e9lib\u2019 M\u00e9tropole", "network:wikidata": "Q1120762", "network:wikipedia": "fr:V\u00e9lib' M\u00e9tropole", "operator": "Smovengo", "operator:wikidata": "Q47008427", "operator:wikipedia": "fr:Smovengo", "ref": "11034", "source": "Autolib Velib M\u00e9tropole - 04/2020", "unsigned_ref": "100910836", "wikidata": "Q86254511"}}, {"type": "node", "id": 6380249071, "lat": 48.8692157, "lon": 2.3717096, "tags": {"amenity": "bicycle_rental", "bicycle_rental": "docking_station", "brand": "V\u00e9lib\u2019 M\u00e9tropole", "brand:wikidata": "Q1120762", "brand:wikipedia": "fr:V\u00e9lib' M\u00e9tropole", "capacity": "53", "check_date": "2023-03-11", "name": "Parmentier - Abel Rabaud", "network": "V\u00e9lib\u2019 M\u00e9tropole", "network:wikidata": "Q1120762", "network:wikipedia": "fr:V\u00e9lib' M\u00e9tropole", "operator": "Smovengo", "operator:wikidata": "Q47008427", "operator:wikipedia": "fr:Smovengo", "ref": "11035", "source": "Autolib Velib M\u00e9tropole - 04/2020", "unsigned_ref": "54001024", "wikidata": "Q86254503"}}, {"type": "node", "id": 6380617544, "lat": 48.864548, "lon": 2.3730717, "tags": {"amenity": "bicycle_rental", "bicycle_rental": "docking_station", "brand": "V\u00e9lib\u2019 M\u00e9tropole", "brand:wikidata": "Q1120762", "brand:wikipedia": "fr:V\u00e9lib' M\u00e9tropole", "capacity": "39", "name": "Jacquard - Ternaux", "network": "V\u00e9lib\u2019 M\u00e9tropole", "network:wikidata": "Q1120762", "network:wikipedia": "fr:V\u00e9lib' M\u00e9tropole", "operator": "Smovengo", "operator:wikidata": "Q47008427", "operator:wikipedia": "fr:Smovengo", "ref": "11031", "source": "Autolib Velib M\u00e9tropole - 04/2020", "unsigned_ref": "97705710", "wikidata": "Q86254546"}}, {"type": "node", "id": 6389571744, "lat": 48.8660926, "lon": 2.3596278, "tags": {"amenity": "bicycle_rental", "bicycle_rental": "docking_station", "brand": "V\u00e9lib\u2019 M\u00e9tropole", "brand:wikidata": "Q1120762", "brand:wikipedia": "fr:V\u00e9lib' M\u00e9tropole", "capacity": "33", "name": "Sainte-Elisabeth - Turbigo", "network": "V\u00e9lib\u2019 M\u00e9tropole", "network:wikidata": "Q1120762", "network:wikipedia": "fr:V\u00e9lib' M\u00e9tropole", "operator": "Smovengo", "operator:wikidata": "Q47008427", "operator:wikipedia": "fr:Smovengo", "ref": "3005", "source": "Autolib Velib M\u00e9tropole - 04/2020", "wikidata": "Q86255129"}}, {"type": "node", "id": 6389571748, "lat": 48.8684965, "lon": 2.3600097, "tags": {"amenity": "bicycle_rental", "bicycle_rental": "docking_station", "brand": "V\u00e9lib\u2019 M\u00e9tropole", "brand:wikidata": "Q1120762", "brand:wikipedia": "fr:V\u00e9lib' M\u00e9tropole", "capacity": "62", "check_date": "2023-03-18", "name": "Ren\u00e9 Boulanger - Lancry", "network": "V\u00e9lib\u2019 M\u00e9tropole", "network:wikidata": "Q1120762", "network:wikipedia": "fr:V\u00e9lib' M\u00e9tropole", "operator": "Smovengo", "operator:wikidata": "Q47008427", "operator:wikipedia": "fr:Smovengo", "ref": "10001", "source": "Autolib Velib M\u00e9tropole - 04/2020", "wikidata": "Q86252931"}}, {"type": "node", "id": 6389571749, "lat": 48.8685995, "lon": 2.3557832, "tags": {"amenity": "bicycle_rental", "bicycle_rental": "docking_station", "brand": "V\u00e9lib\u2019 M\u00e9tropole", "brand:wikidata": "Q1120762", "brand:wikipedia": "fr:V\u00e9lib' M\u00e9tropole", "capacity": "35", "name": "Porte Saint-Martin", "network": "V\u00e9lib\u2019 M\u00e9tropole", "network:wikidata": "Q1120762", "network:wikipedia": "fr:V\u00e9lib' M\u00e9tropole", "operator": "Smovengo", "operator:wikidata": "Q47008427", "operator:wikipedia": "fr:Smovengo", "ref": "3101", "source": "Autolib Velib M\u00e9tropole - 04/2020", "wikidata": "Q86255167"}}, {"type": "node", "id": 6389571750, "lat": 48.8674928, "lon": 2.3536572, "tags": {"amenity": "bicycle_rental", "bicycle_rental": "docking_station", "brand": "V\u00e9lib\u2019 M\u00e9tropole", "brand:wikidata": "Q1120762", "brand:wikipedia": "fr:V\u00e9lib' M\u00e9tropole", "capacity": "25", "name": "Square \u00c9mile - Chautemps", "network": "V\u00e9lib\u2019 M\u00e9tropole", "network:wikidata": "Q1120762", "network:wikipedia": "fr:V\u00e9lib' M\u00e9tropole", "operator": "Smovengo", "operator:wikidata": "Q47008427", "operator:wikipedia": "fr:Smovengo", "ref": "3012", "source": "Autolib Velib M\u00e9tropole - 2021-03", "wikidata": "Q86255143"}}, {"type": "node", "id": 6389594164, "lat": 48.8750834, "lon": 2.3825758, "tags": {"amenity": "bicycle_rental", "bicycle_rental": "docking_station", "brand": "V\u00e9lib\u2019 M\u00e9tropole", "brand:wikidata": "Q1120762", "brand:wikipedia": "fr:V\u00e9lib' M\u00e9tropole", "capacity": "24", "name": "Square Simon Bolivar", "network": "V\u00e9lib\u2019 M\u00e9tropole", "network:wikidata": "Q1120762", "network:wikipedia": "fr:V\u00e9lib' M\u00e9tropole", "operator": "Smovengo", "operator:wikidata": "Q47008427", "operator:wikipedia": "fr:Smovengo", "ref": "19101", "source": "Autolib Velib M\u00e9tropole - 04/2019", "unsigned_ref": "13718041", "wikidata": "Q86254842"}}, {"type": "node", "id": 6389594165, "lat": 48.8779502, "lon": 2.3814623, "tags": {"amenity": "bicycle_rental", "bicycle_rental": "docking_station", "brand": "V\u00e9lib\u2019 M\u00e9tropole", "brand:wikidata": "Q1120762", "brand:wikipedia": "fr:V\u00e9lib' M\u00e9tropole", "capacity": "20", "name": "Botzaris - Parc des Buttes Chaumont", "network": "V\u00e9lib\u2019 M\u00e9tropole", "network:wikidata": "Q1120762", "network:wikipedia": "fr:V\u00e9lib' M\u00e9tropole", "operator": "Smovengo", "operator:wikidata": "Q47008427", "operator:wikipedia": "fr:Smovengo", "ref": "19024", "source": "Autolib Velib M\u00e9tropole - 04/2019", "unsigned_ref": "213694482", "wikidata": "Q86254911"}}, {"type": "node", "id": 6389594166, "lat": 48.8791658, "lon": 2.3785977, "tags": {"amenity": "bicycle_rental", "bicycle_rental": "docking_station", "brand": "V\u00e9lib\u2019 M\u00e9tropole", "brand:wikidata": "Q1120762", "brand:wikipedia": "fr:V\u00e9lib' M\u00e9tropole", "capacity": "20", "name": "Manin - Secr\u00e9tan", "network": "V\u00e9lib\u2019 M\u00e9tropole", "network:wikidata": "Q1120762", "network:wikipedia": "fr:V\u00e9lib' M\u00e9tropole", "operator": "Smovengo", "operator:wikidata": "Q47008427", "operator:wikipedia": "fr:Smovengo", "ref": "19114", "source": "Autolib Velib M\u00e9tropole - 04/2020", "wikidata": "Q86254853"}}, {"type": "node", "id": 6389594167, "lat": 48.8765033, "lon": 2.3794201, "tags": {"amenity": "bicycle_rental", "bicycle_rental": "docking_station", "brand": "V\u00e9lib\u2019 M\u00e9tropole", "brand:wikidata": "Q1120762", "brand:wikipedia": "fr:V\u00e9lib' M\u00e9tropole", "capacity": "26", "name": "Manin - Simon Bolivar", "network": "V\u00e9lib\u2019 M\u00e9tropole", "network:wikidata": "Q1120762", "network:wikipedia": "fr:V\u00e9lib' M\u00e9tropole", "operator": "Smovengo", "operator:wikidata": "Q47008427", "operator:wikipedia": "fr:Smovengo", "ref": "19023", "source": "survey 04/2019", "wikidata": "Q86254931"}}, {"type": "node", "id": 6389594176, "lat": 48.8656744, "lon": 2.3653644, "tags": {"amenity": "bicycle_rental", "bicycle_rental": "docking_station", "brand": "V\u00e9lib\u2019 M\u00e9tropole", "brand:wikidata": "Q1120762", "brand:wikipedia": "fr:V\u00e9lib' M\u00e9tropole", "capacity": "45", "name": "Temple - Charlot", "network": "V\u00e9lib\u2019 M\u00e9tropole", "network:wikidata": "Q1120762", "network:wikipedia": "fr:V\u00e9lib' M\u00e9tropole", "operator": "Smovengo", "operator:wikidata": "Q47008427", "operator:wikipedia": "fr:Smovengo", "ref": "11038", "source": "Autolib Velib M\u00e9tropole - 04/2020", "wikidata": "Q86254501"}}, {"type": "node", "id": 6389594177, "lat": 48.8658519, "lon": 2.3693032, "tags": {"amenity": "bicycle_rental", "bicycle_rental": "docking_station", "brand": "V\u00e9lib\u2019 M\u00e9tropole", "brand:wikidata": "Q1120762", "brand:wikipedia": "fr:V\u00e9lib' M\u00e9tropole", "capacity": "36", "check_date": "2023-04-08", "name": "Richard Lenoir - Jean-Pierre Timbaud", "network": "V\u00e9lib\u2019 M\u00e9tropole", "network:wikidata": "Q1120762", "network:wikipedia": "fr:V\u00e9lib' M\u00e9tropole", "operator": "Smovengo", "operator:wikidata": "Q47008427", "operator:wikipedia": "fr:Smovengo", "ref": "11039", "source": "Autolib Velib M\u00e9tropole - 04/2020", "unsigned_ref": "37791", "wikidata": "Q86254563"}}, {"type": "node", "id": 6389594178, "lat": 48.8665934, "lon": 2.3692914, "tags": {"amenity": "bicycle_rental", "bicycle_rental": "docking_station", "brand": "V\u00e9lib\u2019 M\u00e9tropole", "brand:wikidata": "Q1120762", "brand:wikipedia": "fr:V\u00e9lib' M\u00e9tropole", "capacity": "58", "name": "Richard Lenoir - Republique", "network": "V\u00e9lib\u2019 M\u00e9tropole", "network:wikidata": "Q1120762", "network:wikipedia": "fr:V\u00e9lib' M\u00e9tropole", "operator": "Smovengo", "operator:wikidata": "Q47008427", "operator:wikipedia": "fr:Smovengo", "ref": "11113", "source": "Autolib Velib M\u00e9tropole - 04/2020", "unsigned_ref": "532054446", "wikidata": "Q86254516"}}, {"type": "node", "id": 6389594179, "lat": 48.8684447, "lon": 2.3678484, "tags": {"amenity": "bicycle_rental", "bicycle_rental": "docking_station", "brand": "V\u00e9lib\u2019 M\u00e9tropole", "brand:wikidata": "Q1120762", "brand:wikipedia": "fr:V\u00e9lib' M\u00e9tropole", "capacity": "58", "check_date": "2023-03-18", "name": "Jules Ferry - Faubourg du Temple Paris", "network": "V\u00e9lib\u2019 M\u00e9tropole", "network:wikidata": "Q1120762", "network:wikipedia": "fr:V\u00e9lib' M\u00e9tropole", "operator": "Smovengo", "operator:wikidata": "Q47008427", "operator:wikipedia": "fr:Smovengo", "ref": "11036", "source": "Autolib Velib M\u00e9tropole - 04/2020", "unsigned_ref": "49368561", "wikidata": "Q86254494"}}, {"type": "node", "id": 6389594180, "lat": 48.8710914, "lon": 2.3661602, "tags": {"amenity": "bicycle_rental", "bicycle_rental": "docking_station", "brand": "V\u00e9lib\u2019 M\u00e9tropole", "brand:wikidata": "Q1120762", "brand:wikipedia": "fr:V\u00e9lib' M\u00e9tropole", "capacity": "60", "check_date": "2023-07-07", "name": "Alibert - Jemmapes", "network": "V\u00e9lib\u2019 M\u00e9tropole", "network:wikidata": "Q1120762", "network:wikipedia": "fr:V\u00e9lib' M\u00e9tropole", "operator": "Smovengo", "operator:wikidata": "Q47008427", "operator:wikipedia": "fr:Smovengo", "ref": "10013", "source": "Autolib Velib M\u00e9tropole - 2021-03", "unsigned_ref": "123095125", "wikidata": "Q86253003"}}, {"type": "node", "id": 6389594181, "lat": 48.8690345, "lon": 2.362289, "tags": {"amenity": "bicycle_rental", "bicycle_rental": "docking_station", "brand": "V\u00e9lib\u2019 M\u00e9tropole", "brand:wikidata": "Q1120762", "brand:wikipedia": "fr:V\u00e9lib' M\u00e9tropole", "capacity": "17", "check_date": "2023-03-18", "name": "Bourse du Travail", "network": "V\u00e9lib\u2019 M\u00e9tropole", "network:wikidata": "Q1120762", "network:wikipedia": "fr:V\u00e9lib' M\u00e9tropole", "operator": "Smovengo", "operator:wikidata": "Q47008427", "operator:wikipedia": "fr:Smovengo", "ref": "10011", "source": "Autolib Velib M\u00e9tropole - 04/2020", "wikidata": "Q86253052"}}, {"type": "node", "id": 6417514114, "lat": 48.8641872, "lon": 2.3782745, "tags": {"amenity": "bicycle_rental", "bicycle_rental": "docking_station", "brand": "V\u00e9lib\u2019 M\u00e9tropole", "brand:wikidata": "Q1120762", "brand:wikipedia": "fr:V\u00e9lib' M\u00e9tropole", "capacity": "38", "name": "Saint-Maur - R\u00e9publique", "network": "V\u00e9lib\u2019 M\u00e9tropole", "network:wikidata": "Q1120762", "network:wikipedia": "fr:V\u00e9lib' M\u00e9tropole", "operator": "Smovengo", "operator:wikidata": "Q47008427", "operator:wikipedia": "fr:Smovengo", "ref": "11018", "source": "Autolib Velib M\u00e9tropole - 2021-03", "wikidata": "Q86254526"}}, {"type": "node", "id": 6418479198, "lat": 48.879226, "lon": 2.3491474, "tags": {"amenity": "bicycle_rental", "bicycle_rental": "docking_station", "brand": "V\u00e9lib\u2019 M\u00e9tropole", "brand:wikidata": "Q1120762", "brand:wikipedia": "fr:V\u00e9lib' M\u00e9tropole", "capacity": "14", "name": "Abbeville - Faubourg Poissonni\u00e8re", "network": "V\u00e9lib\u2019 M\u00e9tropole", "network:wikidata": "Q1120762", "network:wikipedia": "fr:V\u00e9lib' M\u00e9tropole", "operator": "Smovengo", "operator:wikidata": "Q47008427", "operator:wikipedia": "fr:Smovengo", "ref": "9002", "wikidata": "Q86254696"}}, {"type": "node", "id": 6418480208, "lat": 48.8712408, "lon": 2.3414049, "tags": {"amenity": "bicycle_rental", "bicycle_rental": "docking_station", "brand": "V\u00e9lib\u2019 M\u00e9tropole", "brand:wikidata": "Q1120762", "brand:wikipedia": "fr:V\u00e9lib' M\u00e9tropole", "capacity": "39", "name": "Vivienne - Montmartre", "network": "V\u00e9lib\u2019 M\u00e9tropole", "network:wikidata": "Q1120762", "network:wikipedia": "fr:V\u00e9lib' M\u00e9tropole", "operator": "Smovengo", "operator:wikidata": "Q47008427", "operator:wikipedia": "fr:Smovengo", "ref": "2108", "wikidata": "Q86254745"}}, {"type": "node", "id": 6424025689, "lat": 48.8678369, "lon": 2.3495454, "tags": {"amenity": "bicycle_rental", "bicycle_rental": "docking_station", "brand": "V\u00e9lib\u2019 M\u00e9tropole", "brand:wikidata": "Q1120762", "brand:wikipedia": "fr:V\u00e9lib' M\u00e9tropole", "capacity": "40", "name": "Caire - Dussoubs", "network": "V\u00e9lib\u2019 M\u00e9tropole", "network:wikidata": "Q1120762", "network:wikipedia": "fr:V\u00e9lib' M\u00e9tropole", "operator": "Smovengo", "operator:wikidata": "Q47008427", "operator:wikipedia": "fr:Smovengo", "ref": "2017", "source": "Autolib Velib M\u00e9tropole - 04/2019", "wikidata": "Q86254773"}}, {"type": "node", "id": 6424068486, "lat": 48.8811578, "lon": 2.3366444, "tags": {"amenity": "bicycle_rental", "bicycle_rental": "docking_station", "brand": "V\u00e9lib\u2019 M\u00e9tropole", "brand:wikidata": "Q1120762", "brand:wikipedia": "fr:V\u00e9lib' M\u00e9tropole", "capacity": "18", "name": "Victor Mass\u00e9 - Jean-Baptiste Pigalle", "network": "V\u00e9lib\u2019 M\u00e9tropole", "network:wikidata": "Q1120762", "network:wikipedia": "fr:V\u00e9lib' M\u00e9tropole", "operator": "Smovengo", "operator:wikidata": "Q47008427", "operator:wikipedia": "fr:Smovengo", "ref": "9019", "wikidata": "Q86254719"}}, {"type": "node", "id": 6424083985, "lat": 48.8819441, "lon": 2.3523463, "tags": {"amenity": "bicycle_rental", "bicycle_rental": "docking_station", "brand": "V\u00e9lib\u2019 M\u00e9tropole", "brand:wikidata": "Q1120762", "brand:wikipedia": "fr:V\u00e9lib' M\u00e9tropole", "capacity": "49", "name": "Gare du Nord - H\u00f4pital Lariboisi\u00e8re", "network": "V\u00e9lib\u2019 M\u00e9tropole", "network:wikidata": "Q1120762", "network:wikipedia": "fr:V\u00e9lib' M\u00e9tropole", "operator": "Smovengo", "operator:wikidata": "Q47008427", "operator:wikipedia": "fr:Smovengo", "ref": "10107", "wikidata": "Q86253005"}}, {"type": "node", "id": 6424090385, "lat": 48.8809587, "lon": 2.3524469, "tags": {"amenity": "bicycle_rental", "bicycle_rental": "docking_station", "brand": "V\u00e9lib\u2019 M\u00e9tropole", "brand:wikidata": "Q1120762", "brand:wikipedia": "fr:V\u00e9lib' M\u00e9tropole", "capacity": "24", "name": "Gare du Nord - Saint-Vincent de Paul", "network": "V\u00e9lib\u2019 M\u00e9tropole", "network:wikidata": "Q1120762", "network:wikipedia": "fr:V\u00e9lib' M\u00e9tropole", "operator": "Smovengo", "operator:wikidata": "Q47008427", "operator:wikipedia": "fr:Smovengo", "ref": "10033", "source": "Autolib Velib M\u00e9tropole - 04/2020", "wikidata": "Q86252990"}}, {"type": "node", "id": 6424103785, "lat": 48.8756551, "lon": 2.3594045, "tags": {"amenity": "bicycle_rental", "bicycle_rental": "docking_station", "brand": "V\u00e9lib\u2019 M\u00e9tropole", "brand:wikidata": "Q1120762", "brand:wikipedia": "fr:V\u00e9lib' M\u00e9tropole", "capacity": "32", "name": "Gare de l'Est - Faubourg-Saint-Martin", "network": "V\u00e9lib\u2019 M\u00e9tropole", "network:wikidata": "Q1120762", "network:wikipedia": "fr:V\u00e9lib' M\u00e9tropole", "operator": "Smovengo", "operator:wikidata": "Q47008427", "operator:wikipedia": "fr:Smovengo", "ref": "10161", "source": "Autolib Velib M\u00e9tropole - 04/2020", "wikidata": "Q86252896"}}, {"type": "node", "id": 6424252612, "lat": 48.8689025, "lon": 2.3812813, "tags": {"amenity": "bicycle_rental", "bicycle_rental": "docking_station", "brand": "V\u00e9lib\u2019 M\u00e9tropole", "brand:wikidata": "Q1120762", "brand:wikipedia": "fr:V\u00e9lib' M\u00e9tropole", "capacity": "50", "name": "Belleville - Couronnes", "network": "V\u00e9lib\u2019 M\u00e9tropole", "network:wikidata": "Q1120762", "network:wikipedia": "fr:V\u00e9lib' M\u00e9tropole", "operator": "Smovengo", "operator:wikidata": "Q47008427", "operator:wikipedia": "fr:Smovengo", "ref": "20039", "source": "Autolib Velib M\u00e9tropole - 04/2020", "unsigned_ref": "129121741", "wikidata": "Q86253182"}}, {"type": "node", "id": 6424252613, "lat": 48.866621, "lon": 2.3830169, "tags": {"amenity": "bicycle_rental", "bicycle_rental": "docking_station", "brand": "V\u00e9lib\u2019 M\u00e9tropole", "brand:wikidata": "Q1120762", "brand:wikipedia": "fr:V\u00e9lib' M\u00e9tropole", "capacity": "40", "name": "M\u00e9nilmontant - Oberkampf", "network": "V\u00e9lib\u2019 M\u00e9tropole", "network:wikidata": "Q1120762", "network:wikipedia": "fr:V\u00e9lib' M\u00e9tropole", "operator": "Smovengo", "operator:wikidata": "Q47008427", "operator:wikipedia": "fr:Smovengo", "ref": "11029", "source": "Autolib Velib M\u00e9tropole - 04/2020", "wikidata": "Q86254514"}}, {"type": "node", "id": 6427426037, "lat": 48.8663224, "lon": 2.371105, "tags": {"amenity": "bicycle_rental", "bicycle_rental": "docking_station", "brand": "V\u00e9lib\u2019 M\u00e9tropole", "brand:wikidata": "Q1120762", "brand:wikipedia": "fr:V\u00e9lib' M\u00e9tropole", "capacity": "23", "check_date": "2023-07-14", "name": "Pierre Lev\u00e9e - Fontaine Timbaud", "network": "V\u00e9lib\u2019 M\u00e9tropole", "network:wikidata": "Q1120762", "network:wikipedia": "fr:V\u00e9lib' M\u00e9tropole", "operator": "Smovengo", "operator:wikidata": "Q47008427", "operator:wikipedia": "fr:Smovengo", "ref": "11109", "source": "survey 2019-04-25", "unsigned_ref": "35147530", "wikidata": "Q86254512"}}, {"type": "node", "id": 6433219547, "lat": 48.8671341, "lon": 2.3634865, "tags": {"amenity": "bicycle_rental", "bicycle_rental": "docking_station", "brand": "V\u00e9lib\u2019 M\u00e9tropole", "brand:wikidata": "Q1120762", "brand:wikipedia": "fr:V\u00e9lib' M\u00e9tropole", "capacity": "18", "name": "Place de la R\u00e9publique - Temple", "network": "V\u00e9lib\u2019 M\u00e9tropole", "network:wikidata": "Q1120762", "network:wikipedia": "fr:V\u00e9lib' M\u00e9tropole", "operator": "Smovengo", "operator:wikidata": "Q47008427", "operator:wikipedia": "fr:Smovengo", "ref": "3004", "source": "Autolib Velib M\u00e9tropole - 04/2020", "unsigned_ref": "442739463", "wikidata": "Q86255164"}}, {"type": "node", "id": 6433219548, "lat": 48.8713827, "lon": 2.3699255, "tags": {"amenity": "bicycle_rental", "bicycle_rental": "docking_station", "brand": "V\u00e9lib\u2019 M\u00e9tropole", "brand:wikidata": "Q1120762", "brand:wikipedia": "fr:V\u00e9lib' M\u00e9tropole", "capacity": "43", "check_date": "2023-03-16", "name": "Parmentier - H\u00f4pital Saint-Louis", "network": "V\u00e9lib\u2019 M\u00e9tropole", "network:wikidata": "Q1120762", "network:wikipedia": "fr:V\u00e9lib' M\u00e9tropole", "operator": "Smovengo", "operator:wikidata": "Q47008427", "operator:wikipedia": "fr:Smovengo", "ref": "10113", "source": "Autolib Velib M\u00e9tropole - 2021-03", "unsigned_ref": "66491392", "wikidata": "Q86252972"}}, {"type": "node", "id": 6433219549, "lat": 48.8718306, "lon": 2.3721882, "tags": {"amenity": "bicycle_rental", "bicycle_rental": "docking_station", "brand": "V\u00e9lib\u2019 M\u00e9tropole", "brand:wikidata": "Q1120762", "brand:wikipedia": "fr:V\u00e9lib' M\u00e9tropole", "capacity": "19", "check_date": "2023-03-23", "name": "Buisson Saint-Louis - Saint-Maur", "network": "V\u00e9lib\u2019 M\u00e9tropole", "network:wikidata": "Q1120762", "network:wikipedia": "fr:V\u00e9lib' M\u00e9tropole", "operator": "Smovengo", "operator:wikidata": "Q47008427", "operator:wikipedia": "fr:Smovengo", "ref": "10024", "source": "Autolib Velib M\u00e9tropole - 04/2020", "unsigned_ref": "271426439", "wikidata": "Q86253050"}}, {"type": "node", "id": 6433803365, "lat": 48.8639458, "lon": 2.3356757, "tags": {"amenity": "bicycle_rental", "bicycle_rental": "docking_station", "brand": "V\u00e9lib\u2019 M\u00e9tropole", "brand:wikidata": "Q1120762", "brand:wikipedia": "fr:V\u00e9lib' M\u00e9tropole", "capacity": "19", "name": "Place Andr\u00e9 Malraux", "network": "V\u00e9lib\u2019 M\u00e9tropole", "network:wikidata": "Q1120762", "network:wikipedia": "fr:V\u00e9lib' M\u00e9tropole", "operator": "Smovengo", "operator:wikidata": "Q47008427", "operator:wikipedia": "fr:Smovengo", "ref": "1015", "source": "Autolib Velib M\u00e9tropole - 04/2020", "wikidata": "Q86255069"}}, {"type": "node", "id": 6433805360, "lat": 48.889501, "lon": 2.3333959, "tags": {"amenity": "bicycle_rental", "bicycle_rental": "docking_station", "capacity": "25", "name": "F\u00e9lix Ziem - Armand Gauthier", "network": "V\u00e9lib\u2019", "operator": "Smovengo", "ref": "18111", "source": "Autolib Velib M\u00e9tropole - 2021-03", "wikidata": "Q86253552"}}, {"type": "node", "id": 6437112095, "lat": 48.8679366, "lon": 2.3778873, "tags": {"amenity": "bicycle_rental", "bicycle_rental": "docking_station", "brand": "V\u00e9lib\u2019 M\u00e9tropole", "brand:wikidata": "Q1120762", "brand:wikipedia": "fr:V\u00e9lib' M\u00e9tropole", "capacity": "47", "check_date": "2022-07-21", "name": "Jean-Pierre Timbaud - Vaucouleurs", "network": "V\u00e9lib\u2019 M\u00e9tropole", "network:wikidata": "Q1120762", "network:wikipedia": "fr:V\u00e9lib' M\u00e9tropole", "operator": "Smovengo", "operator:wikidata": "Q47008427", "operator:wikipedia": "fr:Smovengo", "ref": "11032", "source": "Autolib Velib M\u00e9tropole - 04/2020", "unsigned_ref": "210745258", "wikidata": "Q86254491"}}, {"type": "node", "id": 6457764607, "lat": 48.8653136, "lon": 2.3760221, "tags": {"amenity": "bicycle_rental", "bicycle_rental": "docking_station", "brand": "V\u00e9lib\u2019 M\u00e9tropole", "brand:wikidata": "Q1120762", "brand:wikipedia": "fr:V\u00e9lib' M\u00e9tropole", "capacity": "24", "check_date": "2023-04-01", "name": "Oberkampf - R\u00e9publique", "network": "V\u00e9lib\u2019 M\u00e9tropole", "network:wikidata": "Q1120762", "network:wikipedia": "fr:V\u00e9lib' M\u00e9tropole", "operator": "Smovengo", "operator:wikidata": "Q47008427", "operator:wikipedia": "fr:Smovengo", "ref": "11030", "source": "Autolib Velib M\u00e9tropole - 04/2020", "unsigned_ref": "41498023", "wikidata": "Q86254524"}}, {"type": "node", "id": 6457764608, "lat": 48.8645908, "lon": 2.3751356, "tags": {"amenity": "bicycle_rental", "bicycle_rental": "docking_station", "brand": "V\u00e9lib\u2019 M\u00e9tropole", "brand:wikidata": "Q1120762", "brand:wikipedia": "fr:V\u00e9lib' M\u00e9tropole", "capacity": "50", "check_date": "2023-04-02", "name": "Parmentier - R\u00e9publique", "network": "V\u00e9lib\u2019 M\u00e9tropole", "network:wikidata": "Q1120762", "network:wikipedia": "fr:V\u00e9lib' M\u00e9tropole", "operator": "Smovengo", "operator:wikidata": "Q47008427", "operator:wikipedia": "fr:Smovengo", "ref": "11105", "source": "Autolib Velib M\u00e9tropole - 04/2020", "unsigned_ref": "97677210", "wikidata": "Q86254493"}}, {"type": "node", "id": 6457764609, "lat": 48.8646501, "lon": 2.3692589, "tags": {"amenity": "bicycle_rental", "bicycle_rental": "docking_station", "brand": "V\u00e9lib\u2019 M\u00e9tropole", "brand:wikidata": "Q1120762", "brand:wikipedia": "fr:V\u00e9lib' M\u00e9tropole", "capacity": "49", "check_date": "2022-07-28", "name": "Grand Prieur\u00e9 - Crussol", "network": "V\u00e9lib\u2019 M\u00e9tropole", "network:wikidata": "Q1120762", "network:wikipedia": "fr:V\u00e9lib' M\u00e9tropole", "operator": "Smovengo", "operator:wikidata": "Q47008427", "operator:wikipedia": "fr:Smovengo", "ref": "11042", "source": "Autolib Velib M\u00e9tropole - 04/2020", "unsigned_ref": "210746090", "wikidata": "Q86254550"}}, {"type": "node", "id": 6458491741, "lat": 48.8761455, "lon": 2.3680801, "tags": {"amenity": "bicycle_rental", "bicycle_rental": "docking_station", "brand": "V\u00e9lib\u2019 M\u00e9tropole", "brand:wikidata": "Q1120762", "brand:wikipedia": "fr:V\u00e9lib' M\u00e9tropole", "capacity": "27", "name": "Grange aux Belles", "network": "V\u00e9lib\u2019 M\u00e9tropole", "network:wikidata": "Q1120762", "network:wikipedia": "fr:V\u00e9lib' M\u00e9tropole", "operator": "Smovengo", "operator:wikidata": "Q47008427", "operator:wikipedia": "fr:Smovengo", "ref": "10115", "source": "Autolib Velib M\u00e9tropole - 04/2020", "unsigned_ref": "54000565", "wikidata": "Q86253044"}}, {"type": "node", "id": 6459314024, "lat": 48.8774682, "lon": 2.3660218, "tags": {"amenity": "bicycle_rental", "bicycle_rental": "docking_station", "brand": "V\u00e9lib\u2019 M\u00e9tropole", "brand:wikidata": "Q1120762", "brand:wikipedia": "fr:V\u00e9lib' M\u00e9tropole", "capacity": "15", "name": "Jemmapes - \u00c9cluses Saint-Martin", "network": "V\u00e9lib\u2019 M\u00e9tropole", "network:wikidata": "Q1120762", "network:wikipedia": "fr:V\u00e9lib' M\u00e9tropole", "operator": "Smovengo", "operator:wikidata": "Q47008427", "operator:wikipedia": "fr:Smovengo", "ref": "10025", "source": "Autolib Velib M\u00e9tropole - 04/2020", "unsigned_ref": "35642049", "wikidata": "Q86252952"}}, {"type": "node", "id": 6459314025, "lat": 48.8747959, "lon": 2.3666693, "tags": {"amenity": "bicycle_rental", "bicycle_rental": "docking_station", "brand": "V\u00e9lib\u2019 M\u00e9tropole", "brand:wikidata": "Q1120762", "brand:wikipedia": "fr:V\u00e9lib' M\u00e9tropole", "capacity": "60", "check_date": "2022-07-22", "name": "Granges aux Belles - H\u00f4pital Saint-Louis", "network": "V\u00e9lib\u2019 M\u00e9tropole", "network:wikidata": "Q1120762", "network:wikipedia": "fr:V\u00e9lib' M\u00e9tropole", "operator": "Smovengo", "operator:wikidata": "Q47008427", "operator:wikipedia": "fr:Smovengo", "ref": "10114", "source": "Autolib Velib M\u00e9tropole - 2022-01", "unsigned_ref": "129042700", "wikidata": "Q86253055"}}, {"type": "node", "id": 6459314027, "lat": 48.8750217, "lon": 2.3703977, "tags": {"amenity": "bicycle_rental", "bicycle_rental": "docking_station", "brand": "V\u00e9lib\u2019 M\u00e9tropole", "brand:wikidata": "Q1120762", "brand:wikipedia": "fr:V\u00e9lib' M\u00e9tropole", "capacity": "34", "check_date": "2023-07-06", "name": "Claude Vellefaux - Sambre et Meuse", "network": "V\u00e9lib\u2019 M\u00e9tropole", "network:wikidata": "Q1120762", "network:wikipedia": "fr:V\u00e9lib' M\u00e9tropole", "operator": "Smovengo", "operator:wikidata": "Q47008427", "operator:wikipedia": "fr:Smovengo", "ref": "10164", "source": "survey 05/2019", "unsigned_ref": "653069115", "wikidata": "Q86252995"}}, {"type": "node", "id": 6459434545, "lat": 48.8775176, "lon": 2.369785, "tags": {"amenity": "bicycle_rental", "bicycle_rental": "docking_station", "brand": "V\u00e9lib\u2019 M\u00e9tropole", "brand:wikidata": "Q1120762", "brand:wikipedia": "fr:V\u00e9lib' M\u00e9tropole", "capacity": "27", "check_date": "2023-08-19", "name": "Place du Colonel Fabien", "network": "V\u00e9lib\u2019 M\u00e9tropole", "network:wikidata": "Q1120762", "network:wikipedia": "fr:V\u00e9lib' M\u00e9tropole", "operator": "Smovengo", "operator:wikidata": "Q47008427", "operator:wikipedia": "fr:Smovengo", "ref": "10038", "source": "Autolib Velib M\u00e9tropole - 04/2019", "survey:date": "2019-05-08", "unsigned_ref": "123546861", "wikidata": "Q86252969"}}, {"type": "node", "id": 6466763535, "lat": 48.8811703, "lon": 2.3584076, "tags": {"amenity": "bicycle_rental", "bicycle_rental": "docking_station", "brand": "V\u00e9lib\u2019 M\u00e9tropole", "brand:wikidata": "Q1120762", "brand:wikipedia": "fr:V\u00e9lib' M\u00e9tropole", "capacity": "30", "name": "Gare du Nord - Demarquay", "network": "V\u00e9lib\u2019 M\u00e9tropole", "network:wikidata": "Q1120762", "network:wikipedia": "fr:V\u00e9lib' M\u00e9tropole", "operator": "Smovengo", "operator:wikidata": "Q47008427", "operator:wikipedia": "fr:Smovengo", "ref": "10163", "source": "Autolib Velib M\u00e9tropole - 04/2019;survey 2019-05", "wikidata": "Q86252941"}}, {"type": "node", "id": 6482326149, "lat": 48.8906822, "lon": 2.3761314, "tags": {"amenity": "bicycle_rental", "bicycle_rental": "docking_station", "brand": "V\u00e9lib\u2019 M\u00e9tropole", "brand:wikidata": "Q1120762", "brand:wikipedia": "fr:V\u00e9lib' M\u00e9tropole", "capacity": "55", "name": "Mathis - Flandre", "network": "V\u00e9lib\u2019 M\u00e9tropole", "network:wikidata": "Q1120762", "network:wikipedia": "fr:V\u00e9lib' M\u00e9tropole", "operator": "Smovengo", "operator:wikidata": "Q47008427", "operator:wikipedia": "fr:Smovengo", "ref": "19006", "source": "Autolib Velib M\u00e9tropole - 04/2019", "unsigned_ref": "78124875", "wikidata": "Q86254974"}}, {"type": "node", "id": 6482326150, "lat": 48.8880144, "lon": 2.3737587, "tags": {"amenity": "bicycle_rental", "bicycle_rental": "docking_station", "brand": "V\u00e9lib\u2019 M\u00e9tropole", "brand:wikidata": "Q1120762", "brand:wikipedia": "fr:V\u00e9lib' M\u00e9tropole", "capacity": "21", "name": "Flandre - Riquet", "network": "V\u00e9lib\u2019 M\u00e9tropole", "network:wikidata": "Q1120762", "network:wikipedia": "fr:V\u00e9lib' M\u00e9tropole", "operator": "Smovengo", "operator:wikidata": "Q47008427", "operator:wikipedia": "fr:Smovengo", "ref": "19005", "source": "Autolib Velib M\u00e9tropole - 04/2019", "unsigned_ref": "66491404", "wikidata": "Q86254926"}}, {"type": "node", "id": 6482326151, "lat": 48.8868062, "lon": 2.3747427, "tags": {"amenity": "bicycle_rental", "bicycle_rental": "docking_station", "brand": "V\u00e9lib\u2019 M\u00e9tropole", "brand:wikidata": "Q1120762", "brand:wikipedia": "fr:V\u00e9lib' M\u00e9tropole", "capacity": "19", "name": "Seine - Flandre", "network": "V\u00e9lib\u2019 M\u00e9tropole", "network:wikidata": "Q1120762", "network:wikipedia": "fr:V\u00e9lib' M\u00e9tropole", "operator": "Smovengo", "operator:wikidata": "Q47008427", "operator:wikipedia": "fr:Smovengo", "ref": "19029", "source": "Autolib Velib M\u00e9tropole - 04/2019", "unsigned_ref": "27363362", "wikidata": "Q86254916"}}, {"type": "node", "id": 6482326152, "lat": 48.8862961, "lon": 2.3773887, "tags": {"amenity": "bicycle_rental", "bicycle_rental": "docking_station", "brand": "V\u00e9lib\u2019 M\u00e9tropole", "brand:wikidata": "Q1120762", "brand:wikipedia": "fr:V\u00e9lib' M\u00e9tropole", "capacity": "30", "name": "Euryale Dehaynin - Loire", "network": "V\u00e9lib\u2019 M\u00e9tropole", "network:wikidata": "Q1120762", "network:wikipedia": "fr:V\u00e9lib' M\u00e9tropole", "operator": "Smovengo", "operator:wikidata": "Q47008427", "operator:wikipedia": "fr:Smovengo", "ref": "19117", "source": "Autolib Velib M\u00e9tropole - 04/2019", "unsigned_ref": "35080917", "wikidata": "Q86254893"}}, {"type": "node", "id": 6482326153, "lat": 48.889162, "lon": 2.3833824, "tags": {"amenity": "bicycle_rental", "bicycle_rental": "docking_station", "brand": "V\u00e9lib\u2019 M\u00e9tropole", "brand:wikidata": "Q1120762", "brand:wikipedia": "fr:V\u00e9lib' M\u00e9tropole", "capacity": "24", "name": "Thionville - Ourcq", "network": "V\u00e9lib\u2019 M\u00e9tropole", "network:wikidata": "Q1120762", "network:wikipedia": "fr:V\u00e9lib' M\u00e9tropole", "operator": "Smovengo", "operator:wikidata": "Q47008427", "operator:wikipedia": "fr:Smovengo", "ref": "19015", "source": "Autolib Velib M\u00e9tropole - 04/2019", "unsigned_ref": "50191171", "wikidata": "Q86254896"}}, {"type": "node", "id": 6482326154, "lat": 48.8863234, "lon": 2.382495, "tags": {"amenity": "bicycle_rental", "bicycle_rental": "docking_station", "brand": "V\u00e9lib\u2019 M\u00e9tropole", "brand:wikidata": "Q1120762", "brand:wikipedia": "fr:V\u00e9lib' M\u00e9tropole", "capacity": "19", "name": "Lorraine - Jean Jaur\u00e8s", "network": "V\u00e9lib\u2019 M\u00e9tropole", "network:wikidata": "Q1120762", "network:wikipedia": "fr:V\u00e9lib' M\u00e9tropole", "operator": "Smovengo", "operator:wikidata": "Q47008427", "operator:wikipedia": "fr:Smovengo", "ref": "19014", "source": "Autolib Velib M\u00e9tropole - 04/2019", "unsigned_ref": "80077998", "wikidata": "Q86254940"}}, {"type": "node", "id": 6482326155, "lat": 48.8888166, "lon": 2.3785548, "tags": {"amenity": "bicycle_rental", "bicycle_rental": "docking_station", "brand": "V\u00e9lib\u2019 M\u00e9tropole", "brand:wikidata": "Q1120762", "brand:wikipedia": "fr:V\u00e9lib' M\u00e9tropole", "capacity": "30", "name": "Place de l'\u00c9dit de Nantes", "network": "V\u00e9lib\u2019 M\u00e9tropole", "network:wikidata": "Q1120762", "network:wikipedia": "fr:V\u00e9lib' M\u00e9tropole", "operator": "Smovengo", "operator:wikidata": "Q47008427", "operator:wikipedia": "fr:Smovengo", "ref": "19125", "source": "Autolib Velib M\u00e9tropole - 04/2019", "unsigned_ref": "213699913", "wikidata": "Q86254899"}}, {"type": "node", "id": 6482373795, "lat": 48.8927464, "lon": 2.3792247, "tags": {"amenity": "bicycle_rental", "bicycle_rental": "docking_station", "brand": "V\u00e9lib\u2019 M\u00e9tropole", "brand:wikidata": "Q1120762", "brand:wikipedia": "fr:V\u00e9lib' M\u00e9tropole", "capacity": "30", "name": "Flandre - Ourcq", "network": "V\u00e9lib\u2019 M\u00e9tropole", "network:wikidata": "Q1120762", "network:wikipedia": "fr:V\u00e9lib' M\u00e9tropole", "operator": "Smovengo", "operator:wikidata": "Q47008427", "operator:wikipedia": "fr:Smovengo", "ref": "19007", "source": "Autolib Velib M\u00e9tropole - 04/2019", "unsigned_ref": "35471668", "wikidata": "Q86254945"}}, {"type": "node", "id": 6486541922, "lat": 48.8637889, "lon": 2.3808273, "tags": {"amenity": "bicycle_rental", "bicycle_rental": "docking_station", "brand": "V\u00e9lib\u2019 M\u00e9tropole", "brand:wikidata": "Q1120762", "brand:wikipedia": "fr:V\u00e9lib' M\u00e9tropole", "capacity": "38", "name": "Guillaume Bertrand - R\u00e9publique", "network": "V\u00e9lib\u2019 M\u00e9tropole", "network:wikidata": "Q1120762", "network:wikipedia": "fr:V\u00e9lib' M\u00e9tropole", "operator": "Smovengo", "operator:wikidata": "Q47008427", "operator:wikipedia": "fr:Smovengo", "ref": "11028", "source": "Autolib Velib M\u00e9tropole - 04/2020", "unsigned_ref": "82408364", "wikidata": "Q86254509"}}, {"type": "node", "id": 6487689671, "lat": 48.8974811, "lon": 2.3439945, "tags": {"amenity": "bicycle_rental", "bicycle_rental": "docking_station", "brand": "V\u00e9lib\u2019 M\u00e9tropole", "brand:wikidata": "Q1120762", "brand:wikipedia": "fr:V\u00e9lib' M\u00e9tropole", "capacity": "56", "name": "Porte de Clignancourt", "network": "V\u00e9lib\u2019 M\u00e9tropole", "network:wikidata": "Q1120762", "network:wikipedia": "fr:V\u00e9lib' M\u00e9tropole", "operator": "Smovengo", "operator:wikidata": "Q47008427", "operator:wikipedia": "fr:Smovengo", "ref": "18032", "source": "Autolib Velib M\u00e9tropole - 04/2020", "wikidata": "Q86254465"}}, {"type": "node", "id": 6596334443, "lat": 48.876741, "lon": 2.3304734, "tags": {"amenity": "bicycle_rental", "bicycle_rental": "docking_station", "brand": "V\u00e9lib\u2019 M\u00e9tropole", "brand:wikidata": "Q1120762", "brand:wikipedia": "fr:V\u00e9lib' M\u00e9tropole", "capacity": "25", "name": "Londres - Place d'Estienne d'Orves", "network": "V\u00e9lib\u2019 M\u00e9tropole", "network:wikidata": "Q1120762", "network:wikipedia": "fr:V\u00e9lib' M\u00e9tropole", "operator": "Smovengo", "operator:wikidata": "Q47008427", "operator:wikipedia": "fr:Smovengo", "ref": "9102", "source": "Autolib Velib M\u00e9tropole - 04/2020", "wikidata": "Q86254594"}}, {"type": "node", "id": 6723048792, "lat": 48.8761319, "lon": 2.3608479, "tags": {"amenity": "bicycle_rental", "bicycle_rental": "docking_station", "brand": "V\u00e9lib\u2019 M\u00e9tropole", "brand:wikidata": "Q1120762", "brand:wikipedia": "fr:V\u00e9lib' M\u00e9tropole", "capacity": "14", "name": "Gare de l'Est - Verdun", "network": "V\u00e9lib\u2019 M\u00e9tropole", "network:wikidata": "Q1120762", "network:wikipedia": "fr:V\u00e9lib' M\u00e9tropole", "operator": "Smovengo", "operator:wikidata": "Q47008427", "operator:wikipedia": "fr:Smovengo", "ref": "10023", "source": "Autolib Velib M\u00e9tropole - 04/2019", "wikidata": "Q86252938"}}, {"type": "node", "id": 6723052342, "lat": 48.8741038, "lon": 2.3624959, "tags": {"amenity": "bicycle_rental", "bicycle_rental": "docking_station", "brand": "V\u00e9lib\u2019 M\u00e9tropole", "brand:wikidata": "Q1120762", "brand:wikipedia": "fr:V\u00e9lib' M\u00e9tropole", "capacity": "46", "check_date": "2022-09-13", "description": "deuxi\u00e8me partie de la station v\u00e9lib'", "name": "Lucien Sampaix - R\u00e9collets", "network": "V\u00e9lib\u2019 M\u00e9tropole", "network:wikidata": "Q1120762", "network:wikipedia": "fr:V\u00e9lib' M\u00e9tropole", "operator": "Smovengo", "operator:wikidata": "Q47008427", "operator:wikipedia": "fr:Smovengo", "ref": "10015", "source": "local knowledge", "vending": "no", "wikidata": "Q86252900"}}, {"type": "node", "id": 6723052343, "lat": 48.8743772, "lon": 2.3620391, "tags": {"amenity": "bicycle_rental", "bicycle_rental": "docking_station", "brand": "V\u00e9lib\u2019 M\u00e9tropole", "brand:wikidata": "Q1120762", "brand:wikipedia": "fr:V\u00e9lib' M\u00e9tropole", "capacity": "46", "name": "Lucien Sampaix - R\u00e9collets", "network": "V\u00e9lib\u2019 M\u00e9tropole", "network:wikidata": "Q1120762", "network:wikipedia": "fr:V\u00e9lib' M\u00e9tropole", "operator": "Smovengo", "operator:wikidata": "Q47008427", "operator:wikipedia": "fr:Smovengo", "payment:contactless": "yes", "payment:mastercard": "yes", "payment:visa": "yes", "ref": "10015", "source": "Autolib Velib M\u00e9tropole - 04/2019", "vending": "yes", "wikidata": "Q86252900"}}, {"type": "node", "id": 6736637867, "lat": 48.8708236, "lon": 2.3538271, "tags": {"amenity": "bicycle_rental", "bicycle_rental": "docking_station", "brand": "V\u00e9lib\u2019 M\u00e9tropole", "brand:wikidata": "Q1120762", "brand:wikipedia": "fr:V\u00e9lib' M\u00e9tropole", "capacity": "48", "name": "Metz - Faubourg Saint-Denis", "network": "V\u00e9lib\u2019 M\u00e9tropole", "network:wikidata": "Q1120762", "network:wikipedia": "fr:V\u00e9lib' M\u00e9tropole", "operator": "Smovengo", "operator:wikidata": "Q47008427", "operator:wikipedia": "fr:Smovengo", "ref": "10004", "source": "Autolib Velib M\u00e9tropole - 04/2019", "wikidata": "Q86253038"}}, {"type": "node", "id": 6736639209, "lat": 48.8707979, "lon": 2.3496534, "tags": {"amenity": "bicycle_rental", "bicycle_rental": "docking_station", "brand": "V\u00e9lib\u2019 M\u00e9tropole", "brand:wikidata": "Q1120762", "brand:wikipedia": "fr:V\u00e9lib' M\u00e9tropole", "capacity": "17", "name": "Hauteville - Bonne Nouvelle", "network": "V\u00e9lib\u2019 M\u00e9tropole", "network:wikidata": "Q1120762", "network:wikipedia": "fr:V\u00e9lib' M\u00e9tropole", "operator": "Smovengo", "operator:wikidata": "Q47008427", "operator:wikipedia": "fr:Smovengo", "ref": "10003", "source": "Autolib Velib M\u00e9tropole - 04/2020", "wikidata": "Q86252986"}}, {"type": "node", "id": 6742656166, "lat": 48.8707655, "lon": 2.3587313, "tags": {"amenity": "bicycle_rental", "bicycle_rental": "docking_station", "brand": "V\u00e9lib\u2019 M\u00e9tropole", "brand:wikidata": "Q1120762", "brand:wikipedia": "fr:V\u00e9lib' M\u00e9tropole", "capacity": "18", "name": "Cit\u00e9 Riverin - Ch\u00e2teau d'Eau", "network": "V\u00e9lib\u2019 M\u00e9tropole", "network:wikidata": "Q1120762", "network:wikipedia": "fr:V\u00e9lib' M\u00e9tropole", "operator": "Smovengo", "operator:wikidata": "Q47008427", "operator:wikipedia": "fr:Smovengo", "ref": "10008", "source": "Autolib Velib M\u00e9tropole - 04/2020", "wikidata": "Q86252912"}}, {"type": "node", "id": 6742672134, "lat": 48.8720861, "lon": 2.3576627, "tags": {"amenity": "bicycle_rental", "bicycle_rental": "docking_station", "brand": "V\u00e9lib\u2019 M\u00e9tropole", "brand:wikidata": "Q1120762", "brand:wikipedia": "fr:V\u00e9lib' M\u00e9tropole", "capacity": "19", "name": "Mairie du 10\u00e8me", "network": "V\u00e9lib\u2019 M\u00e9tropole", "network:wikidata": "Q1120762", "network:wikipedia": "fr:V\u00e9lib' M\u00e9tropole", "operator": "Smovengo", "operator:wikidata": "Q47008427", "operator:wikipedia": "fr:Smovengo", "ref": "10009", "source": "Autolib Velib M\u00e9tropole - 04/2020", "wikidata": "Q86252948"}}, {"type": "node", "id": 6742674363, "lat": 48.8710305, "lon": 2.3611261, "tags": {"amenity": "bicycle_rental", "bicycle_rental": "docking_station", "brand": "V\u00e9lib\u2019 M\u00e9tropole", "brand:wikidata": "Q1120762", "capacity": "33", "check_date": "2022-09-01", "name": "Place Jacques Bonsergent", "network": "V\u00e9lib\u2019 M\u00e9tropole", "network:wikidata": "Q1120762", "operator": "Smovengo", "operator:wikidata": "Q47008427", "ref": "10010", "source": "Autolib Velib M\u00e9tropole - 2021-03", "wikidata": "Q86253035"}}, {"type": "node", "id": 6742675422, "lat": 48.8729626, "lon": 2.353959, "tags": {"amenity": "bicycle_rental", "bicycle_rental": "docking_station", "brand": "V\u00e9lib\u2019 M\u00e9tropole", "brand:wikidata": "Q1120762", "brand:wikipedia": "fr:V\u00e9lib' M\u00e9tropole", "capacity": "28", "name": "Petites Ecuries - Faubourg Saint-Denis", "network": "V\u00e9lib\u2019 M\u00e9tropole", "network:wikidata": "Q1120762", "network:wikipedia": "fr:V\u00e9lib' M\u00e9tropole", "operator": "Smovengo", "operator:wikidata": "Q47008427", "operator:wikipedia": "fr:Smovengo", "ref": "10006", "source": "Autolib Velib M\u00e9tropole - 04/2020", "wikidata": "Q86253042"}}, {"type": "node", "id": 6742682210, "lat": 48.8745725, "lon": 2.3567936, "tags": {"amenity": "bicycle_rental", "bicycle_rental": "docking_station", "brand": "V\u00e9lib\u2019 M\u00e9tropole", "brand:wikidata": "Q1120762", "brand:wikipedia": "fr:V\u00e9lib' M\u00e9tropole", "capacity": "15", "name": "Gare de l'Est - Fid\u00e9lit\u00e9", "network": "V\u00e9lib\u2019 M\u00e9tropole", "network:wikidata": "Q1120762", "network:wikipedia": "fr:V\u00e9lib' M\u00e9tropole", "operator": "Smovengo", "operator:wikidata": "Q47008427", "operator:wikipedia": "fr:Smovengo", "ref": "10017", "source": "Autolib Velib M\u00e9tropole - 04/2020", "wikidata": "Q86252975"}}, {"type": "node", "id": 6742698515, "lat": 48.875028, "lon": 2.3598013, "tags": {"amenity": "bicycle_rental", "bicycle_rental": "docking_station", "brand": "V\u00e9lib\u2019 M\u00e9tropole", "brand:wikidata": "Q1120762", "brand:wikipedia": "fr:V\u00e9lib' M\u00e9tropole", "capacity": "17", "check_date": "2023-04-09", "name": "R\u00e9collets - Square Villemin", "network": "V\u00e9lib\u2019 M\u00e9tropole", "network:wikidata": "Q1120762", "network:wikipedia": "fr:V\u00e9lib' M\u00e9tropole", "operator": "Smovengo", "operator:wikidata": "Q47008427", "operator:wikipedia": "fr:Smovengo", "ref": "10016", "source": "Autolib Velib M\u00e9tropole - 04/2020", "wikidata": "Q86252915"}}, {"type": "node", "id": 6742703257, "lat": 48.8732653, "lon": 2.3593232, "tags": {"amenity": "bicycle_rental", "bicycle_rental": "docking_station", "brand": "V\u00e9lib\u2019 M\u00e9tropole", "brand:wikidata": "Q1120762", "brand:wikipedia": "fr:V\u00e9lib' M\u00e9tropole", "capacity": "25", "name": "Vinaigriers - Magenta", "network": "V\u00e9lib\u2019 M\u00e9tropole", "network:wikidata": "Q1120762", "network:wikipedia": "fr:V\u00e9lib' M\u00e9tropole", "operator": "Smovengo", "operator:wikidata": "Q47008427", "operator:wikipedia": "fr:Smovengo", "ref": "10012", "source": "Autolib Velib M\u00e9tropole - 04/2020", "wikidata": "Q86253019"}}, {"type": "node", "id": 6742710306, "lat": 48.8753816, "lon": 2.3560915, "tags": {"amenity": "bicycle_rental", "bicycle_rental": "docking_station", "brand": "V\u00e9lib\u2019 M\u00e9tropole", "brand:wikidata": "Q1120762", "brand:wikipedia": "fr:V\u00e9lib' M\u00e9tropole", "capacity": "30", "name": "Square Alban Satragne", "network": "V\u00e9lib\u2019 M\u00e9tropole", "network:wikidata": "Q1120762", "network:wikipedia": "fr:V\u00e9lib' M\u00e9tropole", "operator": "Smovengo", "operator:wikidata": "Q47008427", "operator:wikipedia": "fr:Smovengo", "ref": "10018", "source": "Autolib Velib M\u00e9tropole - 04/2020", "wikidata": "Q86252905"}}, {"type": "node", "id": 6755991828, "lat": 48.8779506, "lon": 2.3374655, "tags": {"amenity": "bicycle_rental", "bicycle_rental": "docking_station", "brand": "V\u00e9lib\u2019 M\u00e9tropole", "brand:wikidata": "Q1120762", "brand:wikipedia": "fr:V\u00e9lib' M\u00e9tropole", "capacity": "23", "name": "Saint-Georges - d'Aumale", "network": "V\u00e9lib\u2019 M\u00e9tropole", "network:wikidata": "Q1120762", "network:wikipedia": "fr:V\u00e9lib' M\u00e9tropole", "operator": "Smovengo", "operator:wikidata": "Q47008427", "operator:wikipedia": "fr:Smovengo", "payment:contactless": "yes", "payment:mastercard": "yes", "payment:visa": "yes", "ref": "9021", "source": "Autolib Velib M\u00e9tropole - 04/2020", "vending": "yes", "wikidata": "Q86254704"}}, {"type": "node", "id": 6763682114, "lat": 48.875038, "lon": 2.3521409, "tags": {"amenity": "bicycle_rental", "bicycle_rental": "docking_station", "brand": "V\u00e9lib\u2019 M\u00e9tropole", "brand:wikidata": "Q1120762", "brand:wikipedia": "fr:V\u00e9lib' M\u00e9tropole", "capacity": "31", "name": "Paradis - Hauteville", "network": "V\u00e9lib\u2019 M\u00e9tropole", "network:wikidata": "Q1120762", "network:wikipedia": "fr:V\u00e9lib' M\u00e9tropole", "operator": "Smovengo", "operator:wikidata": "Q47008427", "operator:wikipedia": "fr:Smovengo", "ref": "10019", "source": "Autolib Velib M\u00e9tropole - 04/2020", "wikidata": "Q86253061"}}, {"type": "node", "id": 6763682115, "lat": 48.877101, "lon": 2.3512033, "tags": {"amenity": "bicycle_rental", "bicycle_rental": "docking_station", "brand": "V\u00e9lib\u2019 M\u00e9tropole", "brand:wikidata": "Q1120762", "brand:wikipedia": "fr:V\u00e9lib' M\u00e9tropole", "capacity": "11", "name": "Chabrol - d'Hauteville", "network": "V\u00e9lib\u2019 M\u00e9tropole", "network:wikidata": "Q1120762", "network:wikipedia": "fr:V\u00e9lib' M\u00e9tropole", "operator": "Smovengo", "operator:wikidata": "Q47008427", "operator:wikipedia": "fr:Smovengo", "ref": "10020", "source": "Autolib Velib M\u00e9tropole - 04/2019", "wikidata": "Q86252958"}}, {"type": "node", "id": 6763682116, "lat": 48.8773562, "lon": 2.3545046, "tags": {"amenity": "bicycle_rental", "bicycle_rental": "docking_station", "brand": "V\u00e9lib\u2019 M\u00e9tropole", "brand:wikidata": "Q1120762", "brand:wikipedia": "fr:V\u00e9lib' M\u00e9tropole", "capacity": "15", "name": "March\u00e9 Saint-Quentin", "network": "V\u00e9lib\u2019 M\u00e9tropole", "network:wikidata": "Q1120762", "network:wikipedia": "fr:V\u00e9lib' M\u00e9tropole", "operator": "Smovengo", "operator:wikidata": "Q47008427", "operator:wikipedia": "fr:Smovengo", "ref": "10021", "source": "Autolib Velib M\u00e9tropole - 04/2019", "wikidata": "Q86253011"}}, {"type": "node", "id": 6763717995, "lat": 48.8793585, "lon": 2.3583226, "tags": {"amenity": "bicycle_rental", "bicycle_rental": "docking_station", "brand": "V\u00e9lib\u2019 M\u00e9tropole", "brand:wikidata": "Q1120762", "brand:wikipedia": "fr:V\u00e9lib' M\u00e9tropole", "capacity": "18", "name": "Dunkerque - Alsace", "network": "V\u00e9lib\u2019 M\u00e9tropole", "network:wikidata": "Q1120762", "network:wikipedia": "fr:V\u00e9lib' M\u00e9tropole", "operator": "Smovengo", "operator:wikidata": "Q47008427", "operator:wikipedia": "fr:Smovengo", "ref": "10027", "source": "Autolib Velib M\u00e9tropole - 04/2019", "wikidata": "Q86253026"}}, {"type": "node", "id": 6763717996, "lat": 48.8807212, "lon": 2.3514536, "tags": {"amenity": "bicycle_rental", "bicycle_rental": "docking_station", "brand": "V\u00e9lib\u2019 M\u00e9tropole", "brand:wikidata": "Q1120762", "brand:wikipedia": "fr:V\u00e9lib' M\u00e9tropole", "capacity": "24", "name": "Dunkerque - Rocroy", "network": "V\u00e9lib\u2019 M\u00e9tropole", "network:wikidata": "Q1120762", "network:wikipedia": "fr:V\u00e9lib' M\u00e9tropole", "operator": "Smovengo", "operator:wikidata": "Q47008427", "operator:wikipedia": "fr:Smovengo", "ref": "10029", "source": "Autolib Velib M\u00e9tropole - 04/2020", "wikidata": "Q86252893"}}, {"type": "node", "id": 6763717997, "lat": 48.8819673, "lon": 2.363676, "tags": {"amenity": "bicycle_rental", "bicycle_rental": "docking_station", "brand": "V\u00e9lib\u2019 M\u00e9tropole", "brand:wikidata": "Q1120762", "brand:wikipedia": "fr:V\u00e9lib' M\u00e9tropole", "capacity": "37", "name": "Louis Blanc - Aqueduc", "network": "V\u00e9lib\u2019 M\u00e9tropole", "network:wikidata": "Q1120762", "network:wikipedia": "fr:V\u00e9lib' M\u00e9tropole", "operator": "Smovengo", "operator:wikidata": "Q47008427", "operator:wikipedia": "fr:Smovengo", "ref": "10031", "source": "Autolib Velib M\u00e9tropole - 04/2019", "wikidata": "Q86252936"}}, {"type": "node", "id": 6763717998, "lat": 48.8728595, "lon": 2.3700298, "tags": {"amenity": "bicycle_rental", "bicycle_rental": "docking_station", "brand": "V\u00e9lib\u2019 M\u00e9tropole", "brand:wikidata": "Q1120762", "brand:wikipedia": "fr:V\u00e9lib' M\u00e9tropole", "capacity": "32", "check_date": "2023-07-06", "name": "Claude Vellefaux - H\u00f4pital Saint-Louis", "network": "V\u00e9lib\u2019 M\u00e9tropole", "network:wikidata": "Q1120762", "network:wikipedia": "fr:V\u00e9lib' M\u00e9tropole", "operator": "Smovengo", "operator:wikidata": "Q47008427", "operator:wikipedia": "fr:Smovengo", "ref": "10032", "source": "Autolib Velib M\u00e9tropole - 04/2020", "wikidata": "Q86253048"}}, {"type": "node", "id": 6763717999, "lat": 48.8839076, "lon": 2.3600648, "tags": {"amenity": "bicycle_rental", "bicycle_rental": "docking_station", "brand": "V\u00e9lib\u2019 M\u00e9tropole", "brand:wikidata": "Q1120762", "brand:wikipedia": "fr:V\u00e9lib' M\u00e9tropole", "capacity": "21", "name": "Louis Blanc - La Chapelle", "network": "V\u00e9lib\u2019 M\u00e9tropole", "network:wikidata": "Q1120762", "network:wikipedia": "fr:V\u00e9lib' M\u00e9tropole", "operator": "Smovengo", "operator:wikidata": "Q47008427", "operator:wikipedia": "fr:Smovengo", "ref": "10034", "source": "Autolib Velib M\u00e9tropole - 2021-03", "wikidata": "Q86252945"}}, {"type": "node", "id": 6763718000, "lat": 48.8838446, "lon": 2.3671108, "tags": {"amenity": "bicycle_rental", "bicycle_rental": "docking_station", "brand": "V\u00e9lib\u2019 M\u00e9tropole", "brand:wikidata": "Q1120762", "brand:wikipedia": "fr:V\u00e9lib' M\u00e9tropole", "capacity": "28", "name": "Aqueduc - Villette", "network": "V\u00e9lib\u2019 M\u00e9tropole", "network:wikidata": "Q1120762", "network:wikipedia": "fr:V\u00e9lib' M\u00e9tropole", "operator": "Smovengo", "operator:wikidata": "Q47008427", "operator:wikipedia": "fr:Smovengo", "ref": "10036", "source": "Autolib Velib M\u00e9tropole - 04/2019", "wikidata": "Q86252993"}}, {"type": "node", "id": 6763718001, "lat": 48.8812617, "lon": 2.368116, "tags": {"amenity": "bicycle_rental", "bicycle_rental": "docking_station", "brand": "V\u00e9lib\u2019 M\u00e9tropole", "brand:wikidata": "Q1120762", "brand:wikipedia": "fr:V\u00e9lib' M\u00e9tropole", "capacity": "26", "name": "Quai de Valmy", "network": "V\u00e9lib\u2019 M\u00e9tropole", "network:wikidata": "Q1120762", "network:wikipedia": "fr:V\u00e9lib' M\u00e9tropole", "operator": "Smovengo", "operator:wikidata": "Q47008427", "operator:wikipedia": "fr:Smovengo", "ref": "10037", "source": "Autolib Velib M\u00e9tropole - 04/2019", "wikidata": "Q86252964"}}, {"type": "node", "id": 6763718002, "lat": 48.8636064, "lon": 2.3478837, "tags": {"amenity": "bicycle_rental", "bicycle_rental": "docking_station", "brand": "V\u00e9lib\u2019 M\u00e9tropole", "brand:wikidata": "Q1120762", "brand:wikipedia": "fr:V\u00e9lib' M\u00e9tropole", "capacity": "16", "name": "Turbigo - Fran\u00e7aise", "network": "V\u00e9lib\u2019 M\u00e9tropole", "network:wikidata": "Q1120762", "network:wikipedia": "fr:V\u00e9lib' M\u00e9tropole", "operator": "Smovengo", "operator:wikidata": "Q47008427", "operator:wikipedia": "fr:Smovengo", "ref": "1007", "source": "Autolib Velib M\u00e9tropole - 04/2020", "wikidata": "Q86255078"}}, {"type": "node", "id": 6763718003, "lat": 48.8638018, "lon": 2.3425753, "tags": {"amenity": "bicycle_rental", "bicycle_rental": "docking_station", "brand": "V\u00e9lib\u2019 M\u00e9tropole", "brand:wikidata": "Q1120762", "brand:wikipedia": "fr:V\u00e9lib' M\u00e9tropole", "capacity": "21", "name": "Coquilli\u00e8re - Louvre", "network": "V\u00e9lib\u2019 M\u00e9tropole", "network:wikidata": "Q1120762", "network:wikipedia": "fr:V\u00e9lib' M\u00e9tropole", "operator": "Smovengo", "operator:wikidata": "Q47008427", "operator:wikipedia": "fr:Smovengo", "ref": "1024", "source": "Autolib Velib M\u00e9tropole - 04/2020", "wikidata": "Q86255110"}}, {"type": "node", "id": 6763718004, "lat": 48.8702627, "lon": 2.3512688, "tags": {"amenity": "bicycle_rental", "bicycle_rental": "docking_station", "brand": "V\u00e9lib\u2019 M\u00e9tropole", "brand:wikidata": "Q1120762", "brand:wikipedia": "fr:V\u00e9lib' M\u00e9tropole", "capacity": "25", "name": "Mazagran - Bonne Nouvelle", "network": "V\u00e9lib\u2019 M\u00e9tropole", "network:wikidata": "Q1120762", "network:wikipedia": "fr:V\u00e9lib' M\u00e9tropole", "operator": "Smovengo", "operator:wikidata": "Q47008427", "operator:wikipedia": "fr:Smovengo", "ref": "10105", "source": "Autolib Velib M\u00e9tropole - 04/2019", "wikidata": "Q86252929"}}, {"type": "node", "id": 6795914872, "lat": 48.8734686, "lon": 2.3640343, "tags": {"amenity": "bicycle_rental", "bicycle_rental": "docking_station", "brand": "V\u00e9lib\u2019 M\u00e9tropole", "brand:wikidata": "Q1120762", "brand:wikipedia": "fr:V\u00e9lib' M\u00e9tropole", "capacity": "23", "name": "Jemmapes - Grange aux Belles", "network": "V\u00e9lib\u2019 M\u00e9tropole", "network:wikidata": "Q1120762", "network:wikipedia": "fr:V\u00e9lib' M\u00e9tropole", "operator": "Smovengo", "operator:wikidata": "Q47008427", "operator:wikipedia": "fr:Smovengo", "ref": "10111", "source": "Autolib Velib M\u00e9tropole - 04/2019", "wikidata": "Q86252955"}}, {"type": "node", "id": 6795916694, "lat": 48.8636827, "lon": 2.3340472, "tags": {"amenity": "bicycle_rental", "bicycle_rental": "docking_station", "brand": "V\u00e9lib\u2019 M\u00e9tropole", "brand:wikidata": "Q1120762", "brand:wikipedia": "fr:V\u00e9lib' M\u00e9tropole", "capacity": "24", "name": "Rivoli - Mus\u00e9e du Louvre", "network": "V\u00e9lib\u2019 M\u00e9tropole", "network:wikidata": "Q1120762", "network:wikipedia": "fr:V\u00e9lib' M\u00e9tropole", "operator": "Smovengo", "operator:wikidata": "Q47008427", "operator:wikipedia": "fr:Smovengo", "ref": "1014", "source": "Autolib Velib M\u00e9tropole - 04/2020", "wikidata": "Q86255127"}}, {"type": "node", "id": 6795916695, "lat": 48.8796362, "lon": 2.3568989, "tags": {"amenity": "bicycle_rental", "bicycle_rental": "docking_station", "brand": "V\u00e9lib\u2019 M\u00e9tropole", "brand:wikidata": "Q1120762", "brand:wikipedia": "fr:V\u00e9lib' M\u00e9tropole", "capacity": "28", "name": "Gare du Nord - Faubourg Saint-Denis", "network": "V\u00e9lib\u2019 M\u00e9tropole", "network:wikidata": "Q1120762", "network:wikipedia": "fr:V\u00e9lib' M\u00e9tropole", "operator": "Smovengo", "operator:wikidata": "Q47008427", "operator:wikipedia": "fr:Smovengo", "ref": "10151", "source": "Autolib Velib M\u00e9tropole - 04/2019", "wikidata": "Q86253058"}}, {"type": "node", "id": 6795916696, "lat": 48.8791079, "lon": 2.354235, "tags": {"amenity": "bicycle_rental", "bicycle_rental": "docking_station", "brand": "V\u00e9lib\u2019 M\u00e9tropole", "brand:wikidata": "Q1120762", "brand:wikipedia": "fr:V\u00e9lib' M\u00e9tropole", "capacity": "25", "name": "Gare du Nord - Place de Valenciennes", "network": "V\u00e9lib\u2019 M\u00e9tropole", "network:wikidata": "Q1120762", "network:wikipedia": "fr:V\u00e9lib' M\u00e9tropole", "operator": "Smovengo", "operator:wikidata": "Q47008427", "operator:wikipedia": "fr:Smovengo", "ref": "10152", "source": "Autolib Velib M\u00e9tropole - 04/2020", "wikidata": "Q86252943"}}, {"type": "node", "id": 6795916697, "lat": 48.8795828, "lon": 2.3544902, "tags": {"amenity": "bicycle_rental", "bicycle_rental": "docking_station", "brand": "V\u00e9lib\u2019 M\u00e9tropole", "brand:wikidata": "Q1120762", "brand:wikipedia": "fr:V\u00e9lib' M\u00e9tropole", "capacity": "20", "name": "Gare du Nord - Denain", "network": "V\u00e9lib\u2019 M\u00e9tropole", "network:wikidata": "Q1120762", "network:wikipedia": "fr:V\u00e9lib' M\u00e9tropole", "operator": "Smovengo", "operator:wikidata": "Q47008427", "operator:wikipedia": "fr:Smovengo", "ref": "10153", "source": "Autolib Velib M\u00e9tropole - 04/2019", "wikidata": "Q86252983"}}, {"type": "node", "id": 6795916698, "lat": 48.866462, "lon": 2.3344911, "tags": {"amenity": "bicycle_rental", "bicycle_rental": "docking_station", "brand": "V\u00e9lib\u2019 M\u00e9tropole", "brand:wikidata": "Q1120762", "brand:wikipedia": "fr:V\u00e9lib' M\u00e9tropole", "capacity": "25", "name": "Th\u00e9r\u00e8se - Op\u00e9ra", "network": "V\u00e9lib\u2019 M\u00e9tropole", "network:wikidata": "Q1120762", "network:wikipedia": "fr:V\u00e9lib' M\u00e9tropole", "operator": "Smovengo", "operator:wikidata": "Q47008427", "operator:wikipedia": "fr:Smovengo", "ref": "1016", "source": "Autolib Velib M\u00e9tropole - 04/2020", "wikidata": "Q86255098"}}, {"type": "node", "id": 6795916699, "lat": 48.876361, "lon": 2.358636, "tags": {"amenity": "bicycle_rental", "bicycle_rental": "docking_station", "brand": "V\u00e9lib\u2019 M\u00e9tropole", "brand:wikidata": "Q1120762", "brand:wikipedia": "fr:V\u00e9lib' M\u00e9tropole", "capacity": "40", "name": "Gare de l'Est - Place du 11 Novembre 1918", "network": "V\u00e9lib\u2019 M\u00e9tropole", "network:wikidata": "Q1120762", "network:wikipedia": "fr:V\u00e9lib' M\u00e9tropole", "operator": "Smovengo", "operator:wikidata": "Q47008427", "operator:wikipedia": "fr:Smovengo", "ref": "10165", "source": "Autolib Velib M\u00e9tropole - 04/2019", "wikidata": "Q86252917"}}, {"type": "node", "id": 6801503709, "lat": 48.8655676, "lon": 2.3306009, "tags": {"amenity": "bicycle_rental", "bicycle_rental": "docking_station", "brand": "V\u00e9lib\u2019 M\u00e9tropole", "brand:wikidata": "Q1120762", "brand:wikipedia": "fr:V\u00e9lib' M\u00e9tropole", "capacity": "20", "name": "Saint-Honor\u00e9 - 29 juillet", "network": "V\u00e9lib\u2019 M\u00e9tropole", "network:wikidata": "Q1120762", "network:wikipedia": "fr:V\u00e9lib' M\u00e9tropole", "operator": "Smovengo", "operator:wikidata": "Q47008427", "operator:wikipedia": "fr:Smovengo", "ref": "1017", "source": "Autolib Velib M\u00e9tropole - 04/2020", "wikidata": "Q86255058"}}, {"type": "node", "id": 6801503712, "lat": 48.8682126, "lon": 2.3305029, "tags": {"amenity": "bicycle_rental", "bicycle_rental": "docking_station", "brand": "V\u00e9lib\u2019 M\u00e9tropole", "brand:wikidata": "Q1120762", "brand:wikipedia": "fr:V\u00e9lib' M\u00e9tropole", "capacity": "37", "name": "Danielle Casanova - Place Vend\u00f4me", "network": "V\u00e9lib\u2019 M\u00e9tropole", "network:wikidata": "Q1120762", "network:wikipedia": "fr:V\u00e9lib' M\u00e9tropole", "operator": "Smovengo", "operator:wikidata": "Q47008427", "operator:wikipedia": "fr:Smovengo", "ref": "1022", "source": "Autolib Velib M\u00e9tropole - 04/2020", "wikidata": "Q86254740"}}, {"type": "node", "id": 6801503713, "lat": 48.8634637, "lon": 2.3348827, "tags": {"amenity": "bicycle_rental", "bicycle_rental": "docking_station", "brand": "V\u00e9lib\u2019 M\u00e9tropole", "brand:wikidata": "Q1120762", "brand:wikipedia": "fr:V\u00e9lib' M\u00e9tropole", "capacity": "22", "name": "Saint-Honor\u00e9 - Mus\u00e9e du Louvre", "network": "V\u00e9lib\u2019 M\u00e9tropole", "network:wikidata": "Q1120762", "network:wikipedia": "fr:V\u00e9lib' M\u00e9tropole", "operator": "Smovengo", "operator:wikidata": "Q47008427", "operator:wikipedia": "fr:Smovengo", "ref": "1023", "source": "Autolib Velib M\u00e9tropole - 04/2020", "wikidata": "Q86255063"}}, {"type": "node", "id": 6801503714, "lat": 48.8635063, "lon": 2.3426393, "tags": {"amenity": "bicycle_rental", "bicycle_rental": "docking_station", "brand": "V\u00e9lib\u2019 M\u00e9tropole", "brand:wikidata": "Q1120762", "brand:wikipedia": "fr:V\u00e9lib' M\u00e9tropole", "capacity": "32", "name": "Les Halles - Saint-Eustache", "network": "V\u00e9lib\u2019 M\u00e9tropole", "network:wikidata": "Q1120762", "network:wikipedia": "fr:V\u00e9lib' M\u00e9tropole", "operator": "Smovengo", "operator:wikidata": "Q47008427", "operator:wikipedia": "fr:Smovengo", "ref": "1008", "source": "Autolib Velib M\u00e9tropole - 04/2020", "wikidata": "Q86255066"}}, {"type": "node", "id": 6801503716, "lat": 48.8634398, "lon": 2.3400532, "tags": {"amenity": "bicycle_rental", "bicycle_rental": "docking_station", "brand": "V\u00e9lib\u2019 M\u00e9tropole", "brand:wikidata": "Q1120762", "brand:wikipedia": "fr:V\u00e9lib' M\u00e9tropole", "capacity": "30", "name": "Place du Lieutenant Henri Karcher", "network": "V\u00e9lib\u2019 M\u00e9tropole", "network:wikidata": "Q1120762", "network:wikipedia": "fr:V\u00e9lib' M\u00e9tropole", "operator": "Smovengo", "operator:wikidata": "Q47008427", "operator:wikipedia": "fr:Smovengo", "ref": "1026", "source": "Autolib Velib M\u00e9tropole - 04/2020", "wikidata": "Q86255092"}}, {"type": "node", "id": 6801503720, "lat": 48.8640235, "lon": 2.3475846, "tags": {"amenity": "bicycle_rental", "bicycle_rental": "docking_station", "brand": "V\u00e9lib\u2019 M\u00e9tropole", "brand:wikidata": "Q1120762", "brand:wikipedia": "fr:V\u00e9lib' M\u00e9tropole", "capacity": "37", "name": "Fran\u00e7aise - \u00c9tienne Marcel", "network": "V\u00e9lib\u2019 M\u00e9tropole", "network:wikidata": "Q1120762", "network:wikipedia": "fr:V\u00e9lib' M\u00e9tropole", "operator": "Smovengo", "operator:wikidata": "Q47008427", "operator:wikipedia": "fr:Smovengo", "ref": "1102", "source": "Autolib Velib M\u00e9tropole - 2021-03", "wikidata": "Q86255120"}}, {"type": "node", "id": 6910100841, "lat": 48.8650144, "lon": 2.3450705, "tags": {"amenity": "bicycle_rental", "bicycle_rental": "docking_station", "brand": "V\u00e9lib\u2019 M\u00e9tropole", "brand:wikidata": "Q1120762", "brand:wikipedia": "fr:V\u00e9lib' M\u00e9tropole", "capacity": "16", "name": "Montmartre - \u00c9tienne Marcel", "network": "V\u00e9lib\u2019 M\u00e9tropole", "network:wikidata": "Q1120762", "network:wikipedia": "fr:V\u00e9lib' M\u00e9tropole", "operator": "Smovengo", "operator:wikidata": "Q47008427", "operator:wikipedia": "fr:Smovengo", "ref": "2005", "source": "Autolib Velib M\u00e9tropole - 04/2020", "wikidata": "Q86254780"}}, {"type": "node", "id": 6916896355, "lat": 48.864532, "lon": 2.3695075, "tags": {"amenity": "bicycle_rental", "bicycle_rental": "docking_station", "brand": "V\u00e9lib\u2019 M\u00e9tropole", "brand:wikidata": "Q1120762", "brand:wikipedia": "fr:V\u00e9lib' M\u00e9tropole", "capacity": "49", "check_date": "2022-07-28", "description": "Deuxi\u00e8me partie de la station, abonnement uniquement.", "name": "Grand Prieur\u00e9 - Crussol", "network": "V\u00e9lib\u2019 M\u00e9tropole", "network:wikidata": "Q1120762", "network:wikipedia": "fr:V\u00e9lib' M\u00e9tropole", "operator": "Smovengo", "operator:wikidata": "Q47008427", "operator:wikipedia": "fr:Smovengo", "ref": "11042", "source": "Autolib Velib M\u00e9tropole - 04/2020", "wikidata": "Q86254550"}}, {"type": "node", "id": 6929771899, "lat": 48.882706, "lon": 2.3746958, "tags": {"amenity": "bicycle_rental", "bicycle_rental": "docking_station", "brand": "V\u00e9lib\u2019 M\u00e9tropole", "brand:wikidata": "Q1120762", "brand:wikipedia": "fr:V\u00e9lib' M\u00e9tropole", "capacity": "28", "name": "Lally-Tollendal - Armand Carrel", "network": "V\u00e9lib\u2019 M\u00e9tropole", "network:wikidata": "Q1120762", "network:wikipedia": "fr:V\u00e9lib' M\u00e9tropole", "operator": "Smovengo", "operator:wikidata": "Q47008427", "operator:wikipedia": "fr:Smovengo", "ref": "19012", "source": "Autolib Velib M\u00e9tropole - 04/2020", "wikidata": "Q86254792"}}, {"type": "node", "id": 6932803054, "lat": 48.879299, "lon": 2.3624186, "tags": {"amenity": "bicycle_rental", "bicycle_rental": "docking_station", "brand": "V\u00e9lib\u2019 M\u00e9tropole", "brand:wikidata": "Q1120762", "brand:wikipedia": "fr:V\u00e9lib' M\u00e9tropole", "capacity": "59", "name": "Gare de l'Est - Chateau Landon", "network": "V\u00e9lib\u2019 M\u00e9tropole", "network:wikidata": "Q1120762", "network:wikipedia": "fr:V\u00e9lib' M\u00e9tropole", "operator": "Smovengo", "operator:wikidata": "Q47008427", "operator:wikipedia": "fr:Smovengo", "ref": "10026", "source": "GPS", "wikidata": "Q86253028"}}, {"type": "node", "id": 7075760808, "lat": 48.892501, "lon": 2.3522178, "tags": {"amenity": "bicycle_rental", "bicycle_rental": "docking_station", "brand": "V\u00e9lib\u2019 M\u00e9tropole", "brand:wikidata": "Q1120762", "brand:wikipedia": "fr:V\u00e9lib' M\u00e9tropole", "capacity": "28", "name": "Poissonniers - Nord", "network": "V\u00e9lib\u2019 M\u00e9tropole", "network:wikidata": "Q1120762", "network:wikipedia": "fr:V\u00e9lib' M\u00e9tropole", "operator": "Smovengo", "operator:wikidata": "Q47008427", "operator:wikipedia": "fr:Smovengo", "ref": "18137", "source": "Autolib Velib M\u00e9tropole - 04/2019", "wikidata": "Q86253572"}}, {"type": "node", "id": 7075760809, "lat": 48.8954506, "lon": 2.3529971, "tags": {"amenity": "bicycle_rental", "bicycle_rental": "docking_station", "brand": "V\u00e9lib\u2019 M\u00e9tropole", "brand:wikidata": "Q1120762", "brand:wikipedia": "fr:V\u00e9lib' M\u00e9tropole", "capacity": "28", "name": "Poissonniers - Championnet", "network": "V\u00e9lib\u2019 M\u00e9tropole", "network:wikidata": "Q1120762", "network:wikipedia": "fr:V\u00e9lib' M\u00e9tropole", "operator": "Smovengo", "operator:wikidata": "Q47008427", "operator:wikipedia": "fr:Smovengo", "ref": "18139", "source": "Autolib Velib M\u00e9tropole - 04/2019", "wikidata": "Q86254414"}}, {"type": "node", "id": 7075896234, "lat": 48.8954673, "lon": 2.3498792, "tags": {"amenity": "bicycle_rental", "bicycle_rental": "docking_station", "brand": "V\u00e9lib\u2019 M\u00e9tropole", "brand:wikidata": "Q1120762", "brand:wikipedia": "fr:V\u00e9lib' M\u00e9tropole", "capacity": "22", "name": "Championnet", "network": "V\u00e9lib\u2019 M\u00e9tropole", "network:wikidata": "Q1120762", "network:wikipedia": "fr:V\u00e9lib' M\u00e9tropole", "operator": "Smovengo", "operator:wikidata": "Q47008427", "operator:wikipedia": "fr:Smovengo", "ref": "18101", "source": "Autolib Velib M\u00e9tropole - 04/2019", "wikidata": "Q86254447"}}, {"type": "node", "id": 7075965462, "lat": 48.8957977, "lon": 2.3455801, "tags": {"amenity": "bicycle_rental", "capacity": "46", "name": "Place Albert Kahn", "network": "V\u00e9lib\u2019", "operator": "Smovengo", "ref": "18031", "source": "Autolib Velib M\u00e9tropole - 2021-03", "wikidata": "Q86253605"}}, {"type": "node", "id": 7076001695, "lat": 48.8937071, "lon": 2.3476008, "tags": {"amenity": "bicycle_rental", "bicycle_rental": "docking_station", "capacity": "37", "name": "Joseph Dijon - Ornano", "network": "V\u00e9lib\u2019", "operator": "Smovengo", "ref": "18030", "source": "Autolib Velib M\u00e9tropole - 2021-03", "wikidata": "Q86254423"}}, {"type": "node", "id": 7079900516, "lat": 48.8979289, "lon": 2.3456827, "tags": {"amenity": "bicycle_rental", "capacity": "25", "name": "Ney - Porte de Clignancourt", "network": "V\u00e9lib\u2019", "operator": "Smovengo", "ref": "18134", "source": "Autolib Velib M\u00e9tropole - 2021-03", "wikidata": "Q86254470"}}, {"type": "node", "id": 7104646166, "lat": 48.8888491, "lon": 2.3559626, "tags": {"amenity": "bicycle_rental", "bicycle_rental": "docking_station", "capacity": "36", "name": "Stephenson - Doudeauville", "network": "V\u00e9lib\u2019", "operator": "Smovengo", "payment:credit_cards": "yes", "ref": "18012", "source": "Autolib Velib M\u00e9tropole - 2021-03", "wikidata": "Q86253523"}}, {"type": "node", "id": 7104646167, "lat": 48.8861262, "lon": 2.3568086, "tags": {"amenity": "bicycle_rental", "bicycle_rental": "docking_station", "brand": "V\u00e9lib\u2019 M\u00e9tropole", "brand:wikidata": "Q1120762", "brand:wikipedia": "fr:V\u00e9lib' M\u00e9tropole", "capacity": "22", "name": "Jean-Fran\u00e7ois L\u00e9pine - Stephenson", "network": "V\u00e9lib\u2019 M\u00e9tropole", "network:wikidata": "Q1120762", "network:wikipedia": "fr:V\u00e9lib' M\u00e9tropole", "operator": "Smovengo", "operator:wikidata": "Q47008427", "operator:wikipedia": "fr:Smovengo", "payment:credit_cards": "yes", "ref": "18009", "source": "Autolib Velib M\u00e9tropole - 04/2020", "wikidata": "Q86254471"}}, {"type": "node", "id": 7104646168, "lat": 48.8866532, "lon": 2.3531454, "tags": {"amenity": "bicycle_rental", "bicycle_rental": "docking_station", "brand": "V\u00e9lib\u2019 M\u00e9tropole", "brand:wikidata": "Q1120762", "brand:wikipedia": "fr:V\u00e9lib' M\u00e9tropole", "capacity": "33", "name": "Square L\u00e9on", "network": "V\u00e9lib\u2019 M\u00e9tropole", "network:wikidata": "Q1120762", "network:wikipedia": "fr:V\u00e9lib' M\u00e9tropole", "operator": "Smovengo", "operator:wikidata": "Q47008427", "operator:wikipedia": "fr:Smovengo", "payment:credit_cards": "no", "ref": "18008", "source": "Autolib Velib M\u00e9tropole - 04/2020", "wikidata": "Q86254476"}}, {"type": "node", "id": 7104646169, "lat": 48.8883276, "lon": 2.3535768, "tags": {"amenity": "bicycle_rental", "bicycle_rental": "docking_station", "capacity": "13", "name": "L\u00e9on - Doudeauville", "network": "V\u00e9lib\u2019", "operator": "Smovengo", "payment:credit_cards": "no", "ref": "18014", "source": "Autolib Velib M\u00e9tropole - 2021-03", "wikidata": "Q86254418"}}, {"type": "node", "id": 7117966125, "lat": 48.8718894, "lon": 2.3372173, "tags": {"amenity": "bicycle_rental", "bicycle_rental": "docking_station", "brand": "V\u00e9lib\u2019 M\u00e9tropole", "brand:wikidata": "Q1120762", "brand:wikipedia": "fr:V\u00e9lib' M\u00e9tropole", "capacity": "33", "name": "Laffitte - Italiens", "network": "V\u00e9lib\u2019 M\u00e9tropole", "network:wikidata": "Q1120762", "network:wikipedia": "fr:V\u00e9lib' M\u00e9tropole", "operator": "Smovengo", "operator:wikidata": "Q47008427", "operator:wikipedia": "fr:Smovengo", "ref": "9023", "source": "Autolib Velib M\u00e9tropole - 04/2020", "wikidata": "Q86254617"}}, {"type": "node", "id": 7117966126, "lat": 48.8733281, "lon": 2.3380856, "tags": {"amenity": "bicycle_rental", "bicycle_rental": "docking_station", "brand": "V\u00e9lib\u2019 M\u00e9tropole", "brand:wikidata": "Q1120762", "brand:wikipedia": "fr:V\u00e9lib' M\u00e9tropole", "capacity": "33", "name": "Rossini - Laffitte", "network": "V\u00e9lib\u2019 M\u00e9tropole", "network:wikidata": "Q1120762", "network:wikipedia": "fr:V\u00e9lib' M\u00e9tropole", "operator": "Smovengo", "operator:wikidata": "Q47008427", "operator:wikipedia": "fr:Smovengo", "ref": "9022", "source": "Autolib Velib M\u00e9tropole - 04/2020", "wikidata": "Q86254690"}}, {"type": "node", "id": 7117966127, "lat": 48.8751415, "lon": 2.3381176, "tags": {"amenity": "bicycle_rental", "bicycle_rental": "docking_station", "brand": "V\u00e9lib\u2019 M\u00e9tropole", "brand:wikidata": "Q1120762", "brand:wikipedia": "fr:V\u00e9lib' M\u00e9tropole", "capacity": "20", "name": "Victoire - Laffitte", "network": "V\u00e9lib\u2019 M\u00e9tropole", "network:wikidata": "Q1120762", "network:wikipedia": "fr:V\u00e9lib' M\u00e9tropole", "operator": "Smovengo", "operator:wikidata": "Q47008427", "operator:wikipedia": "fr:Smovengo", "ref": "9111", "source": "Autolib Velib M\u00e9tropole - 04/2020", "wikidata": "Q86254679"}}, {"type": "node", "id": 7117966128, "lat": 48.8733852, "lon": 2.3352971, "tags": {"amenity": "bicycle_rental", "bicycle_rental": "docking_station", "brand": "V\u00e9lib\u2019 M\u00e9tropole", "brand:wikidata": "Q1120762", "brand:wikipedia": "fr:V\u00e9lib' M\u00e9tropole", "capacity": "53", "name": "Taitbout - La Fayette", "network": "V\u00e9lib\u2019 M\u00e9tropole", "network:wikidata": "Q1120762", "network:wikipedia": "fr:V\u00e9lib' M\u00e9tropole", "operator": "Smovengo", "operator:wikidata": "Q47008427", "operator:wikipedia": "fr:Smovengo", "ref": "9024", "source": "Autolib Velib M\u00e9tropole - 04/2020", "wikidata": "Q86254612"}}, {"type": "node", "id": 7117966129, "lat": 48.876436, "lon": 2.3353612, "tags": {"amenity": "bicycle_rental", "bicycle_rental": "docking_station", "brand": "V\u00e9lib\u2019 M\u00e9tropole", "brand:wikidata": "Q1120762", "brand:wikipedia": "fr:V\u00e9lib' M\u00e9tropole", "capacity": "39", "name": "Taitbout - Ch\u00e2teaudun", "network": "V\u00e9lib\u2019 M\u00e9tropole", "network:wikidata": "Q1120762", "network:wikipedia": "fr:V\u00e9lib' M\u00e9tropole", "operator": "Smovengo", "operator:wikidata": "Q47008427", "operator:wikipedia": "fr:Smovengo", "ref": "9025", "source": "Autolib Velib M\u00e9tropole - 04/2020", "wikidata": "Q86254606"}}, {"type": "node", "id": 7117966130, "lat": 48.875053, "lon": 2.3316195, "tags": {"amenity": "bicycle_rental", "bicycle_rental": "docking_station", "brand": "V\u00e9lib\u2019 M\u00e9tropole", "brand:wikidata": "Q1120762", "brand:wikipedia": "fr:V\u00e9lib' M\u00e9tropole", "capacity": "24", "name": "Victoire - Chauss\u00e9e d'Antin", "network": "V\u00e9lib\u2019 M\u00e9tropole", "network:wikidata": "Q1120762", "network:wikipedia": "fr:V\u00e9lib' M\u00e9tropole", "operator": "Smovengo", "operator:wikidata": "Q47008427", "operator:wikipedia": "fr:Smovengo", "ref": "9116", "source": "Autolib Velib M\u00e9tropole - 04/2020", "wikidata": "Q86254698"}}, {"type": "node", "id": 7117966131, "lat": 48.872446, "lon": 2.3335802, "tags": {"amenity": "bicycle_rental", "bicycle_rental": "docking_station", "brand": "V\u00e9lib\u2019 M\u00e9tropole", "brand:wikidata": "Q1120762", "brand:wikipedia": "fr:V\u00e9lib' M\u00e9tropole", "capacity": "28", "name": "Chauss\u00e9e d'Antin - Haussmann", "network": "V\u00e9lib\u2019 M\u00e9tropole", "network:wikidata": "Q1120762", "network:wikipedia": "fr:V\u00e9lib' M\u00e9tropole", "operator": "Smovengo", "operator:wikidata": "Q47008427", "operator:wikipedia": "fr:Smovengo", "ref": "9039", "source": "Autolib Velib M\u00e9tropole - 04/2020", "wikidata": "Q86254692"}}, {"type": "node", "id": 7117966132, "lat": 48.8742783, "lon": 2.3331245, "tags": {"amenity": "bicycle_rental", "bicycle_rental": "docking_station", "brand": "V\u00e9lib\u2019 M\u00e9tropole", "brand:wikidata": "Q1120762", "brand:wikipedia": "fr:V\u00e9lib' M\u00e9tropole", "capacity": "25", "name": "Provence - Chauss\u00e9e d'Antin", "network": "V\u00e9lib\u2019 M\u00e9tropole", "network:wikidata": "Q1120762", "network:wikipedia": "fr:V\u00e9lib' M\u00e9tropole", "operator": "Smovengo", "operator:wikidata": "Q47008427", "operator:wikipedia": "fr:Smovengo", "ref": "9031", "source": "survey 01/2020", "wikidata": "Q86254661"}}, {"type": "node", "id": 7149870071, "lat": 48.8841668, "lon": 2.3560692, "tags": {"amenity": "bicycle_rental", "bicycle_rental": "dropoff_point", "capacity": "18", "name": "Gare du Nord - La Chapelle", "network": "V\u00e9lib\u2019", "operator": "Smovengo", "ref": "10041", "source": "survey 01/2020", "unsigned_ref": "549876068", "wikidata": "Q86252977"}}, {"type": "node", "id": 7168850254, "lat": 48.8951187, "lon": 2.360038, "tags": {"amenity": "bicycle_rental", "bicycle_rental": "docking_station", "brand": "V\u00e9lib\u2019 M\u00e9tropole", "brand:wikidata": "Q1120762", "brand:wikipedia": "fr:V\u00e9lib' M\u00e9tropole", "capacity": "49", "name": "Rond-Point de la Chapelle", "network": "V\u00e9lib\u2019 M\u00e9tropole", "network:wikidata": "Q1120762", "network:wikipedia": "fr:V\u00e9lib' M\u00e9tropole", "operator": "Smovengo", "operator:wikidata": "Q47008427", "operator:wikipedia": "fr:Smovengo", "ref": "18038", "source": "Autolib Velib M\u00e9tropole - 04/2020", "wikidata": "Q86253582"}}, {"type": "node", "id": 7363119256, "lat": 48.879351, "lon": 2.3665968, "tags": {"amenity": "bicycle_rental", "bicycle_rental": "docking_station", "brand": "V\u00e9lib\u2019 M\u00e9tropole", "brand:wikidata": "Q1120762", "brand:wikipedia": "fr:V\u00e9lib' M\u00e9tropole", "capacity": "24", "name": "Alexandre Parodi - Quai de Valmy", "network": "V\u00e9lib\u2019 M\u00e9tropole", "network:wikidata": "Q1120762", "network:wikipedia": "fr:V\u00e9lib' M\u00e9tropole", "operator": "Smovengo", "operator:wikidata": "Q47008427", "operator:wikipedia": "fr:Smovengo", "ref": "10162", "source": "Autolib Velib M\u00e9tropole - 04/2020", "wikidata": "Q86252950"}}, {"type": "node", "id": 7368652151, "lat": 48.8893547, "lon": 2.3707988, "tags": {"amenity": "bicycle_rental", "bicycle_rental": "docking_station", "brand": "V\u00e9lib\u2019 M\u00e9tropole", "brand:wikidata": "Q1120762", "brand:wikipedia": "fr:V\u00e9lib' M\u00e9tropole", "capacity": "41", "name": "Centquatre", "network": "V\u00e9lib\u2019 M\u00e9tropole", "network:wikidata": "Q1120762", "network:wikipedia": "fr:V\u00e9lib' M\u00e9tropole", "operator": "Smovengo", "operator:wikidata": "Q47008427", "operator:wikipedia": "fr:Smovengo", "ref": "19002", "source": "Autolib Velib M\u00e9tropole - 04/2019", "wikidata": "Q86254822"}}, {"type": "node", "id": 7368652152, "lat": 48.8908831, "lon": 2.3688579, "tags": {"amenity": "bicycle_rental", "bicycle_rental": "docking_station", "brand": "V\u00e9lib\u2019 M\u00e9tropole", "brand:wikidata": "Q1120762", "brand:wikipedia": "fr:V\u00e9lib' M\u00e9tropole", "capacity": "23", "name": "Aubervilliers - Curial", "network": "V\u00e9lib\u2019 M\u00e9tropole", "network:wikidata": "Q1120762", "network:wikipedia": "fr:V\u00e9lib' M\u00e9tropole", "operator": "Smovengo", "operator:wikidata": "Q47008427", "operator:wikipedia": "fr:Smovengo", "ref": "19127", "source": "Autolib Velib M\u00e9tropole - 04/2020", "wikidata": "Q86254885"}}, {"type": "node", "id": 7368652153, "lat": 48.8941015, "lon": 2.37293, "tags": {"amenity": "bicycle_rental", "bicycle_rental": "docking_station", "brand": "V\u00e9lib\u2019 M\u00e9tropole", "brand:wikidata": "Q1120762", "brand:wikipedia": "fr:V\u00e9lib' M\u00e9tropole", "capacity": "56", "name": "Crim\u00e9e - Ourcq", "network": "V\u00e9lib\u2019 M\u00e9tropole", "network:wikidata": "Q1120762", "network:wikipedia": "fr:V\u00e9lib' M\u00e9tropole", "operator": "Smovengo", "operator:wikidata": "Q47008427", "operator:wikipedia": "fr:Smovengo", "ref": "19001", "source": "Autolib Velib M\u00e9tropole - 04/2020", "wikidata": "Q86254905"}}, {"type": "node", "id": 7368652154, "lat": 48.8906249, "lon": 2.3832762, "tags": {"amenity": "bicycle_rental", "bicycle_rental": "docking_station", "brand": "V\u00e9lib\u2019 M\u00e9tropole", "brand:wikidata": "Q1120762", "brand:wikipedia": "fr:V\u00e9lib' M\u00e9tropole", "capacity": "30", "name": "Quai de l'Oise - Aisne", "network": "V\u00e9lib\u2019 M\u00e9tropole", "network:wikidata": "Q1120762", "network:wikipedia": "fr:V\u00e9lib' M\u00e9tropole", "operator": "Smovengo", "operator:wikidata": "Q47008427", "operator:wikipedia": "fr:Smovengo", "ref": "19128", "source": "Autolib Velib M\u00e9tropole - 04/2019", "wikidata": "Q86254959"}}, {"type": "node", "id": 7368652160, "lat": 48.8928693, "lon": 2.3634273, "tags": {"amenity": "bicycle_rental", "bicycle_rental": "docking_station", "capacity": "39", "name": "Pajol - Place Herbert", "network": "V\u00e9lib'", "operator": "Smovengo", "ref": "18011", "source": "Autolib Velib M\u00e9tropole - 2022-09", "wikidata": "Q86254425"}}, {"type": "node", "id": 7368652161, "lat": 48.8950395, "lon": 2.3687969, "tags": {"amenity": "bicycle_rental", "bicycle_rental": "docking_station", "brand": "V\u00e9lib\u2019 M\u00e9tropole", "brand:wikidata": "Q1120762", "brand:wikipedia": "fr:V\u00e9lib' M\u00e9tropole", "capacity": "21", "name": "Evangile - Aubervilliers", "network": "V\u00e9lib\u2019 M\u00e9tropole", "network:wikidata": "Q1120762", "network:wikipedia": "fr:V\u00e9lib' M\u00e9tropole", "operator": "Smovengo", "operator:wikidata": "Q47008427", "operator:wikipedia": "fr:Smovengo", "ref": "18108", "source": "Autolib Velib M\u00e9tropole - 04/2019", "wikidata": "Q86254463"}}, {"type": "node", "id": 7368652162, "lat": 48.8971307, "lon": 2.3745254, "tags": {"amenity": "bicycle_rental", "bicycle_rental": "docking_station", "brand": "V\u00e9lib\u2019 M\u00e9tropole", "brand:wikidata": "Q1120762", "brand:wikipedia": "fr:V\u00e9lib' M\u00e9tropole", "capacity": "40", "name": "Cesaria Evora - Rosa Parks", "network": "V\u00e9lib\u2019 M\u00e9tropole", "network:wikidata": "Q1120762", "network:wikipedia": "fr:V\u00e9lib' M\u00e9tropole", "operator": "Smovengo", "operator:wikidata": "Q47008427", "operator:wikipedia": "fr:Smovengo", "ref": "19111", "source": "Autolib Velib M\u00e9tropole - 04/2019", "wikidata": "Q86254850"}}, {"type": "node", "id": 7368652163, "lat": 48.8946419, "lon": 2.3818464, "tags": {"amenity": "bicycle_rental", "bicycle_rental": "docking_station", "brand": "V\u00e9lib\u2019 M\u00e9tropole", "brand:wikidata": "Q1120762", "brand:wikipedia": "fr:V\u00e9lib' M\u00e9tropole", "capacity": "26", "name": "Flandre - Alphonse Karr", "network": "V\u00e9lib\u2019 M\u00e9tropole", "network:wikidata": "Q1120762", "network:wikipedia": "fr:V\u00e9lib' M\u00e9tropole", "operator": "Smovengo", "operator:wikidata": "Q47008427", "operator:wikipedia": "fr:Smovengo", "ref": "19008", "source": "Autolib Velib M\u00e9tropole - 04/2019", "wikidata": "Q86254839"}}, {"type": "node", "id": 7368652164, "lat": 48.8959465, "lon": 2.3811338, "tags": {"amenity": "bicycle_rental", "bicycle_rental": "docking_station", "brand": "V\u00e9lib\u2019 M\u00e9tropole", "brand:wikidata": "Q1120762", "brand:wikipedia": "fr:V\u00e9lib' M\u00e9tropole", "capacity": "43", "name": "Cambrai - Benjamin Constant", "network": "V\u00e9lib\u2019 M\u00e9tropole", "network:wikidata": "Q1120762", "network:wikipedia": "fr:V\u00e9lib' M\u00e9tropole", "operator": "Smovengo", "operator:wikidata": "Q47008427", "operator:wikipedia": "fr:Smovengo", "ref": "19033", "source": "Autolib Velib M\u00e9tropole - 04/2019", "wikidata": "Q86254794"}}, {"type": "node", "id": 7368652165, "lat": 48.8965569, "lon": 2.3846622, "tags": {"amenity": "bicycle_rental", "bicycle_rental": "docking_station", "brand": "V\u00e9lib\u2019 M\u00e9tropole", "brand:wikidata": "Q1120762", "brand:wikipedia": "fr:V\u00e9lib' M\u00e9tropole", "capacity": "30", "name": "Cit\u00e9 des Sciences et de l'Industrie", "network": "V\u00e9lib\u2019 M\u00e9tropole", "network:wikidata": "Q1120762", "network:wikipedia": "fr:V\u00e9lib' M\u00e9tropole", "operator": "Smovengo", "operator:wikidata": "Q47008427", "operator:wikipedia": "fr:Smovengo", "ref": "19009", "source": "Autolib Velib M\u00e9tropole - 04/2019", "wikidata": "Q86254873"}}, {"type": "node", "id": 7368652168, "lat": 48.8988581, "lon": 2.3753639, "tags": {"amenity": "bicycle_rental", "bicycle_rental": "docking_station", "capacity": "30", "name": "Square Claude Bernard", "network": "V\u00e9lib\u2019", "operator": "Smovengo", "ref": "19110", "source": "Autolib Velib M\u00e9tropole - 2022-05", "wikidata": "Q86254847"}}, {"type": "node", "id": 7368652169, "lat": 48.898445, "lon": 2.368975, "tags": {"amenity": "bicycle_rental", "bicycle_rental": "docking_station", "brand": "V\u00e9lib\u2019 M\u00e9tropole", "brand:wikidata": "Q1120762", "brand:wikipedia": "fr:V\u00e9lib' M\u00e9tropole", "capacity": "55", "name": "Porte d'Aubervilliers", "network": "V\u00e9lib\u2019 M\u00e9tropole", "network:wikidata": "Q1120762", "network:wikipedia": "fr:V\u00e9lib' M\u00e9tropole", "operator": "Smovengo", "operator:wikidata": "Q47008427", "operator:wikipedia": "fr:Smovengo", "ref": "18049", "source": "Autolib Velib M\u00e9tropole - 04/2020", "wikidata": "Q86254431"}}, {"type": "node", "id": 7368652170, "lat": 48.8987613, "lon": 2.3646371, "tags": {"amenity": "bicycle_rental", "bicycle_rental": "docking_station", "brand": "V\u00e9lib\u2019 M\u00e9tropole", "brand:wikidata": "Q1120762", "brand:wikipedia": "fr:V\u00e9lib' M\u00e9tropole", "capacity": "20", "name": "Ney - Charles Hermite", "network": "V\u00e9lib\u2019 M\u00e9tropole", "network:wikidata": "Q1120762", "network:wikipedia": "fr:V\u00e9lib' M\u00e9tropole", "operator": "Smovengo", "operator:wikidata": "Q47008427", "operator:wikipedia": "fr:Smovengo", "ref": "18138", "source": "Autolib Velib M\u00e9tropole - 04/2019", "wikidata": "Q86253598"}}, {"type": "node", "id": 7368681193, "lat": 48.8639051, "lon": 2.3523875, "tags": {"amenity": "bicycle_rental", "bicycle_rental": "docking_station", "brand": "V\u00e9lib\u2019 M\u00e9tropole", "brand:wikidata": "Q1120762", "brand:wikipedia": "fr:V\u00e9lib' M\u00e9tropole", "capacity": "42", "name": "Bourg l'Abb\u00e9 - Saint-Martin", "network": "V\u00e9lib\u2019 M\u00e9tropole", "network:wikidata": "Q1120762", "network:wikipedia": "fr:V\u00e9lib' M\u00e9tropole", "operator": "Smovengo", "operator:wikidata": "Q47008427", "operator:wikipedia": "fr:Smovengo", "ref": "3102", "source": "Autolib Velib M\u00e9tropole - 2021-03", "wikidata": "Q86255145"}}, {"type": "node", "id": 7368681556, "lat": 48.8847466, "lon": 2.3534589, "tags": {"amenity": "bicycle_rental", "capacity": "34", "name": "Chartres - La Charbonni\u00e8re", "network": "V\u00e9lib\u2019", "operator": "Smovengo", "ref": "18107", "source": "Autolib Velib M\u00e9tropole - 2021-03", "wikidata": "Q86254457"}}, {"type": "node", "id": 7368681557, "lat": 48.8848454, "lon": 2.3589304, "tags": {"amenity": "bicycle_rental", "capacity": "30", "name": "JesSaint-- Marx Dormoy", "network": "V\u00e9lib\u2019", "operator": "Smovengo", "ref": "18142", "source": "Autolib Velib M\u00e9tropole - 2021-03", "wikidata": "Q86253541"}}, {"type": "node", "id": 7368681559, "lat": 48.876887, "lon": 2.374454, "tags": {"amenity": "bicycle_rental", "bicycle_rental": "docking_station", "brand": "V\u00e9lib\u2019 M\u00e9tropole", "brand:wikidata": "Q1120762", "brand:wikipedia": "fr:V\u00e9lib' M\u00e9tropole", "capacity": "22", "name": "Simon Bolivar - Henri Turot", "network": "V\u00e9lib\u2019 M\u00e9tropole", "network:wikidata": "Q1120762", "network:wikipedia": "fr:V\u00e9lib' M\u00e9tropole", "operator": "Smovengo", "operator:wikidata": "Q47008427", "operator:wikipedia": "fr:Smovengo", "ref": "19118", "source": "Autolib Velib M\u00e9tropole - 04/2019", "wikidata": "Q86254889"}}, {"type": "node", "id": 7368681560, "lat": 48.8797913, "lon": 2.3748541, "tags": {"amenity": "bicycle_rental", "bicycle_rental": "docking_station", "brand": "V\u00e9lib\u2019 M\u00e9tropole", "brand:wikidata": "Q1120762", "brand:wikipedia": "fr:V\u00e9lib' M\u00e9tropole", "capacity": "24", "name": "\u00c9douard Pailleron - Simon Bolivar", "network": "V\u00e9lib\u2019 M\u00e9tropole", "network:wikidata": "Q1120762", "network:wikipedia": "fr:V\u00e9lib' M\u00e9tropole", "operator": "Smovengo", "operator:wikidata": "Q47008427", "operator:wikipedia": "fr:Smovengo", "ref": "19039", "source": "Autolib Velib M\u00e9tropole - 04/2019", "wikidata": "Q86254800"}}, {"type": "node", "id": 7368681561, "lat": 48.8814252, "lon": 2.3733761, "tags": {"amenity": "bicycle_rental", "bicycle_rental": "docking_station", "brand": "V\u00e9lib\u2019 M\u00e9tropole", "brand:wikidata": "Q1120762", "brand:wikipedia": "fr:V\u00e9lib' M\u00e9tropole", "capacity": "26", "check_date": "2023-03-09", "name": "March\u00e9 Secr\u00e9tan", "network": "V\u00e9lib\u2019 M\u00e9tropole", "network:wikidata": "Q1120762", "network:wikipedia": "fr:V\u00e9lib' M\u00e9tropole", "operator": "Smovengo", "operator:wikidata": "Q47008427", "operator:wikipedia": "fr:Smovengo", "ref": "19022", "source": "Autolib Velib M\u00e9tropole - 04/2019", "wikidata": "Q86254943"}}, {"type": "node", "id": 7368681562, "lat": 48.8805977, "lon": 2.3769495, "tags": {"amenity": "bicycle_rental", "bicycle_rental": "docking_station", "brand": "V\u00e9lib\u2019 M\u00e9tropole", "brand:wikidata": "Q1120762", "brand:wikipedia": "fr:V\u00e9lib' M\u00e9tropole", "capacity": "27", "name": "\u00c9douard Pailleron - Bouret", "network": "V\u00e9lib\u2019 M\u00e9tropole", "network:wikidata": "Q1120762", "network:wikipedia": "fr:V\u00e9lib' M\u00e9tropole", "operator": "Smovengo", "operator:wikidata": "Q47008427", "operator:wikipedia": "fr:Smovengo", "ref": "19119", "source": "Autolib Velib M\u00e9tropole - 04/2019", "wikidata": "Q86254863"}}, {"type": "node", "id": 7368681566, "lat": 48.8825798, "lon": 2.3812692, "tags": {"amenity": "bicycle_rental", "bicycle_rental": "docking_station", "brand": "V\u00e9lib\u2019 M\u00e9tropole", "brand:wikidata": "Q1120762", "brand:wikipedia": "fr:V\u00e9lib' M\u00e9tropole", "capacity": "27", "name": "Mairie du 19\u00e8me", "network": "V\u00e9lib\u2019 M\u00e9tropole", "network:wikidata": "Q1120762", "network:wikipedia": "fr:V\u00e9lib' M\u00e9tropole", "operator": "Smovengo", "operator:wikidata": "Q47008427", "operator:wikipedia": "fr:Smovengo", "ref": "19021", "source": "Autolib Velib M\u00e9tropole - 04/2020", "wikidata": "Q86254934"}}, {"type": "node", "id": 7368681567, "lat": 48.8846588, "lon": 2.380043, "tags": {"amenity": "bicycle_rental", "bicycle_rental": "docking_station", "brand": "V\u00e9lib\u2019 M\u00e9tropole", "brand:wikidata": "Q1120762", "brand:wikipedia": "fr:V\u00e9lib' M\u00e9tropole", "capacity": "34", "name": "Laumi\u00e8re - Petit", "network": "V\u00e9lib\u2019 M\u00e9tropole", "network:wikidata": "Q1120762", "network:wikipedia": "fr:V\u00e9lib' M\u00e9tropole", "operator": "Smovengo", "operator:wikidata": "Q47008427", "operator:wikipedia": "fr:Smovengo", "ref": "19013", "source": "Autolib Velib M\u00e9tropole - 04/2019", "wikidata": "Q86254812"}}, {"type": "node", "id": 7368681568, "lat": 48.8837686, "lon": 2.3765432, "tags": {"amenity": "bicycle_rental", "bicycle_rental": "docking_station", "brand": "V\u00e9lib\u2019 M\u00e9tropole", "brand:wikidata": "Q1120762", "brand:wikipedia": "fr:V\u00e9lib' M\u00e9tropole", "capacity": "28", "name": "Melun - Jean Jaur\u00e8s", "network": "V\u00e9lib\u2019 M\u00e9tropole", "network:wikidata": "Q1120762", "network:wikipedia": "fr:V\u00e9lib' M\u00e9tropole", "operator": "Smovengo", "operator:wikidata": "Q47008427", "operator:wikipedia": "fr:Smovengo", "ref": "19030", "source": "Autolib Velib M\u00e9tropole - 04/2019", "wikidata": "Q86254786"}}, {"type": "node", "id": 7368681569, "lat": 48.8833973, "lon": 2.3710745, "tags": {"amenity": "bicycle_rental", "bicycle_rental": "docking_station", "brand": "V\u00e9lib\u2019 M\u00e9tropole", "brand:wikidata": "Q1120762", "brand:wikipedia": "fr:V\u00e9lib' M\u00e9tropole", "capacity": "16", "name": "Quai de la Loire - Jean Jaur\u00e8s", "network": "V\u00e9lib\u2019 M\u00e9tropole", "network:wikidata": "Q1120762", "network:wikipedia": "fr:V\u00e9lib' M\u00e9tropole", "operator": "Smovengo", "operator:wikidata": "Q47008427", "operator:wikipedia": "fr:Smovengo", "ref": "19004", "source": "Autolib Velib M\u00e9tropole - 04/2019", "wikidata": "Q86254805"}}, {"type": "node", "id": 7368681570, "lat": 48.8844922, "lon": 2.3703942, "tags": {"amenity": "bicycle_rental", "bicycle_rental": "docking_station", "brand": "V\u00e9lib\u2019 M\u00e9tropole", "brand:wikidata": "Q1120762", "brand:wikipedia": "fr:V\u00e9lib' M\u00e9tropole", "capacity": "24", "name": "Quai de la Seine", "network": "V\u00e9lib\u2019 M\u00e9tropole", "network:wikidata": "Q1120762", "network:wikipedia": "fr:V\u00e9lib' M\u00e9tropole", "operator": "Smovengo", "operator:wikidata": "Q47008427", "operator:wikipedia": "fr:Smovengo", "ref": "19003", "source": "Autolib Velib M\u00e9tropole - 04/2019", "wikidata": "Q86254908"}}, {"type": "node", "id": 7368681571, "lat": 48.8870325, "lon": 2.3668972, "tags": {"amenity": "bicycle_rental", "bicycle_rental": "docking_station", "brand": "V\u00e9lib\u2019 M\u00e9tropole", "brand:wikidata": "Q1120762", "brand:wikipedia": "fr:V\u00e9lib' M\u00e9tropole", "capacity": "20", "name": "Jardins d'Eole", "network": "V\u00e9lib\u2019 M\u00e9tropole", "network:wikidata": "Q1120762", "network:wikipedia": "fr:V\u00e9lib' M\u00e9tropole", "operator": "Smovengo", "operator:wikidata": "Q47008427", "operator:wikipedia": "fr:Smovengo", "ref": "18039", "source": "Autolib Velib M\u00e9tropole - 04/2019", "wikidata": "Q86254468"}}, {"type": "node", "id": 7369001586, "lat": 48.8732681, "lon": 2.3407533, "tags": {"amenity": "bicycle_rental", "bicycle_rental": "docking_station", "brand": "V\u00e9lib\u2019 M\u00e9tropole", "brand:wikidata": "Q1120762", "brand:wikipedia": "fr:V\u00e9lib' M\u00e9tropole", "capacity": "24", "name": "Mairie du 9\u00e8me", "network": "V\u00e9lib\u2019 M\u00e9tropole", "network:wikidata": "Q1120762", "network:wikipedia": "fr:V\u00e9lib' M\u00e9tropole", "operator": "Smovengo", "operator:wikidata": "Q47008427", "operator:wikipedia": "fr:Smovengo", "ref": "9013", "source": "Autolib Velib M\u00e9tropole - 04/2019", "wikidata": "Q86254644"}}, {"type": "node", "id": 7369001587, "lat": 48.8737831, "lon": 2.3445139, "tags": {"amenity": "bicycle_rental", "bicycle_rental": "docking_station", "brand": "V\u00e9lib\u2019 M\u00e9tropole", "brand:wikidata": "Q1120762", "brand:wikipedia": "fr:V\u00e9lib' M\u00e9tropole", "capacity": "20", "name": "Geoffroy - Marie", "network": "V\u00e9lib\u2019 M\u00e9tropole", "network:wikidata": "Q1120762", "network:wikipedia": "fr:V\u00e9lib' M\u00e9tropole", "operator": "Smovengo", "operator:wikidata": "Q47008427", "operator:wikipedia": "fr:Smovengo", "ref": "9011", "source": "Autolib Velib M\u00e9tropole - 04/2019", "wikidata": "Q86254687"}}, {"type": "node", "id": 7369001588, "lat": 48.8708267, "lon": 2.345926, "tags": {"amenity": "bicycle_rental", "bicycle_rental": "docking_station", "brand": "V\u00e9lib\u2019 M\u00e9tropole", "brand:wikidata": "Q1120762", "brand:wikipedia": "fr:V\u00e9lib' M\u00e9tropole", "capacity": "35", "name": "Saint-Fiacre - Poissoni\u00e8re", "network": "V\u00e9lib\u2019 M\u00e9tropole", "network:wikidata": "Q1120762", "network:wikipedia": "fr:V\u00e9lib' M\u00e9tropole", "operator": "Smovengo", "operator:wikidata": "Q47008427", "operator:wikipedia": "fr:Smovengo", "ref": "2022", "source": "Autolib Velib M\u00e9tropole - 04/2019", "wikidata": "Q86254766"}}, {"type": "node", "id": 7369001589, "lat": 48.870791, "lon": 2.343101, "tags": {"amenity": "bicycle_rental", "bicycle_rental": "docking_station", "brand": "V\u00e9lib\u2019 M\u00e9tropole", "brand:wikidata": "Q1120762", "brand:wikipedia": "fr:V\u00e9lib' M\u00e9tropole", "capacity": "29", "name": "Uz\u00e8s - Montmartre", "network": "V\u00e9lib\u2019 M\u00e9tropole", "network:wikidata": "Q1120762", "network:wikipedia": "fr:V\u00e9lib' M\u00e9tropole", "operator": "Smovengo", "operator:wikidata": "Q47008427", "operator:wikipedia": "fr:Smovengo", "ref": "2010", "source": "Autolib Velib M\u00e9tropole - 04/2019", "wikidata": "Q86254739"}}, {"type": "node", "id": 7369001590, "lat": 48.8689829, "lon": 2.3469129, "tags": {"amenity": "bicycle_rental", "bicycle_rental": "docking_station", "brand": "V\u00e9lib\u2019 M\u00e9tropole", "brand:wikidata": "Q1120762", "brand:wikipedia": "fr:V\u00e9lib' M\u00e9tropole", "capacity": "28", "name": "Je\u00fbneurs - Mulhouse", "network": "V\u00e9lib\u2019 M\u00e9tropole", "network:wikidata": "Q1120762", "network:wikipedia": "fr:V\u00e9lib' M\u00e9tropole", "operator": "Smovengo", "operator:wikidata": "Q47008427", "operator:wikipedia": "fr:Smovengo", "ref": "2110", "source": "Autolib Velib M\u00e9tropole - 04/2019", "wikidata": "Q86254778"}}, {"type": "node", "id": 7369001591, "lat": 48.8682037, "lon": 2.3437952, "tags": {"amenity": "bicycle_rental", "bicycle_rental": "docking_station", "brand": "V\u00e9lib\u2019 M\u00e9tropole", "brand:wikidata": "Q1120762", "brand:wikipedia": "fr:V\u00e9lib' M\u00e9tropole", "capacity": "19", "name": "R\u00e9aumur - Montmartre", "network": "V\u00e9lib\u2019 M\u00e9tropole", "network:wikidata": "Q1120762", "network:wikipedia": "fr:V\u00e9lib' M\u00e9tropole", "operator": "Smovengo", "operator:wikidata": "Q47008427", "operator:wikipedia": "fr:Smovengo", "ref": "2109", "source": "Autolib Velib M\u00e9tropole - 04/2019", "wikidata": "Q86254750"}}, {"type": "node", "id": 7369001592, "lat": 48.8703107, "lon": 2.3419792, "tags": {"amenity": "bicycle_rental", "bicycle_rental": "docking_station", "brand": "V\u00e9lib\u2019 M\u00e9tropole", "brand:wikidata": "Q1120762", "brand:wikipedia": "fr:V\u00e9lib' M\u00e9tropole", "capacity": "37", "name": "Saint-Marc - Feydeau", "network": "V\u00e9lib\u2019 M\u00e9tropole", "network:wikidata": "Q1120762", "network:wikipedia": "fr:V\u00e9lib' M\u00e9tropole", "operator": "Smovengo", "operator:wikidata": "Q47008427", "operator:wikipedia": "fr:Smovengo", "ref": "2102", "source": "Autolib Velib M\u00e9tropole - 04/2019", "wikidata": "Q86254728"}}, {"type": "node", "id": 7369001593, "lat": 48.868866, "lon": 2.3397317, "tags": {"amenity": "bicycle_rental", "bicycle_rental": "docking_station", "brand": "V\u00e9lib\u2019 M\u00e9tropole", "brand:wikidata": "Q1120762", "brand:wikipedia": "fr:V\u00e9lib' M\u00e9tropole", "capacity": "58", "check_date": "2023-03-19", "name": "Filles Saint-Thomas - Place de la Bourse", "network": "V\u00e9lib\u2019 M\u00e9tropole", "network:wikidata": "Q1120762", "network:wikipedia": "fr:V\u00e9lib' M\u00e9tropole", "operator": "Smovengo", "operator:wikidata": "Q47008427", "operator:wikipedia": "fr:Smovengo", "ref": "2009", "source": "Autolib Velib M\u00e9tropole - 04/2019", "wikidata": "Q86254741"}}, {"type": "node", "id": 7369001594, "lat": 48.8699355, "lon": 2.3359975, "tags": {"amenity": "bicycle_rental", "bicycle_rental": "docking_station", "brand": "V\u00e9lib\u2019 M\u00e9tropole", "brand:wikidata": "Q1120762", "brand:wikipedia": "fr:V\u00e9lib' M\u00e9tropole", "capacity": "44", "name": "Choiseul - Quatre Septembre", "network": "V\u00e9lib\u2019 M\u00e9tropole", "network:wikidata": "Q1120762", "network:wikipedia": "fr:V\u00e9lib' M\u00e9tropole", "operator": "Smovengo", "operator:wikidata": "Q47008427", "operator:wikipedia": "fr:Smovengo", "ref": "2012", "source": "Autolib Velib M\u00e9tropole - 04/2019", "wikidata": "Q86254757"}}, {"type": "node", "id": 7369001595, "lat": 48.8705107, "lon": 2.3340478, "tags": {"amenity": "bicycle_rental", "bicycle_rental": "docking_station", "brand": "V\u00e9lib\u2019 M\u00e9tropole", "brand:wikidata": "Q1120762", "brand:wikipedia": "fr:V\u00e9lib' M\u00e9tropole", "capacity": "33", "name": "Louis le Grand - Italiens", "network": "V\u00e9lib\u2019 M\u00e9tropole", "network:wikidata": "Q1120762", "network:wikipedia": "fr:V\u00e9lib' M\u00e9tropole", "operator": "Smovengo", "operator:wikidata": "Q47008427", "operator:wikipedia": "fr:Smovengo", "ref": "2015", "source": "Autolib Velib M\u00e9tropole - 04/2019", "wikidata": "Q86254775"}}, {"type": "node", "id": 7369001596, "lat": 48.8691101, "lon": 2.3325069, "tags": {"amenity": "bicycle_rental", "bicycle_rental": "docking_station", "brand": "V\u00e9lib\u2019 M\u00e9tropole", "brand:wikidata": "Q1120762", "brand:wikipedia": "fr:V\u00e9lib' M\u00e9tropole", "capacity": "17", "name": "Daunou - Louis le Grand", "network": "V\u00e9lib\u2019 M\u00e9tropole", "network:wikidata": "Q1120762", "network:wikipedia": "fr:V\u00e9lib' M\u00e9tropole", "operator": "Smovengo", "operator:wikidata": "Q47008427", "operator:wikipedia": "fr:Smovengo", "ref": "2014", "source": "Autolib Velib M\u00e9tropole - 04/2019", "wikidata": "Q86254738"}}, {"type": "node", "id": 7369001597, "lat": 48.8676432, "lon": 2.3333894, "tags": {"amenity": "bicycle_rental", "bicycle_rental": "docking_station", "brand": "V\u00e9lib\u2019 M\u00e9tropole", "brand:wikidata": "Q1120762", "brand:wikipedia": "fr:V\u00e9lib' M\u00e9tropole", "capacity": "20", "name": "Danielle Casanova - Op\u00e9ra", "network": "V\u00e9lib\u2019 M\u00e9tropole", "network:wikidata": "Q1120762", "network:wikipedia": "fr:V\u00e9lib' M\u00e9tropole", "operator": "Smovengo", "operator:wikidata": "Q47008427", "operator:wikipedia": "fr:Smovengo", "ref": "2020", "source": "Autolib Velib M\u00e9tropole - 04/2019", "wikidata": "Q86254784"}}, {"type": "node", "id": 7369001598, "lat": 48.868289, "lon": 2.3380893, "tags": {"amenity": "bicycle_rental", "bicycle_rental": "docking_station", "brand": "V\u00e9lib\u2019 M\u00e9tropole", "brand:wikidata": "Q1120762", "brand:wikipedia": "fr:V\u00e9lib' M\u00e9tropole", "capacity": "17", "name": "Biblioth\u00e8que Nationale", "network": "V\u00e9lib\u2019 M\u00e9tropole", "network:wikidata": "Q1120762", "network:wikipedia": "fr:V\u00e9lib' M\u00e9tropole", "operator": "Smovengo", "operator:wikidata": "Q47008427", "operator:wikipedia": "fr:Smovengo", "ref": "2112", "source": "Autolib Velib M\u00e9tropole - 04/2020", "wikidata": "Q86254743"}}, {"type": "node", "id": 7369001599, "lat": 48.8672322, "lon": 2.3405014, "tags": {"amenity": "bicycle_rental", "bicycle_rental": "docking_station", "brand": "V\u00e9lib\u2019 M\u00e9tropole", "brand:wikidata": "Q1120762", "brand:wikipedia": "fr:V\u00e9lib' M\u00e9tropole", "capacity": "28", "name": "Mairie du 2\u00e8me", "network": "V\u00e9lib\u2019 M\u00e9tropole", "network:wikidata": "Q1120762", "network:wikipedia": "fr:V\u00e9lib' M\u00e9tropole", "operator": "Smovengo", "operator:wikidata": "Q47008427", "operator:wikipedia": "fr:Smovengo", "ref": "2008", "source": "Autolib Velib M\u00e9tropole - 04/2019", "wikidata": "Q86254735"}}, {"type": "node", "id": 7369001600, "lat": 48.8696016, "lon": 2.3542909, "tags": {"amenity": "bicycle_rental", "bicycle_rental": "docking_station", "brand": "V\u00e9lib\u2019 M\u00e9tropole", "brand:wikidata": "Q1120762", "brand:wikipedia": "fr:V\u00e9lib' M\u00e9tropole", "capacity": "16", "name": "Strasbourg - Saint-Denis", "network": "V\u00e9lib\u2019 M\u00e9tropole", "network:wikidata": "Q1120762", "network:wikipedia": "fr:V\u00e9lib' M\u00e9tropole", "operator": "Smovengo", "operator:wikidata": "Q47008427", "operator:wikipedia": "fr:Smovengo", "ref": "10166", "source": "Autolib Velib M\u00e9tropole - 04/2019", "wikidata": "Q86252926"}}, {"type": "node", "id": 7369001601, "lat": 48.8686829, "lon": 2.3502042, "tags": {"amenity": "bicycle_rental", "bicycle_rental": "docking_station", "brand": "V\u00e9lib\u2019 M\u00e9tropole", "brand:wikidata": "Q1120762", "brand:wikipedia": "fr:V\u00e9lib' M\u00e9tropole", "capacity": "21", "name": "Aboukir - Alexandrie", "network": "V\u00e9lib\u2019 M\u00e9tropole", "network:wikidata": "Q1120762", "network:wikipedia": "fr:V\u00e9lib' M\u00e9tropole", "operator": "Smovengo", "operator:wikidata": "Q47008427", "operator:wikipedia": "fr:Smovengo", "ref": "2016", "source": "Autolib Velib M\u00e9tropole - 04/2020", "wikidata": "Q86254763"}}, {"type": "node", "id": 7369001602, "lat": 48.8670273, "lon": 2.3483584, "tags": {"amenity": "bicycle_rental", "bicycle_rental": "docking_station", "brand": "V\u00e9lib\u2019 M\u00e9tropole", "brand:wikidata": "Q1120762", "brand:wikipedia": "fr:V\u00e9lib' M\u00e9tropole", "capacity": "17", "name": "Square Pierre Lazareff", "network": "V\u00e9lib\u2019 M\u00e9tropole", "network:wikidata": "Q1120762", "network:wikipedia": "fr:V\u00e9lib' M\u00e9tropole", "operator": "Smovengo", "operator:wikidata": "Q47008427", "operator:wikipedia": "fr:Smovengo", "ref": "2004", "source": "Autolib Velib M\u00e9tropole - 2021-03", "wikidata": "Q86254769"}}, {"type": "node", "id": 7369001603, "lat": 48.867458, "lon": 2.3445211, "tags": {"amenity": "bicycle_rental", "bicycle_rental": "docking_station", "brand": "V\u00e9lib\u2019 M\u00e9tropole", "brand:wikidata": "Q1120762", "brand:wikipedia": "fr:V\u00e9lib' M\u00e9tropole", "capacity": "44", "name": "Cl\u00e9ry - Montmartre", "network": "V\u00e9lib\u2019 M\u00e9tropole", "network:wikidata": "Q1120762", "network:wikipedia": "fr:V\u00e9lib' M\u00e9tropole", "operator": "Smovengo", "operator:wikidata": "Q47008427", "operator:wikipedia": "fr:Smovengo", "ref": "2021", "source": "Autolib Velib M\u00e9tropole - 04/2019", "wikidata": "Q86254782"}}, {"type": "node", "id": 7369001604, "lat": 48.8660355, "lon": 2.3420334, "tags": {"amenity": "bicycle_rental", "bicycle_rental": "docking_station", "brand": "V\u00e9lib\u2019 M\u00e9tropole", "brand:wikidata": "Q1120762", "brand:wikipedia": "fr:V\u00e9lib' M\u00e9tropole", "capacity": "24", "name": "Place des Victoires", "network": "V\u00e9lib\u2019 M\u00e9tropole", "network:wikidata": "Q1120762", "network:wikipedia": "fr:V\u00e9lib' M\u00e9tropole", "operator": "Smovengo", "operator:wikidata": "Q47008427", "operator:wikipedia": "fr:Smovengo", "ref": "2006", "source": "Autolib Velib M\u00e9tropole - 04/2019", "wikidata": "Q86254737"}}, {"type": "node", "id": 7371231529, "lat": 48.8832092, "lon": 2.3308451, "tags": {"amenity": "bicycle_rental", "bicycle_rental": "docking_station", "brand": "V\u00e9lib\u2019 M\u00e9tropole", "brand:wikidata": "Q1120762", "capacity": "27", "name": "Douai - Bruxelles", "network": "V\u00e9lib\u2019 M\u00e9tropole", "network:wikidata": "Q1120762", "operator": "Smovengo", "operator:wikidata": "Q47008427", "ref": "9038", "source": "Autolib Velib M\u00e9tropole - 2021-03", "wikidata": "Q86254709"}}, {"type": "node", "id": 7371231530, "lat": 48.882343, "lon": 2.3332645, "tags": {"amenity": "bicycle_rental", "bicycle_rental": "docking_station", "brand": "V\u00e9lib\u2019 M\u00e9tropole", "brand:wikidata": "Q1120762", "brand:wikipedia": "fr:V\u00e9lib' M\u00e9tropole", "capacity": "25", "name": "Douai - Pierre Fontaine", "network": "V\u00e9lib\u2019 M\u00e9tropole", "network:wikidata": "Q1120762", "network:wikipedia": "fr:V\u00e9lib' M\u00e9tropole", "operator": "Smovengo", "operator:wikidata": "Q47008427", "operator:wikipedia": "fr:Smovengo", "ref": "9027", "source": "Autolib Velib M\u00e9tropole - 04/2020", "wikidata": "Q86254655"}}, {"type": "node", "id": 7371231531, "lat": 48.8825569, "lon": 2.3497293, "tags": {"amenity": "bicycle_rental", "bicycle_rental": "docking_station", "capacity": "36", "name": "Faubourg Poissonniere - Delta", "network": "V\u00e9lib\u2019", "operator": "Smovengo", "ref": "9118", "source": "Autolib Velib M\u00e9tropole - 2021-03", "wikidata": "Q86253008"}}, {"type": "node", "id": 7371231532, "lat": 48.8808834, "lon": 2.3499182, "tags": {"amenity": "bicycle_rental", "bicycle_rental": "docking_station", "brand": "V\u00e9lib\u2019 M\u00e9tropole", "brand:wikidata": "Q1120762", "brand:wikipedia": "fr:V\u00e9lib' M\u00e9tropole", "capacity": "30", "name": "Faubourg Poissonni\u00e8re - Dunkerque", "network": "V\u00e9lib\u2019 M\u00e9tropole", "network:wikidata": "Q1120762", "network:wikipedia": "fr:V\u00e9lib' M\u00e9tropole", "operator": "Smovengo", "operator:wikidata": "Q47008427", "operator:wikipedia": "fr:Smovengo", "ref": "9114", "source": "Autolib Velib M\u00e9tropole - 04/2020", "wikidata": "Q86252922"}}, {"type": "node", "id": 7371231533, "lat": 48.8810969, "lon": 2.3408171, "tags": {"amenity": "bicycle_rental", "bicycle_rental": "docking_station", "brand": "V\u00e9lib\u2019 M\u00e9tropole", "brand:wikidata": "Q1120762", "brand:wikipedia": "fr:V\u00e9lib' M\u00e9tropole", "capacity": "29", "name": "Lallier - Trudaine", "network": "V\u00e9lib\u2019 M\u00e9tropole", "network:wikidata": "Q1120762", "network:wikipedia": "fr:V\u00e9lib' M\u00e9tropole", "operator": "Smovengo", "operator:wikidata": "Q47008427", "operator:wikipedia": "fr:Smovengo", "ref": "9017", "source": "Autolib Velib M\u00e9tropole - 04/2020", "wikidata": "Q86254639"}}, {"type": "node", "id": 7371231536, "lat": 48.880085, "lon": 2.3310797, "tags": {"amenity": "bicycle_rental", "bicycle_rental": "docking_station", "brand": "V\u00e9lib\u2019 M\u00e9tropole", "brand:wikidata": "Q1120762", "brand:wikipedia": "fr:V\u00e9lib' M\u00e9tropole", "capacity": "17", "name": "Moncey - Blanche", "network": "V\u00e9lib\u2019 M\u00e9tropole", "network:wikidata": "Q1120762", "network:wikipedia": "fr:V\u00e9lib' M\u00e9tropole", "operator": "Smovengo", "operator:wikidata": "Q47008427", "operator:wikipedia": "fr:Smovengo", "ref": "9028", "source": "Autolib Velib M\u00e9tropole - 04/2020", "wikidata": "Q86254683"}}, {"type": "node", "id": 7371231537, "lat": 48.8793983, "lon": 2.3337092, "tags": {"amenity": "bicycle_rental", "bicycle_rental": "docking_station", "brand": "V\u00e9lib\u2019 M\u00e9tropole", "brand:wikidata": "Q1120762", "brand:wikipedia": "fr:V\u00e9lib' M\u00e9tropole", "capacity": "17", "name": "Jean-Baptiste Pigalle - La Bruyere", "network": "V\u00e9lib\u2019 M\u00e9tropole", "network:wikidata": "Q1120762", "network:wikipedia": "fr:V\u00e9lib' M\u00e9tropole", "operator": "Smovengo", "operator:wikidata": "Q47008427", "operator:wikipedia": "fr:Smovengo", "ref": "9026", "source": "Autolib Velib M\u00e9tropole - 04/2020", "wikidata": "Q86254722"}}, {"type": "node", "id": 7371231538, "lat": 48.8795243, "lon": 2.3371209, "tags": {"amenity": "bicycle_rental", "bicycle_rental": "docking_station", "brand": "V\u00e9lib\u2019 M\u00e9tropole", "brand:wikidata": "Q1120762", "brand:wikipedia": "fr:V\u00e9lib' M\u00e9tropole", "capacity": "21", "name": "Toudouze - Clauzel", "network": "V\u00e9lib\u2019 M\u00e9tropole", "network:wikidata": "Q1120762", "network:wikipedia": "fr:V\u00e9lib' M\u00e9tropole", "operator": "Smovengo", "operator:wikidata": "Q47008427", "operator:wikipedia": "fr:Smovengo", "ref": "9020", "source": "Autolib Velib M\u00e9tropole - 04/2020", "wikidata": "Q86254572"}}, {"type": "node", "id": 7371231539, "lat": 48.879161, "lon": 2.343698, "tags": {"amenity": "bicycle_rental", "bicycle_rental": "docking_station", "brand": "V\u00e9lib\u2019 M\u00e9tropole", "brand:wikidata": "Q1120762", "brand:wikipedia": "fr:V\u00e9lib' M\u00e9tropole", "capacity": "17", "check_date": "2023-01-26", "name": "Tour d'Auvergne - Rodier", "network": "V\u00e9lib\u2019 M\u00e9tropole", "network:wikidata": "Q1120762", "network:wikipedia": "fr:V\u00e9lib' M\u00e9tropole", "operator": "Smovengo", "operator:wikidata": "Q47008427", "operator:wikipedia": "fr:Smovengo", "ref": "9008", "source": "Autolib Velib M\u00e9tropole - 04/2020", "wikidata": "Q86254603"}}, {"type": "node", "id": 7371231540, "lat": 48.8782554, "lon": 2.3452642, "tags": {"amenity": "bicycle_rental", "bicycle_rental": "docking_station", "brand": "V\u00e9lib\u2019 M\u00e9tropole", "brand:wikidata": "Q1120762", "brand:wikipedia": "fr:V\u00e9lib' M\u00e9tropole", "capacity": "31", "name": "Bellefond - Maubeuge", "network": "V\u00e9lib\u2019 M\u00e9tropole", "network:wikidata": "Q1120762", "network:wikipedia": "fr:V\u00e9lib' M\u00e9tropole", "operator": "Smovengo", "operator:wikidata": "Q47008427", "operator:wikipedia": "fr:Smovengo", "ref": "9117", "source": "Autolib Velib M\u00e9tropole - 04/2020", "wikidata": "Q86254609"}}, {"type": "node", "id": 7371231541, "lat": 48.8774704, "lon": 2.3487104, "tags": {"amenity": "bicycle_rental", "bicycle_rental": "docking_station", "brand": "V\u00e9lib\u2019 M\u00e9tropole", "brand:wikidata": "Q1120762", "brand:wikipedia": "fr:V\u00e9lib' M\u00e9tropole", "capacity": "17", "name": "Bellefond - Poissonni\u00e8re", "network": "V\u00e9lib\u2019 M\u00e9tropole", "network:wikidata": "Q1120762", "network:wikipedia": "fr:V\u00e9lib' M\u00e9tropole", "operator": "Smovengo", "operator:wikidata": "Q47008427", "operator:wikipedia": "fr:Smovengo", "ref": "9001", "source": "Autolib Velib M\u00e9tropole - 04/2020", "wikidata": "Q86254647"}}, {"type": "node", "id": 7371231542, "lat": 48.8766136, "lon": 2.3457634, "tags": {"amenity": "bicycle_rental", "bicycle_rental": "docking_station", "brand": "V\u00e9lib\u2019 M\u00e9tropole", "brand:wikidata": "Q1120762", "brand:wikipedia": "fr:V\u00e9lib' M\u00e9tropole", "capacity": "21", "name": "Square Montholon", "network": "V\u00e9lib\u2019 M\u00e9tropole", "network:wikidata": "Q1120762", "network:wikipedia": "fr:V\u00e9lib' M\u00e9tropole", "operator": "Smovengo", "operator:wikidata": "Q47008427", "operator:wikipedia": "fr:Smovengo", "ref": "9009", "source": "Autolib Velib M\u00e9tropole - 04/2020", "wikidata": "Q86254601"}}, {"type": "node", "id": 7371231543, "lat": 48.8767199, "lon": 2.344393, "tags": {"amenity": "bicycle_rental", "bicycle_rental": "docking_station", "brand": "V\u00e9lib\u2019 M\u00e9tropole", "brand:wikidata": "Q1120762", "brand:wikipedia": "fr:V\u00e9lib' M\u00e9tropole", "capacity": "24", "name": "Rochechouart lamartine", "network": "V\u00e9lib\u2019 M\u00e9tropole", "network:wikidata": "Q1120762", "network:wikipedia": "fr:V\u00e9lib' M\u00e9tropole", "operator": "Smovengo", "operator:wikidata": "Q47008427", "operator:wikipedia": "fr:Smovengo", "ref": "9010", "source": "Autolib Velib M\u00e9tropole - 04/2020", "wikidata": "Q86254633"}}, {"type": "node", "id": 7371231544, "lat": 48.8782486, "lon": 2.3411569, "tags": {"amenity": "bicycle_rental", "bicycle_rental": "docking_station", "brand": "V\u00e9lib\u2019 M\u00e9tropole", "brand:wikidata": "Q1120762", "brand:wikipedia": "fr:V\u00e9lib' M\u00e9tropole", "capacity": "22", "name": "Milton - Manuel", "network": "V\u00e9lib\u2019 M\u00e9tropole", "network:wikidata": "Q1120762", "network:wikipedia": "fr:V\u00e9lib' M\u00e9tropole", "operator": "Smovengo", "operator:wikidata": "Q47008427", "operator:wikipedia": "fr:Smovengo", "ref": "9115", "source": "Autolib Velib M\u00e9tropole - 04/2020", "wikidata": "Q86254635"}}, {"type": "node", "id": 7371231545, "lat": 48.8777733, "lon": 2.3397465, "tags": {"amenity": "bicycle_rental", "bicycle_rental": "docking_station", "brand": "V\u00e9lib\u2019 M\u00e9tropole", "brand:wikidata": "Q1120762", "brand:wikipedia": "fr:V\u00e9lib' M\u00e9tropole", "capacity": "17", "name": "Choron - Martyrs", "network": "V\u00e9lib\u2019 M\u00e9tropole", "network:wikidata": "Q1120762", "network:wikipedia": "fr:V\u00e9lib' M\u00e9tropole", "operator": "Smovengo", "operator:wikidata": "Q47008427", "operator:wikipedia": "fr:Smovengo", "ref": "9016", "source": "Autolib Velib M\u00e9tropole - 04/2020", "wikidata": "Q86254586"}}, {"type": "node", "id": 7371231546, "lat": 48.876614, "lon": 2.3397657, "tags": {"amenity": "bicycle_rental", "bicycle_rental": "docking_station", "brand": "V\u00e9lib\u2019 M\u00e9tropole", "brand:wikidata": "Q1120762", "brand:wikipedia": "fr:V\u00e9lib' M\u00e9tropole", "capacity": "32", "name": "Lamartine - Faubourg Montmartre", "network": "V\u00e9lib\u2019 M\u00e9tropole", "network:wikidata": "Q1120762", "network:wikipedia": "fr:V\u00e9lib' M\u00e9tropole", "operator": "Smovengo", "operator:wikidata": "Q47008427", "operator:wikipedia": "fr:Smovengo", "ref": "9015", "source": "Autolib Velib M\u00e9tropole - 04/2020", "wikidata": "Q86254712"}}, {"type": "node", "id": 7371231547, "lat": 48.8752976, "lon": 2.3407941, "tags": {"amenity": "bicycle_rental", "bicycle_rental": "docking_station", "brand": "V\u00e9lib\u2019 M\u00e9tropole", "brand:wikidata": "Q1120762", "brand:wikipedia": "fr:V\u00e9lib' M\u00e9tropole", "capacity": "35", "name": "Faubourg Montmartre - La Fayette", "network": "V\u00e9lib\u2019 M\u00e9tropole", "network:wikidata": "Q1120762", "network:wikipedia": "fr:V\u00e9lib' M\u00e9tropole", "operator": "Smovengo", "operator:wikidata": "Q47008427", "operator:wikipedia": "fr:Smovengo", "ref": "9014", "source": "Autolib Velib M\u00e9tropole - 04/2020", "wikidata": "Q86254581"}}, {"type": "node", "id": 7371231548, "lat": 48.8758037, "lon": 2.3472903, "tags": {"amenity": "bicycle_rental", "bicycle_rental": "docking_station", "brand": "V\u00e9lib\u2019 M\u00e9tropole", "brand:wikidata": "Q1120762", "brand:wikipedia": "fr:V\u00e9lib' M\u00e9tropole", "capacity": "30", "name": "Bleue - Tr\u00e9vise", "network": "V\u00e9lib\u2019 M\u00e9tropole", "network:wikidata": "Q1120762", "network:wikipedia": "fr:V\u00e9lib' M\u00e9tropole", "operator": "Smovengo", "operator:wikidata": "Q47008427", "operator:wikipedia": "fr:Smovengo", "ref": "9113", "source": "Autolib Velib M\u00e9tropole - 04/2020", "wikidata": "Q86254641"}}, {"type": "node", "id": 7371263875, "lat": 48.8910294, "lon": 2.3399918, "tags": {"amenity": "bicycle_rental", "bicycle_rental": "docking_station", "brand": "V\u00e9lib\u2019 M\u00e9tropole", "brand:wikidata": "Q1120762", "brand:wikipedia": "fr:V\u00e9lib' M\u00e9tropole", "capacity": "20", "name": "Franc\u0153ur - Marcadet", "network": "V\u00e9lib\u2019 M\u00e9tropole", "network:wikidata": "Q1120762", "network:wikipedia": "fr:V\u00e9lib' M\u00e9tropole", "operator": "Smovengo", "operator:wikidata": "Q47008427", "operator:wikipedia": "fr:Smovengo", "ref": "18020", "source": "Autolib Velib M\u00e9tropole - 04/2020", "wikidata": "Q86254416"}}, {"type": "node", "id": 7371263876, "lat": 48.8918469, "lon": 2.3354181, "tags": {"amenity": "bicycle_rental", "bicycle_rental": "docking_station", "capacity": "52", "name": "Square Raymond Souplex", "network": "V\u00e9lib\u2019", "operator": "Smovengo", "ref": "18019", "source": "Autolib Velib M\u00e9tropole - 2021-03", "wikidata": "Q86254454"}}, {"type": "node", "id": 7371263877, "lat": 48.8875351, "lon": 2.3343077, "tags": {"amenity": "bicycle_rental", "bicycle_rental": "docking_station", "brand": "V\u00e9lib\u2019 M\u00e9tropole", "brand:wikidata": "Q1120762", "brand:wikipedia": "fr:V\u00e9lib' M\u00e9tropole", "capacity": "24", "name": "Lepic - Arm\u00e9e d'Orient", "network": "V\u00e9lib\u2019 M\u00e9tropole", "network:wikidata": "Q1120762", "network:wikipedia": "fr:V\u00e9lib' M\u00e9tropole", "operator": "Smovengo", "operator:wikidata": "Q47008427", "operator:wikipedia": "fr:Smovengo", "ref": "18113", "source": "Autolib Velib M\u00e9tropole - 04/2020", "wikidata": "Q86253594"}}, {"type": "node", "id": 7371263878, "lat": 48.8896779, "lon": 2.3381787, "tags": {"amenity": "bicycle_rental", "bicycle_rental": "docking_station", "brand": "V\u00e9lib\u2019 M\u00e9tropole", "brand:wikidata": "Q1120762", "brand:wikipedia": "fr:V\u00e9lib' M\u00e9tropole", "capacity": "44", "name": "Caulaincourt - Place Constantin Pecqueur", "network": "V\u00e9lib\u2019 M\u00e9tropole", "network:wikidata": "Q1120762", "network:wikipedia": "fr:V\u00e9lib' M\u00e9tropole", "operator": "Smovengo", "operator:wikidata": "Q47008427", "operator:wikipedia": "fr:Smovengo", "ref": "18017", "source": "Autolib Velib M\u00e9tropole - 04/2020", "wikidata": "Q86254405"}}, {"type": "node", "id": 7371263879, "lat": 48.8899847, "lon": 2.3425217, "tags": {"amenity": "bicycle_rental", "bicycle_rental": "docking_station", "brand": "V\u00e9lib\u2019 M\u00e9tropole", "brand:wikidata": "Q1120762", "brand:wikipedia": "fr:V\u00e9lib' M\u00e9tropole", "capacity": "34", "name": "Franc\u0153ur - Caulaincourt", "network": "V\u00e9lib\u2019 M\u00e9tropole", "network:wikidata": "Q1120762", "network:wikipedia": "fr:V\u00e9lib' M\u00e9tropole", "operator": "Smovengo", "operator:wikidata": "Q47008427", "operator:wikipedia": "fr:Smovengo", "ref": "18016", "source": "Autolib Velib M\u00e9tropole - 04/2020", "wikidata": "Q86254461"}}, {"type": "node", "id": 7371263880, "lat": 48.8886381, "lon": 2.3468967, "tags": {"amenity": "bicycle_rental", "bicycle_rental": "docking_station", "brand": "V\u00e9lib\u2019 M\u00e9tropole", "brand:wikidata": "Q1120762", "brand:wikipedia": "fr:V\u00e9lib' M\u00e9tropole", "capacity": "41", "name": "Custine - Ramey", "network": "V\u00e9lib\u2019 M\u00e9tropole", "network:wikidata": "Q1120762", "network:wikipedia": "fr:V\u00e9lib' M\u00e9tropole", "operator": "Smovengo", "operator:wikidata": "Q47008427", "operator:wikipedia": "fr:Smovengo", "ref": "18015", "source": "Autolib Velib M\u00e9tropole - 04/2020", "wikidata": "Q86253591"}}, {"type": "node", "id": 7371263881, "lat": 48.8871269, "lon": 2.349076, "tags": {"amenity": "bicycle_rental", "capacity": "20", "name": "Poulet - Barb\u00e8s", "network": "V\u00e9lib\u2019", "operator": "Smovengo", "ref": "18136", "source": "Autolib Velib M\u00e9tropole - 2021-03", "wikidata": "Q86253531"}}, {"type": "node", "id": 7371263882, "lat": 48.8851287, "lon": 2.3496882, "tags": {"amenity": "bicycle_rental", "bicycle_rental": "docking_station", "brand": "V\u00e9lib\u2019 M\u00e9tropole", "brand:wikidata": "Q1120762", "brand:wikipedia": "fr:V\u00e9lib' M\u00e9tropole", "capacity": "20", "name": "Goutte d'or - Barb\u00e8s", "network": "V\u00e9lib\u2019 M\u00e9tropole", "network:wikidata": "Q1120762", "network:wikipedia": "fr:V\u00e9lib' M\u00e9tropole", "operator": "Smovengo", "operator:wikidata": "Q47008427", "operator:wikipedia": "fr:Smovengo", "ref": "18007", "source": "Autolib Velib M\u00e9tropole - 2021-03", "wikidata": "Q86253580"}}, {"type": "node", "id": 7371263883, "lat": 48.8851199, "lon": 2.3471949, "tags": {"amenity": "bicycle_rental", "bicycle_rental": "docking_station", "brand": "V\u00e9lib\u2019 M\u00e9tropole", "brand:wikidata": "Q1120762", "brand:wikipedia": "fr:V\u00e9lib' M\u00e9tropole", "capacity": "19", "name": "Clignancourt - Sofia", "network": "V\u00e9lib\u2019 M\u00e9tropole", "network:wikidata": "Q1120762", "network:wikipedia": "fr:V\u00e9lib' M\u00e9tropole", "operator": "Smovengo", "operator:wikidata": "Q47008427", "operator:wikipedia": "fr:Smovengo", "ref": "18141", "source": "Autolib Velib M\u00e9tropole - 04/2020", "wikidata": "Q86253563"}}, {"type": "node", "id": 7371263884, "lat": 48.8846855, "lon": 2.3441293, "tags": {"amenity": "bicycle_rental", "bicycle_rental": "docking_station", "brand": "V\u00e9lib\u2019 M\u00e9tropole", "brand:wikidata": "Q1120762", "brand:wikipedia": "fr:V\u00e9lib' M\u00e9tropole", "capacity": "36", "name": "Square Louise Michel", "network": "V\u00e9lib\u2019 M\u00e9tropole", "network:wikidata": "Q1120762", "network:wikipedia": "fr:V\u00e9lib' M\u00e9tropole", "operator": "Smovengo", "operator:wikidata": "Q47008427", "operator:wikipedia": "fr:Smovengo", "ref": "18006", "source": "Autolib Velib M\u00e9tropole - 04/2020", "wikidata": "Q86254421"}}, {"type": "node", "id": 7371318685, "lat": 48.8841515, "lon": 2.3418427, "tags": {"amenity": "bicycle_rental", "bicycle_rental": "docking_station", "brand": "V\u00e9lib\u2019 M\u00e9tropole", "brand:wikidata": "Q1120762", "brand:wikipedia": "fr:V\u00e9lib' M\u00e9tropole", "capacity": "18", "name": "Tardieu - Chappe", "network": "V\u00e9lib\u2019 M\u00e9tropole", "network:wikidata": "Q1120762", "network:wikipedia": "fr:V\u00e9lib' M\u00e9tropole", "operator": "Smovengo", "operator:wikidata": "Q47008427", "operator:wikipedia": "fr:Smovengo", "ref": "18005", "source": "Autolib Velib M\u00e9tropole - 04/2020", "wikidata": "Q86254449"}}, {"type": "node", "id": 7371318686, "lat": 48.8845135, "lon": 2.3388287, "tags": {"amenity": "bicycle_rental", "bicycle_rental": "docking_station", "brand": "V\u00e9lib\u2019 M\u00e9tropole", "brand:wikidata": "Q1120762", "brand:wikipedia": "fr:V\u00e9lib' M\u00e9tropole", "capacity": "12", "name": "Place des Abbesses", "network": "V\u00e9lib\u2019 M\u00e9tropole", "network:wikidata": "Q1120762", "network:wikipedia": "fr:V\u00e9lib' M\u00e9tropole", "operator": "Smovengo", "operator:wikidata": "Q47008427", "operator:wikipedia": "fr:Smovengo", "ref": "18004", "source": "Autolib Velib M\u00e9tropole - 04/2020", "wikidata": "Q86254424"}}, {"type": "node", "id": 7371318687, "lat": 48.8852692, "lon": 2.3345721, "tags": {"amenity": "bicycle_rental", "capacity": "23", "name": "V\u00e9ron - Lepic", "network": "V\u00e9lib\u2019", "operator": "Smovengo", "ref": "18114", "source": "Autolib Velib M\u00e9tropole - 2021-03", "wikidata": "Q86253587"}}, {"type": "node", "id": 7371318688, "lat": 48.8864725, "lon": 2.3328902, "tags": {"amenity": "bicycle_rental", "bicycle_rental": "docking_station", "capacity": "43", "name": "Cimeti\u00e8re de Montmartre", "network": "V\u00e9lib\u2019", "operator": "Smovengo", "ref": "18003", "source": "Autolib Velib M\u00e9tropole - 2021-03", "wikidata": "Q86253555"}}, {"type": "node", "id": 7371318689, "lat": 48.8871422, "lon": 2.3326149, "tags": {"amenity": "bicycle_rental", "bicycle_rental": "docking_station", "brand": "V\u00e9lib\u2019 M\u00e9tropole", "brand:wikidata": "Q1120762", "brand:wikipedia": "fr:V\u00e9lib' M\u00e9tropole", "capacity": "18", "name": "Damr\u00e9mont - Caulaincourt", "network": "V\u00e9lib\u2019 M\u00e9tropole", "network:wikidata": "Q1120762", "network:wikipedia": "fr:V\u00e9lib' M\u00e9tropole", "operator": "Smovengo", "operator:wikidata": "Q47008427", "operator:wikipedia": "fr:Smovengo", "ref": "18001", "source": "Autolib Velib M\u00e9tropole - 04/2020", "wikidata": "Q86253539"}}, {"type": "node", "id": 7371318690, "lat": 48.8907013, "lon": 2.3308771, "tags": {"amenity": "bicycle_rental", "capacity": "19", "name": "Carpeaux - Place Jacques Froment", "network": "V\u00e9lib\u2019", "operator": "Smovengo", "ref": "18018", "source": "Autolib Velib M\u00e9tropole - 2021-03", "wikidata": "Q86254415"}}, {"type": "node", "id": 7371318708, "lat": 48.8836011, "lon": 2.3332238, "tags": {"amenity": "bicycle_rental", "bicycle_rental": "docking_station", "capacity": "20", "name": "Clichy - Place Blanche", "network": "V\u00e9lib\u2019", "operator": "Smovengo", "ref": "18043", "source": "Autolib Velib M\u00e9tropole - 2021-03", "wikidata": "Q86254685"}}, {"type": "node", "id": 7371318709, "lat": 48.8827555, "lon": 2.3361566, "tags": {"amenity": "bicycle_rental", "bicycle_rental": "docking_station", "brand": "V\u00e9lib\u2019 M\u00e9tropole", "brand:wikidata": "Q1120762", "brand:wikipedia": "fr:V\u00e9lib' M\u00e9tropole", "capacity": "21", "name": "Place Pigalle", "network": "V\u00e9lib\u2019 M\u00e9tropole", "network:wikidata": "Q1120762", "network:wikipedia": "fr:V\u00e9lib' M\u00e9tropole", "operator": "Smovengo", "operator:wikidata": "Q47008427", "operator:wikipedia": "fr:Smovengo", "ref": "18042", "source": "Autolib Velib M\u00e9tropole - 04/2020", "wikidata": "Q86253535"}}, {"type": "node", "id": 7371318710, "lat": 48.8821938, "lon": 2.3405496, "tags": {"amenity": "bicycle_rental", "bicycle_rental": "docking_station", "brand": "V\u00e9lib\u2019 M\u00e9tropole", "brand:wikidata": "Q1120762", "brand:wikipedia": "fr:V\u00e9lib' M\u00e9tropole", "capacity": "20", "name": "Rochechouart - Martyrs", "network": "V\u00e9lib\u2019 M\u00e9tropole", "network:wikidata": "Q1120762", "network:wikipedia": "fr:V\u00e9lib' M\u00e9tropole", "operator": "Smovengo", "operator:wikidata": "Q47008427", "operator:wikipedia": "fr:Smovengo", "ref": "18041", "source": "Autolib Velib M\u00e9tropole - 04/2020", "wikidata": "Q86254413"}}, {"type": "node", "id": 7371329386, "lat": 48.8990511, "lon": 2.3365534, "tags": {"amenity": "bicycle_rental", "bicycle_rental": "docking_station", "brand": "V\u00e9lib\u2019 M\u00e9tropole", "brand:wikidata": "Q1120762", "brand:wikipedia": "fr:V\u00e9lib' M\u00e9tropole", "capacity": "37", "name": "Ren\u00e9 Binet - Porte de Montmartre", "network": "V\u00e9lib\u2019 M\u00e9tropole", "network:wikidata": "Q1120762", "network:wikipedia": "fr:V\u00e9lib' M\u00e9tropole", "operator": "Smovengo", "operator:wikidata": "Q47008427", "operator:wikipedia": "fr:Smovengo", "ref": "18035", "source": "Autolib Velib M\u00e9tropole - 04/2020", "wikidata": "Q86254434"}}, {"type": "node", "id": 7371329387, "lat": 48.8979187, "lon": 2.3364873, "tags": {"amenity": "bicycle_rental", "bicycle_rental": "docking_station", "brand": "V\u00e9lib\u2019 M\u00e9tropole", "brand:wikidata": "Q1120762", "brand:wikipedia": "fr:V\u00e9lib' M\u00e9tropole", "capacity": "25", "name": "Ney - Porte de Montmartre", "network": "V\u00e9lib\u2019 M\u00e9tropole", "network:wikidata": "Q1120762", "network:wikipedia": "fr:V\u00e9lib' M\u00e9tropole", "operator": "Smovengo", "operator:wikidata": "Q47008427", "operator:wikipedia": "fr:Smovengo", "ref": "18135", "source": "Autolib Velib M\u00e9tropole - 2021-03", "wikidata": "Q86254446"}}, {"type": "node", "id": 7371329388, "lat": 48.8980018, "lon": 2.3336492, "tags": {"amenity": "bicycle_rental", "bicycle_rental": "docking_station", "brand": "V\u00e9lib\u2019 M\u00e9tropole", "brand:wikidata": "Q1120762", "brand:wikipedia": "fr:V\u00e9lib' M\u00e9tropole", "capacity": "26", "name": "Arthur Ranc - H\u00f4pital Bichat", "network": "V\u00e9lib\u2019 M\u00e9tropole", "network:wikidata": "Q1120762", "network:wikipedia": "fr:V\u00e9lib' M\u00e9tropole", "operator": "Smovengo", "operator:wikidata": "Q47008427", "operator:wikipedia": "fr:Smovengo", "ref": "18112", "source": "Autolib Velib M\u00e9tropole - 2021-03", "wikidata": "Q86253549"}}, {"type": "node", "id": 7371329389, "lat": 48.8966924, "lon": 2.3380235, "tags": {"amenity": "bicycle_rental", "capacity": "34", "name": "Belliard - Damr\u00e9mont", "network": "V\u00e9lib\u2019", "operator": "Smovengo", "ref": "18033", "source": "Autolib Velib M\u00e9tropole - 2021-03", "wikidata": "Q86253611"}}, {"type": "node", "id": 7371329390, "lat": 48.8963283, "lon": 2.3333904, "tags": {"amenity": "bicycle_rental", "bicycle_rental": "docking_station", "capacity": "32", "name": "Leibniz - Jean Dollfus", "network": "V\u00e9lib\u2019", "operator": "Smovengo", "ref": "18034", "source": "Autolib Velib M\u00e9tropole - 2021-03", "wikidata": "Q86254460"}}, {"type": "node", "id": 7371329391, "lat": 48.8940125, "lon": 2.33199, "tags": {"amenity": "bicycle_rental", "bicycle_rental": "docking_station", "brand": "V\u00e9lib\u2019 M\u00e9tropole", "brand:wikidata": "Q1120762", "brand:wikipedia": "fr:V\u00e9lib' M\u00e9tropole", "capacity": "33", "name": "Championnet - Vauvenargues", "network": "V\u00e9lib\u2019 M\u00e9tropole", "network:wikidata": "Q1120762", "network:wikipedia": "fr:V\u00e9lib' M\u00e9tropole", "operator": "Smovengo", "operator:wikidata": "Q47008427", "operator:wikipedia": "fr:Smovengo", "ref": "18028", "source": "Autolib Velib M\u00e9tropole - 04/2020", "wikidata": "Q86253561"}}, {"type": "node", "id": 7371329392, "lat": 48.8943954, "lon": 2.3414726, "tags": {"amenity": "bicycle_rental", "capacity": "39", "name": "Emile Blemont - Poteau", "network": "V\u00e9lib\u2019", "operator": "Smovengo", "ref": "18029", "source": "Autolib Velib M\u00e9tropole - 2021-03", "wikidata": "Q86253607"}}, {"type": "node", "id": 7371329393, "lat": 48.8929946, "lon": 2.3401449, "tags": {"amenity": "bicycle_rental", "bicycle_rental": "docking_station", "capacity": "35", "name": "Ruisseau - Ordener", "network": "V\u00e9lib\u2019", "operator": "Smovengo", "ref": "18026", "source": "Autolib Velib M\u00e9tropole - 2021-03", "wikidata": "Q86253544"}}, {"type": "node", "id": 7371329394, "lat": 48.892949, "lon": 2.344531, "tags": {"amenity": "bicycle_rental", "bicycle_rental": "docking_station", "capacity": "40", "name": "Mairie du 18\u00e8me", "network": "V\u00e9lib\u2019", "operator": "Smovengo", "ref": "18025", "source": "Autolib Velib M\u00e9tropole - 2021-03", "wikidata": "Q86253558"}}, {"type": "node", "id": 7371329395, "lat": 48.8908882, "lon": 2.3449099, "tags": {"amenity": "bicycle_rental", "bicycle_rental": "docking_station", "brand": "V\u00e9lib\u2019 M\u00e9tropole", "brand:wikidata": "Q1120762", "brand:wikipedia": "fr:V\u00e9lib' M\u00e9tropole", "capacity": "21", "name": "Marcadet - Ramey", "network": "V\u00e9lib\u2019 M\u00e9tropole", "network:wikidata": "Q1120762", "network:wikipedia": "fr:V\u00e9lib' M\u00e9tropole", "operator": "Smovengo", "operator:wikidata": "Q47008427", "operator:wikipedia": "fr:Smovengo", "ref": "18021", "source": "Autolib Velib M\u00e9tropole - 04/2020", "wikidata": "Q86254456"}}, {"type": "node", "id": 7371329396, "lat": 48.8914577, "lon": 2.3486365, "tags": {"amenity": "bicycle_rental", "bicycle_rental": "docking_station", "capacity": "35", "name": "Clignancourt - Ordener", "network": "V\u00e9lib\u2019", "operator": "Smovengo", "ref": "18024", "source": "Autolib Velib M\u00e9tropole - 2021-03", "wikidata": "Q86254464"}}, {"type": "node", "id": 7371329397, "lat": 48.8904495, "lon": 2.3490574, "tags": {"amenity": "bicycle_rental", "capacity": "37", "name": "Marcadet - Barb\u00e8s", "network": "V\u00e9lib\u2019", "operator": "Smovengo", "ref": "18022", "source": "Autolib Velib M\u00e9tropole - 2021-03", "wikidata": "Q86254427"}}, {"type": "node", "id": 7426505264, "lat": 48.8821526, "lon": 2.3463187, "tags": {"amenity": "bicycle_rental", "bicycle_rental": "docking_station", "brand": "V\u00e9lib\u2019 M\u00e9tropole", "brand:wikidata": "Q1120762", "brand:wikipedia": "fr:V\u00e9lib' M\u00e9tropole", "capacity": "16", "name": "Dunkerque - Trudaine", "network": "V\u00e9lib\u2019 M\u00e9tropole", "network:wikidata": "Q1120762", "network:wikipedia": "fr:V\u00e9lib' M\u00e9tropole", "operator": "Smovengo", "operator:wikidata": "Q47008427", "operator:wikipedia": "fr:Smovengo", "ref": "9006", "wikidata": "Q86254597"}}, {"type": "node", "id": 7426545135, "lat": 48.8716023, "lon": 2.3458634, "tags": {"amenity": "bicycle_rental", "bicycle_rental": "docking_station", "brand": "V\u00e9lib\u2019 M\u00e9tropole", "brand:wikidata": "Q1120762", "brand:wikipedia": "fr:V\u00e9lib' M\u00e9tropole", "capacity": "30", "name": "Rougemont - Poissonni\u00e8re", "network": "V\u00e9lib\u2019 M\u00e9tropole", "network:wikidata": "Q1120762", "network:wikipedia": "fr:V\u00e9lib' M\u00e9tropole", "operator": "Smovengo", "operator:wikidata": "Q47008427", "operator:wikipedia": "fr:Smovengo", "ref": "9012", "wikidata": "Q86254652"}}, {"type": "node", "id": 7426547569, "lat": 48.8714404, "lon": 2.3382935, "tags": {"amenity": "bicycle_rental", "bicycle_rental": "docking_station", "brand": "V\u00e9lib\u2019 M\u00e9tropole", "brand:wikidata": "Q1120762", "brand:wikipedia": "fr:V\u00e9lib' M\u00e9tropole", "capacity": "17", "name": "Favart - Italiens", "network": "V\u00e9lib\u2019 M\u00e9tropole", "network:wikidata": "Q1120762", "network:wikipedia": "fr:V\u00e9lib' M\u00e9tropole", "operator": "Smovengo", "operator:wikidata": "Q47008427", "operator:wikipedia": "fr:Smovengo", "ref": "2013", "wikidata": "Q86254759"}}, {"type": "node", "id": 7531612754, "lat": 48.8724201, "lon": 2.3483952, "tags": {"amenity": "bicycle_rental", "bicycle_rental": "docking_station", "brand": "V\u00e9lib\u2019 M\u00e9tropole", "brand:wikidata": "Q1120762", "brand:wikipedia": "fr:V\u00e9lib' M\u00e9tropole", "capacity": "33", "name": "Enghien - Faubourg Poissonni\u00e8re", "network": "V\u00e9lib\u2019 M\u00e9tropole", "network:wikidata": "Q1120762", "network:wikipedia": "fr:V\u00e9lib' M\u00e9tropole", "operator": "Smovengo", "operator:wikidata": "Q47008427", "operator:wikipedia": "fr:Smovengo", "ref": "10042", "source": "Autolib Velib M\u00e9tropole - 04/2020", "survey:date": "2020-06-05", "wikidata": "Q86253030"}}, {"type": "node", "id": 7792501197, "lat": 48.8673418, "lon": 2.3528841, "tags": {"addr:city": "Paris", "addr:housenumber": "115", "addr:postcode": "75002", "addr:street": "Boulevard de S\u00e9bastopol", "amenity": "bicycle_rental", "bicycle_rental": "shop", "brand": "Swapfiets", "brand:wikidata": "Q62104374", "name": "Swapfiets", "network": "Swapfiets", "network:wikidata": "Q62104374", "opening_hours": "Mo 12:00-18:00; Tu-Sa 10:00-19:00", "operator": "Swapfiets", "operator:wikidata": "Q62104374", "phone": "+33 17 34 40 919", "service:bicycle:rental": "yes", "service:bicycle:repair": "no", "service:bicycle:retail": "no", "shop": "rental", "website": "https://swapfiets.com/fr-FR"}}, {"type": "node", "id": 7981641086, "lat": 48.8949713, "lon": 2.3647617, "tags": {"amenity": "bicycle_rental", "bicycle_rental": "docking_station", "brand": "V\u00e9lib\u2019 M\u00e9tropole", "brand:wikidata": "Q1120762", "brand:wikipedia": "fr:V\u00e9lib' M\u00e9tropole", "capacity": "33", "name": "Tzara", "network": "V\u00e9lib\u2019 M\u00e9tropole", "network:wikidata": "Q1120762", "network:wikipedia": "fr:V\u00e9lib' M\u00e9tropole", "operator": "Smovengo", "operator:wikidata": "Q47008427", "operator:wikipedia": "fr:Smovengo", "ref": "18201", "source": "Autolib Velib M\u00e9tropole - 04/2020", "survey:date": "2020-10-06", "wikidata": "Q100587045"}}, {"type": "node", "id": 8680460680, "lat": 48.8987072, "lon": 2.3524106, "tags": {"amenity": "bicycle_rental", "bicycle_rental": "docking_station", "brand": "V\u00e9lib\u2019 M\u00e9tropole", "brand:wikidata": "Q1120762", "brand:wikipedia": "fr:V\u00e9lib' M\u00e9tropole", "capacity": "38", "name": "Diane Arbus", "network": "V\u00e9lib\u2019 M\u00e9tropole", "network:wikidata": "Q1120762", "network:wikipedia": "fr:V\u00e9lib' M\u00e9tropole", "operator": "Smovengo", "operator:wikidata": "Q47008427", "operator:wikipedia": "fr:Smovengo", "ref": "18202", "wikidata": "Q110496306"}}, {"type": "node", "id": 9406340522, "lat": 48.8736083, "lon": 2.3651313, "tags": {"amenity": "bicycle_rental", "bicycle_rental": "docking_station", "brand": "V\u00e9lib\u2019 M\u00e9tropole", "brand:wikidata": "Q1120762", "brand:wikipedia": "fr:V\u00e9lib' M\u00e9tropole", "capacity": "30", "check_date": "2022-07-22", "name": "Bichat - Grange aux Belles", "network": "V\u00e9lib\u2019 M\u00e9tropole", "network:wikidata": "Q1120762", "network:wikipedia": "fr:V\u00e9lib' M\u00e9tropole", "operator": "Smovengo", "operator:wikidata": "Q47008427", "operator:wikipedia": "fr:Smovengo", "ref": "10202", "wikidata": "Q110496309"}}, {"type": "node", "id": 9487023553, "lat": 48.8670374, "lon": 2.336716, "tags": {"amenity": "bicycle_rental", "bicycle_rental": "docking_station", "brand": "V\u00e9lib\u2019 M\u00e9tropole", "brand:wikidata": "Q1120762", "brand:wikipedia": "fr:V\u00e9lib' M\u00e9tropole", "capacity": "30", "name": "Chabanais - Petits Champs", "network": "V\u00e9lib\u2019 M\u00e9tropole", "network:wikidata": "Q1120762", "network:wikipedia": "fr:V\u00e9lib' M\u00e9tropole", "operator": "Smovengo", "operator:wikidata": "Q47008427", "operator:wikipedia": "fr:Smovengo", "ref": "2111", "source": "Autolib Velib M\u00e9tropole - 2022-01", "wikidata": "Q86254730"}}, {"type": "node", "id": 9617142288, "lat": 48.8637347, "lon": 2.3426487}, {"type": "node", "id": 9617142289, "lat": 48.8637555, "lon": 2.3426578}, {"type": "node", "id": 9844392187, "lat": 48.8639599, "lon": 2.3522937, "tags": {"addr:city": "Paris", "addr:housenumber": "4", "addr:postcode": "75003", "addr:street": "Rue du Bourg l'Abb\u00e9", "amenity": "bicycle_rental", "bicycle_rental": "shop", "email": "contact@parisbybike.eu", "facebook": "https://www.facebook.com/parisbybike.eu/", "name": "Paris By Bike", "phone": "+33 7 63901252", "shop": "rental", "website": "https://www.parisbybike.eu/", "wheelchair": "yes"}}, {"type": "node", "id": 9870916177, "lat": 48.8747179, "lon": 2.365989, "tags": {"amenity": "bicycle_rental", "bicycle_rental": "docking_station", "brand": "V\u00e9lib\u2019 M\u00e9tropole", "brand:wikidata": "Q1120762", "brand:wikipedia": "fr:V\u00e9lib' M\u00e9tropole", "capacity": "60", "check_date": "2022-07-22", "name": "Granges aux Belles - H\u00f4pital Saint-Louis", "network": "V\u00e9lib\u2019 M\u00e9tropole", "network:wikidata": "Q1120762", "network:wikipedia": "fr:V\u00e9lib' M\u00e9tropole", "note": "station rajouter a la mains suite visite terrain, ref a verifier", "operator": "Smovengo", "operator:wikidata": "Q47008427", "operator:wikipedia": "fr:Smovengo", "ref": "?", "source": "Autolib Velib M\u00e9tropole - 2022-01", "unsigned_ref": "129042700", "wikidata": "Q86253055"}}, {"type": "node", "id": 10198505424, "lat": 48.8645946, "lon": 2.3461642}, {"type": "node", "id": 10198505425, "lat": 48.8646073, "lon": 2.3461709}, {"type": "node", "id": 10198505426, "lat": 48.8645452, "lon": 2.3464321}, {"type": "node", "id": 10198505427, "lat": 48.8645247, "lon": 2.3464457}, {"type": "node", "id": 10224617033, "lat": 48.8675301, "lon": 2.3447943}, {"type": "node", "id": 10224617034, "lat": 48.8675454, "lon": 2.3447841}, {"type": "node", "id": 10224617035, "lat": 48.8674257, "lon": 2.3443425}, {"type": "node", "id": 10224617036, "lat": 48.8674112, "lon": 2.3443523}, {"type": "node", "id": 10649422135, "lat": 48.8649889, "lon": 2.345063}, {"type": "node", "id": 10649422136, "lat": 48.8649947, "lon": 2.3450909}, {"type": "node", "id": 10649422137, "lat": 48.865054, "lon": 2.3450657}, {"type": "node", "id": 10649422138, "lat": 48.8650488, "lon": 2.3450377}, {"type": "node", "id": 10650894969, "lat": 48.8651263, "lon": 2.3450045}, {"type": "node", "id": 10650894970, "lat": 48.8651314, "lon": 2.3450323}, {"type": "node", "id": 10650894971, "lat": 48.8650717, "lon": 2.3450581}, {"type": "node", "id": 10973438992, "lat": 48.8663528, "lon": 2.3598295, "tags": {"amenity": "bicycle_rental", "bicycle_rental": "docking_station", "brand": "V\u00e9lib\u2019 M\u00e9tropole", "brand:wikidata": "Q1120762", "brand:wikipedia": "fr:V\u00e9lib' M\u00e9tropole", "capacity": "33", "name": "Sainte-Elisabeth - Turbigo", "network": "V\u00e9lib\u2019 M\u00e9tropole", "network:wikidata": "Q1120762", "network:wikipedia": "fr:V\u00e9lib' M\u00e9tropole", "operator": "Smovengo", "operator:wikidata": "Q47008427", "operator:wikipedia": "fr:Smovengo", "ref": "3005", "source": "Autolib Velib M\u00e9tropole - 04/2020", "wikidata": "Q86255129"}}, {"type": "way", "id": 578111481, "nodes": [5540287650, 5540287649, 5540287648, 5540287647, 5540287650], "tags": {"amenity": "bicycle_rental", "brand": "V\u00e9lib\u2019 M\u00e9tropole", "brand:wikidata": "Q1120762", "capacity": "20", "name": "Condorcet - Turgot", "network": "V\u00e9lib\u2019 M\u00e9tropole", "network:wikidata": "Q1120762", "operator": "Smovengo", "operator:wikidata": "Q47008427", "ref": "9007", "source": "survey 2018; BDOrtho IGN", "wikidata": "Q86254724"}}, {"type": "way", "id": 1045530843, "nodes": [9617142288, 9617142289, 5957673015, 5957673016, 9617142288], "tags": {"amenity": "bicycle_rental", "bicycle_rental": "docking_station", "brand": "V\u00e9lib\u2019 M\u00e9tropole", "brand:wikidata": "Q1120762", "brand:wikipedia": "fr:V\u00e9lib' M\u00e9tropole", "capacity": "21", "name": "Coquilli\u00e8re - Louvre", "network": "V\u00e9lib\u2019 M\u00e9tropole", "network:wikidata": "Q1120762", "network:wikipedia": "fr:V\u00e9lib' M\u00e9tropole", "operator": "Smovengo", "operator:wikidata": "Q47008427", "operator:wikipedia": "fr:Smovengo"}}, {"type": "way", "id": 1115098864, "nodes": [10198505426, 10198505425, 10198505424, 10198505427, 10198505426], "tags": {"amenity": "bicycle_rental", "bicycle_rental": "docking_station", "brand": "V\u00e9lib\u2019 M\u00e9tropole", "brand:wikidata": "Q1120762", "capacity": "28", "name": "\u00c9tienne Marcel - Montorgueil", "network": "V\u00e9lib\u2019 M\u00e9tropole", "network:wikidata": "Q1120762", "operator": "Smovengo", "operator:wikidata": "Q47008427"}}, {"type": "way", "id": 1117941577, "nodes": [10224617033, 10224617034, 10224617035, 10224617036, 10224617033], "tags": {"amenity": "bicycle_rental", "bicycle_rental": "docking_station", "brand": "V\u00e9lib\u2019 M\u00e9tropole", "brand:wikidata": "Q1120762", "capacity": "44", "name": "Cl\u00e9ry - Montmartre", "network": "V\u00e9lib\u2019 M\u00e9tropole", "network:wikidata": "Q1120762", "operator": "Smovengo", "operator:wikidata": "Q47008427"}}, {"type": "way", "id": 1144037197, "nodes": [10649422135, 10649422136, 10649422137, 10650894971, 10650894970, 10650894969, 10649422138, 10649422135], "tags": {"amenity": "bicycle_rental", "bicycle_rental": "docking_station", "brand": "V\u00e9lib\u2019 M\u00e9tropole", "brand:wikidata": "Q1120762", "capacity": "16", "name": "Montmartre - \u00c9tienne Marcel", "network": "V\u00e9lib\u2019 M\u00e9tropole", "network:wikidata": "Q1120762", "operator": "Smovengo", "operator:wikidata": "Q47008427"}}]}