{"version": 0.6, "generator": "Overpass API 0.7.61.5 4133829e", "osm3s": {"timestamp_osm_base": "2023-12-09T23:49:30Z", "copyright": "The data included in this document is from www.openstreetmap.org. The data is made available under ODbL."}, "elements": [{"type": "node", "id": 235377792, "lat": 48.8842416, "lon": 2.3670741, "tags": {"STIF:zone": "1", "name": "Stalingrad", "name:ru": "\u0421\u0442\u0430\u043b\u0438\u043d\u0433\u0440\u0430\u0434", "old_name": "Aubervilliers", "public_transport": "station", "railway": "station", "ref:FR:FANTOIR": "75119S536F", "ref:FR:RATP": "1627", "ref:FR:STIF": "22107", "source": "STIF - 12/2016", "station": "subway", "subway": "yes", "type:RATP": "metro", "wheelchair": "yes", "wikidata": "Q1418821", "wikipedia": "fr:Stalingrad (m\u00e9tro de Paris)"}}, {"type": "node", "id": 243496025, "lat": 48.8834886, "lon": 2.3336343, "tags": {"STIF:zone": "1", "name": "Blanche", "public_transport": "station", "railway": "station", "ref:FR:FANTOIR": "75118S043B", "ref:FR:RATP": "2009", "ref:FR:STIF": "22125", "source": "STIF - 12/2016", "station": "subway", "subway": "yes", "type:RATP": "metro", "wheelchair": "no", "wikidata": "Q881406", "wikipedia": "fr:Blanche (m\u00e9tro de Paris)"}}, {"type": "node", "id": 243496027, "lat": 48.8834466, "lon": 2.3272634, "tags": {"STIF:zone": "1", "name": "Place de Clichy", "name:ru": "\u041f\u043b\u044f\u0441-\u0434\u0435-\u041a\u043b\u0438\u0448\u0438", "public_transport": "station", "railway": "station", "ref:FR:FANTOIR": "75117S416L;75109S416S", "ref:FR:RATP": "1790", "ref:FR:STIF": "22115", "source": "STIF - 12/2016", "station": "subway", "subway": "yes", "type:RATP": "metro", "wheelchair": "no", "wikidata": "Q610012", "wikipedia": "fr:Place de Clichy (m\u00e9tro de Paris)"}}, {"type": "node", "id": 243496028, "lat": 48.8822428, "lon": 2.3213306, "tags": {"STIF:zone": "1", "name": "Rome", "public_transport": "station", "railway": "station", "ref:FR:FANTOIR": "75117S492U", "ref:FR:RATP": "1670", "ref:FR:STIF": "22110", "source": "STIF - 12/2016", "station": "subway", "subway": "yes", "survey:date": "2017-09-20", "type:RATP": "metro", "wheelchair": "no", "wikidata": "Q567806", "wikipedia": "fr:Rome (m\u00e9tro de Paris)"}}, {"type": "node", "id": 243510335, "lat": 48.8695954, "lon": 2.3359026, "tags": {"STIF:zone": "1", "name": "Quatre Septembre", "name:fr": "Quatre Septembre", "name:ru": "\u041a\u0430\u0442\u0440-\u0421\u0435\u043f\u0442\u0430\u043c\u0431\u0440", "public_transport": "station", "railway": "station", "ref:FR:FANTOIR": "75102S473J", "ref:FR:RATP": "1744", "ref:FR:STIF": "22024", "source": "STIF - 12/2016", "station": "subway", "subway": "yes", "type:RATP": "metro", "wheelchair": "no", "wikidata": "Q945229", "wikipedia": "fr:Quatre-Septembre (m\u00e9tro de Paris)"}}, {"type": "node", "id": 243510336, "lat": 48.8706446, "lon": 2.33233, "tags": {"STIF:zone": "1", "name": "Op\u00e9ra", "name:ru": "\u041e\u043f\u0435\u0440\u0430", "railway": "station", "ref:FR:FANTOIR": "75109S383F", "ref:FR:RATP": "1771", "ref:FR:STIF": "22030", "source": "STIF - 12/2016", "station": "subway", "type:RATP": "metro", "wheelchair": "no", "wikidata": "Q1392037", "wikipedia": "fr:Op\u00e9ra (m\u00e9tro de Paris)"}}, {"type": "node", "id": 243510337, "lat": 48.8736792, "lon": 2.3273189, "tags": {"STIF:zone": "1", "name": "Havre - Caumartin", "name:fr": "Havre - Caumartin", "name:ru": "\u0413\u0430\u0432\u0440 \u2014 \u041a\u043e\u043c\u0430\u0440\u0442\u0435\u043d", "old_name": "Caumartin", "public_transport": "station", "railway": "station", "ref:FR:FANTOIR": "75109S223G", "ref:FR:RATP": "1852", "ref:FR:STIF": "21906;21926", "station": "subway", "subway": "yes", "type:RATP": "metro", "wheelchair": "no", "wikidata": "Q1511406", "wikipedia": "fr:Havre - Caumartin (m\u00e9tro de Paris)"}}, {"type": "node", "id": 249335596, "lat": 48.8905061, "lon": 2.3599967, "tags": {"STIF:zone": "1", "name": "Marx Dormoy", "old_name": "Torcy", "public_transport": "stop_position", "railway": "station", "ref:FR:FANTOIR": "75118S324G", "ref:FR:RATP": "1831", "ref:FR:STIF": "22053", "source": "STIF - 12/2016", "station": "subway", "subway": "yes", "type:RATP": "metro", "wheelchair": "no", "wikidata": "Q1622759", "wikipedia": "fr:Marx Dormoy (m\u00e9tro de Paris)"}}, {"type": "node", "id": 251387813, "lat": 48.8711191, "lon": 2.3607546, "tags": {"STIF:zone": "1", "name": "Jacques Bonsergent", "old_name": "Lancry", "public_transport": "stop_position", "railway": "station", "ref:FR:FANTOIR": "75110S251H", "ref:FR:RATP": "1859", "ref:FR:STIF": "22011", "source": "STIF - 12/2016", "station": "subway", "subway": "yes", "type:RATP": "metro", "wheelchair": "yes", "wikidata": "Q1677923", "wikipedia": "fr:Jacques Bonsergent (m\u00e9tro de Paris)"}}, {"type": "node", "id": 256897078, "lat": 48.8706233, "lon": 2.3487498, "tags": {"STIF:zone": "1", "name": "Bonne Nouvelle", "public_transport": "station", "railway": "station", "ref:FR:FANTOIR": "75102P003Z;75102P004A", "ref:FR:RATP": "2015", "ref:FR:STIF": "21933", "source": "STIF - 12/2016", "station": "subway", "subway": "yes", "type:RATP": "metro", "wheelchair": "no", "wikidata": "Q892720", "wikipedia": "fr:Bonne-Nouvelle (m\u00e9tro de Paris)"}}, {"type": "node", "id": 256897079, "lat": 48.8714412, "lon": 2.3434953, "tags": {"STIF:zone": "1", "name": "Grands Boulevards", "old_name": "Montmartre; rue Montmartre", "public_transport": "station", "railway": "station", "ref:FR:RATP": "1671", "ref:FR:STIF": "21909", "source": "STIF - 12/2016", "station": "subway", "subway": "yes", "type:RATP": "metro", "wheelchair": "no", "wikidata": "Q1543053", "wikipedia": "fr:Grands Boulevards (m\u00e9tro de Paris)"}}, {"type": "node", "id": 256897554, "lat": 48.874471, "lon": 2.3217921, "tags": {"STIF:zone": "1", "name": "Saint-Augustin", "public_transport": "stop_position", "railway": "station", "ref:FR:FANTOIR": "75108S511D", "ref:FR:RATP": "1681", "ref:FR:STIF": "21911", "source": "STIF - 12/2016", "station": "subway", "subway": "yes", "type:RATP": "metro", "wheelchair": "no", "wikidata": "Q649273", "wikipedia": "fr:Saint-Augustin (m\u00e9tro de Paris)"}}, {"type": "node", "id": 261611884, "lat": 48.8905757, "lon": 2.3202004, "tags": {"STIF:zone": "1", "addr:city": "Paris", "addr:postcode": "75017", "name": "Brochant", "network": "M\u00e9tro de Paris", "operator": "RATP", "public_transport": "station", "railway": "station", "ref:FR:FANTOIR": "75117S054T", "ref:FR:RATP": "1931", "ref:FR:STIF": "22231", "source": "STIF - 12/2016", "start_date": "1912-01-20", "station": "subway", "subway": "yes", "type:RATP": "metro", "wheelchair": "no", "wikidata": "Q923435", "wikipedia": "fr:Brochant (m\u00e9tro de Paris)"}}, {"type": "node", "id": 261612240, "lat": 48.886971, "lon": 2.3258228, "tags": {"STIF:zone": "1", "addr:city": "Paris", "addr:postcode": "75017", "name": "La Fourche", "name:fr": "La Fourche", "name:ru": "\u041b\u044f-\u0424\u0443\u0440\u0448", "network": "M\u00e9tro de Paris;RATP", "operator": "RATP", "public_transport": "station", "railway": "station", "ref:FR:RATP": "1872", "ref:FR:STIF": "22227", "source": "STIF - 12/2016", "station": "subway", "subway": "yes", "type:RATP": "metro", "wheelchair": "no", "wikidata": "Q780625", "wikipedia": "fr:La Fourche (m\u00e9tro de Paris)"}}, {"type": "node", "id": 264495077, "lat": 48.8763251, "lon": 2.3326415, "tags": {"STIF:zone": "1", "name": "Trinit\u00e9 d'Estienne d'Orves", "name:ru": "\u0422\u0440\u0438\u043d\u0438\u0442\u0435 \u2014 \u0434\u2019\u042d\u0441\u0442\u044c\u0435\u043d \u0434\u2019\u041e\u0440\u0432", "railway": "station", "ref:FR:FANTOIR": "75109S565D", "ref:FR:RATP": "1638;3108", "ref:FR:STIF": "22046", "source": "STIF - 12/2016", "station": "subway", "type:RATP": "metro", "wheelchair": "no", "wikidata": "Q1316395", "wikipedia": "fr:Trinit\u00e9 - d'Estienne d'Orves (m\u00e9tro de Paris)"}}, {"type": "node", "id": 264495078, "lat": 48.8759935, "lon": 2.3385437, "tags": {"STIF:zone": "1", "name": "Notre-Dame de Lorette", "name:ru": "\u041d\u043e\u0442\u0440-\u0414\u0430\u043c-\u0434\u0435-\u041b\u043e\u0440\u0435\u0442", "railway": "station", "ref:FR:FANTOIR": "75109S365L", "ref:FR:RATP": "1767;3109", "ref:FR:STIF": "22050", "source": "STIF - 12/2016", "station": "subway", "type:RATP": "metro", "wheelchair": "no", "wikidata": "Q575604", "wikipedia": "fr:Notre-Dame-de-Lorette (m\u00e9tro de Paris)"}}, {"type": "node", "id": 264504832, "lat": 48.8784469, "lon": 2.337458, "tags": {"STIF:zone": "1", "name": "Saint-Georges", "name:ru": "\u0421\u0435\u043d-\u0416\u043e\u0440\u0436", "public_transport": "station", "railway": "station", "ref:FR:FANTOIR": "75109S514Y", "ref:FR:RATP": "3110;1686", "ref:FR:STIF": "22044", "source": "STIF - 12/2016", "station": "subway", "subway": "yes", "type:RATP": "metro", "wheelchair": "no", "wikidata": "Q1937499", "wikipedia": "fr:Saint-Georges (m\u00e9tro de Paris)"}}, {"type": "node", "id": 264505115, "lat": 48.8845677, "lon": 2.3379294, "tags": {"STIF:zone": "1", "name": "Abbesses", "name:ru": "\u0410\u0431\u0431\u0435\u0441", "public_transport": "station", "railway": "station", "ref:FR:FANTOIR": "75118S001F", "ref:FR:RATP": "1975", "ref:FR:STIF": "22059", "source": "STIF - 12/2016", "station": "subway", "subway": "yes", "type:RATP": "metro", "wheelchair": "no", "wikidata": "Q306256", "wikipedia": "fr:Abbesses (m\u00e9tro de Paris)"}}, {"type": "node", "id": 264505153, "lat": 48.8897543, "lon": 2.3388254, "tags": {"STIF:zone": "1", "name": "Lamarck - Caulaincourt", "name:ru": "\u041b\u0430\u043c\u0430\u0440\u043a \u2014 \u041a\u043e\u043b\u0435\u043d\u043a\u0443\u0440", "public_transport": "station", "railway": "station", "ref:FR:FANTOIR": "75118S282L", "ref:FR:RATP": "1879", "ref:FR:STIF": "22055", "source": "STIF - 12/2016", "station": "subway", "subway": "yes", "type:RATP": "metro", "wheelchair": "no", "wikidata": "Q980380", "wikipedia": "fr:Lamarck - Caulaincourt (m\u00e9tro de Paris)"}}, {"type": "node", "id": 264505450, "lat": 48.8924628, "lon": 2.3446394, "tags": {"STIF:zone": "1", "name": "Jules Joffrin", "name:ru": "\u0416\u044e\u043b\u044c \u0416\u043e\u0444\u0444\u0440\u0435\u043d", "public_transport": "station", "railway": "station", "ref:FR:FANTOIR": "75118S257J", "ref:FR:RATP": "1865", "ref:FR:STIF": "22054", "source": "STIF - 12/2016", "station": "subway", "subway": "yes", "type:RATP": "metro", "wheelchair": "no", "wikidata": "Q617430", "wikipedia": "fr:Jules Joffrin (m\u00e9tro de Paris)"}}, {"type": "node", "id": 264505930, "lat": 48.8977035, "lon": 2.3594563, "tags": {"STIF:zone": "1", "layer": "-4", "name": "Porte de la Chapelle", "public_transport": "stop_position", "railway": "station", "ref:FR:RATP": "1734", "ref:FR:STIF": "22041", "source": "STIF - 12/2016", "station": "subway", "subway": "yes", "type:RATP": "metro", "wheelchair": "limited", "wikidata": "Q382659", "wikipedia": "fr:Porte de la Chapelle (m\u00e9tro de Paris)"}}, {"type": "node", "id": 264505993, "lat": 48.8938481, "lon": 2.3478412, "tags": {"STIF:zone": "1", "name": "Simplon", "operator": "RATP", "public_transport": "stop_position", "railway": "station", "ref:FR:FANTOIR": "75118S534K", "ref:FR:RATP": "1621", "ref:FR:STIF": "22133", "source": "STIF - 12/2016", "station": "subway", "subway": "yes", "type:RATP": "metro", "wheelchair": "no", "wikidata": "Q163879", "wikipedia": "fr:Simplon (m\u00e9tro de Paris)"}}, {"type": "node", "id": 264508548, "lat": 48.8762027, "lon": 2.3579127, "tags": {"STIF:zone": "1", "addr:city": "Paris", "addr:postcode": "75010", "alt_name": "Gare de l'Est (Verdun)", "name": "Gare de l'Est", "network": "M\u00e9tro de Paris;RATP", "operator": "RATP", "public_transport": "station", "railway": "station", "ref:FR:FANTOIR": "75110S184K", "ref:FR:RATP": "1841", "ref:FR:STIF": "41010", "source": "STIF - 12/2016", "station": "subway", "subway": "yes", "type:RATP": "metro", "wikidata": "Q1494172", "wikipedia": "fr:Gare de l'Est (m\u00e9tro de Paris)"}}, {"type": "node", "id": 265060052, "lat": 48.8927239, "lon": 2.3273521, "tags": {"STIF:zone": "1", "check_date:wheelchair": "2023-01-18", "name": "Guy M\u00f4quet", "old_name": "Marcadet \u2013 Balagny", "railway": "station", "ref:FR:FANTOIR": "75118S197U", "ref:FR:RATP": "1851", "ref:FR:STIF": "22228", "source": "STIF - 12/2016", "station": "subway", "toilets:wheelchair": "no", "type:RATP": "metro", "wheelchair": "no", "wikidata": "Q738879", "wikipedia": "fr:Guy M\u00f4quet (m\u00e9tro de Paris)"}}, {"type": "node", "id": 265060832, "lat": 48.8971883, "lon": 2.328869, "tags": {"STIF:zone": "1", "name": "Porte de Saint-Ouen", "public_transport": "station", "railway": "station", "ref:FR:FANTOIR": "75117S446U;75118S446P", "ref:FR:RATP": "1730", "ref:FR:STIF": "22220", "source": "STIF - 12/2016", "station": "subway", "subway": "yes", "type:RATP": "metro", "wikidata": "Q181669", "wikipedia": "fr:Porte de Saint-Ouen (m\u00e9tro de Paris)"}}, {"type": "node", "id": 326309672, "lat": 48.8788923, "lon": 2.3624779, "tags": {"STIF:zone": "1", "name": "Ch\u00e2teau Landon", "public_transport": "stop_position", "railway": "station", "ref:FR:FANTOIR": "75110S087E", "ref:FR:RATP": "1963", "ref:FR:STIF": "22367", "source": "STIF - 12/2016", "station": "subway", "subway": "yes", "type:RATP": "metro", "wheelchair": "no", "wikidata": "Q1090315", "wikipedia": "fr:Ch\u00e2teau-Landon (m\u00e9tro de Paris)"}}, {"type": "node", "id": 329974472, "lat": 48.8808038, "lon": 2.3587094, "tags": {"STIF:zone": "1", "layer": "-3", "name": "Magenta", "network": "RER", "note": "Please do not add the tag public_transport=station, it is already on the way that defines the footprint of the station", "operator": "SNCF", "railway": "station", "ref:FR:RATP": "51923", "ref:FR:STIF": "41126", "ref:FR:uic8": "87281873", "source": "\u00cele-de-France Mobilit\u00e9s - 03/2022", "start_date": "1999-07-14", "train": "yes", "type:RATP": "rer", "uic_ref": "8728187", "wheelchair": "limited", "wikidata": "Q608428", "wikipedia": "fr:Gare de Magenta"}}, {"type": "node", "id": 354969611, "lat": 48.8722245, "lon": 2.3297877, "tags": {"STIF:zone": "1", "addr:city": "Paris", "addr:postcode": "75009", "name": "Auber", "name:ru": "\u041e\u0431\u0435\u0440", "operator": "RATP", "public_transport": "station", "railway": "station", "ref:FR:FANTOIR": "75109S015F", "ref:FR:RATP": "1990", "ref:FR:STIF": "412806", "source": "STIF - 12/2016", "start_date": "1971-11-23", "type:RATP": "rer", "uic_ref": "8775859", "wheelchair": "yes", "wikidata": "Q800416", "wikipedia": "fr:Gare Auber"}}, {"type": "node", "id": 1481147746, "lat": 48.8914837, "lon": 2.3497296, "tags": {"STIF:zone": "1", "name": "Marcadet - Poissonniers", "operator": "RATP", "public_transport": "stop_position", "railway": "station", "ref:FR:RATP": "1828", "ref:FR:STIF": "22052", "source": "STIF - 12/2016", "station": "subway", "subway": "yes", "type:RATP": "metro", "wheelchair": "no", "wikidata": "Q1892927", "wikipedia": "fr:Marcadet - Poissonniers (m\u00e9tro de Paris)"}}, {"type": "node", "id": 1780486821, "lat": 48.8973976, "lon": 2.3448521, "tags": {"STIF:zone": "1", "name": "Porte de Clignancourt", "operator": "RATP", "public_transport": "stop_position", "railway": "station", "ref:FR:FANTOIR": "75118S435C", "ref:FR:RATP": "1726", "ref:FR:STIF": "22141", "source": "STIF - 12/2016", "station": "subway", "subway": "yes", "type:RATP": "metro", "wheelchair": "no", "wikidata": "Q1969480", "wikipedia": "fr:Porte de Clignancourt (m\u00e9tro de Paris)"}}, {"type": "node", "id": 1981222779, "lat": 48.8787676, "lon": 2.3222643, "tags": {"STIF:zone": "1", "name": "Europe", "note": "\"Simone-Veil\" est un sous-titre, le nom de la station reste \"Europe\"", "public_transport": "station", "railway": "station", "ref:FR:FANTOIR": "75108S148J", "ref:FR:RATP": "1915", "ref:FR:STIF": "22032", "source": "cadastre-dgi-fr source : Direction G\u00e9n\u00e9rale des Imp\u00f4ts - Cadastre. Mise \u00e0 jour : 2012", "station": "subway", "subway": "yes", "type:RATP": "metro", "wheelchair": "no", "wikidata": "Q766618"}}, {"type": "node", "id": 1997722992, "lat": 48.8825949, "lon": 2.3703263, "tags": {"STIF:zone": "1", "addr:city": "Paris", "name": "Jaur\u00e8s", "old_name": "Rue d\u2019Allemagne", "public_transport": "station", "railway": "station", "ref:FR:FANTOIR": "75119S254Z;75110S254L", "ref:FR:RATP": "1861", "ref:FR:STIF": "24680", "source": "STIF - 12/2016", "station": "subway", "subway": "yes", "type:RATP": "metro", "wheelchair": "no", "wikidata": "Q568195", "wikipedia": "fr:Jaur\u00e8s (m\u00e9tro de Paris)"}}, {"type": "node", "id": 2506241285, "lat": 48.8770979, "lon": 2.3594905, "tags": {"SNCF:stop_name": "Paris-Est", "STIF:zone": "1", "addr:city": "Paris", "addr:postcode": "75010", "addr:street": "Place du 11 Novembre 1918", "alt_name": "Paris-Est;Gare de Paris-Est;Gare de l'Est", "bench": "yes", "internet_access": "wlan", "internet_access:fee": "no", "name": "Paris Gare de l'Est", "name:de": "Paris Ostbahnhof", "name:ru": "\u0412\u043e\u0441\u0442\u043e\u0447\u043d\u044b\u0439 \u0432\u043e\u043a\u0437\u0430\u043b", "note": "Please do not add public_transport=station on this node as it is already present on the polygon", "operator": "SNCF", "owner": "SNCF Gares & Connexions", "railway": "station", "railway:ref": "PE", "railway:ref:DBAG": "XFPO", "ref:FR:STIF": "22387", "ref:FR:uic8": "87113001", "ref_name": "Paris Gare de l'Est", "shelter": "yes", "source": "STIF - 12/2016", "start_date": "1849-07-05", "train": "yes", "uic_ref": "8711300", "website": "https://www.garesetconnexions.sncf/fr", "wheelchair": "yes", "wikidata": "Q757180", "wikipedia": "fr:Gare de Paris-Est"}}, {"type": "node", "id": 3090733718, "lat": 48.8804003, "lon": 2.3549733, "tags": {"SNCF:stop_name": "Paris-Nord", "STIF:zone": "1", "addr:city": "Paris", "addr:country": "FR", "addr:housenumber": "112", "addr:postcode": "75010", "addr:street": "rue de Maubeuge", "internet_access": "wlan", "name": "Paris Gare du Nord", "name:de": "Paris Nordbahnhof", "name:ru": "\u0421\u0435\u0432\u0435\u0440\u043d\u044b\u0439 \u0432\u043e\u043a\u0437\u0430\u043b", "network": "SNCF.", "note": "Please do not add the tag public_transport=station, it is already on the way that defines the footprint of the station", "old_name": "Embarcad\u00e8re du Chemin de Fer du Nord", "operator": "SNCF", "railway": "station", "railway:ref:DB": "XFPN", "ref:FR:STIF": "41071", "ref:FR:uic8": "87271007;87271031", "train": "yes", "uic_ref": "8727100;8727103", "website": "https://www.garesetconnexions.sncf/fr/gare/frpno/paris-gare-du-nord", "wheelchair": "yes", "wikidata": "Q745942", "wikipedia": "fr:Gare de Paris-Nord"}}, {"type": "node", "id": 3417692493, "lat": 48.8828803, "lon": 2.3442565, "tags": {"STIF:zone": "1", "name": "Anvers", "public_transport": "station", "railway": "station", "ref:FR:FANTOIR": "75118S009P", "ref:FR:RATP": "1984", "ref:FR:STIF": "22123", "source": "STIF - 12/2016", "station": "subway", "subway": "yes", "type:RATP": "metro", "wheelchair": "no", "wikidata": "Q612971", "wikipedia": "fr:Anvers (m\u00e9tro de Paris)"}}, {"type": "node", "id": 3417692497, "lat": 48.8846923, "lon": 2.3426644, "tags": {"STIF:zone": "1", "alt_name": "Funiculaire Gare basse", "name": "Funiculaire Montmartre - Station Inf\u00e9rieure", "operator": "RATP", "public_transport": "station", "railway": "station", "ref:FR:RATP": "2021", "ref:FR:STIF": "463175", "source": "Bing", "station": "funicular", "wheelchair": "yes"}}, {"type": "node", "id": 3417692499, "lat": 48.8856581, "lon": 2.3425549, "tags": {"STIF:zone": "1", "alt_name": "Funiculaire Gare haute", "name": "Funiculaire Montmartre - Station Sup\u00e9rieure", "operator": "RATP", "public_transport": "station", "railway": "station", "ref:FR:RATP": "2022", "ref:FR:STIF": "412355", "source": "Bing", "station": "funicular", "wheelchair": "yes"}}, {"type": "node", "id": 3417692501, "lat": 48.8844068, "lon": 2.3603057, "tags": {"STIF:zone": "1", "name": "La Chapelle", "public_transport": "station", "railway": "station", "ref:FR:FANTOIR": "75110S081Y", "ref:FR:RATP": "1868", "ref:FR:STIF": "22119", "source": "STIF - 12/2016", "station": "subway", "subway": "yes", "type:RATP": "metro", "wheelchair": "no", "wikidata": "Q1577103", "wikipedia": "fr:La Chapelle (m\u00e9tro de Paris)"}}, {"type": "node", "id": 3533789791, "lat": 48.87653, "lon": 2.3252374, "tags": {"STIF:zone": "1", "level": "1", "name": "Gare de Paris-Saint-Lazare", "name:be": "\u0412\u0430\u043a\u0437\u0430\u043b \u0421\u0435\u043d-\u041b\u0430\u0437\u0430\u0440", "name:es": "Estaci\u00f3n de Paris Saint-Lazare", "name:eu": "Paris-Saint Lazare geltokia", "name:fi": "Saint Lazaren rautatieasema", "name:he": "\u05ea\u05d7\u05e0\u05ea_\u05e1\u05df_\u05dc\u05d0\u05d6\u05d0\u05e8", "name:ja": "\u30b5\u30f3\u30fb\u30e9\u30b6\u30fc\u30eb\u99c5", "name:ru": "\u0412\u043e\u043a\u0437\u0430\u043b \u0421\u0435\u043d-\u041b\u0430\u0437\u0430\u0440", "name:sv": "Paris Saint-Lazare j\u00e4rnv\u00e4gsstation", "name:uk": "\u0412\u043e\u043a\u0437\u0430\u043b \u0421\u0435\u043d-\u041b\u0430\u0437\u0430\u0440", "name:zh": "\u5df4\u9ece\u5723\u62c9\u624e\u5c14\u8f66\u7ad9", "old_name": "Embarcad\u00e8re de l'Ouest;Gare de l'Ouest", "operator": "SNCF", "railway": "station", "railway:ref": "PSL", "railway:ref:DB": "XFPSL", "ref:FR:STIF": "22218", "ref:FR:uic8": "87384008", "source": "STIF - 12/2016", "uic_ref": "8738400", "website": "https://www.gares-sncf.com/fr/gare/frpsl/paris-saint-lazare", "wheelchair": "limited", "wikidata": "Q747506", "wikipedia": "fr:Gare de Paris-Saint-Lazare"}}, {"type": "node", "id": 3542631493, "lat": 48.8754153, "lon": 2.3253531, "tags": {"STIF:zone": "1", "addr:city": "Paris", "addr:postcode": "75009", "layer": "-2", "name": "Saint-Lazare", "name:ru": "\u0421\u0435\u043d-\u041b\u0430\u0437\u0430\u0440", "network": "M\u00e9tro de Paris;RATP", "operator": "RATP", "public_transport": "station", "railway": "station", "ref:FR:FANTOIR": "75108S188C", "ref:FR:RATP": "1689", "ref:FR:STIF": "21963", "source": "STIF - 12/2016", "start_date": "1903-10-19", "station": "subway", "subway": "yes", "type:RATP": "metro", "wheelchair": "limited", "wikidata": "Q1519529", "wikipedia": "fr:Saint-Lazare (m\u00e9tro de Paris)"}}, {"type": "node", "id": 4067925155, "lat": 48.8822982, "lon": 2.3380899, "tags": {"STIF:zone": "1", "name": "Pigalle", "name:ru": "\u041f\u0438\u0433\u0430\u043b\u044c", "public_transport": "station", "railway": "station", "ref:FR:FANTOIR": "75109S415R", "ref:FR:RATP": "1787", "ref:FR:STIF": "22114", "source": "STIF - 12/2016", "station": "subway", "subway": "yes", "type:RATP": "metro", "wheelchair": "no", "wikidata": "Q338898", "wikipedia": "fr:Pigalle (m\u00e9tro de Paris)"}}, {"type": "node", "id": 4075421186, "lat": 48.8872884, "lon": 2.3495532, "tags": {"STIF:zone": "1", "check_date:wheelchair": "2023-04-11", "name": "Ch\u00e2teau Rouge", "operator": "RATP", "public_transport": "station", "railway": "station", "ref:FR:FANTOIR": "75118S088A", "ref:FR:RATP": "1960", "ref:FR:STIF": "22152", "source": "STIF - 12/2016", "station": "subway", "subway": "yes", "type:RATP": "metro", "wheelchair": "no", "wikidata": "Q957172", "wikipedia": "fr:Ch\u00e2teau Rouge (m\u00e9tro de Paris)"}}, {"type": "node", "id": 5226630386, "lat": 48.8693002, "lon": 2.3542855, "tags": {"STIF:zone": "1", "check_date:opening_hours": "2021-10-26", "name": "Strasbourg - Saint-Denis", "old_name": "Boulevard Saint-Denis", "opening_hours": "Mo-Su 05:00-01:30", "operator": "RATP", "public_transport": "station", "railway": "station", "ref:FR:FANTOIR": "75102S537D", "ref:FR:RATP": "1628", "ref:FR:STIF": "22159", "source": "STIF - 12/2016", "station": "subway", "subway": "yes", "type:RATP": "metro", "wheelchair": "no", "wikidata": "Q1403165", "wikipedia": "fr:Strasbourg - Saint-Denis (m\u00e9tro de Paris)"}}, {"type": "node", "id": 5226708287, "lat": 48.8837466, "lon": 2.3496958, "tags": {"STIF:zone": "1", "name": "Barb\u00e8s - Rochechouart", "operator": "RATP", "public_transport": "station", "railway": "station", "ref:FR:FANTOIR": "75109S035C", "ref:FR:RATP": "1999", "ref:FR:STIF": "22127", "source": "STIF - 12/2016", "station": "subway", "subway": "yes", "type:RATP": "metro", "wheelchair": "no", "wikidata": "Q807893", "wikipedia": "fr:Barb\u00e8s - Rochechouart (m\u00e9tro de Paris)"}}, {"type": "node", "id": 5228032207, "lat": 48.8815943, "lon": 2.3657982, "tags": {"STIF:zone": "1", "name": "Louis Blanc", "public_transport": "station", "railway": "station", "ref:FR:FANTOIR": "75110S290A", "ref:FR:RATP": "1806", "ref:FR:STIF": "24681", "source": "STIF - 12/2016", "station": "subway", "subway": "yes", "type:RATP": "metro", "wheelchair": "no", "wikidata": "Q1537255", "wikipedia": "fr:Louis Blanc (m\u00e9tro de Paris)"}}, {"type": "node", "id": 5230752679, "lat": 48.881399, "lon": 2.357438, "tags": {"STIF:zone": "1", "alt_name": "Paris Nord RER", "layer": "-2", "name": "Gare du Nord (RER)", "official_name": "PARIS NORD (GARE DU NORD)", "operator": "SNCF", "railway": "station", "railway:traffic_mode": "passenger", "ref": "RER B,D", "ref:FR:RATP": "1843", "ref:FR:STIF": "41071", "ref:FR:uic8": "87271023;87271007", "short_name": "Gare du Nord", "train": "yes", "type:RATP": "rer", "uic_ref": "8727102;8727100", "wheelchair": "yes", "wikidata": "Q745942", "wikipedia": "fr:Gare de Paris-Nord"}}, {"type": "node", "id": 5364676905, "lat": 48.8795666, "lon": 2.3572124, "tags": {"STIF:zone": "1", "addr:city": "Paris", "addr:postcode": "75010", "name": "Gare du Nord (M\u00e9tro)", "network": "RATP", "operator": "RATP", "public_transport": "station", "railway": "station", "ref:FR:FANTOIR": "75110S186M", "ref:FR:RATP": "1842", "ref:FR:STIF": "22007;22149", "short_name": "Gare du Nord", "start_date": "1907-11-15", "station": "subway", "subway": "yes", "type:RATP": "metro", "wheelchair": "no", "wikidata": "Q1494174", "wikipedia": "fr:Gare du Nord (m\u00e9tro de Paris)"}}, {"type": "node", "id": 5527859168, "lat": 48.8728888, "lon": 2.3563528, "tags": {"STIF:zone": "1", "heritage": "3", "heritage:operator": "mhs", "mhs:inscription_date": "1978", "name": "Ch\u00e2teau d'Eau", "operator": "RATP", "public_transport": "station", "railway": "station", "ref:FR:FANTOIR": "75110S086D", "ref:FR:RATP": "1961", "ref:FR:STIF": "22153", "ref:mhs": "PA00086508", "source": "STIF - 12/2016", "station": "subway", "subway": "yes", "type:RATP": "metro", "wheelchair": "no", "wikidata": "Q1090753", "wikipedia": "fr:Ch\u00e2teau d'Eau (m\u00e9tro de Paris)"}}, {"type": "node", "id": 5528174509, "lat": 48.8730441, "lon": 2.3332127, "tags": {"STIF:zone": "1", "name": "Chauss\u00e9e d'Antin - La Fayette", "public_transport": "station", "railway": "station", "ref:FR:FANTOIR": "75109S092P", "ref:FR:RATP": "1957", "ref:FR:STIF": "21932;22388", "station": "subway", "subway": "yes", "type:RATP": "metro", "wheelchair": "no", "wikidata": "Q951466", "wikipedia": "fr:Chauss\u00e9e d'Antin - La Fayette (m\u00e9tro de Paris)"}}, {"type": "node", "id": 5528174511, "lat": 48.8748603, "lon": 2.340218, "tags": {"STIF:zone": "1", "name": "Le Peletier", "public_transport": "station", "railway": "station", "ref:FR:FANTOIR": "75109S288C", "ref:FR:RATP": "1795", "ref:FR:STIF": "22382", "source": "STIF - 12/2016", "station": "subway", "subway": "yes", "type:RATP": "metro", "wikidata": "Q1784008", "wikipedia": "fr:Le Peletier (m\u00e9tro de Paris)"}}, {"type": "node", "id": 5528174520, "lat": 48.8759778, "lon": 2.3444894, "tags": {"STIF:zone": "1", "name": "Cadet", "public_transport": "station", "railway": "station", "ref:FR:FANTOIR": "75109S071S", "ref:FR:RATP": "1939", "ref:FR:STIF": "22390", "source": "STIF - 12/2016", "station": "subway", "subway": "yes", "type:RATP": "metro", "wheelchair": "no", "wikidata": "Q1025135", "wikipedia": "fr:Cadet (m\u00e9tro de Paris)"}}, {"type": "node", "id": 5528176223, "lat": 48.8771197, "lon": 2.3487446, "tags": {"STIF:zone": "1", "addr:city": "Paris", "addr:postcode": "75009;75010", "addr:street": "Rue La Fayette", "name": "Poissonni\u00e8re", "network": "M\u00e9tro de Paris;RATP", "operator": "RATP", "public_transport": "station", "railway": "station", "ref:FR:FANTOIR": "75109S420W", "ref:FR:RATP": "1706", "ref:FR:STIF": "22377", "source": "STIF - 12/2016", "station": "subway", "subway": "yes", "type:RATP": "metro", "wheelchair": "no", "wikidata": "Q764106", "wikipedia": "fr:Poissonni\u00e8re (m\u00e9tro de Paris)"}}, {"type": "node", "id": 6354958621, "lat": 48.8706341, "lon": 2.3258048}, {"type": "node", "id": 6354958622, "lat": 48.8701248, "lon": 2.3273028}, {"type": "node", "id": 6354958623, "lat": 48.8700713, "lon": 2.3272607}, {"type": "node", "id": 6354958624, "lat": 48.8705805, "lon": 2.3257627}, {"type": "node", "id": 6354958625, "lat": 48.870185, "lon": 2.3273491}, {"type": "node", "id": 6354958626, "lat": 48.8706817, "lon": 2.3258426}, {"type": "node", "id": 6354958627, "lat": 48.8707354, "lon": 2.3258835}, {"type": "node", "id": 6354958628, "lat": 48.8702387, "lon": 2.32739}, {"type": "node", "id": 6354958629, "lat": 48.8698882, "lon": 2.3252194}, {"type": "node", "id": 6354958630, "lat": 48.8705731, "lon": 2.3253091}, {"type": "node", "id": 6354958631, "lat": 48.8705725, "lon": 2.3253751}, {"type": "node", "id": 6354958632, "lat": 48.8698834, "lon": 2.3252833}, {"type": "node", "id": 6354958636, "lat": 48.8700517, "lon": 2.3253173}, {"type": "node", "id": 6354958637, "lat": 48.8702241, "lon": 2.325343}, {"type": "node", "id": 6354958638, "lat": 48.8703981, "lon": 2.3253654}, {"type": "node", "id": 6354958639, "lat": 48.8705737, "lon": 2.3252436}, {"type": "node", "id": 6354958643, "lat": 48.8698927, "lon": 2.3251576}, {"type": "node", "id": 6354958644, "lat": 48.8698974, "lon": 2.3250936}, {"type": "node", "id": 6354958645, "lat": 48.8705755, "lon": 2.3251789}, {"type": "node", "id": 6354958646, "lat": 48.8704001, "lon": 2.3251686}, {"type": "node", "id": 6354958647, "lat": 48.8702373, "lon": 2.3251506}, {"type": "node", "id": 6354958648, "lat": 48.8700667, "lon": 2.3251251}, {"type": "node", "id": 6354958652, "lat": 48.8694646, "lon": 2.3256648}, {"type": "node", "id": 6354958653, "lat": 48.8696408, "lon": 2.3266955}, {"type": "node", "id": 6354958654, "lat": 48.8695972, "lon": 2.3267128}, {"type": "node", "id": 6354958655, "lat": 48.8694209, "lon": 2.325682}, {"type": "node", "id": 6354958656, "lat": 48.8696961, "lon": 2.3266726}, {"type": "node", "id": 6354958657, "lat": 48.8695179, "lon": 2.3256447}, {"type": "node", "id": 6354958658, "lat": 48.8695617, "lon": 2.3256289}, {"type": "node", "id": 6354958659, "lat": 48.8697399, "lon": 2.326655}, {"type": "node", "id": 6368126235, "lat": 48.8715492, "lon": 2.3309148}, {"type": "node", "id": 6368126236, "lat": 48.8728498, "lon": 2.3286055}, {"type": "node", "id": 6368126237, "lat": 48.8727997, "lon": 2.3285403}, {"type": "node", "id": 6368126238, "lat": 48.8714991, "lon": 2.3308496}, {"type": "node", "id": 6368126240, "lat": 48.8729019, "lon": 2.3286747}, {"type": "node", "id": 6368126241, "lat": 48.8716034, "lon": 2.3309826}, {"type": "node", "id": 6368126242, "lat": 48.871653, "lon": 2.3310442}, {"type": "node", "id": 6368126243, "lat": 48.8729504, "lon": 2.3287378}, {"type": "node", "id": 6368126255, "lat": 48.8728643, "lon": 2.3286247}, {"type": "node", "id": 6368126256, "lat": 48.8715883, "lon": 2.3309636}, {"type": "node", "id": 6372537879, "lat": 48.8749979, "lon": 2.3286951, "tags": {"STIF:zone": "1", "addr:city": "Paris", "addr:postcode": "75009", "ele": "2", "level": "-7", "name": "Haussmann - Saint-Lazare", "network": "RER", "note": "Please do not add the tag public_transport=station, it is already on the way that defines the footprint of the station", "operator": "SNCF", "railway": "station", "ref:FR:RATP": "51922", "ref:FR:STIF": "41127", "ref:FR:uic8": "87281899", "source": "\u00cele-de-France Mobilit\u00e9s - 03/2022", "start_date": "1999-07-14", "train": "yes", "type:RATP": "rer", "uic_ref": "8728189", "wheelchair": "yes", "wikidata": "Q800898", "wikipedia": "fr:Gare d'Haussmann - Saint-Lazare"}}, {"type": "node", "id": 8515111483, "lat": 48.8719671, "lon": 2.3392504, "tags": {"STIF:zone": "1", "level": "-2", "name": "Richelieu - Drouot", "name:ru": "\u0420\u0438\u0448\u0435\u043b\u044c\u0451 \u2014 \u0414\u0440\u0443\u043e", "network": "RATP", "operator": "RATP", "public_transport": "station", "railway": "station", "ref:FR:FANTOIR": "75109S488V", "ref:FR:RATP": "1665", "ref:FR:STIF": "22196", "source": "STIF - 12/2016", "station": "subway", "subway": "yes", "type:RATP": "metro", "wheelchair": "no", "wikidata": "Q1412692", "wikipedia": "fr:Richelieu - Drouot (m\u00e9tro de Paris)"}}, {"type": "node", "id": 10169371981, "lat": 48.8796039, "lon": 2.3270446, "tags": {"STIF:zone": "1", "name": "Li\u00e8ge", "name:ru": "\u041b\u044c\u0435\u0436", "old_name": "Berlin", "public_transport": "station", "railway": "station", "ref:FR:FANTOIR": "75108S289M", "ref:FR:RATP": "1804", "ref:FR:STIF": "22225", "source": "STIF - 12/2016", "station": "subway", "subway": "yes", "type:RATP": "metro", "wheelchair": "no", "wikidata": "Q1866688", "wikipedia": "fr:Li\u00e8ge (m\u00e9tro de Paris)"}}, {"type": "node", "id": 11027628099, "lat": 48.8729414, "lon": 2.3287538}, {"type": "node", "id": 11027642780, "lat": 48.8721605, "lon": 2.3296753}, {"type": "way", "id": 678701633, "nodes": [6354958658, 6354958657, 6354958652, 6354958655, 6354958654, 6354958653, 6354958656, 6354958659, 6354958658], "tags": {"STIF:zone": "1", "addr:city": "Paris", "addr:postcode": "75008", "building": "yes", "layer": "-2", "level": "-2", "location": "underground", "name": "Madeleine", "network": "M\u00e9tro de Paris;RATP", "operator": "RATP", "public_transport": "station", "railway": "station", "ref:FR:FANTOIR": "75101S312N;75108S312M", "ref:FR:RATP": "1813", "ref:FR:STIF": "22194", "source": "STIF - 12/2016", "start_date": "1913-07-13", "station": "subway", "subway": "yes", "tunnel": "yes", "wheelchair": "no", "wikidata": "Q1417199", "wikipedia": "fr:Madeleine (m\u00e9tro de Paris)"}}, {"type": "way", "id": 678701646, "nodes": [6354958627, 6354958626, 6354958621, 6354958624, 6354958623, 6354958622, 6354958625, 6354958628, 6354958627], "tags": {"STIF:zone": "1", "addr:city": "Paris", "addr:postcode": "75008", "building": "yes", "layer": "-4;-5", "level": "-4;-5", "location": "underground", "name": "Madeleine", "name:ru": "\u041c\u0430\u0434\u043b\u0435\u043d", "network": "M\u00e9tro de Paris;RATP", "operator": "RATP", "public_transport": "station", "railway": "station", "ref:FR:FANTOIR": "75101S312N;75108S312M", "ref:FR:RATP": "1813", "ref:FR:STIF": "22194", "source": "STIF - 12/2016", "start_date": "1998-10-15", "station": "subway", "subway": "yes", "tunnel": "yes", "wheelchair": "yes", "wikidata": "Q1417199", "wikipedia": "fr:Madeleine (m\u00e9tro de Paris)"}}, {"type": "way", "id": 678701656, "nodes": [6354958631, 6354958630, 6354958639, 6354958645, 6354958646, 6354958647, 6354958648, 6354958644, 6354958643, 6354958629, 6354958632, 6354958636, 6354958637, 6354958638, 6354958631], "tags": {"STIF:zone": "1", "addr:city": "Paris", "addr:postcode": "75008", "building": "yes", "layer": "-2", "level": "-2", "location": "underground", "name": "Madeleine", "network": "M\u00e9tro de Paris;RATP", "operator": "RATP", "public_transport": "station", "railway": "station", "ref:FR:FANTOIR": "75101S312N;75108S312M", "ref:FR:RATP": "1813", "ref:FR:STIF": "22194", "source": "STIF - 12/2016", "start_date": "1910-11-05", "station": "subway", "subway": "yes", "tunnel": "yes", "wheelchair": "no"}}, {"type": "way", "id": 680119434, "nodes": [6368126237, 6368126236, 6368126255, 6368126240, 6368126243, 11027628099, 6368126242, 6368126241, 6368126256, 6368126235, 6368126238, 11027642780, 6368126237], "tags": {"addr:city": "Paris", "addr:postcode": "75009", "addr:street": "Rue Auber", "layer": "-5", "level": "-5", "location": "underground", "name": "Auber", "network": "RER Parisien;RATP", "operator": "RATP", "public_transport": "station", "railway": "station", "start_date": "1971-11-23", "train": "yes", "wheelchair": "yes"}}]}