{"version": 0.6, "generator": "Overpass API 0.7.61.5 4133829e", "osm3s": {"timestamp_osm_base": "2023-12-10T00:25:03Z", "copyright": "The data included in this document is from www.openstreetmap.org. The data is made available under ODbL."}, "elements": [{"type": "node", "id": 27362249, "lat": 48.8720617, "lon": 2.3004148, "tags": {"STIF:zone": "1", "name": "George V", "name:ru": "\u0413\u0435\u043e\u0440\u0433 V", "old_name": "Alma", "public_transport": "stop_position", "railway": "station", "ref:FR:FANTOIR": "75108S191F", "ref:FR:RATP": "1846", "ref:FR:STIF": "22084", "source": "STIF - 12/2016", "station": "subway", "subway": "yes", "type:RATP": "metro", "wheelchair": "no", "wikidata": "Q690975", "wikipedia": "fr:George V (m\u00e9tro de Paris)"}}, {"type": "node", "id": 243496030, "lat": 48.8802919, "lon": 2.3085925, "tags": {"STIF:zone": "1", "check_date:wheelchair": "2023-09-02", "name": "Monceau", "public_transport": "station", "railway": "station", "ref:FR:FANTOIR": "75108S334L", "ref:FR:RATP": "1749", "ref:FR:STIF": "22117", "source": "STIF - 12/2016", "station": "subway", "type:RATP": "metro", "wheelchair": "no", "wikidata": "Q1717241", "wikipedia": "fr:Monceau (m\u00e9tro de Paris)"}}, {"type": "node", "id": 260765385, "lat": 48.8716801, "lon": 2.2935185, "tags": {"STIF:zone": "1", "name": "Kl\u00e9ber", "public_transport": "station", "railway": "station", "ref:FR:FANTOIR": "75116S271K", "ref:FR:RATP": "1867", "ref:FR:STIF": "22170", "source": "STIF - 12/2016", "station": "subway", "subway": "yes", "type:RATP": "metro", "wheelchair": "no", "wikidata": "Q254308", "wikipedia": "fr:Kl\u00e9ber (m\u00e9tro de Paris)"}}, {"type": "node", "id": 260769132, "lat": 48.8648683, "lon": 2.300292, "tags": {"STIF:zone": "1", "name": "Alma-Marceau", "public_transport": "stop_position", "railway": "station", "ref:FR:FANTOIR": "75108S004C", "ref:FR:RATP": "1980", "ref:FR:STIF": "21935", "source": "STIF - 12/2016", "station": "subway", "subway": "yes", "type:RATP": "metro", "wheelchair": "no", "wikidata": "Q1768692", "wikipedia": "fr:Alma - Marceau (m\u00e9tro de Paris)"}}, {"type": "node", "id": 838533003, "lat": 48.8782859, "lon": 2.2990808, "tags": {"STIF:zone": "1", "name": "Ternes", "public_transport": "station", "railway": "station", "ref:FR:FANTOIR": "75108S563K", "ref:FR:RATP": "1635", "ref:FR:STIF": "22108", "source": "cadastre-dgi-fr source : Direction G\u00e9n\u00e9rale des Imp\u00f4ts - Cadastre. Mise \u00e0 jour : 2010", "station": "subway", "subway": "yes", "type:RATP": "metro", "wheelchair": "no", "wikidata": "Q635744", "wikipedia": "fr:Ternes (m\u00e9tro de Paris)"}}, {"type": "node", "id": 2493410447, "lat": 48.8779379, "lon": 2.2819557, "tags": {"STIF:zone": "1", "addr:city": "Paris", "addr:postcode": "75017", "addr:street": "Place de la Porte Maillot", "layer": "-2", "name": "Porte Maillot", "name:ru": "\u041f\u043e\u0440\u0442-\u041c\u0430\u0439\u043e", "network": "M\u00e9tro de Paris;RATP", "operator": "RATP", "public_transport": "station", "railway": "station", "ref:FR:FANTOIR": "75116S441V;75117S441N", "ref:FR:RATP": "1716", "ref:FR:STIF": "22078;463257", "start_date": "1900-07-19", "station": "subway", "subway": "yes", "train": "yes", "type:RATP": "metro", "wheelchair": "yes", "wikidata": "Q1344536", "wikipedia": "fr:Porte Maillot (m\u00e9tro de Paris)"}}, {"type": "node", "id": 3580789992, "lat": 48.8780667, "lon": 2.2846161, "tags": {"STIF:zone": "1", "name": "Neuilly - Porte Maillot", "note": "Please do not add the tag public_transport=station, it is already on the way that defines the footprint of the station", "note:fr": "RER C", "pictogram": "yes", "railway": "station", "ref:FR:RATP": "5643", "ref:FR:STIF": "41131", "ref:FR:uic8": "87381020", "signage": "good", "train": "yes", "type:RATP": "rer", "uic_ref": "8738102", "wheelchair": "yes", "wikidata": "Q384902", "wikipedia": "fr:Gare de Neuilly - Porte Maillot"}}, {"type": "node", "id": 3703620036, "lat": 48.8699556, "lon": 2.2860385, "tags": {"STIF:zone": "1", "name": "Victor Hugo", "name:ru": "\u0412\u0438\u043a\u0442\u043e\u0440 \u0413\u044e\u0433\u043e", "public_transport": "station", "railway": "station", "ref:FR:FANTOIR": "75116S588E", "ref:FR:RATP": "1648", "ref:FR:STIF": "22109", "source": "STIF - 12/2016", "start_date": "1931", "station": "subway", "type:RATP": "metro", "wheelchair": "yes", "wikidata": "Q1459231", "wikipedia": "fr:Victor Hugo (m\u00e9tro de Paris)"}}, {"type": "node", "id": 3976260848, "lat": 48.874103, "lon": 2.2963406}, {"type": "node", "id": 3976260850, "lat": 48.8741599, "lon": 2.2963552}, {"type": "node", "id": 3976260873, "lat": 48.8751341, "lon": 2.290666}, {"type": "node", "id": 3976260875, "lat": 48.8751811, "lon": 2.2906995}, {"type": "node", "id": 3976260876, "lat": 48.8754941, "lon": 2.289557}, {"type": "node", "id": 3976260877, "lat": 48.8755059, "lon": 2.2895661}, {"type": "node", "id": 3976260878, "lat": 48.8755384, "lon": 2.2895897}, {"type": "node", "id": 4317589118, "lat": 48.8744088, "lon": 2.295508, "tags": {"STIF:zone": "1", "name": "Charles de Gaulle \u2014 \u00c9toile", "name:ru": "\u0428\u0430\u0440\u043b\u044c \u0434\u0435 \u0413\u043e\u043b\u043b\u044c \u2014 \u042d\u0442\u0443\u0430\u043b\u044c", "network": "M\u00e9tro de Paris;RATP", "operator": "RATP", "public_transport": "station", "railway": "station", "ref:FR:FANTOIR": "75117S147U;75108S147H", "ref:FR:RATP": "1953", "ref:FR:STIF": "22086", "source": "STIF - 12/2016", "station": "subway", "subway": "yes", "type:RATP": "metro", "wheelchair": "limited", "wikidata": "Q800624", "wikipedia": "fr:Charles de Gaulle - \u00c9toile (m\u00e9tro de Paris)"}}, {"type": "node", "id": 5155121948, "lat": 48.8751701, "lon": 2.2906911}, {"type": "node", "id": 5320262060, "lat": 48.8742672, "lon": 2.2948746, "tags": {"STIF:zone": "1", "addr:city": "Paris", "addr:postcode": "75016;75017", "addr:street": "Place Charles de Gaulle", "name": "Charles de Gaulle-\u00c9toile", "name:ru": "\u0428\u0430\u0440\u043b\u044c \u0434\u0435 \u0413\u043e\u043b\u043b\u044c \u2014 \u042d\u0442\u0443\u0430\u043b\u044c", "network": "RER Parisien;RATP", "note": "Limited to RER", "operator": "RATP", "public_transport": "station", "railway": "station", "ref:FR:RATP": "1954", "ref:FR:STIF": "412807", "source": "STIF - 12/2016", "start_date": "1970-01-19", "type:RATP": "rer", "uic_ref": "8775800", "wheelchair": "limited", "wikidata": "Q800624", "wikipedia": "fr:Gare Charles-de-Gaulle - \u00c9toile"}}, {"type": "node", "id": 6370094793, "lat": 48.8742278, "lon": 2.2963731}, {"type": "node", "id": 6370094794, "lat": 48.8745184, "lon": 2.2934224}, {"type": "node", "id": 6370094795, "lat": 48.8744495, "lon": 2.2934073}, {"type": "node", "id": 6370094815, "lat": 48.8751009, "lon": 2.2906437}, {"type": "node", "id": 6370094816, "lat": 48.8754635, "lon": 2.2895339}, {"type": "node", "id": 6370094817, "lat": 48.8753357, "lon": 2.2901322, "tags": {"STIF:zone": "1", "contact:city": "Paris", "contact:housenumber": "36;37", "contact:postcode": "75016;75017", "contact:street": "Avenue de la Grande Arm\u00e9e", "level": "-1;-2", "name": "Argentine", "name:ru": "\u0410\u0440\u0436\u0430\u043d\u0442\u0438\u043d", "network": "M\u00e9tro de Paris;RATP", "old_name": "Obligado", "operator": "RATP", "public_transport": "station", "railway": "station", "ref:FR:FANTOIR": "75117S012X", "ref:FR:RATP": "1986", "ref:FR:STIF": "22088", "source": "SSTIF - 12/2016;archives", "start_date": "1900-09-01", "station": "subway", "subway": "yes", "wheelchair": "no", "wikidata": "Q645400", "wikipedia": "fr:Argentine (m\u00e9tro de Paris)"}}, {"type": "node", "id": 6370094818, "lat": 48.87557, "lon": 2.289613}, {"type": "node", "id": 6370094819, "lat": 48.875213, "lon": 2.2907228}, {"type": "node", "id": 6370094820, "lat": 48.8755254, "lon": 2.2895804}, {"type": "node", "id": 6370094821, "lat": 48.8751483, "lon": 2.290676}, {"type": "node", "id": 6370094825, "lat": 48.8743851, "lon": 2.2933931}, {"type": "node", "id": 6370094826, "lat": 48.8740948, "lon": 2.2963376}, {"type": "node", "id": 6371144138, "lat": 48.8741425, "lon": 2.2963507}, {"type": "node", "id": 6371144139, "lat": 48.8741129, "lon": 2.2963435}, {"type": "node", "id": 6371144140, "lat": 48.8744021, "lon": 2.2933969}, {"type": "node", "id": 6371144141, "lat": 48.8744304, "lon": 2.293403}, {"type": "node", "id": 6528747892, "lat": 48.8794066, "lon": 2.3043565, "tags": {"STIF:zone": "1", "name": "Courcelles", "public_transport": "station", "railway": "station", "ref:FR:FANTOIR": "75108S104L", "ref:FR:RATP": "1892", "ref:FR:STIF": "22121", "source": "STIF - 12/2016", "station": "subway", "type:RATP": "metro", "wheelchair": "no", "wikidata": "Q646583", "wikipedia": "fr:Courcelles (m\u00e9tro de Paris)"}}, {"type": "node", "id": 8567808874, "lat": 48.8670347, "lon": 2.2901145, "tags": {"STIF:zone": "1", "addr:city": "Paris", "name": "Boissi\u00e8re", "name:ru": "\u0411\u0443\u0430\u0441\u044c\u0435\u0440", "public_transport": "station", "railway": "station", "ref:FR:FANTOIR": "75116S044N", "ref:FR:RATP": "2012", "ref:FR:STIF": "22180", "source": "STIF - 12/2016", "station": "subway", "subway": "yes", "type:RATP": "metro", "wheelchair": "no", "wikidata": "Q891105", "wikipedia": "fr:Boissi\u00e8re (m\u00e9tro de Paris)"}}, {"type": "node", "id": 9923798971, "lat": 48.8743942, "lon": 2.2933951}, {"type": "node", "id": 11324061054, "lat": 48.881167, "lon": 2.2854851, "tags": {"construction": "tram_stop", "name": "Anny Flore", "public_transport": "stop_position", "railway": "tram_stop", "tram": "yes"}}, {"type": "node", "id": 11324061055, "lat": 48.8811558, "lon": 2.2855314, "tags": {"construction": "tram_stop", "name": "Anny Flore", "public_transport": "stop_position", "railway": "tram_stop", "tram": "yes"}}, {"type": "node", "id": 11327653126, "lat": 48.8779174, "lon": 2.2839223, "tags": {"construction": "tram_stop", "name": "Porte Mailllot", "public_transport": "stop_position", "railway": "tram_stop", "tram": "yes"}}, {"type": "node", "id": 11327653127, "lat": 48.8779314, "lon": 2.2838786, "tags": {"construction": "tram_stop", "name": "Porte Mailllot", "public_transport": "stop_position", "railway": "tram_stop", "tram": "yes"}}, {"type": "way", "id": 680326898, "nodes": [6370094818, 3976260878, 6370094820, 3976260877, 3976260876, 6370094816, 6370094815, 3976260873, 6370094821, 5155121948, 3976260875, 6370094819, 6370094818], "tags": {"addr:city": "Paris", "addr:housenumber": "36;37", "addr:postcode": "75016;75017", "addr:street": "Avenue de la Grande Arm\u00e9e", "building": "yes", "layer": "-2", "level": "-2", "location": "underground", "name": "Argentine", "network": "M\u00e9tro de Paris;RATP", "operator": "RATP", "public_transport": "station", "railway": "station", "start_date": "1900-09-01", "station": "subway", "subway": "yes", "tunnel": "yes", "wheelchair": "no"}}, {"type": "way", "id": 680443640, "nodes": [6370094794, 6370094793, 3976260850, 6371144138, 6371144139, 3976260848, 6370094826, 6370094825, 9923798971, 6371144140, 6371144141, 6370094795, 6370094794], "tags": {"addr:city": "Paris", "addr:postcode": "75016;75017", "addr:street": "Place Charles de Gaulle", "building": "transportation", "building:levels:underground": "5", "fixme": "niveau (level)", "layer": "-5", "level": "-5", "location": "underground", "name": "Charles de Gaulle \u2014 \u00c9toile", "network": "RER Parisien;RATP", "operator": "RATP", "public_transport": "station", "railway": "station", "start_date": "1970-01-19", "tunnel": "yes", "wheelchair": "yes"}}]}