{"version": 0.6, "generator": "Overpass API 0.7.61.5 4133829e", "osm3s": {"timestamp_osm_base": "2023-12-09T23:49:30Z", "copyright": "The data included in this document is from www.openstreetmap.org. The data is made available under ODbL."}, "elements": [{"type": "node", "id": 27362238, "lat": 48.8809365, "lon": 2.2722281, "tags": {"STIF:zone": "1", "alt_name": "Les Sablons (Jardin d'acclimatation)", "layer": "-2", "location": "underground", "name": "Les Sablons", "name:ru": "\u041b\u0435-\u0421\u0430\u0431\u043b\u043e\u043d", "public_transport": "station", "railway": "station", "ref:FR:RATP": "1802", "ref:FR:STIF": "22100", "source": "STIF - 12/2016", "station": "subway", "subway": "yes", "type:RATP": "metro", "wheelchair": "yes", "wikidata": "Q649160", "wikipedia": "fr:Les Sablons (m\u00e9tro de Paris)"}}, {"type": "node", "id": 27362249, "lat": 48.8720617, "lon": 2.3004148, "tags": {"STIF:zone": "1", "name": "George V", "name:ru": "\u0413\u0435\u043e\u0440\u0433 V", "old_name": "Alma", "public_transport": "stop_position", "railway": "station", "ref:FR:FANTOIR": "75108S191F", "ref:FR:RATP": "1846", "ref:FR:STIF": "22084", "source": "STIF - 12/2016", "station": "subway", "subway": "yes", "type:RATP": "metro", "wheelchair": "no", "wikidata": "Q690975", "wikipedia": "fr:George V (m\u00e9tro de Paris)"}}, {"type": "node", "id": 27362251, "lat": 48.8690339, "lon": 2.3099266, "tags": {"STIF:zone": "1", "name": "Franklin D. Roosevelt", "name:ru": "\u0424\u0440\u0430\u043d\u043a\u043b\u0438\u043d \u0414. \u0420\u0443\u0437\u0432\u0435\u043b\u044c\u0442", "old_name": "Marbeuf Rond Point des Champs-\u00c9lys\u00e9es", "public_transport": "station", "railway": "station", "ref:FR:FANTOIR": "75108S169G", "ref:FR:RATP": "1924", "ref:FR:STIF": "21931", "source": "survey", "station": "subway", "subway": "yes", "type:RATP": "metro", "wheelchair": "no", "wikidata": "Q1445234", "wikipedia": "fr:Franklin D. Roosevelt (m\u00e9tro de Paris)"}}, {"type": "node", "id": 154788912, "lat": 48.8628261, "lon": 2.3138373, "tags": {"STIF:zone": "1", "name": "Invalides", "name:fr": "Invalides", "name:ru": "\u042d\u043d\u0432\u0430\u043b\u0438\u0434", "note": "Please do not add the tag public_transport=station, it is already on the way that defines the footprint of the station", "operator": "SNCF", "railway": "station", "ref:FR:RATP": "5602", "ref:FR:STIF": "41208", "ref:FR:uic8": "87393033", "train": "yes", "type:RATP": "rer", "uic_ref": "8739303", "wheelchair": "yes", "wikidata": "Q2208443", "wikipedia": "fr:Gare des Invalides"}}, {"type": "node", "id": 243496028, "lat": 48.8822428, "lon": 2.3213306, "tags": {"STIF:zone": "1", "name": "Rome", "public_transport": "station", "railway": "station", "ref:FR:FANTOIR": "75117S492U", "ref:FR:RATP": "1670", "ref:FR:STIF": "22110", "source": "STIF - 12/2016", "station": "subway", "subway": "yes", "survey:date": "2017-09-20", "type:RATP": "metro", "wheelchair": "no", "wikidata": "Q567806", "wikipedia": "fr:Rome (m\u00e9tro de Paris)"}}, {"type": "node", "id": 243496029, "lat": 48.8811181, "lon": 2.3149118, "tags": {"STIF:zone": "1", "name": "Villiers", "name:ru": "\u0412\u0438\u043b\u044c\u0435", "public_transport": "station", "railway": "station", "ref:FR:FANTOIR": "75117S589Z", "ref:FR:RATP": "1654", "ref:FR:STIF": "22027", "source": "STIF - 12/2016", "station": "subway", "subway": "yes", "type:RATP": "metro", "wheelchair": "no", "wikidata": "Q1511335", "wikipedia": "fr:Villiers (m\u00e9tro de Paris)"}}, {"type": "node", "id": 243496030, "lat": 48.8802919, "lon": 2.3085925, "tags": {"STIF:zone": "1", "check_date:wheelchair": "2023-09-02", "name": "Monceau", "public_transport": "station", "railway": "station", "ref:FR:FANTOIR": "75108S334L", "ref:FR:RATP": "1749", "ref:FR:STIF": "22117", "source": "STIF - 12/2016", "station": "subway", "type:RATP": "metro", "wheelchair": "no", "wikidata": "Q1717241", "wikipedia": "fr:Monceau (m\u00e9tro de Paris)"}}, {"type": "node", "id": 243496729, "lat": 48.8711774, "lon": 2.278372, "tags": {"STIF:zone": "1", "alt_name": "Porte Dauphine (Mar\u00e9chal de Lattre de Tassigny)", "name": "Porte Dauphine", "name:ru": "\u041f\u043e\u0440\u0442-\u0414\u043e\u0444\u0438\u043d", "public_transport": "station", "railway": "station", "ref:FR:FANTOIR": "75116S436P", "ref:FR:RATP": "1714", "station": "subway", "subway": "yes", "type:RATP": "metro", "wheelchair": "no", "wikidata": "Q1459245", "wikipedia": "fr:Porte Dauphine (m\u00e9tro de Paris)"}}, {"type": "node", "id": 243510678, "lat": 48.8828567, "lon": 2.3092267, "tags": {"STIF:zone": "1", "name": "Malesherbes", "name:ru": "\u041c\u0430\u043b\u044c\u0437\u0435\u0440\u0431", "public_transport": "station", "railway": "station", "ref:FR:FANTOIR": "75117S319F", "ref:FR:RATP": "1826", "ref:FR:STIF": "22031", "source": "STIF - 12/2016", "station": "subway", "subway": "yes", "type:RATP": "metro", "wheelchair": "no", "wikidata": "Q1784153", "wikipedia": "fr:Malesherbes (m\u00e9tro de Paris)"}}, {"type": "node", "id": 243510679, "lat": 48.884005, "lon": 2.3037188, "tags": {"STIF:zone": "1", "addr:city": "Paris", "heritage": "3", "heritage:operator": "mhs", "mhs:inscription_date": "1978", "name": "Wagram", "name:ru": "\u0412\u0430\u0433\u0440\u0430\u043c", "public_transport": "station", "railway": "station", "ref:FR:FANTOIR": "75117S601M", "ref:FR:RATP": "1658", "ref:FR:STIF": "22028", "ref:mhs": "PA00086728", "source": "STIF - 12/2016", "source:heritage": "data.gouv.fr:Minist\u00e8re de la Culture - 08/2011", "station": "subway", "subway": "yes", "type:RATP": "metro", "wheelchair": "no", "wikidata": "Q944564", "wikipedia": "fr:Wagram (m\u00e9tro de Paris)"}}, {"type": "node", "id": 243510680, "lat": 48.8848146, "lon": 2.2982736, "tags": {"STIF:zone": "1", "name": "Pereire", "name:ru": "\u041f\u0435\u0440\u0435\u0440", "public_transport": "station", "railway": "station", "ref:FR:FANTOIR": "75117S409D", "ref:FR:RATP": "1740", "ref:FR:STIF": "22021;463228", "station": "subway", "subway": "yes", "type:RATP": "metro", "wheelchair": "no", "wikidata": "Q670081", "wikipedia": "fr:Pereire (m\u00e9tro de Paris)"}}, {"type": "node", "id": 255162203, "lat": 48.8882803, "lon": 2.2884734, "tags": {"STIF:zone": "1", "name": "Louise Michel", "name:ru": "\u041b\u0443\u0438\u0437 \u041c\u0438\u0448\u0435\u043b\u044c", "old_name": "Vallier", "public_transport": "stop_position", "railway": "station", "ref:FR:RATP": "1807", "ref:FR:STIF": "22034", "source": "STIF - 12/2016", "station": "subway", "subway": "yes", "type:RATP": "metro", "wikidata": "Q1785287", "wikipedia": "fr:Louise Michel (m\u00e9tro de Paris)"}}, {"type": "node", "id": 256897554, "lat": 48.874471, "lon": 2.3217921, "tags": {"STIF:zone": "1", "name": "Saint-Augustin", "public_transport": "stop_position", "railway": "station", "ref:FR:FANTOIR": "75108S511D", "ref:FR:RATP": "1681", "ref:FR:STIF": "21911", "source": "STIF - 12/2016", "station": "subway", "subway": "yes", "type:RATP": "metro", "wheelchair": "no", "wikidata": "Q649273", "wikipedia": "fr:Saint-Augustin (m\u00e9tro de Paris)"}}, {"type": "node", "id": 260765385, "lat": 48.8716801, "lon": 2.2935185, "tags": {"STIF:zone": "1", "name": "Kl\u00e9ber", "public_transport": "station", "railway": "station", "ref:FR:FANTOIR": "75116S271K", "ref:FR:RATP": "1867", "ref:FR:STIF": "22170", "source": "STIF - 12/2016", "station": "subway", "subway": "yes", "type:RATP": "metro", "wheelchair": "no", "wikidata": "Q254308", "wikipedia": "fr:Kl\u00e9ber (m\u00e9tro de Paris)"}}, {"type": "node", "id": 260765390, "lat": 48.8575009, "lon": 2.285778, "tags": {"STIF:zone": "1", "addr:city": "Paris", "name": "Passy", "name:ru": "\u041f\u0430\u0441\u0441\u0438", "operator": "RATP", "public_transport": "station", "railway": "station", "ref:FR:FANTOIR": "75116S405F", "ref:FR:RATP": "1780", "ref:FR:STIF": "22165", "source": "STIF - 12/2016", "station": "subway", "subway": "yes", "type:RATP": "metro", "wheelchair": "yes", "wikidata": "Q1576609", "wikipedia": "fr:Passy (m\u00e9tro de Paris)"}}, {"type": "node", "id": 260767422, "lat": 48.8646177, "lon": 2.2937179, "tags": {"STIF:zone": "1", "name": "I\u00e9na", "public_transport": "stop_position", "railway": "station", "ref:FR:FANTOIR": "75116S241C", "ref:FR:RATP": "1858", "ref:FR:STIF": "21927", "source": "STIF - 12/2016", "station": "subway", "subway": "yes", "type:RATP": "metro", "wheelchair": "no", "wikidata": "Q1237945", "wikipedia": "fr:I\u00e9na (m\u00e9tro de Paris)"}}, {"type": "node", "id": 260767423, "lat": 48.8640672, "lon": 2.278149, "tags": {"STIF:zone": "1", "alt_name": "Rue de la Pompe (Avenue Georges Mandel)", "name": "Rue de la Pompe", "public_transport": "stop_position", "railway": "station", "ref:FR:FANTOIR": "75116S421Y", "ref:FR:RATP": "1672", "ref:FR:STIF": "21908", "source": "STIF - 12/2016", "station": "subway", "subway": "yes", "type:RATP": "metro", "wheelchair": "no", "wikidata": "Q771548", "wikipedia": "fr:Rue de la Pompe (m\u00e9tro de Paris)"}}, {"type": "node", "id": 260767424, "lat": 48.8579754, "lon": 2.274062, "tags": {"STIF:zone": "1", "check_date:wheelchair": "2021-10-28", "name": "La Muette", "name:ru": "\u041b\u044f-\u041c\u044e\u044d\u0442", "public_transport": "stop_position", "railway": "station", "ref:FR:FANTOIR": "75116S340K", "ref:FR:RATP": "1876", "ref:FR:STIF": "21929", "source": "STIF - 12/2016", "station": "subway", "subway": "yes", "type:RATP": "metro", "wheelchair": "no", "wikidata": "Q168170", "wikipedia": "fr:La Muette (m\u00e9tro de Paris)"}}, {"type": "node", "id": 260769132, "lat": 48.8648683, "lon": 2.300292, "tags": {"STIF:zone": "1", "name": "Alma-Marceau", "public_transport": "stop_position", "railway": "station", "ref:FR:FANTOIR": "75108S004C", "ref:FR:RATP": "1980", "ref:FR:STIF": "21935", "source": "STIF - 12/2016", "station": "subway", "subway": "yes", "type:RATP": "metro", "wheelchair": "no", "wikidata": "Q1768692", "wikipedia": "fr:Alma - Marceau (m\u00e9tro de Paris)"}}, {"type": "node", "id": 260769651, "lat": 48.8723362, "lon": 2.3100827, "tags": {"STIF:zone": "1", "name": "Saint-Philippe du Roule", "public_transport": "stop_position", "railway": "station", "ref:FR:FANTOIR": "75108S524T", "ref:FR:RATP": "1696", "ref:FR:STIF": "21912", "source": "STIF - 12/2016", "station": "subway", "subway": "yes", "type:RATP": "metro", "wheelchair": "no", "wikidata": "Q1784247", "wikipedia": "fr:Saint-Philippe du Roule (m\u00e9tro de Paris)"}}, {"type": "node", "id": 260769652, "lat": 48.873719, "lon": 2.3145029, "tags": {"STIF:zone": "1", "name": "Miromesnil", "name:fr": "Miromesnil", "name:ru": "\u041c\u0438\u0440\u043e\u043c\u0435\u043d\u0438\u043b\u044c", "public_transport": "station", "railway": "station", "ref:FR:FANTOIR": "75108P013N;75108P014P", "ref:FR:RATP": "1747", "ref:FR:STIF": "21924", "source": "STIF - 12/2016", "station": "subway", "type:RATP": "metro", "wheelchair": "yes", "wikidata": "Q1578045", "wikipedia": "fr:Miromesnil (m\u00e9tro de Paris)"}}, {"type": "node", "id": 261611884, "lat": 48.8905757, "lon": 2.3202004, "tags": {"STIF:zone": "1", "addr:city": "Paris", "addr:postcode": "75017", "name": "Brochant", "network": "M\u00e9tro de Paris", "operator": "RATP", "public_transport": "station", "railway": "station", "ref:FR:FANTOIR": "75117S054T", "ref:FR:RATP": "1931", "ref:FR:STIF": "22231", "source": "STIF - 12/2016", "start_date": "1912-01-20", "station": "subway", "subway": "yes", "type:RATP": "metro", "wheelchair": "no", "wikidata": "Q923435", "wikipedia": "fr:Brochant (m\u00e9tro de Paris)"}}, {"type": "node", "id": 263497271, "lat": 48.860697, "lon": 2.3210551, "tags": {"STIF:zone": "1", "name": "Assembl\u00e9e Nationale", "old_name": "Chambre des D\u00e9put\u00e9s", "railway": "station", "ref:FR:FANTOIR": "75107S077N", "ref:FR:RATP": "1989", "ref:FR:STIF": "22060", "source": "STIF - 12/2016", "station": "subway", "type:RATP": "metro", "wheelchair": "no", "wikidata": "Q740744", "wikipedia": "fr:Assembl\u00e9e nationale (m\u00e9tro de Paris)"}}, {"type": "node", "id": 264473011, "lat": 48.8575602, "lon": 2.3103234, "tags": {"STIF:zone": "1", "addr:city": "Paris", "name": "La Tour Maubourg", "name:ru": "\u041b\u044f\u0442\u0443\u0440-\u041c\u043e\u0431\u0443\u0440", "public_transport": "station", "railway": "station", "ref:FR:FANTOIR": "75107S285P", "ref:FR:RATP": "1008;54166", "station": "subway", "subway": "yes", "type:RATP": "metro", "wheelchair": "no", "wikidata": "Q1514082", "wikipedia": "fr:La Tour-Maubourg (m\u00e9tro de Paris)"}}, {"type": "node", "id": 282635141, "lat": 48.8678551, "lon": 2.3138686, "tags": {"STIF:zone": "1", "name": "Champs-\u00c9lys\u00e9es - Clemenceau", "name:ru": "\u0428\u0430\u043d\u0437-\u042d\u043b\u0438\u0437\u0435 \u2014 \u041a\u043b\u0435\u043c\u0430\u043d\u0441\u043e", "public_transport": "station", "railway": "station", "ref:FR:FANTOIR": "75108S080K", "ref:FR:RATP": "1949", "ref:FR:STIF": "22090", "source": "STIF - 12/2016", "station": "subway", "subway": "yes", "type:RATP": "metro", "wheelchair": "no", "wikidata": "Q1061527", "wikipedia": "fr:Champs-\u00c9lys\u00e9es - Clemenceau (m\u00e9tro de Paris)"}}, {"type": "node", "id": 838533003, "lat": 48.8782859, "lon": 2.2990808, "tags": {"STIF:zone": "1", "name": "Ternes", "public_transport": "station", "railway": "station", "ref:FR:FANTOIR": "75108S563K", "ref:FR:RATP": "1635", "ref:FR:STIF": "22108", "source": "cadastre-dgi-fr source : Direction G\u00e9n\u00e9rale des Imp\u00f4ts - Cadastre. Mise \u00e0 jour : 2010", "station": "subway", "subway": "yes", "type:RATP": "metro", "wheelchair": "no", "wikidata": "Q635744", "wikipedia": "fr:Ternes (m\u00e9tro de Paris)"}}, {"type": "node", "id": 1981222779, "lat": 48.8787676, "lon": 2.3222643, "tags": {"STIF:zone": "1", "name": "Europe", "note": "\"Simone-Veil\" est un sous-titre, le nom de la station reste \"Europe\"", "public_transport": "station", "railway": "station", "ref:FR:FANTOIR": "75108S148J", "ref:FR:RATP": "1915", "ref:FR:STIF": "22032", "source": "cadastre-dgi-fr source : Direction G\u00e9n\u00e9rale des Imp\u00f4ts - Cadastre. Mise \u00e0 jour : 2012", "station": "subway", "subway": "yes", "type:RATP": "metro", "wheelchair": "no", "wikidata": "Q766618"}}, {"type": "node", "id": 2493410447, "lat": 48.8779379, "lon": 2.2819557, "tags": {"STIF:zone": "1", "addr:city": "Paris", "addr:postcode": "75017", "addr:street": "Place de la Porte Maillot", "layer": "-2", "name": "Porte Maillot", "name:ru": "\u041f\u043e\u0440\u0442-\u041c\u0430\u0439\u043e", "network": "M\u00e9tro de Paris;RATP", "operator": "RATP", "public_transport": "station", "railway": "station", "ref:FR:FANTOIR": "75116S441V;75117S441N", "ref:FR:RATP": "1716", "ref:FR:STIF": "22078;463257", "start_date": "1900-07-19", "station": "subway", "subway": "yes", "train": "yes", "type:RATP": "metro", "wheelchair": "yes", "wikidata": "Q1344536", "wikipedia": "fr:Porte Maillot (m\u00e9tro de Paris)"}}, {"type": "node", "id": 3414141478, "lat": 48.8567083, "lon": 2.2897559, "tags": {"STIF:zone": "1", "name": "Champ de Mars - Tour Eiffel", "note": "Please do not add the tag public_transport=station, it is already on the way that defines the footprint of the station", "official_name": "CHAMP DE MARS", "operator": "SNCF", "railway": "station", "ref": "RER C", "ref:FR:RATP": "5600", "ref:FR:STIF": "41210", "ref:FR:uic8": "87393058", "ref:SNCF": "RER", "ref:SNCF:RER": "C", "train": "yes", "type:RATP": "rer", "uic_ref": "8739305", "wheelchair": "limited", "wikidata": "Q800620", "wikipedia": "fr:Gare du Champ de Mars - Tour Eiffel"}}, {"type": "node", "id": 3414141480, "lat": 48.8625482, "lon": 2.2999919, "tags": {"STIF:zone": "1", "name": "Pont de l'Alma", "note": "Please do not add the tag public_transport=station, it is already on the way that defines the footprint of the station", "official_name": "PONT DE L ALMA", "operator": "SNCF", "railway": "station", "ref": "RER C", "ref:FR:RATP": "5601", "ref:FR:STIF": "41209", "ref:FR:uic8": "87393041", "ref:SNCF": "RER", "ref:SNCF:RER": "C", "source:end_date": "https://malignec.transilien.com/2017/07/25/fermeture-de-gare-pont-de-lalma/", "train": "yes", "type:RATP": "rer", "uic_ref": "8739304", "wheelchair": "yes", "wikidata": "Q1858826", "wikipedia": "fr:Gare du Pont de l'Alma"}}, {"type": "node", "id": 3493828493, "lat": 48.8705615, "lon": 2.2752552, "tags": {"STIF:zone": "1", "name": "Avenue Foch", "network": "Transilien", "note": "Please do not add the tag public_transport=station, it is already on the way that defines the footprint of the station", "operator": "SNCF", "railway": "station", "ref:FR:STIF": "41132", "ref:FR:uic8": "87381038", "train": "yes", "type:RATP": "rer", "uic_ref": "8738103", "wikidata": "Q800418", "wikipedia": "fr:Gare de l'avenue Foch"}}, {"type": "node", "id": 3493828593, "lat": 48.8645533, "lon": 2.2721528, "tags": {"STIF:zone": "1", "name": "Avenue Henri Martin", "network": "Transilien", "note": "Please do not add the tag public_transport=station, it is already on the way that defines the footprint of the station", "operator": "SNCF", "railway": "station", "ref:FR:STIF": "41133", "ref:FR:uic8": "87381046", "train": "yes", "type:RATP": "rer", "uic_ref": "8738104", "wheelchair": "yes", "wikidata": "Q2266818", "wikipedia": "fr:Gare de l'avenue Henri Martin"}}, {"type": "node", "id": 3493829093, "lat": 48.8855014, "lon": 2.2981866, "tags": {"STIF:zone": "1", "name": "Pereire - Levallois", "note": "Please do not add the tag public_transport=station, it is already on the way that defines the footprint of the station", "operator": "SNCF", "railway": "station", "ref:FR:STIF": "22021", "ref:FR:uic8": "87381012", "source": "STIF - 12/2016", "train": "yes", "type:RATP": "rer", "uic_ref": "8738101", "wikidata": "Q1961971", "wikipedia": "fr:Gare de Pereire - Levallois"}}, {"type": "node", "id": 3580789992, "lat": 48.8780667, "lon": 2.2846161, "tags": {"STIF:zone": "1", "name": "Neuilly - Porte Maillot", "note": "Please do not add the tag public_transport=station, it is already on the way that defines the footprint of the station", "note:fr": "RER C", "pictogram": "yes", "railway": "station", "ref:FR:RATP": "5643", "ref:FR:STIF": "41131", "ref:FR:uic8": "87381020", "signage": "good", "train": "yes", "type:RATP": "rer", "uic_ref": "8738102", "wheelchair": "yes", "wikidata": "Q384902", "wikipedia": "fr:Gare de Neuilly - Porte Maillot"}}, {"type": "node", "id": 3703620036, "lat": 48.8699556, "lon": 2.2860385, "tags": {"STIF:zone": "1", "name": "Victor Hugo", "name:ru": "\u0412\u0438\u043a\u0442\u043e\u0440 \u0413\u044e\u0433\u043e", "public_transport": "station", "railway": "station", "ref:FR:FANTOIR": "75116S588E", "ref:FR:RATP": "1648", "ref:FR:STIF": "22109", "source": "STIF - 12/2016", "start_date": "1931", "station": "subway", "type:RATP": "metro", "wheelchair": "yes", "wikidata": "Q1459231", "wikipedia": "fr:Victor Hugo (m\u00e9tro de Paris)"}}, {"type": "node", "id": 3763562357, "lat": 48.8662052, "lon": 2.3223767, "tags": {"STIF:zone": "1", "name": "Concorde", "name:de": "Concorde", "name:es": "Concorde", "name:it": "Concorde", "name:ko": "\ucf69\ucf54\ub974\ub4dc \uad11\uc7a5", "name:pt": "Concorde", "name:ro": "Concorde", "name:ru": "\u041a\u043e\u043d\u043a\u043e\u0440\u0434", "operator": "RATP", "public_transport": "station", "railway": "station", "ref:FR:FANTOIR": "75108S099F;75101S099G", "ref:FR:RATP": "1885", "ref:FR:STIF": "22085", "source": "STIF - 12/2016", "station": "subway", "type:RATP": "metro", "wheelchair": "no", "wikidata": "Q970075", "wikipedia": "fr:Concorde (m\u00e9tro de Paris)"}}, {"type": "node", "id": 3931967758, "lat": 48.8608923, "lon": 2.3144984, "tags": {"STIF:zone": "1", "name": "Invalides", "name:ru": "\u042d\u043d\u0432\u0430\u043b\u0438\u0434", "public_transport": "station", "railway": "station", "ref:FR:FANTOIR": "75107S242T", "ref:FR:RATP": "1857", "ref:FR:STIF": "22185", "source": "STIF - 12/2016", "station": "subway", "subway": "yes", "type:RATP": "metro", "wheelchair": "no", "wikidata": "Q1528456", "wikipedia": "fr:Invalides (m\u00e9tro de Paris)"}}, {"type": "node", "id": 3976260848, "lat": 48.874103, "lon": 2.2963406}, {"type": "node", "id": 3976260850, "lat": 48.8741599, "lon": 2.2963552}, {"type": "node", "id": 3976260873, "lat": 48.8751341, "lon": 2.290666}, {"type": "node", "id": 3976260875, "lat": 48.8751811, "lon": 2.2906995}, {"type": "node", "id": 3976260876, "lat": 48.8754941, "lon": 2.289557}, {"type": "node", "id": 3976260877, "lat": 48.8755059, "lon": 2.2895661}, {"type": "node", "id": 3976260878, "lat": 48.8755384, "lon": 2.2895897}, {"type": "node", "id": 4058783101, "lat": 48.863045, "lon": 2.2871938, "tags": {"STIF:zone": "1", "name": "Trocad\u00e9ro", "name:en": "Trocad\u00e9ro", "name:ja": "\u30c8\u30ed\u30ab\u30c7\u30ed\u99c5", "name:ru": "\u0422\u0440\u043e\u043a\u0430\u0434\u0435\u0440\u043e", "name:zh": "\u6258\u5361\u5fb7\u7f85\u7ad9", "public_transport": "station", "railway": "station", "ref:FR:FANTOIR": "75116S566F", "ref:FR:RATP": "1639", "ref:FR:STIF": "21917", "source": "STIF - 12/2016", "station": "subway", "subway": "yes", "train": "yes", "type:RATP": "metro", "wheelchair": "no", "wikidata": "Q1272925", "wikipedia": "fr:Trocad\u00e9ro (m\u00e9tro de Paris)"}}, {"type": "node", "id": 4317589118, "lat": 48.8744088, "lon": 2.295508, "tags": {"STIF:zone": "1", "name": "Charles de Gaulle \u2014 \u00c9toile", "name:ru": "\u0428\u0430\u0440\u043b\u044c \u0434\u0435 \u0413\u043e\u043b\u043b\u044c \u2014 \u042d\u0442\u0443\u0430\u043b\u044c", "network": "M\u00e9tro de Paris;RATP", "operator": "RATP", "public_transport": "station", "railway": "station", "ref:FR:FANTOIR": "75117S147U;75108S147H", "ref:FR:RATP": "1953", "ref:FR:STIF": "22086", "source": "STIF - 12/2016", "station": "subway", "subway": "yes", "type:RATP": "metro", "wheelchair": "limited", "wikidata": "Q800624", "wikipedia": "fr:Charles de Gaulle - \u00c9toile (m\u00e9tro de Paris)"}}, {"type": "node", "id": 5155121948, "lat": 48.8751701, "lon": 2.2906911}, {"type": "node", "id": 5320262060, "lat": 48.8742672, "lon": 2.2948746, "tags": {"STIF:zone": "1", "addr:city": "Paris", "addr:postcode": "75016;75017", "addr:street": "Place Charles de Gaulle", "name": "Charles de Gaulle-\u00c9toile", "name:ru": "\u0428\u0430\u0440\u043b\u044c \u0434\u0435 \u0413\u043e\u043b\u043b\u044c \u2014 \u042d\u0442\u0443\u0430\u043b\u044c", "network": "RER Parisien;RATP", "note": "Limited to RER", "operator": "RATP", "public_transport": "station", "railway": "station", "ref:FR:RATP": "1954", "ref:FR:STIF": "412807", "source": "STIF - 12/2016", "start_date": "1970-01-19", "type:RATP": "rer", "uic_ref": "8775800", "wheelchair": "limited", "wikidata": "Q800624", "wikipedia": "fr:Gare Charles-de-Gaulle - \u00c9toile"}}, {"type": "node", "id": 5771575163, "lat": 48.8880133, "lon": 2.3137814, "tags": {"STIF:zone": "1", "air_conditioning": "no", "internet_access": "wlan", "name": "Pont Cardinet", "network": "Transilien", "note": "Please do not add the tag public_transport=station, it is already on the way that defines the footprint of the station", "official_name": "PONT CARDINET", "operator": "SNCF", "railway": "station", "ref": "973 000", "ref:FR:STIF": "411351", "ref:FR:uic8": "87381111", "train": "yes", "uic_ref": "8738111", "website": "https://www.transilien.com/fr/gare/pont-cardinet-8738111", "wheelchair": "no", "wikidata": "Q2298114", "wikipedia": "fr:Gare de Pont-Cardinet"}}, {"type": "node", "id": 6370094793, "lat": 48.8742278, "lon": 2.2963731}, {"type": "node", "id": 6370094794, "lat": 48.8745184, "lon": 2.2934224}, {"type": "node", "id": 6370094795, "lat": 48.8744495, "lon": 2.2934073}, {"type": "node", "id": 6370094815, "lat": 48.8751009, "lon": 2.2906437}, {"type": "node", "id": 6370094816, "lat": 48.8754635, "lon": 2.2895339}, {"type": "node", "id": 6370094817, "lat": 48.8753357, "lon": 2.2901322, "tags": {"STIF:zone": "1", "contact:city": "Paris", "contact:housenumber": "36;37", "contact:postcode": "75016;75017", "contact:street": "Avenue de la Grande Arm\u00e9e", "level": "-1;-2", "name": "Argentine", "name:ru": "\u0410\u0440\u0436\u0430\u043d\u0442\u0438\u043d", "network": "M\u00e9tro de Paris;RATP", "old_name": "Obligado", "operator": "RATP", "public_transport": "station", "railway": "station", "ref:FR:FANTOIR": "75117S012X", "ref:FR:RATP": "1986", "ref:FR:STIF": "22088", "source": "SSTIF - 12/2016;archives", "start_date": "1900-09-01", "station": "subway", "subway": "yes", "wheelchair": "no", "wikidata": "Q645400", "wikipedia": "fr:Argentine (m\u00e9tro de Paris)"}}, {"type": "node", "id": 6370094818, "lat": 48.87557, "lon": 2.289613}, {"type": "node", "id": 6370094819, "lat": 48.875213, "lon": 2.2907228}, {"type": "node", "id": 6370094820, "lat": 48.8755254, "lon": 2.2895804}, {"type": "node", "id": 6370094821, "lat": 48.8751483, "lon": 2.290676}, {"type": "node", "id": 6370094825, "lat": 48.8743851, "lon": 2.2933931}, {"type": "node", "id": 6370094826, "lat": 48.8740948, "lon": 2.2963376}, {"type": "node", "id": 6371144138, "lat": 48.8741425, "lon": 2.2963507}, {"type": "node", "id": 6371144139, "lat": 48.8741129, "lon": 2.2963435}, {"type": "node", "id": 6371144140, "lat": 48.8744021, "lon": 2.2933969}, {"type": "node", "id": 6371144141, "lat": 48.8744304, "lon": 2.293403}, {"type": "node", "id": 6528747892, "lat": 48.8794066, "lon": 2.3043565, "tags": {"STIF:zone": "1", "name": "Courcelles", "public_transport": "station", "railway": "station", "ref:FR:FANTOIR": "75108S104L", "ref:FR:RATP": "1892", "ref:FR:STIF": "22121", "source": "STIF - 12/2016", "station": "subway", "type:RATP": "metro", "wheelchair": "no", "wikidata": "Q646583", "wikipedia": "fr:Courcelles (m\u00e9tro de Paris)"}}, {"type": "node", "id": 6529762403, "lat": 48.856567, "lon": 2.2751737, "tags": {"STIF:zone": "1", "name": "Boulainvilliers", "note": "Please do not add the tag public_transport=station, it is already on the way that defines the footprint of the station", "operator": "SNCF", "railway": "station", "ref:FR:RATP": "5586", "ref:FR:STIF": "41294", "ref:FR:uic8": "87543181", "ref:structurae": "20027725", "train": "yes", "type:RATP": "rer", "uic_ref": "8754318", "wheelchair": "yes", "wikidata": "Q2422009", "wikipedia": "fr:Gare de Boulainvilliers"}}, {"type": "node", "id": 8290586167, "lat": 48.8895133, "lon": 2.3153423, "tags": {"STIF:zone": "1", "name": "Pont Cardinet", "network": "RATP", "official_name": "PONT CARDINET", "opening_date": "2020-12-14", "operator": "RATP", "public_transport": "station", "railway": "station", "ref:FR:STIF": "411351", "source": "survey", "station": "subway", "subway": "yes", "uic_ref": "8738111", "wheelchair": "yes", "wikidata": "Q3396323", "wikipedia": "fr:Pont-Cardinet (m\u00e9tro de Paris)"}}, {"type": "node", "id": 8567808874, "lat": 48.8670347, "lon": 2.2901145, "tags": {"STIF:zone": "1", "addr:city": "Paris", "name": "Boissi\u00e8re", "name:ru": "\u0411\u0443\u0430\u0441\u044c\u0435\u0440", "public_transport": "station", "railway": "station", "ref:FR:FANTOIR": "75116S044N", "ref:FR:RATP": "2012", "ref:FR:STIF": "22180", "source": "STIF - 12/2016", "station": "subway", "subway": "yes", "type:RATP": "metro", "wheelchair": "no", "wikidata": "Q891105", "wikipedia": "fr:Boissi\u00e8re (m\u00e9tro de Paris)"}}, {"type": "node", "id": 9142503438, "lat": 48.8569057, "lon": 2.3150837, "tags": {"STIF:zone": "1", "name": "Varenne", "name:ru": "\u0412\u0430\u0440\u0435\u043d", "public_transport": "station", "railway": "station", "ref:FR:FANTOIR": "75107S582M", "ref:FR:RATP": "1644", "ref:FR:STIF": "22226", "source": "STIF - 12/2016", "station": "subway", "subway": "yes", "type:RATP": "metro", "wheelchair": "no", "wikidata": "Q614636", "wikipedia": "fr:Varenne (m\u00e9tro de Paris)"}}, {"type": "node", "id": 9923798971, "lat": 48.8743942, "lon": 2.2933951}, {"type": "way", "id": 680326898, "nodes": [6370094818, 3976260878, 6370094820, 3976260877, 3976260876, 6370094816, 6370094815, 3976260873, 6370094821, 5155121948, 3976260875, 6370094819, 6370094818], "tags": {"addr:city": "Paris", "addr:housenumber": "36;37", "addr:postcode": "75016;75017", "addr:street": "Avenue de la Grande Arm\u00e9e", "building": "yes", "layer": "-2", "level": "-2", "location": "underground", "name": "Argentine", "network": "M\u00e9tro de Paris;RATP", "operator": "RATP", "public_transport": "station", "railway": "station", "start_date": "1900-09-01", "station": "subway", "subway": "yes", "tunnel": "yes", "wheelchair": "no"}}, {"type": "way", "id": 680443640, "nodes": [6370094794, 6370094793, 3976260850, 6371144138, 6371144139, 3976260848, 6370094826, 6370094825, 9923798971, 6371144140, 6371144141, 6370094795, 6370094794], "tags": {"addr:city": "Paris", "addr:postcode": "75016;75017", "addr:street": "Place Charles de Gaulle", "building": "transportation", "building:levels:underground": "5", "fixme": "niveau (level)", "layer": "-5", "level": "-5", "location": "underground", "name": "Charles de Gaulle \u2014 \u00c9toile", "network": "RER Parisien;RATP", "operator": "RATP", "public_transport": "station", "railway": "station", "start_date": "1970-01-19", "tunnel": "yes", "wheelchair": "yes"}}]}