{"version": 0.6, "generator": "Overpass API 0.7.61.5 4133829e", "osm3s": {"timestamp_osm_base": "2023-12-09T22:50:21Z", "copyright": "The data included in this document is from www.openstreetmap.org. The data is made available under ODbL."}, "elements": [{"type": "node", "id": 5458808298, "lat": 48.8308606, "lon": 2.3794001}, {"type": "node", "id": 5458808299, "lat": 48.8309929, "lon": 2.3797163}, {"type": "node", "id": 5458808300, "lat": 48.8309794, "lon": 2.3797294}, {"type": "node", "id": 5458808301, "lat": 48.830847, "lon": 2.3794132}, {"type": "node", "id": 5470835633, "lat": 48.8211383, "lon": 2.3787242, "tags": {"amenity": "bicycle_rental", "capacity": "19", "name": "Pierre Joseph Desault", "network": "V\u00e9lib\u2019", "operator": "Smovengo", "ref": "13120", "source": "Autolib Velib M\u00e9tropole - 2022-03", "wikidata": "Q86253329"}}, {"type": "node", "id": 5909410894, "lat": 48.8219643, "lon": 2.3685406, "tags": {"amenity": "bicycle_rental", "bicycle_rental": "docking_station", "brand": "V\u00e9lib\u2019 M\u00e9tropole", "brand:wikidata": "Q1120762", "brand:wikipedia": "fr:V\u00e9lib' M\u00e9tropole", "capacity": "50", "name": "Porte d'Ivry", "network": "V\u00e9lib\u2019 M\u00e9tropole", "network:wikidata": "Q1120762", "network:wikipedia": "fr:V\u00e9lib' M\u00e9tropole", "operator": "Smovengo", "operator:wikidata": "Q47008427", "operator:wikipedia": "fr:Smovengo", "ref": "13041", "source": "Autolib Velib M\u00e9tropole - 2021-05", "wikidata": "Q86253348"}}, {"type": "node", "id": 5909496692, "lat": 48.8232281, "lon": 2.3660212, "tags": {"amenity": "bicycle_rental", "bicycle_rental": "docking_station", "brand": "V\u00e9lib\u2019 M\u00e9tropole", "brand:wikidata": "Q1120762", "brand:wikipedia": "fr:V\u00e9lib' M\u00e9tropole", "capacity": "18", "name": "Ivry - Simone Weil", "network": "V\u00e9lib\u2019 M\u00e9tropole", "network:wikidata": "Q1120762", "network:wikipedia": "fr:V\u00e9lib' M\u00e9tropole", "operator": "Smovengo", "operator:wikidata": "Q47008427", "operator:wikipedia": "fr:Smovengo", "ref": "13039", "source": "Autolib Velib M\u00e9tropole - 04/2019", "wikidata": "Q86253367"}}, {"type": "node", "id": 5914756484, "lat": 48.826922, "lon": 2.3652354, "tags": {"amenity": "bicycle_rental", "bicycle_rental": "docking_station", "brand": "V\u00e9lib\u2019 M\u00e9tropole", "brand:wikidata": "Q1120762", "brand:wikipedia": "fr:V\u00e9lib' M\u00e9tropole", "capacity": "36", "name": "Olympiades", "network": "V\u00e9lib\u2019 M\u00e9tropole", "network:wikidata": "Q1120762", "network:wikipedia": "fr:V\u00e9lib' M\u00e9tropole", "operator": "Smovengo", "operator:wikidata": "Q47008427", "operator:wikipedia": "fr:Smovengo", "ref": "13036", "source": "Autolib Velib M\u00e9tropole - 04/2020", "wikidata": "Q86253331"}}, {"type": "node", "id": 5914762346, "lat": 48.8236351, "lon": 2.3615758, "tags": {"amenity": "bicycle_rental", "bicycle_rental": "docking_station", "brand": "V\u00e9lib\u2019 M\u00e9tropole", "brand:wikidata": "Q1120762", "brand:wikipedia": "fr:V\u00e9lib' M\u00e9tropole", "capacity": "33", "name": "Vistule - Choisy", "network": "V\u00e9lib\u2019 M\u00e9tropole", "network:wikidata": "Q1120762", "network:wikipedia": "fr:V\u00e9lib' M\u00e9tropole", "operator": "Smovengo", "operator:wikidata": "Q47008427", "operator:wikipedia": "fr:Smovengo", "ref": "13113", "source": "Autolib Velib M\u00e9tropole - 04/2019", "wikidata": "Q86253290"}}, {"type": "node", "id": 5952258883, "lat": 48.8219109, "lon": 2.363348, "tags": {"amenity": "bicycle_rental", "bicycle_rental": "docking_station", "brand": "V\u00e9lib\u2019 M\u00e9tropole", "brand:wikidata": "Q1120762", "brand:wikipedia": "fr:V\u00e9lib' M\u00e9tropole", "capacity": "25", "name": "Choisy - Malmaisons", "network": "V\u00e9lib\u2019 M\u00e9tropole", "network:wikidata": "Q1120762", "network:wikipedia": "fr:V\u00e9lib' M\u00e9tropole", "note": "capacit\u00e9=25, la valeur 23 dans le fichier opendata est fausse", "operator": "Smovengo", "operator:wikidata": "Q47008427", "operator:wikipedia": "fr:Smovengo", "ref": "13038", "source": "survey 10/2018", "wikidata": "Q86253392"}}, {"type": "node", "id": 6045599685, "lat": 48.8286476, "lon": 2.3531199, "tags": {"amenity": "bicycle_rental", "bicycle_rental": "docking_station", "brand": "V\u00e9lib\u2019 M\u00e9tropole", "brand:wikidata": "Q1120762", "brand:wikipedia": "fr:V\u00e9lib' M\u00e9tropole", "capacity": "28", "name": "Bobillot - Moulin des Pr\u00e9s", "network": "V\u00e9lib\u2019 M\u00e9tropole", "network:wikidata": "Q1120762", "network:wikipedia": "fr:V\u00e9lib' M\u00e9tropole", "operator": "Smovengo", "operator:wikidata": "Q47008427", "operator:wikipedia": "fr:Smovengo", "ref": "13023", "source": "Autolib Velib M\u00e9tropole - 04/2019", "website": "https://www.velib-metropole.fr/", "wikidata": "Q86253444"}}, {"type": "node", "id": 6272762982, "lat": 48.8259105, "lon": 2.3602008, "tags": {"amenity": "bicycle_rental", "bicycle_rental": "docking_station", "brand": "V\u00e9lib\u2019 M\u00e9tropole", "brand:wikidata": "Q1120762", "brand:wikipedia": "fr:V\u00e9lib' M\u00e9tropole", "capacity": "26", "fee": "yes", "name": "Choisy - Tolbiac", "network": "V\u00e9lib\u2019 M\u00e9tropole", "network:wikidata": "Q1120762", "network:wikipedia": "fr:V\u00e9lib' M\u00e9tropole", "operator": "Smovengo", "operator:wikidata": "Q47008427", "operator:wikipedia": "fr:Smovengo", "ref": "13035", "source": "Autolib Velib M\u00e9tropole - 04/2020", "wikidata": "Q86253340"}}, {"type": "node", "id": 6293406879, "lat": 48.8292524, "lon": 2.3760818, "tags": {"amenity": "bicycle_rental", "bicycle_rental": "docking_station", "brand": "V\u00e9lib\u2019 M\u00e9tropole", "brand:wikidata": "Q1120762", "brand:wikipedia": "fr:V\u00e9lib' M\u00e9tropole", "capacity": "21", "name": "Chevaleret - Tolbiac", "network": "V\u00e9lib\u2019 M\u00e9tropole", "network:wikidata": "Q1120762", "network:wikipedia": "fr:V\u00e9lib' M\u00e9tropole", "operator": "Smovengo", "operator:wikidata": "Q47008427", "operator:wikipedia": "fr:Smovengo", "ref": "13053", "source": "Autolib Velib M\u00e9tropole - 04/2019", "wikidata": "Q86253409"}}, {"type": "node", "id": 6297871635, "lat": 48.824837, "lon": 2.3677301, "tags": {"amenity": "bicycle_rental", "bicycle_rental": "docking_station", "brand": "V\u00e9lib\u2019 M\u00e9tropole", "brand:wikidata": "Q1120762", "brand:wikipedia": "fr:V\u00e9lib' M\u00e9tropole", "capacity": "23", "name": "Nationale - Marcel Duchamp", "network": "V\u00e9lib\u2019 M\u00e9tropole", "network:wikidata": "Q1120762", "network:wikipedia": "fr:V\u00e9lib' M\u00e9tropole", "operator": "Smovengo", "operator:wikidata": "Q47008427", "operator:wikipedia": "fr:Smovengo", "ref": "13114", "source": "survey 2019-02", "wikidata": "Q86253470"}}, {"type": "node", "id": 6297871636, "lat": 48.8233117, "lon": 2.3543321, "tags": {"amenity": "bicycle_rental", "bicycle_rental": "docking_station", "brand": "V\u00e9lib\u2019 M\u00e9tropole", "brand:wikidata": "Q1120762", "brand:wikipedia": "fr:V\u00e9lib' M\u00e9tropole", "capacity": "35", "name": "Place Jean Delay", "network": "V\u00e9lib\u2019 M\u00e9tropole", "network:wikidata": "Q1120762", "network:wikipedia": "fr:V\u00e9lib' M\u00e9tropole", "operator": "Smovengo", "operator:wikidata": "Q47008427", "operator:wikipedia": "fr:Smovengo", "ref": "13026", "source": "survey 2019-02", "wikidata": "Q86253463"}}, {"type": "node", "id": 6380255681, "lat": 48.835395, "lon": 2.3581832, "tags": {"amenity": "bicycle_rental", "bicycle_rental": "docking_station", "brand": "V\u00e9lib\u2019 M\u00e9tropole", "brand:wikidata": "Q1120762", "brand:wikipedia": "fr:V\u00e9lib' M\u00e9tropole", "capacity": "16", "name": "H\u00f4pital - Campo-Formio", "network": "V\u00e9lib\u2019 M\u00e9tropole", "network:wikidata": "Q1120762", "network:wikipedia": "fr:V\u00e9lib' M\u00e9tropole", "operator": "Smovengo", "operator:wikidata": "Q47008427", "operator:wikipedia": "fr:Smovengo", "payment:credit_cards": "yes", "ref": "13011", "source": "Autolib Velib M\u00e9tropole - 04/2019", "unsigned_ref": "210751059", "vending": "yes", "wikidata": "Q86253500"}}, {"type": "node", "id": 6424123885, "lat": 48.8210022, "lon": 2.3563421, "tags": {"amenity": "bicycle_rental", "bicycle_rental": "docking_station", "brand": "V\u00e9lib\u2019 M\u00e9tropole", "brand:wikidata": "Q1120762", "brand:wikipedia": "fr:V\u00e9lib' M\u00e9tropole", "capacity": "22", "name": "Moulin de la Pointe", "network": "V\u00e9lib\u2019 M\u00e9tropole", "network:wikidata": "Q1120762", "network:wikipedia": "fr:V\u00e9lib' M\u00e9tropole", "operator": "Smovengo", "operator:wikidata": "Q47008427", "operator:wikipedia": "fr:Smovengo", "ref": "13110", "wikidata": "Q86253281"}}, {"type": "node", "id": 6424374985, "lat": 48.8299346, "lon": 2.3542998, "tags": {"amenity": "bicycle_rental", "bicycle_rental": "docking_station", "brand": "V\u00e9lib\u2019 M\u00e9tropole", "brand:wikidata": "Q1120762", "brand:wikipedia": "fr:V\u00e9lib' M\u00e9tropole", "capacity": "23", "name": "Bobillot - Paulin Mery", "network": "V\u00e9lib\u2019 M\u00e9tropole", "network:wikidata": "Q1120762", "network:wikipedia": "fr:V\u00e9lib' M\u00e9tropole", "operator": "Smovengo", "operator:wikidata": "Q47008427", "operator:wikipedia": "fr:Smovengo", "ref": "13106", "wikidata": "Q86253427"}}, {"type": "node", "id": 6424376685, "lat": 48.8319149, "lon": 2.3546925, "tags": {"amenity": "bicycle_rental", "bicycle_rental": "docking_station", "brand": "V\u00e9lib\u2019 M\u00e9tropole", "brand:wikidata": "Q1120762", "brand:wikipedia": "fr:V\u00e9lib' M\u00e9tropole", "capacity": "52", "name": "Place d'Italie - S\u0153ur Rosalie", "network": "V\u00e9lib\u2019 M\u00e9tropole", "network:wikidata": "Q1120762", "network:wikipedia": "fr:V\u00e9lib' M\u00e9tropole", "operator": "Smovengo", "operator:wikidata": "Q47008427", "operator:wikipedia": "fr:Smovengo", "ref": "13008", "source": "Autolib Velib M\u00e9tropole - 04/2019", "wikidata": "Q86253458"}}, {"type": "node", "id": 6424377185, "lat": 48.8314891, "lon": 2.3567589, "tags": {"amenity": "bicycle_rental", "bicycle_rental": "docking_station", "brand": "V\u00e9lib\u2019 M\u00e9tropole", "brand:wikidata": "Q1120762", "brand:wikipedia": "fr:V\u00e9lib' M\u00e9tropole", "capacity": "40", "name": "Place d'Italie - Vincent Auriol", "network": "V\u00e9lib\u2019 M\u00e9tropole", "network:wikidata": "Q1120762", "network:wikipedia": "fr:V\u00e9lib' M\u00e9tropole", "operator": "Smovengo", "operator:wikidata": "Q47008427", "operator:wikipedia": "fr:Smovengo", "ref": "13010", "wikidata": "Q86253435"}}, {"type": "node", "id": 6436943670, "lat": 48.8185204, "lon": 2.3744329, "tags": {"amenity": "bicycle_rental", "bicycle_rental": "docking_station", "brand": "V\u00e9lib\u2019 M\u00e9tropole", "brand:wikidata": "Q1120762", "brand:wikipedia": "fr:V\u00e9lib' M\u00e9tropole", "capacity": "25", "name": "Place Jean Ferrat", "network": "V\u00e9lib\u2019 M\u00e9tropole", "network:wikidata": "Q1120762", "network:wikipedia": "fr:V\u00e9lib' M\u00e9tropole", "operator": "Smovengo", "operator:wikidata": "Q47008427", "operator:wikipedia": "fr:Smovengo", "ref": "42015", "source": "Autolib Velib M\u00e9tropole - 04/2020", "wikidata": "Q86256284"}}, {"type": "node", "id": 6439760293, "lat": 48.8351818, "lon": 2.3535868, "tags": {"amenity": "bicycle_rental", "bicycle_rental": "docking_station", "brand": "V\u00e9lib\u2019 M\u00e9tropole", "brand:wikidata": "Q1120762", "brand:wikipedia": "fr:V\u00e9lib' M\u00e9tropole", "capacity": "48", "name": "Le Brun - Gobelins", "network": "V\u00e9lib\u2019 M\u00e9tropole", "network:wikidata": "Q1120762", "network:wikipedia": "fr:V\u00e9lib' M\u00e9tropole", "operator": "Smovengo", "operator:wikidata": "Q47008427", "operator:wikipedia": "fr:Smovengo", "ref": "13007", "source": "Autolib Velib M\u00e9tropole - 04/2019", "unsigned_ref": "66491398", "wikidata": "Q86253333"}}, {"type": "node", "id": 6463970876, "lat": 48.8293906, "lon": 2.3647063, "tags": {"amenity": "bicycle_rental", "bicycle_rental": "docking_station", "brand": "V\u00e9lib\u2019 M\u00e9tropole", "brand:wikidata": "Q1120762", "brand:wikipedia": "fr:V\u00e9lib' M\u00e9tropole", "capacity": "18", "name": "Place Nationale - Ch\u00e2teau-des-Rentiers", "network": "V\u00e9lib\u2019 M\u00e9tropole", "network:wikidata": "Q1120762", "network:wikipedia": "fr:V\u00e9lib' M\u00e9tropole", "operator": "Smovengo", "operator:wikidata": "Q47008427", "operator:wikipedia": "fr:Smovengo", "ref": "13126", "source": "Autolib Velib M\u00e9tropole - 04/2020", "wikidata": "Q86253370"}}, {"type": "node", "id": 6478156492, "lat": 48.8295784, "lon": 2.3691218, "tags": {"amenity": "bicycle_rental", "bicycle_rental": "docking_station", "brand": "V\u00e9lib\u2019 M\u00e9tropole", "brand:wikidata": "Q1120762", "brand:wikipedia": "fr:V\u00e9lib' M\u00e9tropole", "capacity": "36", "email": "service-client@velib-metropole.fr", "name": "Place Jeanne d'Arc", "network": "V\u00e9lib\u2019 M\u00e9tropole", "network:wikidata": "Q1120762", "network:wikipedia": "fr:V\u00e9lib' M\u00e9tropole", "opening_hours": "24/7", "operator": "Smovengo", "operator:wikidata": "Q47008427", "operator:wikipedia": "fr:Smovengo", "payment:mastercard": "yes", "payment:visa": "yes", "phone": "+33 1 76 49 12 34", "ref": "13044", "source": "Autolib Velib M\u00e9tropole - 04/2019", "website": "https://www.velib-metropole.fr", "wikidata": "Q86253493"}}, {"type": "node", "id": 6913843968, "lat": 48.8257374, "lon": 2.3751541, "tags": {"amenity": "bicycle_rental", "capacity": "44", "name": "Eug\u00e8ne Oudin\u00e9 - Dessous Des Berges", "network": "V\u00e9lib\u2019", "operator": "Smovengo", "ref": "13046", "source": "Autolib Velib M\u00e9tropole - 04/2020", "wikidata": "Q86253510"}}, {"type": "node", "id": 6913843969, "lat": 48.8204553, "lon": 2.3669107, "tags": {"amenity": "bicycle_rental", "bicycle_rental": "docking_station", "brand": "V\u00e9lib\u2019 M\u00e9tropole", "brand:wikidata": "Q1120762", "brand:wikipedia": "fr:V\u00e9lib' M\u00e9tropole", "capacity": "40", "name": "Stade Georges Carpentier", "network": "V\u00e9lib\u2019 M\u00e9tropole", "network:wikidata": "Q1120762", "network:wikipedia": "fr:V\u00e9lib' M\u00e9tropole", "operator": "Smovengo", "operator:wikidata": "Q47008427", "operator:wikipedia": "fr:Smovengo", "ref": "13117", "source": "Autolib Velib M\u00e9tropole - 04/2020", "wikidata": "Q86253472"}}, {"type": "node", "id": 6913843971, "lat": 48.8324758, "lon": 2.3624428, "tags": {"amenity": "bicycle_rental", "bicycle_rental": "docking_station", "brand": "V\u00e9lib\u2019 M\u00e9tropole", "brand:wikidata": "Q1120762", "brand:wikipedia": "fr:V\u00e9lib' M\u00e9tropole", "capacity": "33", "name": "Nationale - Vincent Auriol", "network": "V\u00e9lib\u2019 M\u00e9tropole", "network:wikidata": "Q1120762", "network:wikipedia": "fr:V\u00e9lib' M\u00e9tropole", "operator": "Smovengo", "operator:wikidata": "Q47008427", "operator:wikipedia": "fr:Smovengo", "ref": "13017", "source": "Autolib Velib M\u00e9tropole - 04/2020", "wikidata": "Q86253440"}}, {"type": "node", "id": 6913843972, "lat": 48.8278246, "lon": 2.3705581, "tags": {"amenity": "bicycle_rental", "bicycle_rental": "docking_station", "brand": "V\u00e9lib\u2019 M\u00e9tropole", "brand:wikidata": "Q1120762", "brand:wikipedia": "fr:V\u00e9lib' M\u00e9tropole", "capacity": "36", "name": "Jean Colly - Tolbiac", "network": "V\u00e9lib\u2019 M\u00e9tropole", "network:wikidata": "Q1120762", "network:wikipedia": "fr:V\u00e9lib' M\u00e9tropole", "operator": "Smovengo", "operator:wikidata": "Q47008427", "operator:wikipedia": "fr:Smovengo", "ref": "13045", "source": "Autolib Velib M\u00e9tropole - 04/2020", "wikidata": "Q86253451"}}, {"type": "node", "id": 6913843973, "lat": 48.8289293, "lon": 2.3743625, "tags": {"amenity": "bicycle_rental", "bicycle_rental": "docking_station", "brand": "V\u00e9lib\u2019 M\u00e9tropole", "brand:wikidata": "Q1120762", "brand:wikipedia": "fr:V\u00e9lib' M\u00e9tropole", "capacity": "44", "name": "Leredde - Tolbiac", "network": "V\u00e9lib\u2019 M\u00e9tropole", "network:wikidata": "Q1120762", "network:wikipedia": "fr:V\u00e9lib' M\u00e9tropole", "operator": "Smovengo", "operator:wikidata": "Q47008427", "operator:wikipedia": "fr:Smovengo", "ref": "13052", "source": "Autolib Velib M\u00e9tropole - 04/2020", "unsigned_ref": "125811629", "wikidata": "Q86253283"}}, {"type": "node", "id": 6913843974, "lat": 48.8313359, "lon": 2.3771587, "tags": {"amenity": "bicycle_rental", "bicycle_rental": "docking_station", "brand": "V\u00e9lib\u2019 M\u00e9tropole", "brand:wikidata": "Q1120762", "brand:wikipedia": "fr:V\u00e9lib' M\u00e9tropole", "capacity": "53", "name": "Pau Casals - Neuve Tolbiac", "network": "V\u00e9lib\u2019 M\u00e9tropole", "network:wikidata": "Q1120762", "network:wikipedia": "fr:V\u00e9lib' M\u00e9tropole", "operator": "Smovengo", "operator:wikidata": "Q47008427", "operator:wikipedia": "fr:Smovengo", "ref": "13054", "source": "Autolib Velib M\u00e9tropole - 04/2020", "unsigned_ref": "49423507", "wikidata": "Q86253287"}}, {"type": "node", "id": 7053043371, "lat": 48.8243485, "lon": 2.3771417, "tags": {"amenity": "bicycle_rental", "bicycle_rental": "docking_station", "capacity": "63", "name": "Regnault - Patay", "network": "V\u00e9lib\u2019", "operator": "Smovengo", "ref": "13118", "source": "Autolib Velib M\u00e9tropole - 04/2020", "source:position": "survey", "wikidata": "Q86253312"}}, {"type": "node", "id": 7366564786, "lat": 48.8199081, "lon": 2.3592949, "tags": {"amenity": "bicycle_rental", "bicycle_rental": "docking_station", "brand": "V\u00e9lib\u2019 M\u00e9tropole", "brand:wikidata": "Q1120762", "brand:wikipedia": "fr:V\u00e9lib' M\u00e9tropole", "capacity": "26", "name": "Italie - Jardin Joan Miro", "network": "V\u00e9lib\u2019 M\u00e9tropole", "network:wikidata": "Q1120762", "network:wikipedia": "fr:V\u00e9lib' M\u00e9tropole", "operator": "Smovengo", "operator:wikidata": "Q47008427", "operator:wikipedia": "fr:Smovengo", "ref": "13032", "source": "Autolib Velib M\u00e9tropole - 04/2019", "wikidata": "Q86253294"}}, {"type": "node", "id": 7366564788, "lat": 48.8226318, "lon": 2.377738, "tags": {"amenity": "bicycle_rental", "bicycle_rental": "docking_station", "capacity": "49", "name": "Boutroux - Porte de Vitry", "network": "V\u00e9lib\u2019", "operator": "Smovengo", "ref": "13047", "source": "Autolib Velib M\u00e9tropole - 2022-04", "wikidata": "Q86253404"}}, {"type": "node", "id": 7366564789, "lat": 48.8201065, "lon": 2.3725584, "tags": {"amenity": "bicycle_rental", "bicycle_rental": "docking_station", "capacity": "50", "fixme": "\u00e0 mieux positionner", "name": "Place du Docteur Yersin", "network": "V\u00e9lib\u2019", "operator": "Smovengo", "ref": "13116", "source": "Autolib Velib M\u00e9tropole - 2022-09", "wikidata": "Q86253376"}}, {"type": "node", "id": 7366564816, "lat": 48.8348503, "lon": 2.3668265, "tags": {"amenity": "bicycle_rental", "bicycle_rental": "docking_station", "brand": "V\u00e9lib\u2019 M\u00e9tropole", "brand:wikidata": "Q1120762", "brand:wikipedia": "fr:V\u00e9lib' M\u00e9tropole", "capacity": "25", "name": "Bruant - Vincent Auriol", "network": "V\u00e9lib\u2019 M\u00e9tropole", "network:wikidata": "Q1120762", "network:wikipedia": "fr:V\u00e9lib' M\u00e9tropole", "operator": "Smovengo", "operator:wikidata": "Q47008427", "operator:wikipedia": "fr:Smovengo", "ref": "13018", "source": "Autolib Velib M\u00e9tropole - 04/2019", "wikidata": "Q86253310"}}, {"type": "node", "id": 7366564820, "lat": 48.8350258, "lon": 2.3760157, "tags": {"amenity": "bicycle_rental", "bicycle_rental": "docking_station", "brand": "V\u00e9lib\u2019 M\u00e9tropole", "brand:wikidata": "Q1120762", "brand:wikipedia": "fr:V\u00e9lib' M\u00e9tropole", "capacity": "42", "name": "Biblioth\u00e8que Nationale de France", "network": "V\u00e9lib\u2019 M\u00e9tropole", "network:wikidata": "Q1120762", "network:wikipedia": "fr:V\u00e9lib' M\u00e9tropole", "operator": "Smovengo", "operator:wikidata": "Q47008427", "operator:wikipedia": "fr:Smovengo", "ref": "13123", "source": "Autolib Velib M\u00e9tropole - 04/2019", "wikidata": "Q86253503"}}, {"type": "node", "id": 7366564821, "lat": 48.8341423, "lon": 2.3703658, "tags": {"amenity": "bicycle_rental", "bicycle_rental": "docking_station", "brand": "V\u00e9lib\u2019 M\u00e9tropole", "brand:wikidata": "Q1120762", "brand:wikipedia": "fr:V\u00e9lib' M\u00e9tropole", "capacity": "22", "name": "Vincent Auriol - Louise Weiss", "network": "V\u00e9lib\u2019 M\u00e9tropole", "network:wikidata": "Q1120762", "network:wikipedia": "fr:V\u00e9lib' M\u00e9tropole", "operator": "Smovengo", "operator:wikidata": "Q47008427", "operator:wikipedia": "fr:Smovengo", "ref": "13049", "source": "Autolib Velib M\u00e9tropole - 04/2019", "survey:date": "2020-06-20", "wikidata": "Q86253413"}}, {"type": "node", "id": 7366564823, "lat": 48.8325882, "lon": 2.3712113, "tags": {"amenity": "bicycle_rental", "bicycle_rental": "docking_station", "brand": "V\u00e9lib\u2019 M\u00e9tropole", "brand:wikidata": "Q1120762", "brand:wikipedia": "fr:V\u00e9lib' M\u00e9tropole", "capacity": "35", "name": "Chevaleret - Louise Weiss", "network": "V\u00e9lib\u2019 M\u00e9tropole", "network:wikidata": "Q1120762", "network:wikipedia": "fr:V\u00e9lib' M\u00e9tropole", "operator": "Smovengo", "operator:wikidata": "Q47008427", "operator:wikipedia": "fr:Smovengo", "ref": "13015", "source": "Autolib Velib M\u00e9tropole - 04/2019", "wikidata": "Q86253507"}}, {"type": "node", "id": 7366564824, "lat": 48.832272, "lon": 2.3674242, "tags": {"amenity": "bicycle_rental", "bicycle_rental": "docking_station", "brand": "V\u00e9lib\u2019 M\u00e9tropole", "brand:wikidata": "Q1120762", "brand:wikipedia": "fr:V\u00e9lib' M\u00e9tropole", "capacity": "51", "name": "Dunois - Clisson", "network": "V\u00e9lib\u2019 M\u00e9tropole", "network:wikidata": "Q1120762", "network:wikipedia": "fr:V\u00e9lib' M\u00e9tropole", "operator": "Smovengo", "operator:wikidata": "Q47008427", "operator:wikipedia": "fr:Smovengo", "ref": "13043", "source": "Autolib Velib M\u00e9tropole - 04/2020", "wikidata": "Q86253420"}}, {"type": "node", "id": 7366564825, "lat": 48.8281555, "lon": 2.3585136, "tags": {"amenity": "bicycle_rental", "bicycle_rental": "docking_station", "brand": "V\u00e9lib\u2019 M\u00e9tropole", "brand:wikidata": "Q1120762", "brand:wikipedia": "fr:V\u00e9lib' M\u00e9tropole", "capacity": "25", "name": "Parc de Choisy", "network": "V\u00e9lib\u2019 M\u00e9tropole", "network:wikidata": "Q1120762", "network:wikipedia": "fr:V\u00e9lib' M\u00e9tropole", "operator": "Smovengo", "operator:wikidata": "Q47008427", "operator:wikipedia": "fr:Smovengo", "ref": "13122", "source": "Autolib Velib M\u00e9tropole - 04/2019", "wikidata": "Q86253465"}}, {"type": "node", "id": 7366564826, "lat": 48.8246956, "lon": 2.363106, "tags": {"amenity": "bicycle_rental", "bicycle_rental": "docking_station", "brand": "V\u00e9lib\u2019 M\u00e9tropole", "brand:wikidata": "Q1120762", "brand:wikipedia": "fr:V\u00e9lib' M\u00e9tropole", "capacity": "20", "name": "Ivry - Baudricourt", "network": "V\u00e9lib\u2019 M\u00e9tropole", "network:wikidata": "Q1120762", "network:wikipedia": "fr:V\u00e9lib' M\u00e9tropole", "operator": "Smovengo", "operator:wikidata": "Q47008427", "operator:wikipedia": "fr:Smovengo", "ref": "13037", "source": "Autolib Velib M\u00e9tropole - 04/2019", "wikidata": "Q86253416"}}, {"type": "node", "id": 7531612763, "lat": 48.8255414, "lon": 2.3576098, "tags": {"amenity": "bicycle_rental", "bicycle_rental": "docking_station", "brand": "V\u00e9lib\u2019 M\u00e9tropole", "brand:wikidata": "Q1120762", "brand:wikipedia": "fr:V\u00e9lib' M\u00e9tropole", "capacity": "21", "name": "Italie - Tolbiac", "network": "V\u00e9lib\u2019 M\u00e9tropole", "network:wikidata": "Q1120762", "network:wikipedia": "fr:V\u00e9lib' M\u00e9tropole", "operator": "Smovengo", "operator:wikidata": "Q47008427", "operator:wikipedia": "fr:Smovengo", "ref": "13030", "source": "Autolib Velib M\u00e9tropole - 04/2020", "survey:date": "2020-05-19", "wikidata": "Q86253498"}}, {"type": "node", "id": 10084578059, "lat": 48.833035, "lon": 2.371373, "tags": {"amenity": "bicycle_rental", "bicycle_rental": "docking_station", "brand": "V\u00e9lib\u2019 M\u00e9tropole", "brand:wikidata": "Q1120762", "brand:wikipedia": "fr:V\u00e9lib' M\u00e9tropole", "capacity": "23", "name": "Halle Freyssinet - Parvis Alan Turing", "network": "V\u00e9lib\u2019 M\u00e9tropole", "network:wikidata": "Q1120762", "network:wikipedia": "fr:V\u00e9lib' M\u00e9tropole", "operator": "Smovengo", "operator:wikidata": "Q47008427", "operator:wikipedia": "fr:Smovengo", "ref": "13051", "wikidata": "Q86253437"}}, {"type": "way", "id": 566971204, "nodes": [5458808298, 5458808299, 5458808300, 5458808301, 5458808298], "tags": {"amenity": "bicycle_rental", "capacity": "34", "name": "Primo Levi - Frigos", "network": "V\u00e9lib\u2019 M\u00e9tropole", "operator": "Smovengo", "ref": "13016", "source": "Autolib Velib M\u00e9tropole - 04/2020", "wikidata": "Q86253357"}}]}