{"version": 0.6, "generator": "Overpass API 0.7.61.5 4133829e", "osm3s": {"timestamp_osm_base": "2023-12-09T23:54:29Z", "copyright": "The data included in this document is from www.openstreetmap.org. The data is made available under ODbL."}, "elements": [{"type": "node", "id": 27371867, "lat": 48.8553907, "lon": 2.3604173, "tags": {"STIF:zone": "1", "addr:city": "Paris", "alt_name": "Saint-Paul (Le Marais)", "name": "Saint-Paul", "public_transport": "station", "railway": "station", "ref:FR:FANTOIR": "75104S523E", "ref:FR:RATP": "1695", "ref:FR:STIF": "22074", "source": "STIF - 12/2016", "station": "subway", "subway": "yes", "type:RATP": "metro", "wheelchair": "no", "wikidata": "Q1535005", "wikipedia": "fr:Saint-Paul (m\u00e9tro de Paris)"}}, {"type": "node", "id": 256895609, "lat": 48.8610516, "lon": 2.3747956, "tags": {"STIF:zone": "1", "name": "Saint-Ambroise", "public_transport": "station", "railway": "station", "ref:FR:FANTOIR": "75111S510M", "ref:FR:RATP": "1680", "ref:FR:STIF": "21910", "source": "STIF - 12/2016", "station": "subway", "subway": "yes", "type:RATP": "metro", "wheelchair": "no", "wikidata": "Q1450538", "wikipedia": "fr:Saint-Ambroise (m\u00e9tro de Paris)"}}, {"type": "node", "id": 256896059, "lat": 48.8640529, "lon": 2.3694165, "tags": {"STIF:zone": "1", "name": "Oberkampf", "public_transport": "station", "railway": "station", "ref:FR:FANTOIR": "75111S381X", "ref:FR:RATP": "1769", "ref:FR:STIF": "21925", "source": "STIF - 12/2016", "station": "subway", "subway": "yes", "type:RATP": "metro", "wheelchair": "no", "wikidata": "Q1578030", "wikipedia": "fr:Oberkampf (m\u00e9tro de Paris)"}}, {"type": "node", "id": 264476971, "lat": 48.8633194, "lon": 2.3666323, "tags": {"STIF:zone": "1", "name": "Filles du Calvaire", "name:ru": "\u0424\u0438\u0439-\u0434\u044e-\u041a\u0430\u043b\u044c\u0432\u0435\u0440", "public_transport": "station", "railway": "station", "ref:FR:FANTOIR": "75111S164L", "ref:FR:RATP": "1919", "ref:FR:STIF": "22200", "source": "STIF - 12/2016", "station": "subway", "subway": "yes", "type:RATP": "metro", "wheelchair": "no", "wikidata": "Q1414178", "wikipedia": "fr:Filles du Calvaire (m\u00e9tro de Paris)"}}, {"type": "node", "id": 264479724, "lat": 48.8611816, "lon": 2.367234, "tags": {"STIF:zone": "1", "name": "Saint-S\u00e9bastien - Froissart", "name:ru": "\u0421\u0435\u043d-\u0421\u0435\u0431\u0430\u0441\u0442\u044c\u0435\u043d \u2014 \u0424\u0440\u0443\u0430\u0441\u0441\u0430\u0440", "operator": "RATP", "public_transport": "station", "railway": "station", "ref:FR:FANTOIR": "75111S527F", "ref:FR:RATP": "1699", "ref:FR:STIF": "22201", "source": "STIF - 12/2016", "station": "subway", "subway": "yes", "type:RATP": "metro", "wheelchair": "no", "wikidata": "Q550042", "wikipedia": "fr:Saint-S\u00e9bastien - Froissart (m\u00e9tro de Paris)"}}, {"type": "node", "id": 264769296, "lat": 48.8566333, "lon": 2.3704333, "tags": {"STIF:zone": "1", "name": "Br\u00e9guet-Sabin", "public_transport": "station", "railway": "station", "ref:FR:FANTOIR": "75111S053R", "ref:FR:RATP": "1933", "ref:FR:STIF": "22008", "source": "STIF - 12/2016", "station": "subway", "subway": "yes", "type:RATP": "metro", "wheelchair": "no", "wikidata": "Q777553", "wikipedia": "fr:Br\u00e9guet - Sabin (m\u00e9tro de Paris)"}}, {"type": "node", "id": 4532598860, "lat": 48.85457, "lon": 2.3534647, "tags": {"addr:city": "Paris", "amenity": "ferry_terminal", "cargo": "passengers", "ferry": "yes", "harbour": "yes", "harbour:operator": "Batobus", "name": "H\u00f4tel-de-Ville", "operator": "Batobus", "port_of_entry": "no", "public_transport": "station", "website": "https://www.batobus.com/fr/station/hotel-de-ville"}}, {"type": "node", "id": 5226630382, "lat": 48.852987, "lon": 2.3688579, "tags": {"name": "Bastille", "public_transport": "station", "railway": "station", "ref:FR:RATP": "2000", "ref:FR:STIF": "22089", "source": "STIF - 12/2016", "station": "subway", "subway": "yes", "train": "yes", "type:RATP": "metro", "wheelchair": "no", "wikidata": "Q508256", "wikipedia": "fr:Bastille (m\u00e9tro de Paris)"}}]}