{"version": 0.6, "generator": "Overpass API 0.7.61.5 4133829e", "osm3s": {"timestamp_osm_base": "2023-12-09T23:49:30Z", "copyright": "The data included in this document is from www.openstreetmap.org. The data is made available under ODbL."}, "elements": [{"type": "node", "id": 260743043, "lat": 48.8477077, "lon": 2.3659262, "tags": {"amenity": "bicycle_rental", "bicycle_rental": "docking_station", "brand": "V\u00e9lib\u2019 M\u00e9tropole", "brand:wikidata": "Q1120762", "brand:wikipedia": "fr:V\u00e9lib' M\u00e9tropole", "capacity": "52", "name": "Bourdon - Pont Morland", "network": "V\u00e9lib\u2019 M\u00e9tropole", "network:wikidata": "Q1120762", "network:wikipedia": "fr:V\u00e9lib' M\u00e9tropole", "operator": "Smovengo", "operator:wikidata": "Q47008427", "operator:wikipedia": "fr:Smovengo", "ref": "4006", "source": "Survey", "wikidata": "Q86255004"}}, {"type": "node", "id": 436617783, "lat": 48.8580787, "lon": 2.3502718, "tags": {"amenity": "bicycle_rental", "bicycle_rental": "docking_station", "brand": "V\u00e9lib\u2019 M\u00e9tropole", "brand:wikidata": "Q1120762", "brand:wikipedia": "fr:V\u00e9lib' M\u00e9tropole", "capacity": "19", "name": "Saint-Bon - Rivoli", "network": "V\u00e9lib\u2019 M\u00e9tropole", "network:wikidata": "Q1120762", "network:wikipedia": "fr:V\u00e9lib' M\u00e9tropole", "operator": "Smovengo", "operator:wikidata": "Q47008427", "operator:wikipedia": "fr:Smovengo", "ref": "4018", "source": "Autolib Velib M\u00e9tropole - 2021-03", "wikidata": "Q86255030"}}, {"type": "node", "id": 439852117, "lat": 48.8643764, "lon": 2.3661622, "tags": {"amenity": "bicycle_rental", "bicycle_rental": "docking_station", "brand": "V\u00e9lib\u2019 M\u00e9tropole", "brand:wikidata": "Q1120762", "brand:wikipedia": "fr:V\u00e9lib' M\u00e9tropole", "capacity": "36", "fee": "yes", "name": "Temple - Jean-Pierre Timbaud", "network": "V\u00e9lib\u2019 M\u00e9tropole", "network:wikidata": "Q1120762", "network:wikipedia": "fr:V\u00e9lib' M\u00e9tropole", "operator": "Smovengo", "operator:wikidata": "Q47008427", "operator:wikipedia": "fr:Smovengo", "ref": "11040", "source": "Autolib Velib M\u00e9tropole - 04/2020", "unsigned_ref": "15298647", "wheelchair": "no", "wikidata": "Q86254490"}}, {"type": "node", "id": 496128416, "lat": 48.8507819, "lon": 2.3758987, "tags": {"amenity": "bicycle_rental", "bicycle_rental": "docking_station", "brand": "V\u00e9lib\u2019 M\u00e9tropole", "brand:wikidata": "Q1120762", "brand:wikipedia": "fr:V\u00e9lib' M\u00e9tropole", "capacity": "34", "name": "Traversi\u00e8re - Ledru-Rollin", "network": "V\u00e9lib\u2019 M\u00e9tropole", "network:wikidata": "Q1120762", "network:wikipedia": "fr:V\u00e9lib' M\u00e9tropole", "operator": "Smovengo", "operator:wikidata": "Q47008427", "operator:wikipedia": "fr:Smovengo", "ref": "12004", "source": "Autolib Velib M\u00e9tropole - 04/2020", "wikidata": "Q86252743"}}, {"type": "node", "id": 497867252, "lat": 48.8584172, "lon": 2.3904047, "tags": {"amenity": "bicycle_rental", "bicycle_rental": "docking_station", "brand": "V\u00e9lib\u2019 M\u00e9tropole", "brand:wikidata": "Q1120762", "brand:wikipedia": "fr:V\u00e9lib' M\u00e9tropole", "capacity": "23", "name": "Charonne - Pierre Bayle", "network": "V\u00e9lib\u2019 M\u00e9tropole", "network:wikidata": "Q1120762", "network:wikipedia": "fr:V\u00e9lib' M\u00e9tropole", "operator": "Smovengo", "operator:wikidata": "Q47008427", "operator:wikipedia": "fr:Smovengo", "ref": "11021", "source": "Autolib Velib M\u00e9tropole - 04/2020", "unsigned_ref": "7247", "wikidata": "Q86253192"}}, {"type": "node", "id": 598000513, "lat": 48.8390771, "lon": 2.3568742, "tags": {"amenity": "bicycle_rental", "bicycle_rental": "docking_station", "brand": "V\u00e9lib\u2019 M\u00e9tropole", "brand:wikidata": "Q1120762", "brand:wikipedia": "fr:V\u00e9lib' M\u00e9tropole", "capacity": "17", "name": "Geoffroy-Saint-Hilaire - Saint-Marcel", "network": "V\u00e9lib\u2019 M\u00e9tropole", "network:wikidata": "Q1120762", "network:wikipedia": "fr:V\u00e9lib' M\u00e9tropole", "operator": "Smovengo", "operator:wikidata": "Q47008427", "operator:wikipedia": "fr:Smovengo", "ref": "5105", "source": "Autolib Velib M\u00e9tropole - 04/2020", "unsigned_ref": "11580442", "wikidata": "Q86255434"}}, {"type": "node", "id": 1341379979, "lat": 48.8555971, "lon": 2.3905225, "tags": {"amenity": "bicycle_rental", "bicycle_rental": "docking_station", "brand": "V\u00e9lib\u2019 M\u00e9tropole", "brand:wikidata": "Q1120762", "brand:wikipedia": "fr:V\u00e9lib' M\u00e9tropole", "capacity": "32", "disused:amenity": "bicycle_rental", "name": "Charonne - Philippe-Auguste", "network": "V\u00e9lib\u2019 M\u00e9tropole", "network:wikidata": "Q1120762", "network:wikipedia": "fr:V\u00e9lib' M\u00e9tropole", "operator": "Smovengo", "operator:wikidata": "Q47008427", "operator:wikipedia": "fr:Smovengo", "ref": "11019", "source": "Autolib Velib M\u00e9tropole - 04/2020", "wikidata": "Q86254539"}}, {"type": "node", "id": 1490016248, "lat": 48.8552293, "lon": 2.3473369, "tags": {"amenity": "bicycle_rental", "bicycle_rental": "docking_station", "brand": "V\u00e9lib\u2019 M\u00e9tropole", "brand:wikidata": "Q1120762", "brand:wikipedia": "fr:V\u00e9lib' M\u00e9tropole", "capacity": "23", "disused:amenity": "bicycle_rental", "name": "March\u00e9 aux Fleurs", "network": "V\u00e9lib\u2019 M\u00e9tropole", "network:wikidata": "Q1120762", "network:wikipedia": "fr:V\u00e9lib' M\u00e9tropole", "operator": "Smovengo", "operator:wikidata": "Q47008427", "operator:wikipedia": "fr:Smovengo", "ref": "4002", "source": "survey 2019-05-02", "wikidata": "Q86255000"}}, {"type": "node", "id": 1640522615, "lat": 48.8532728, "lon": 2.3830635, "tags": {"amenity": "bicycle_rental", "bicycle_rental": "docking_station", "brand": "V\u00e9lib\u2019 M\u00e9tropole", "brand:wikidata": "Q1120762", "brand:wikipedia": "fr:V\u00e9lib' M\u00e9tropole", "capacity": "63", "name": "Jean Mac\u00e9 - Faidherbe", "network": "V\u00e9lib\u2019 M\u00e9tropole", "network:wikidata": "Q1120762", "network:wikipedia": "fr:V\u00e9lib' M\u00e9tropole", "operator": "Smovengo", "operator:wikidata": "Q47008427", "operator:wikipedia": "fr:Smovengo", "ref": "11007", "source": "Autolib Velib M\u00e9tropole - 04/2020", "unsigned_ref": "210090269", "wikidata": "Q86254547"}}, {"type": "node", "id": 1673107081, "lat": 48.8559396, "lon": 2.3925399, "tags": {"amenity": "bicycle_rental", "bicycle_rental": "docking_station", "brand": "V\u00e9lib\u2019 M\u00e9tropole", "brand:wikidata": "Q1120762", "brand:wikipedia": "fr:V\u00e9lib' M\u00e9tropole", "capacity": "20", "name": "Charonne - Robert et Sonia Delaunay", "network": "V\u00e9lib\u2019 M\u00e9tropole", "network:wikidata": "Q1120762", "network:wikipedia": "fr:V\u00e9lib' M\u00e9tropole", "operator": "Smovengo", "operator:wikidata": "Q47008427", "operator:wikipedia": "fr:Smovengo", "ref": "11104", "source": "Autolib Velib M\u00e9tropole - 04/2020", "wikidata": "Q86254510"}}, {"type": "node", "id": 2174795259, "lat": 48.8617427, "lon": 2.3501518}, {"type": "node", "id": 2174795260, "lat": 48.8617483, "lon": 2.3501289}, {"type": "node", "id": 2174795264, "lat": 48.8618708, "lon": 2.3502258}, {"type": "node", "id": 2174795266, "lat": 48.8618765, "lon": 2.3502028}, {"type": "node", "id": 2267747960, "lat": 48.8704048, "lon": 2.3886487, "tags": {"amenity": "bicycle_rental", "bicycle_rental": "docking_station", "brand": "V\u00e9lib\u2019 M\u00e9tropole", "brand:wikidata": "Q1120762", "brand:wikipedia": "fr:V\u00e9lib' M\u00e9tropole", "capacity": "27", "name": "Henri Chevreau - Couronnes", "network": "V\u00e9lib\u2019 M\u00e9tropole", "network:wikidata": "Q1120762", "network:wikipedia": "fr:V\u00e9lib' M\u00e9tropole", "operator": "Smovengo", "operator:wikidata": "Q47008427", "operator:wikipedia": "fr:Smovengo", "ref": "20136", "source": "Autolib Velib M\u00e9tropole - 04/2020", "unsigned_ref": "1057009034", "wikidata": "Q86253259"}}, {"type": "node", "id": 2279282604, "lat": 48.8552856, "lon": 2.3399457, "tags": {"amenity": "bicycle_rental", "bicycle_rental": "docking_station", "brand": "V\u00e9lib\u2019 M\u00e9tropole", "brand:wikidata": "Q1120762", "brand:wikipedia": "fr:V\u00e9lib' M\u00e9tropole", "capacity": "23", "name": "Pont de Lodi - Dauphine", "network": "V\u00e9lib\u2019 M\u00e9tropole", "network:wikidata": "Q1120762", "network:wikipedia": "fr:V\u00e9lib' M\u00e9tropole", "operator": "Smovengo", "operator:wikidata": "Q47008427", "operator:wikipedia": "fr:Smovengo", "ref": "6014", "source": "Autolib Velib M\u00e9tropole - 2022-09", "unsigned_ref": "36003", "wikidata": "Q86252890"}}, {"type": "node", "id": 2358812897, "lat": 48.8668046, "lon": 2.3654899, "tags": {"amenity": "bicycle_rental", "bicycle_rental": "docking_station", "brand": "V\u00e9lib\u2019 M\u00e9tropole", "brand:wikidata": "Q1120762", "brand:wikipedia": "fr:V\u00e9lib' M\u00e9tropole", "capacity": "19", "name": "Place de la R\u00e9publique - Voltaire", "network": "V\u00e9lib\u2019 M\u00e9tropole", "network:wikidata": "Q1120762", "network:wikipedia": "fr:V\u00e9lib' M\u00e9tropole", "operator": "Smovengo", "operator:wikidata": "Q47008427", "operator:wikipedia": "fr:Smovengo", "ref": "11046", "source": "Autolib Velib M\u00e9tropole - 04/2020", "wikidata": "Q86254495"}}, {"type": "node", "id": 2481098013, "lat": 48.8620663, "lon": 2.352704, "tags": {"addr:city": "Paris", "addr:country": "FR", "addr:housenumber": "13", "addr:postcode": "75003", "addr:street": "Rue Brant\u00f4me", "amenity": "bicycle_rental", "bicycle_rental": "shop", "name": "Paris Bike Tour", "shop": "rental", "website": "https://parisbiketour.net/"}}, {"type": "node", "id": 2914625160, "lat": 48.8550968, "lon": 2.373443, "tags": {"amenity": "bicycle_rental", "bicycle_rental": "docking_station", "brand": "V\u00e9lib\u2019 M\u00e9tropole", "brand:wikidata": "Q1120762", "brand:wikipedia": "fr:V\u00e9lib' M\u00e9tropole", "capacity": "23", "name": "Roquette - Thi\u00e9r\u00e9", "network": "V\u00e9lib\u2019 M\u00e9tropole", "network:wikidata": "Q1120762", "network:wikipedia": "fr:V\u00e9lib' M\u00e9tropole", "operator": "Smovengo", "operator:wikidata": "Q47008427", "operator:wikipedia": "fr:Smovengo", "ref": "11002", "source": "Autolib Velib M\u00e9tropole - 04/2020", "unsigned_ref": "129043651", "wikidata": "Q86254481"}}, {"type": "node", "id": 4982774223, "lat": 48.8669059, "lon": 2.3823236, "tags": {"amenity": "bicycle_rental", "bicycle_rental": "docking_station", "brand": "V\u00e9lib\u2019 M\u00e9tropole", "brand:wikidata": "Q1120762", "brand:wikipedia": "fr:V\u00e9lib' M\u00e9tropole", "capacity": "40", "description": "Deuxi\u00e8me partie de la station, abonnement uniquement.", "name": "M\u00e9nilmontant - Oberkampf", "network": "V\u00e9lib\u2019 M\u00e9tropole", "network:wikidata": "Q1120762", "network:wikipedia": "fr:V\u00e9lib' M\u00e9tropole", "operator": "Smovengo", "operator:wikidata": "Q47008427", "operator:wikipedia": "fr:Smovengo", "ref": "11029", "wikidata": "Q86254514"}}, {"type": "node", "id": 5516872699, "lat": 48.855531, "lon": 2.3752267, "tags": {"amenity": "bicycle_rental", "bicycle_rental": "docking_station", "brand": "V\u00e9lib\u2019 M\u00e9tropole", "brand:wikidata": "Q1120762", "brand:wikipedia": "fr:V\u00e9lib' M\u00e9tropole", "capacity": "34", "name": "Keller - La Roquette", "network": "V\u00e9lib\u2019 M\u00e9tropole", "network:wikidata": "Q1120762", "network:wikipedia": "fr:V\u00e9lib' M\u00e9tropole", "operator": "Smovengo", "operator:wikidata": "Q47008427", "operator:wikipedia": "fr:Smovengo", "ref": "11003", "source": "Autolib Velib M\u00e9tropole - 04/2020", "unsigned_ref": "13283986", "wikidata": "Q86254567"}}, {"type": "node", "id": 5596102053, "lat": 48.8523926, "lon": 2.3414387, "tags": {"amenity": "bicycle_rental", "bicycle_rental": "docking_station", "brand": "V\u00e9lib\u2019 M\u00e9tropole", "brand:wikidata": "Q1120762", "capacity": "22", "name": "Danton - Serpente", "network": "V\u00e9lib\u2019 M\u00e9tropole", "network:wikidata": "Q1120762", "operator": "Smovengo", "operator:wikidata": "Q47008427", "ref": "6016", "source": "Autolib Velib M\u00e9tropole - 2021-03", "unsigned_ref": "100798076", "wikidata": "Q86252792"}}, {"type": "node", "id": 5627118343, "lat": 48.8645723, "lon": 2.3463019, "tags": {"amenity": "bicycle_rental", "bicycle_rental": "docking_station", "brand": "V\u00e9lib\u2019 M\u00e9tropole", "brand:wikidata": "Q1120762", "brand:wikipedia": "fr:V\u00e9lib' M\u00e9tropole", "capacity": "28", "name": "\u00c9tienne Marcel - Montorgueil", "network": "V\u00e9lib\u2019 M\u00e9tropole", "network:wikidata": "Q1120762", "network:wikipedia": "fr:V\u00e9lib' M\u00e9tropole", "operator": "Smovengo", "operator:wikidata": "Q47008427", "operator:wikipedia": "fr:Smovengo", "ref": "2002", "source": "Autolib Velib M\u00e9tropole - 2021-03", "wikidata": "Q86255072"}}, {"type": "node", "id": 5655597962, "lat": 48.8558581, "lon": 2.3508449, "tags": {"amenity": "bicycle_rental", "bicycle_rental": "docking_station", "brand": "V\u00e9lib\u2019 M\u00e9tropole", "brand:wikidata": "Q1120762", "brand:wikipedia": "fr:V\u00e9lib' M\u00e9tropole", "capacity": "20", "layer": "-1", "location": "station au niveau de la voie sur berge", "name": "H\u00f4tel de Ville - Pont d'Arcole", "network": "V\u00e9lib\u2019 M\u00e9tropole", "network:wikidata": "Q1120762", "network:wikipedia": "fr:V\u00e9lib' M\u00e9tropole", "operator": "Smovengo", "operator:wikidata": "Q47008427", "operator:wikipedia": "fr:Smovengo", "ref": "4111", "source": "Autolib Velib M\u00e9tropole - 2021-03", "unsigned_ref": "303563942", "wikidata": "Q86254993"}}, {"type": "node", "id": 5659056369, "lat": 48.8661047, "lon": 2.3454362, "tags": {"amenity": "bicycle_rental", "bicycle_rental": "docking_station", "brand": "V\u00e9lib\u2019 M\u00e9tropole", "brand:wikidata": "Q1120762", "brand:wikipedia": "fr:V\u00e9lib' M\u00e9tropole", "capacity": "33", "name": "Bachaumont - Montmartre", "network": "V\u00e9lib\u2019 M\u00e9tropole", "network:wikidata": "Q1120762", "network:wikipedia": "fr:V\u00e9lib' M\u00e9tropole", "note": "localisation aproximative dans open data paris (de 50m)", "operator": "Smovengo", "operator:wikidata": "Q47008427", "operator:wikipedia": "fr:Smovengo", "ref": "2101", "source": "Autolib Velib M\u00e9tropole - 04/2020", "wikidata": "Q86254761"}}, {"type": "node", "id": 5708095754, "lat": 48.858858, "lon": 2.3518235, "tags": {"addr:city": "Paris", "addr:housenumber": "4", "addr:postcode": "75004", "addr:street": "Rue du Clo\u00eetre Saint-Merri", "amenity": "bicycle_rental", "bicycle_rental": "docking_station", "brand": "V\u00e9lib\u2019 M\u00e9tropole", "brand:wikidata": "Q1120762", "brand:wikipedia": "fr:V\u00e9lib' M\u00e9tropole", "capacity": "32", "capacity:opendata": "32", "name": "Clo\u00eetre Saint-Merri - Renard", "network": "V\u00e9lib\u2019 M\u00e9tropole", "network:wikidata": "Q1120762", "network:wikipedia": "fr:V\u00e9lib' M\u00e9tropole", "operator": "Smovengo", "operator:wikidata": "Q47008427", "operator:wikipedia": "fr:Smovengo", "payment:none": "yes", "ref": "4019", "source": "Autolib Velib M\u00e9tropole - 2021-03", "unsigned_ref": "54000543", "website": "https://www.velib-metropole.fr/map#/", "wikidata": "Q86255012"}}, {"type": "node", "id": 5737051758, "lat": 48.8450614, "lon": 2.349494, "tags": {"amenity": "bicycle_rental", "bicycle_rental": "docking_station", "brand": "V\u00e9lib\u2019 M\u00e9tropole", "brand:wikidata": "Q1120762", "brand:wikipedia": "fr:V\u00e9lib' M\u00e9tropole", "capacity": "17", "name": "Thouin - Cardinal Lemoine", "network": "V\u00e9lib\u2019 M\u00e9tropole", "network:wikidata": "Q1120762", "network:wikipedia": "fr:V\u00e9lib' M\u00e9tropole", "operator": "Smovengo", "operator:wikidata": "Q47008427", "operator:wikipedia": "fr:Smovengo", "ref": "5016", "source": "Autolib Velib M\u00e9tropole - 04/2020", "unsigned_ref": "210397939", "wikidata": "Q86255398"}}, {"type": "node", "id": 5838535122, "lat": 48.8655857, "lon": 2.3561633, "tags": {"amenity": "bicycle_rental", "bicycle_rental": "docking_station", "brand": "V\u00e9lib\u2019 M\u00e9tropole", "brand:wikidata": "Q1120762", "brand:wikipedia": "fr:V\u00e9lib' M\u00e9tropole", "capacity": "31", "name": "Turbigo - R\u00e9aumur", "network": "V\u00e9lib\u2019 M\u00e9tropole", "network:wikidata": "Q1120762", "network:wikipedia": "fr:V\u00e9lib' M\u00e9tropole", "operator": "Smovengo", "operator:wikidata": "Q47008427", "operator:wikipedia": "fr:Smovengo", "ref": "3011", "source": "Autolib Velib M\u00e9tropole - 2021-03", "wikidata": "Q86255157"}}, {"type": "node", "id": 5879359748, "lat": 48.8588888, "lon": 2.3789873, "tags": {"amenity": "bicycle_rental", "bicycle_rental": "docking_station", "brand": "V\u00e9lib\u2019 M\u00e9tropole", "brand:wikidata": "Q1120762", "brand:wikipedia": "fr:V\u00e9lib' M\u00e9tropole", "capacity": "51", "name": "Mairie du 11\u00e8me", "network": "V\u00e9lib\u2019 M\u00e9tropole", "network:wikidata": "Q1120762", "network:wikipedia": "fr:V\u00e9lib' M\u00e9tropole", "operator": "Smovengo", "operator:wikidata": "Q47008427", "operator:wikipedia": "fr:Smovengo", "ref": "11024", "source": "Autolib Velib M\u00e9tropole - 04/2020", "unsigned_ref": "39254792", "wikidata": "Q86254537"}}, {"type": "node", "id": 5882629462, "lat": 48.8645182, "lon": 2.3616458, "tags": {"amenity": "bicycle_rental", "bicycle_rental": "docking_station", "brand": "V\u00e9lib\u2019 M\u00e9tropole", "brand:wikidata": "Q1120762", "capacity": "32", "name": "Mairie du 3\u00e8me", "network": "V\u00e9lib\u2019 M\u00e9tropole", "network:wikidata": "Q1120762", "operator": "Smovengo", "operator:wikidata": "Q47008427", "ref": "3006", "source": "Autolib Velib M\u00e9tropole - 2021-03", "wikidata": "Q86255132"}}, {"type": "node", "id": 5925974721, "lat": 48.8652434, "lon": 2.3516713, "tags": {"amenity": "bicycle_rental", "bicycle_rental": "docking_station", "brand": "V\u00e9lib\u2019 M\u00e9tropole", "brand:wikidata": "Q1120762", "brand:wikipedia": "fr:V\u00e9lib' M\u00e9tropole", "capacity": "30", "name": "Greneta - Sebastopol", "network": "V\u00e9lib\u2019 M\u00e9tropole", "network:wikidata": "Q1120762", "network:wikipedia": "fr:V\u00e9lib' M\u00e9tropole", "operator": "Smovengo", "operator:wikidata": "Q47008427", "operator:wikipedia": "fr:Smovengo", "ref": "2001", "source": "Autolib Velib M\u00e9tropole - 04/2020", "wikidata": "Q86254755"}}, {"type": "node", "id": 5925974722, "lat": 48.8661916, "lon": 2.3508795, "tags": {"amenity": "bicycle_rental", "bicycle_rental": "docking_station", "brand": "V\u00e9lib\u2019 M\u00e9tropole", "brand:wikidata": "Q1120762", "brand:wikipedia": "fr:V\u00e9lib' M\u00e9tropole", "capacity": "32", "name": "Saint-Denis - R\u00e9aumur", "network": "V\u00e9lib\u2019 M\u00e9tropole", "network:wikidata": "Q1120762", "network:wikipedia": "fr:V\u00e9lib' M\u00e9tropole", "operator": "Smovengo", "operator:wikidata": "Q47008427", "operator:wikipedia": "fr:Smovengo", "ref": "2003", "source": "Autolib Velib M\u00e9tropole - 2021-03", "wikidata": "Q86254732"}}, {"type": "node", "id": 5932559744, "lat": 48.8731596, "lon": 2.379849, "tags": {"amenity": "bicycle_rental", "bicycle_rental": "docking_station", "brand": "V\u00e9lib\u2019 M\u00e9tropole", "brand:wikidata": "Q1120762", "brand:wikipedia": "fr:V\u00e9lib' M\u00e9tropole", "capacity": "17", "name": "Rampal - Belleville", "network": "V\u00e9lib\u2019 M\u00e9tropole", "network:wikidata": "Q1120762", "network:wikipedia": "fr:V\u00e9lib' M\u00e9tropole", "operator": "Smovengo", "operator:wikidata": "Q47008427", "operator:wikipedia": "fr:Smovengo", "ref": "19102", "source": "survey 09/2018", "wikidata": "Q86254826"}}, {"type": "node", "id": 5957673015, "lat": 48.8638545, "lon": 2.3425244}, {"type": "node", "id": 5957673016, "lat": 48.8638515, "lon": 2.3424921}, {"type": "node", "id": 5959879034, "lat": 48.8439515, "lon": 2.379015, "tags": {"amenity": "bicycle_rental", "bicycle_rental": "docking_station", "brand": "V\u00e9lib\u2019 M\u00e9tropole", "brand:wikidata": "Q1120762", "brand:wikipedia": "fr:V\u00e9lib' M\u00e9tropole", "capacity": "68", "name": "Gare de Lyon - Roland Barthes", "network": "V\u00e9lib\u2019 M\u00e9tropole", "network:wikidata": "Q1120762", "network:wikipedia": "fr:V\u00e9lib' M\u00e9tropole", "operator": "Smovengo", "operator:wikidata": "Q47008427", "operator:wikipedia": "fr:Smovengo", "ref": "12106", "source": "survey 10/2018", "wikidata": "Q86252679"}}, {"type": "node", "id": 5964620983, "lat": 48.8570865, "lon": 2.3417635, "tags": {"amenity": "bicycle_rental", "bicycle_rental": "docking_station", "brand": "V\u00e9lib\u2019 M\u00e9tropole", "brand:wikidata": "Q1120762", "brand:wikipedia": "fr:V\u00e9lib' M\u00e9tropole", "capacity": "17", "name": "Quai de l'Horloge - Pont Neuf", "network": "V\u00e9lib\u2019 M\u00e9tropole", "network:wikidata": "Q1120762", "network:wikipedia": "fr:V\u00e9lib' M\u00e9tropole", "operator": "Smovengo", "operator:wikidata": "Q47008427", "operator:wikipedia": "fr:Smovengo", "ref": "1001", "source": "Autolib Velib M\u00e9tropole - 2021-03", "unsigned_ref": "323616530", "wikidata": "Q86255080"}}, {"type": "node", "id": 6003453210, "lat": 48.8703409, "lon": 2.3842505, "tags": {"amenity": "bicycle_rental", "bicycle_rental": "docking_station", "brand": "V\u00e9lib\u2019 M\u00e9tropole", "brand:wikidata": "Q1120762", "brand:wikipedia": "fr:V\u00e9lib' M\u00e9tropole", "capacity": "26", "name": "Parc de Belleville - Julien Lacroix", "network": "V\u00e9lib\u2019 M\u00e9tropole", "network:wikidata": "Q1120762", "network:wikipedia": "fr:V\u00e9lib' M\u00e9tropole", "operator": "Smovengo", "operator:wikidata": "Q47008427", "operator:wikipedia": "fr:Smovengo", "ref": "20040", "source": "Autolib Velib M\u00e9tropole - 04/2020", "unsigned_ref": "74620630", "wikidata": "Q86253260"}}, {"type": "node", "id": 6015194639, "lat": 48.8424038, "lon": 2.3639006, "tags": {"amenity": "bicycle_rental", "bicycle_rental": "docking_station", "brand": "V\u00e9lib\u2019 M\u00e9tropole", "brand:wikidata": "Q1120762", "brand:wikipedia": "fr:V\u00e9lib' M\u00e9tropole", "capacity": "14", "name": "Gare d'Austerlitz", "network": "V\u00e9lib\u2019 M\u00e9tropole", "network:wikidata": "Q1120762", "network:wikipedia": "fr:V\u00e9lib' M\u00e9tropole", "operator": "Smovengo", "operator:wikidata": "Q47008427", "operator:wikipedia": "fr:Smovengo", "payment:credit_cards": "yes", "ref": "13014", "source": "Autolib Velib M\u00e9tropole - 04/2020", "unsigned_ref": "210753033", "vending": "yes", "wikidata": "Q86253345"}}, {"type": "node", "id": 6015216957, "lat": 48.8418549, "lon": 2.3634917, "tags": {"amenity": "bicycle_rental", "bicycle_rental": "docking_station", "brand": "V\u00e9lib\u2019 M\u00e9tropole", "brand:wikidata": "Q1120762", "brand:wikipedia": "fr:V\u00e9lib' M\u00e9tropole", "capacity": "19", "disused:amenity": "bicycle_rental", "name": "Gare d'Austerlitz - H\u00f4pital", "network": "V\u00e9lib\u2019 M\u00e9tropole", "network:wikidata": "Q1120762", "network:wikipedia": "fr:V\u00e9lib' M\u00e9tropole", "note": "2020-04 : does not exist according to open data paris ; 2020-05 : n'est pas en place en effet, travaux", "operator": "Smovengo", "operator:wikidata": "Q47008427", "operator:wikipedia": "fr:Smovengo", "payment:credit_cards": "yes", "ref": "13127", "source": "Autolib Velib M\u00e9tropole - 04/2019", "unsigned_ref": "213678936", "vending": "yes", "wikidata": "Q110496305"}}, {"type": "node", "id": 6150502839, "lat": 48.8415833, "lon": 2.3487158, "tags": {"amenity": "bicycle_rental", "bicycle_rental": "docking_station", "brand": "V\u00e9lib\u2019 M\u00e9tropole", "brand:wikidata": "Q1120762", "brand:wikipedia": "fr:V\u00e9lib' M\u00e9tropole", "capacity": "28", "name": "Jean Calvin - Tournefort", "network": "V\u00e9lib\u2019 M\u00e9tropole", "network:wikidata": "Q1120762", "network:wikipedia": "fr:V\u00e9lib' M\u00e9tropole", "operator": "Smovengo", "operator:wikidata": "Q47008427", "operator:wikipedia": "fr:Smovengo", "ref": "5014", "source": "Autolib Velib M\u00e9tropole - 04/2020", "wikidata": "Q86255432"}}, {"type": "node", "id": 6178003146, "lat": 48.87288, "lon": 2.3762286, "tags": {"amenity": "bicycle_rental", "bicycle_rental": "docking_station", "brand": "V\u00e9lib\u2019 M\u00e9tropole", "brand:wikidata": "Q1120762", "brand:wikipedia": "fr:V\u00e9lib' M\u00e9tropole", "capacity": "48", "name": "Villette - Belleville", "network": "V\u00e9lib\u2019 M\u00e9tropole", "network:wikidata": "Q1120762", "network:wikipedia": "fr:V\u00e9lib' M\u00e9tropole", "operator": "Smovengo", "operator:wikidata": "Q47008427", "operator:wikipedia": "fr:Smovengo", "ref": "19032", "source": "survey 09/2018", "unsigned_ref": "549876068", "wikidata": "Q86254971"}}, {"type": "node", "id": 6193061718, "lat": 48.8471553, "lon": 2.3534748, "tags": {"amenity": "bicycle_rental", "bicycle_rental": "docking_station", "brand": "V\u00e9lib\u2019 M\u00e9tropole", "brand:wikidata": "Q1120762", "brand:wikipedia": "fr:V\u00e9lib' M\u00e9tropole", "capacity": "39", "name": "Jussieu - Foss\u00e9s Saint-Bernard", "network": "V\u00e9lib\u2019 M\u00e9tropole", "network:wikidata": "Q1120762", "network:wikipedia": "fr:V\u00e9lib' M\u00e9tropole", "operator": "Smovengo", "operator:wikidata": "Q47008427", "operator:wikipedia": "fr:Smovengo", "ref": "5021", "source": "Autolib Velib M\u00e9tropole - 04/2020", "unsigned_ref": "54000544", "wikidata": "Q86255440"}}, {"type": "node", "id": 6320368373, "lat": 48.8559636, "lon": 2.3563873, "tags": {"amenity": "bicycle_rental", "bicycle_rental": "docking_station", "brand": "V\u00e9lib\u2019 M\u00e9tropole", "brand:wikidata": "Q1120762", "brand:wikipedia": "fr:V\u00e9lib' M\u00e9tropole", "capacity": "44", "contact:city": "Paris", "contact:email": "info@velib-metropole.fr", "contact:housenumber": "25", "contact:phone": "+33 1 76 49 12 34", "contact:postcode": "75004", "contact:street": "Rue du Pont Louis-Philippe", "contact:website": "https://www.velib-metropole.fr", "covered": "no", "fee": "yes", "name": "Mairie du 4\u00e8me", "network": "V\u00e9lib\u2019 M\u00e9tropole", "network:wikidata": "Q1120762", "network:wikipedia": "fr:V\u00e9lib' M\u00e9tropole", "opening_hours": "24/7", "operator": "Smovengo", "operator:wikidata": "Q47008427", "operator:wikipedia": "fr:Smovengo", "ref": "4015", "source": "Autolib Velib M\u00e9tropole - 2021-03", "unsigned_ref": "100767550", "wheelchair": "yes", "wikidata": "Q86255040"}}, {"type": "node", "id": 6338334564, "lat": 48.8710547, "lon": 2.3792237, "tags": {"amenity": "bicycle_rental", "bicycle_rental": "docking_station", "brand": "V\u00e9lib\u2019 M\u00e9tropole", "brand:wikidata": "Q1120762", "brand:wikipedia": "fr:V\u00e9lib' M\u00e9tropole", "capacity": "44", "name": "Ramponeau - Belleville", "network": "V\u00e9lib\u2019 M\u00e9tropole", "network:wikidata": "Q1120762", "network:wikipedia": "fr:V\u00e9lib' M\u00e9tropole", "operator": "Smovengo", "operator:wikidata": "Q47008427", "operator:wikipedia": "fr:Smovengo", "ref": "20143", "source": "Autolib Velib M\u00e9tropole - 04/2019", "wikidata": "Q86253139"}}, {"type": "node", "id": 6356590085, "lat": 48.8679361, "lon": 2.3649665, "tags": {"amenity": "bicycle_rental", "bicycle_rental": "docking_station", "brand": "V\u00e9lib\u2019 M\u00e9tropole", "brand:wikidata": "Q1120762", "brand:wikipedia": "fr:V\u00e9lib' M\u00e9tropole", "capacity": "38", "check_date": "2023-03-19", "name": "Faubourg Du Temple - Republique", "network": "V\u00e9lib\u2019 M\u00e9tropole", "network:wikidata": "Q1120762", "network:wikipedia": "fr:V\u00e9lib' M\u00e9tropole", "operator": "Smovengo", "operator:wikidata": "Q47008427", "operator:wikipedia": "fr:Smovengo", "ref": "11037", "source": "Autolib Velib M\u00e9tropole - 2021-03", "unsigned_ref": "312165511", "wikidata": "Q86254502"}}, {"type": "node", "id": 6360315837, "lat": 48.8716565, "lon": 2.3639089, "tags": {"amenity": "bicycle_rental", "bicycle_rental": "docking_station", "brand": "V\u00e9lib\u2019 M\u00e9tropole", "brand:wikidata": "Q1120762", "brand:wikipedia": "fr:V\u00e9lib' M\u00e9tropole", "capacity": "55", "name": "Marseille - Beaurepaire", "network": "V\u00e9lib\u2019 M\u00e9tropole", "network:wikidata": "Q1120762", "network:wikipedia": "fr:V\u00e9lib' M\u00e9tropole", "operator": "Smovengo", "operator:wikidata": "Q47008427", "operator:wikipedia": "fr:Smovengo", "ref": "10014", "source": "Autolib Velib M\u00e9tropole - 04/2020", "wikidata": "Q86252920"}}, {"type": "node", "id": 6374141138, "lat": 48.8415031, "lon": 2.3498898, "tags": {"amenity": "bicycle_rental", "bicycle_rental": "docking_station", "brand": "V\u00e9lib\u2019 M\u00e9tropole", "brand:wikidata": "Q1120762", "brand:wikipedia": "fr:V\u00e9lib' M\u00e9tropole", "capacity": "63", "name": "Ep\u00e9e de Bois - Mouffetard", "network": "V\u00e9lib\u2019 M\u00e9tropole", "network:wikidata": "Q1120762", "network:wikipedia": "fr:V\u00e9lib' M\u00e9tropole", "operator": "Smovengo", "operator:wikidata": "Q47008427", "operator:wikipedia": "fr:Smovengo", "ref": "5015", "source": "Autolib Velib M\u00e9tropole - 04/2020", "vending": "yes", "wikidata": "Q86255391"}}, {"type": "node", "id": 6378406945, "lat": 48.8497384, "lon": 2.3647749, "tags": {"amenity": "bicycle_rental", "bicycle_rental": "docking_station", "brand": "V\u00e9lib\u2019 M\u00e9tropole", "brand:wikidata": "Q1120762", "brand:wikipedia": "fr:V\u00e9lib' M\u00e9tropole", "capacity": "15", "name": "Mornay - Sully", "network": "V\u00e9lib\u2019 M\u00e9tropole", "network:wikidata": "Q1120762", "network:wikipedia": "fr:V\u00e9lib' M\u00e9tropole", "operator": "Smovengo", "operator:wikidata": "Q47008427", "operator:wikipedia": "fr:Smovengo", "ref": "4109", "source": "Survey", "wikidata": "Q86254988"}}, {"type": "node", "id": 6378406946, "lat": 48.8512799, "lon": 2.3624287, "tags": {"amenity": "bicycle_rental", "bicycle_rental": "docking_station", "brand": "V\u00e9lib\u2019 M\u00e9tropole", "brand:wikidata": "Q1120762", "brand:wikipedia": "fr:V\u00e9lib' M\u00e9tropole", "capacity": "14", "name": "Quai des C\u00e9lestins - Henri IV", "network": "V\u00e9lib\u2019 M\u00e9tropole", "network:wikidata": "Q1120762", "network:wikipedia": "fr:V\u00e9lib' M\u00e9tropole", "operator": "Smovengo", "operator:wikidata": "Q47008427", "operator:wikipedia": "fr:Smovengo", "ref": "4005", "source": "Survey", "unsigned_ref": "516395829", "wikidata": "Q86254995"}}, {"type": "node", "id": 6379760208, "lat": 48.8678728, "lon": 2.372704, "tags": {"amenity": "bicycle_rental", "bicycle_rental": "docking_station", "brand": "V\u00e9lib\u2019 M\u00e9tropole", "brand:wikidata": "Q1120762", "brand:wikipedia": "fr:V\u00e9lib' M\u00e9tropole", "capacity": "48", "check_date": "2023-03-11", "name": "Parmentier - Fontaine au Roi", "network": "V\u00e9lib\u2019 M\u00e9tropole", "network:wikidata": "Q1120762", "network:wikipedia": "fr:V\u00e9lib' M\u00e9tropole", "operator": "Smovengo", "operator:wikidata": "Q47008427", "operator:wikipedia": "fr:Smovengo", "ref": "11034", "source": "Autolib Velib M\u00e9tropole - 04/2020", "unsigned_ref": "100910836", "wikidata": "Q86254511"}}, {"type": "node", "id": 6380249071, "lat": 48.8692157, "lon": 2.3717096, "tags": {"amenity": "bicycle_rental", "bicycle_rental": "docking_station", "brand": "V\u00e9lib\u2019 M\u00e9tropole", "brand:wikidata": "Q1120762", "brand:wikipedia": "fr:V\u00e9lib' M\u00e9tropole", "capacity": "53", "check_date": "2023-03-11", "name": "Parmentier - Abel Rabaud", "network": "V\u00e9lib\u2019 M\u00e9tropole", "network:wikidata": "Q1120762", "network:wikipedia": "fr:V\u00e9lib' M\u00e9tropole", "operator": "Smovengo", "operator:wikidata": "Q47008427", "operator:wikipedia": "fr:Smovengo", "ref": "11035", "source": "Autolib Velib M\u00e9tropole - 04/2020", "unsigned_ref": "54001024", "wikidata": "Q86254503"}}, {"type": "node", "id": 6380255682, "lat": 48.8377177, "lon": 2.3604526, "tags": {"amenity": "bicycle_rental", "bicycle_rental": "docking_station", "brand": "V\u00e9lib\u2019 M\u00e9tropole", "brand:wikidata": "Q1120762", "brand:wikipedia": "fr:V\u00e9lib' M\u00e9tropole", "capacity": "50", "name": "H\u00f4pital Piti\u00e9 Salp\u00eatri\u00e8re", "network": "V\u00e9lib\u2019 M\u00e9tropole", "network:wikidata": "Q1120762", "network:wikipedia": "fr:V\u00e9lib' M\u00e9tropole", "operator": "Smovengo", "operator:wikidata": "Q47008427", "operator:wikipedia": "fr:Smovengo", "payment:credit_cards": "yes", "ref": "13103", "source": "Autolib Velib M\u00e9tropole - 04/2019", "unsigned_ref": "35137730", "vending": "yes", "wikidata": "Q86253360"}}, {"type": "node", "id": 6380255683, "lat": 48.8395379, "lon": 2.3608592, "tags": {"amenity": "bicycle_rental", "bicycle_rental": "docking_station", "brand": "V\u00e9lib\u2019 M\u00e9tropole", "brand:wikidata": "Q1120762", "brand:wikipedia": "fr:V\u00e9lib' M\u00e9tropole", "capacity": "21", "name": "Saint-Marcel - H\u00f4pital", "network": "V\u00e9lib\u2019 M\u00e9tropole", "network:wikidata": "Q1120762", "network:wikipedia": "fr:V\u00e9lib' M\u00e9tropole", "operator": "Smovengo", "operator:wikidata": "Q47008427", "operator:wikipedia": "fr:Smovengo", "payment:credit_cards": "yes", "ref": "13013", "source": "Autolib Velib M\u00e9tropole - 04/2019", "unsigned_ref": "66507230", "vending": "yes", "wikidata": "Q86253477"}}, {"type": "node", "id": 6380617544, "lat": 48.864548, "lon": 2.3730717, "tags": {"amenity": "bicycle_rental", "bicycle_rental": "docking_station", "brand": "V\u00e9lib\u2019 M\u00e9tropole", "brand:wikidata": "Q1120762", "brand:wikipedia": "fr:V\u00e9lib' M\u00e9tropole", "capacity": "39", "name": "Jacquard - Ternaux", "network": "V\u00e9lib\u2019 M\u00e9tropole", "network:wikidata": "Q1120762", "network:wikipedia": "fr:V\u00e9lib' M\u00e9tropole", "operator": "Smovengo", "operator:wikidata": "Q47008427", "operator:wikipedia": "fr:Smovengo", "ref": "11031", "source": "Autolib Velib M\u00e9tropole - 04/2020", "unsigned_ref": "97705710", "wikidata": "Q86254546"}}, {"type": "node", "id": 6389571744, "lat": 48.8660926, "lon": 2.3596278, "tags": {"amenity": "bicycle_rental", "bicycle_rental": "docking_station", "brand": "V\u00e9lib\u2019 M\u00e9tropole", "brand:wikidata": "Q1120762", "brand:wikipedia": "fr:V\u00e9lib' M\u00e9tropole", "capacity": "33", "name": "Sainte-Elisabeth - Turbigo", "network": "V\u00e9lib\u2019 M\u00e9tropole", "network:wikidata": "Q1120762", "network:wikipedia": "fr:V\u00e9lib' M\u00e9tropole", "operator": "Smovengo", "operator:wikidata": "Q47008427", "operator:wikipedia": "fr:Smovengo", "ref": "3005", "source": "Autolib Velib M\u00e9tropole - 04/2020", "wikidata": "Q86255129"}}, {"type": "node", "id": 6389571745, "lat": 48.8624372, "lon": 2.3595188, "tags": {"amenity": "bicycle_rental", "bicycle_rental": "docking_station", "brand": "V\u00e9lib\u2019 M\u00e9tropole", "brand:wikidata": "Q1120762", "brand:wikipedia": "fr:V\u00e9lib' M\u00e9tropole", "capacity": "28", "name": "Archives - Pastourelle", "network": "V\u00e9lib\u2019 M\u00e9tropole", "network:wikidata": "Q1120762", "network:wikipedia": "fr:V\u00e9lib' M\u00e9tropole", "operator": "Smovengo", "operator:wikidata": "Q47008427", "operator:wikipedia": "fr:Smovengo", "ref": "3007", "source": "Autolib Velib M\u00e9tropole - 04/2020", "unsigned_ref": "653040243", "wikidata": "Q86255162"}}, {"type": "node", "id": 6389571746, "lat": 48.8613954, "lon": 2.3525409, "tags": {"amenity": "bicycle_rental", "bicycle_rental": "docking_station", "brand": "V\u00e9lib\u2019 M\u00e9tropole", "brand:wikidata": "Q1120762", "brand:wikipedia": "fr:V\u00e9lib' M\u00e9tropole", "capacity": "26", "name": "Centre Georges Pompidou", "network": "V\u00e9lib\u2019 M\u00e9tropole", "network:wikidata": "Q1120762", "network:wikipedia": "fr:V\u00e9lib' M\u00e9tropole", "operator": "Smovengo", "operator:wikidata": "Q47008427", "operator:wikipedia": "fr:Smovengo", "ref": "4021", "source": "Autolib Velib M\u00e9tropole - 2021-03", "unsigned_ref": "210395439", "wikidata": "Q86254982"}}, {"type": "node", "id": 6389571747, "lat": 48.8624999, "lon": 2.3542486, "tags": {"amenity": "bicycle_rental", "bicycle_rental": "docking_station", "brand": "V\u00e9lib\u2019 M\u00e9tropole", "brand:wikidata": "Q1120762", "brand:wikipedia": "fr:V\u00e9lib' M\u00e9tropole", "capacity": "17", "name": "Beaubourg - Michel-le-Comte", "network": "V\u00e9lib\u2019 M\u00e9tropole", "network:wikidata": "Q1120762", "network:wikipedia": "fr:V\u00e9lib' M\u00e9tropole", "operator": "Smovengo", "operator:wikidata": "Q47008427", "operator:wikipedia": "fr:Smovengo", "ref": "3010", "source": "Autolib Velib M\u00e9tropole - 2022-09", "unsigned_ref": "66491367", "wikidata": "Q86255137"}}, {"type": "node", "id": 6389571748, "lat": 48.8684965, "lon": 2.3600097, "tags": {"amenity": "bicycle_rental", "bicycle_rental": "docking_station", "brand": "V\u00e9lib\u2019 M\u00e9tropole", "brand:wikidata": "Q1120762", "brand:wikipedia": "fr:V\u00e9lib' M\u00e9tropole", "capacity": "62", "check_date": "2023-03-18", "name": "Ren\u00e9 Boulanger - Lancry", "network": "V\u00e9lib\u2019 M\u00e9tropole", "network:wikidata": "Q1120762", "network:wikipedia": "fr:V\u00e9lib' M\u00e9tropole", "operator": "Smovengo", "operator:wikidata": "Q47008427", "operator:wikipedia": "fr:Smovengo", "ref": "10001", "source": "Autolib Velib M\u00e9tropole - 04/2020", "wikidata": "Q86252931"}}, {"type": "node", "id": 6389571749, "lat": 48.8685995, "lon": 2.3557832, "tags": {"amenity": "bicycle_rental", "bicycle_rental": "docking_station", "brand": "V\u00e9lib\u2019 M\u00e9tropole", "brand:wikidata": "Q1120762", "brand:wikipedia": "fr:V\u00e9lib' M\u00e9tropole", "capacity": "35", "name": "Porte Saint-Martin", "network": "V\u00e9lib\u2019 M\u00e9tropole", "network:wikidata": "Q1120762", "network:wikipedia": "fr:V\u00e9lib' M\u00e9tropole", "operator": "Smovengo", "operator:wikidata": "Q47008427", "operator:wikipedia": "fr:Smovengo", "ref": "3101", "source": "Autolib Velib M\u00e9tropole - 04/2020", "wikidata": "Q86255167"}}, {"type": "node", "id": 6389571750, "lat": 48.8674928, "lon": 2.3536572, "tags": {"amenity": "bicycle_rental", "bicycle_rental": "docking_station", "brand": "V\u00e9lib\u2019 M\u00e9tropole", "brand:wikidata": "Q1120762", "brand:wikipedia": "fr:V\u00e9lib' M\u00e9tropole", "capacity": "25", "name": "Square \u00c9mile - Chautemps", "network": "V\u00e9lib\u2019 M\u00e9tropole", "network:wikidata": "Q1120762", "network:wikipedia": "fr:V\u00e9lib' M\u00e9tropole", "operator": "Smovengo", "operator:wikidata": "Q47008427", "operator:wikipedia": "fr:Smovengo", "ref": "3012", "source": "Autolib Velib M\u00e9tropole - 2021-03", "wikidata": "Q86255143"}}, {"type": "node", "id": 6389594176, "lat": 48.8656744, "lon": 2.3653644, "tags": {"amenity": "bicycle_rental", "bicycle_rental": "docking_station", "brand": "V\u00e9lib\u2019 M\u00e9tropole", "brand:wikidata": "Q1120762", "brand:wikipedia": "fr:V\u00e9lib' M\u00e9tropole", "capacity": "45", "name": "Temple - Charlot", "network": "V\u00e9lib\u2019 M\u00e9tropole", "network:wikidata": "Q1120762", "network:wikipedia": "fr:V\u00e9lib' M\u00e9tropole", "operator": "Smovengo", "operator:wikidata": "Q47008427", "operator:wikipedia": "fr:Smovengo", "ref": "11038", "source": "Autolib Velib M\u00e9tropole - 04/2020", "wikidata": "Q86254501"}}, {"type": "node", "id": 6389594177, "lat": 48.8658519, "lon": 2.3693032, "tags": {"amenity": "bicycle_rental", "bicycle_rental": "docking_station", "brand": "V\u00e9lib\u2019 M\u00e9tropole", "brand:wikidata": "Q1120762", "brand:wikipedia": "fr:V\u00e9lib' M\u00e9tropole", "capacity": "36", "check_date": "2023-04-08", "name": "Richard Lenoir - Jean-Pierre Timbaud", "network": "V\u00e9lib\u2019 M\u00e9tropole", "network:wikidata": "Q1120762", "network:wikipedia": "fr:V\u00e9lib' M\u00e9tropole", "operator": "Smovengo", "operator:wikidata": "Q47008427", "operator:wikipedia": "fr:Smovengo", "ref": "11039", "source": "Autolib Velib M\u00e9tropole - 04/2020", "unsigned_ref": "37791", "wikidata": "Q86254563"}}, {"type": "node", "id": 6389594178, "lat": 48.8665934, "lon": 2.3692914, "tags": {"amenity": "bicycle_rental", "bicycle_rental": "docking_station", "brand": "V\u00e9lib\u2019 M\u00e9tropole", "brand:wikidata": "Q1120762", "brand:wikipedia": "fr:V\u00e9lib' M\u00e9tropole", "capacity": "58", "name": "Richard Lenoir - Republique", "network": "V\u00e9lib\u2019 M\u00e9tropole", "network:wikidata": "Q1120762", "network:wikipedia": "fr:V\u00e9lib' M\u00e9tropole", "operator": "Smovengo", "operator:wikidata": "Q47008427", "operator:wikipedia": "fr:Smovengo", "ref": "11113", "source": "Autolib Velib M\u00e9tropole - 04/2020", "unsigned_ref": "532054446", "wikidata": "Q86254516"}}, {"type": "node", "id": 6389594179, "lat": 48.8684447, "lon": 2.3678484, "tags": {"amenity": "bicycle_rental", "bicycle_rental": "docking_station", "brand": "V\u00e9lib\u2019 M\u00e9tropole", "brand:wikidata": "Q1120762", "brand:wikipedia": "fr:V\u00e9lib' M\u00e9tropole", "capacity": "58", "check_date": "2023-03-18", "name": "Jules Ferry - Faubourg du Temple Paris", "network": "V\u00e9lib\u2019 M\u00e9tropole", "network:wikidata": "Q1120762", "network:wikipedia": "fr:V\u00e9lib' M\u00e9tropole", "operator": "Smovengo", "operator:wikidata": "Q47008427", "operator:wikipedia": "fr:Smovengo", "ref": "11036", "source": "Autolib Velib M\u00e9tropole - 04/2020", "unsigned_ref": "49368561", "wikidata": "Q86254494"}}, {"type": "node", "id": 6389594180, "lat": 48.8710914, "lon": 2.3661602, "tags": {"amenity": "bicycle_rental", "bicycle_rental": "docking_station", "brand": "V\u00e9lib\u2019 M\u00e9tropole", "brand:wikidata": "Q1120762", "brand:wikipedia": "fr:V\u00e9lib' M\u00e9tropole", "capacity": "60", "check_date": "2023-07-07", "name": "Alibert - Jemmapes", "network": "V\u00e9lib\u2019 M\u00e9tropole", "network:wikidata": "Q1120762", "network:wikipedia": "fr:V\u00e9lib' M\u00e9tropole", "operator": "Smovengo", "operator:wikidata": "Q47008427", "operator:wikipedia": "fr:Smovengo", "ref": "10013", "source": "Autolib Velib M\u00e9tropole - 2021-03", "unsigned_ref": "123095125", "wikidata": "Q86253003"}}, {"type": "node", "id": 6389594181, "lat": 48.8690345, "lon": 2.362289, "tags": {"amenity": "bicycle_rental", "bicycle_rental": "docking_station", "brand": "V\u00e9lib\u2019 M\u00e9tropole", "brand:wikidata": "Q1120762", "brand:wikipedia": "fr:V\u00e9lib' M\u00e9tropole", "capacity": "17", "check_date": "2023-03-18", "name": "Bourse du Travail", "network": "V\u00e9lib\u2019 M\u00e9tropole", "network:wikidata": "Q1120762", "network:wikipedia": "fr:V\u00e9lib' M\u00e9tropole", "operator": "Smovengo", "operator:wikidata": "Q47008427", "operator:wikipedia": "fr:Smovengo", "ref": "10011", "source": "Autolib Velib M\u00e9tropole - 04/2020", "wikidata": "Q86253052"}}, {"type": "node", "id": 6408614820, "lat": 48.8408744, "lon": 2.3875652, "tags": {"amenity": "bicycle_rental", "bicycle_rental": "docking_station", "capacity": "30", "covered": "no", "fee": "yes", "name": "Mairie du 12\u00e8me", "network": "V\u00e9lib\u2019", "opening_hours": "24/7", "operator": "Smovengo", "payment:credit_cards": "no", "ref": "12109", "source": "Autolib Velib M\u00e9tropole - 2021-03", "vending": "no", "wikidata": "Q86252604"}}, {"type": "node", "id": 6417514114, "lat": 48.8641872, "lon": 2.3782745, "tags": {"amenity": "bicycle_rental", "bicycle_rental": "docking_station", "brand": "V\u00e9lib\u2019 M\u00e9tropole", "brand:wikidata": "Q1120762", "brand:wikipedia": "fr:V\u00e9lib' M\u00e9tropole", "capacity": "38", "name": "Saint-Maur - R\u00e9publique", "network": "V\u00e9lib\u2019 M\u00e9tropole", "network:wikidata": "Q1120762", "network:wikipedia": "fr:V\u00e9lib' M\u00e9tropole", "operator": "Smovengo", "operator:wikidata": "Q47008427", "operator:wikipedia": "fr:Smovengo", "ref": "11018", "source": "Autolib Velib M\u00e9tropole - 2021-03", "wikidata": "Q86254526"}}, {"type": "node", "id": 6418480208, "lat": 48.8712408, "lon": 2.3414049, "tags": {"amenity": "bicycle_rental", "bicycle_rental": "docking_station", "brand": "V\u00e9lib\u2019 M\u00e9tropole", "brand:wikidata": "Q1120762", "brand:wikipedia": "fr:V\u00e9lib' M\u00e9tropole", "capacity": "39", "name": "Vivienne - Montmartre", "network": "V\u00e9lib\u2019 M\u00e9tropole", "network:wikidata": "Q1120762", "network:wikipedia": "fr:V\u00e9lib' M\u00e9tropole", "operator": "Smovengo", "operator:wikidata": "Q47008427", "operator:wikipedia": "fr:Smovengo", "ref": "2108", "wikidata": "Q86254745"}}, {"type": "node", "id": 6422056073, "lat": 48.8400675, "lon": 2.3787546, "tags": {"amenity": "bicycle_rental", "bicycle_rental": "docking_station", "brand": "V\u00e9lib\u2019 M\u00e9tropole", "brand:wikidata": "Q1120762", "brand:wikipedia": "fr:V\u00e9lib' M\u00e9tropole", "capacity": "66", "name": "Bercy", "network": "V\u00e9lib\u2019 M\u00e9tropole", "network:wikidata": "Q1120762", "network:wikipedia": "fr:V\u00e9lib' M\u00e9tropole", "operator": "Smovengo", "operator:wikidata": "Q47008427", "operator:wikipedia": "fr:Smovengo", "payment:credit_cards": "no", "ref": "12108", "source": "Autolib Velib M\u00e9tropole - 04/2020", "vending": "no", "wikidata": "Q86252786"}}, {"type": "node", "id": 6422056074, "lat": 48.8397396, "lon": 2.3827511, "tags": {"amenity": "bicycle_rental", "bicycle_rental": "docking_station", "brand": "V\u00e9lib\u2019 M\u00e9tropole", "brand:wikidata": "Q1120762", "brand:wikipedia": "fr:V\u00e9lib' M\u00e9tropole", "capacity": "35", "name": "Gare de Bercy", "network": "V\u00e9lib\u2019 M\u00e9tropole", "network:wikidata": "Q1120762", "network:wikipedia": "fr:V\u00e9lib' M\u00e9tropole", "operator": "Smovengo", "operator:wikidata": "Q47008427", "operator:wikipedia": "fr:Smovengo", "payment:credit_cards": "yes", "ref": "12024", "source": "Autolib Velib M\u00e9tropole - 04/2020", "vending": "yes", "wikidata": "Q86252766"}}, {"type": "node", "id": 6422056075, "lat": 48.8418487, "lon": 2.3767269, "tags": {"amenity": "bicycle_rental", "bicycle_rental": "docking_station", "brand": "V\u00e9lib\u2019 M\u00e9tropole", "brand:wikidata": "Q1120762", "brand:wikipedia": "fr:V\u00e9lib' M\u00e9tropole", "capacity": "34", "name": "Bercy - Villot", "network": "V\u00e9lib\u2019 M\u00e9tropole", "network:wikidata": "Q1120762", "network:wikipedia": "fr:V\u00e9lib' M\u00e9tropole", "operator": "Smovengo", "operator:wikidata": "Q47008427", "operator:wikipedia": "fr:Smovengo", "payment:credit_cards": "yes", "ref": "12105", "source": "Autolib Velib M\u00e9tropole - 04/2020", "vending": "yes", "wikidata": "Q86252626"}}, {"type": "node", "id": 6422529316, "lat": 48.85198, "lon": 2.3479233, "tags": {"amenity": "bicycle_rental", "bicycle_rental": "docking_station", "brand": "V\u00e9lib\u2019 M\u00e9tropole", "brand:wikidata": "Q1120762", "brand:wikipedia": "fr:V\u00e9lib' M\u00e9tropole", "capacity": "34", "name": "Square Ren\u00e9 Viviani - Montebello", "network": "V\u00e9lib\u2019 M\u00e9tropole", "network:wikidata": "Q1120762", "network:wikipedia": "fr:V\u00e9lib' M\u00e9tropole", "operator": "Smovengo", "operator:wikidata": "Q47008427", "operator:wikipedia": "fr:Smovengo", "ref": "5121", "source": "survey 2019-04-23", "wikidata": "Q86255395"}}, {"type": "node", "id": 6424025687, "lat": 48.8538577, "lon": 2.3697102, "tags": {"amenity": "bicycle_rental", "bicycle_rental": "docking_station", "brand": "V\u00e9lib\u2019 M\u00e9tropole", "brand:wikidata": "Q1120762", "brand:wikipedia": "fr:V\u00e9lib' M\u00e9tropole", "capacity": "53", "name": "Richard Lenoir - Place de la Bastille", "network": "V\u00e9lib\u2019 M\u00e9tropole", "network:wikidata": "Q1120762", "network:wikipedia": "fr:V\u00e9lib' M\u00e9tropole", "operator": "Smovengo", "operator:wikidata": "Q47008427", "operator:wikipedia": "fr:Smovengo", "ref": "11001", "source": "Autolib Velib M\u00e9tropole - 04/2020", "unsigned_ref": "39149651", "wikidata": "Q86254485"}}, {"type": "node", "id": 6424025689, "lat": 48.8678369, "lon": 2.3495454, "tags": {"amenity": "bicycle_rental", "bicycle_rental": "docking_station", "brand": "V\u00e9lib\u2019 M\u00e9tropole", "brand:wikidata": "Q1120762", "brand:wikipedia": "fr:V\u00e9lib' M\u00e9tropole", "capacity": "40", "name": "Caire - Dussoubs", "network": "V\u00e9lib\u2019 M\u00e9tropole", "network:wikidata": "Q1120762", "network:wikipedia": "fr:V\u00e9lib' M\u00e9tropole", "operator": "Smovengo", "operator:wikidata": "Q47008427", "operator:wikipedia": "fr:Smovengo", "ref": "2017", "source": "Autolib Velib M\u00e9tropole - 04/2019", "wikidata": "Q86254773"}}, {"type": "node", "id": 6424034487, "lat": 48.8384236, "lon": 2.3408349, "tags": {"amenity": "bicycle_rental", "bicycle_rental": "docking_station", "brand": "V\u00e9lib\u2019 M\u00e9tropole", "brand:wikidata": "Q1120762", "brand:wikipedia": "fr:V\u00e9lib' M\u00e9tropole", "capacity": "23", "name": "Port Royal - H\u00f4pital Cochin", "network": "V\u00e9lib\u2019 M\u00e9tropole", "network:wikidata": "Q1120762", "network:wikipedia": "fr:V\u00e9lib' M\u00e9tropole", "operator": "Smovengo", "operator:wikidata": "Q47008427", "operator:wikipedia": "fr:Smovengo", "ref": "14004", "wikidata": "Q86252571"}}, {"type": "node", "id": 6424035187, "lat": 48.8512488, "lon": 2.3691771, "tags": {"amenity": "bicycle_rental", "bicycle_rental": "docking_station", "brand": "V\u00e9lib\u2019 M\u00e9tropole", "brand:wikidata": "Q1120762", "capacity": "62", "name": "Bastille - Biscornet", "network": "V\u00e9lib\u2019 M\u00e9tropole", "network:wikidata": "Q1120762", "operator": "Smovengo", "operator:wikidata": "Q47008427", "ref": "12001", "source": "Autolib Velib M\u00e9tropole - 2021-03", "unsigned_ref": "84986959", "wikidata": "Q86252719"}}, {"type": "node", "id": 6424040786, "lat": 48.8376873, "lon": 2.3448263, "tags": {"amenity": "bicycle_rental", "bicycle_rental": "docking_station", "brand": "V\u00e9lib\u2019 M\u00e9tropole", "brand:wikidata": "Q1120762", "brand:wikipedia": "fr:V\u00e9lib' M\u00e9tropole", "capacity": "18", "name": "Port-Royal - H\u00f4pital du Val-de-Gr\u00e2ce", "network": "V\u00e9lib\u2019 M\u00e9tropole", "network:wikidata": "Q1120762", "network:wikipedia": "fr:V\u00e9lib' M\u00e9tropole", "operator": "Smovengo", "operator:wikidata": "Q47008427", "operator:wikipedia": "fr:Smovengo", "ref": "13001", "wikidata": "Q86253431"}}, {"type": "node", "id": 6424042486, "lat": 48.8632485, "lon": 2.3872679, "tags": {"amenity": "bicycle_rental", "bicycle_rental": "docking_station", "brand": "V\u00e9lib\u2019 M\u00e9tropole", "brand:wikidata": "Q1120762", "brand:wikipedia": "fr:V\u00e9lib' M\u00e9tropole", "capacity": "56", "name": "M\u00e9nilmontant - P\u00e8re Lachaise", "network": "V\u00e9lib\u2019 M\u00e9tropole", "network:wikidata": "Q1120762", "network:wikipedia": "fr:V\u00e9lib' M\u00e9tropole", "operator": "Smovengo", "operator:wikidata": "Q47008427", "operator:wikipedia": "fr:Smovengo", "ref": "20030", "source": "Autolib Velib M\u00e9tropole - 04/2020", "unsigned_ref": "54000621", "wikidata": "Q86254533"}}, {"type": "node", "id": 6424042487, "lat": 48.8595823, "lon": 2.3895867, "tags": {"amenity": "bicycle_rental", "bicycle_rental": "docking_station", "brand": "V\u00e9lib\u2019 M\u00e9tropole", "brand:wikidata": "Q1120762", "brand:wikipedia": "fr:V\u00e9lib' M\u00e9tropole", "capacity": "33", "name": "Repos - Cimeti\u00e8re du P\u00e8re Lachaise", "network": "V\u00e9lib\u2019 M\u00e9tropole", "network:wikidata": "Q1120762", "network:wikipedia": "fr:V\u00e9lib' M\u00e9tropole", "operator": "Smovengo", "operator:wikidata": "Q47008427", "operator:wikipedia": "fr:Smovengo", "ref": "20131", "source": "Autolib Velib M\u00e9tropole - 04/2020", "unsigned_ref": "54000625", "wikidata": "Q86253214"}}, {"type": "node", "id": 6424244243, "lat": 48.8689054, "lon": 2.3920111, "tags": {"amenity": "bicycle_rental", "bicycle_rental": "docking_station", "brand": "V\u00e9lib\u2019 M\u00e9tropole", "brand:wikidata": "Q1120762", "brand:wikipedia": "fr:V\u00e9lib' M\u00e9tropole", "capacity": "19", "name": "Boyer - M\u00e9nilmontant", "network": "V\u00e9lib\u2019 M\u00e9tropole", "network:wikidata": "Q1120762", "network:wikipedia": "fr:V\u00e9lib' M\u00e9tropole", "operator": "Smovengo", "operator:wikidata": "Q47008427", "operator:wikipedia": "fr:Smovengo", "ref": "20121", "source": "Autolib Velib M\u00e9tropole - 04/2020", "unsigned_ref": "213702608", "wikidata": "Q86253172"}}, {"type": "node", "id": 6424244244, "lat": 48.8685179, "lon": 2.3897989, "tags": {"amenity": "bicycle_rental", "bicycle_rental": "docking_station", "brand": "V\u00e9lib\u2019 M\u00e9tropole", "brand:wikidata": "Q1120762", "brand:wikipedia": "fr:V\u00e9lib' M\u00e9tropole", "capacity": "24", "name": "Sorbier - M\u00e9nilmontant", "network": "V\u00e9lib\u2019 M\u00e9tropole", "network:wikidata": "Q1120762", "network:wikipedia": "fr:V\u00e9lib' M\u00e9tropole", "operator": "Smovengo", "operator:wikidata": "Q47008427", "operator:wikipedia": "fr:Smovengo", "ref": "20034", "source": "Autolib Velib M\u00e9tropole - 04/2020", "unsigned_ref": "39169029", "wikidata": "Q86253167"}}, {"type": "node", "id": 6424252611, "lat": 48.871979, "lon": 2.3849633, "tags": {"amenity": "bicycle_rental", "bicycle_rental": "docking_station", "brand": "V\u00e9lib\u2019 M\u00e9tropole", "brand:wikidata": "Q1120762", "brand:wikipedia": "fr:V\u00e9lib' M\u00e9tropole", "capacity": "21", "name": "Piat - Parc de Belleville", "network": "V\u00e9lib\u2019 M\u00e9tropole", "network:wikidata": "Q1120762", "network:wikipedia": "fr:V\u00e9lib' M\u00e9tropole", "operator": "Smovengo", "operator:wikidata": "Q47008427", "operator:wikipedia": "fr:Smovengo", "ref": "20113", "unsigned_ref": "129125489", "wikidata": "Q86253092"}}, {"type": "node", "id": 6424252612, "lat": 48.8689025, "lon": 2.3812813, "tags": {"amenity": "bicycle_rental", "bicycle_rental": "docking_station", "brand": "V\u00e9lib\u2019 M\u00e9tropole", "brand:wikidata": "Q1120762", "brand:wikipedia": "fr:V\u00e9lib' M\u00e9tropole", "capacity": "50", "name": "Belleville - Couronnes", "network": "V\u00e9lib\u2019 M\u00e9tropole", "network:wikidata": "Q1120762", "network:wikipedia": "fr:V\u00e9lib' M\u00e9tropole", "operator": "Smovengo", "operator:wikidata": "Q47008427", "operator:wikipedia": "fr:Smovengo", "ref": "20039", "source": "Autolib Velib M\u00e9tropole - 04/2020", "unsigned_ref": "129121741", "wikidata": "Q86253182"}}, {"type": "node", "id": 6424252613, "lat": 48.866621, "lon": 2.3830169, "tags": {"amenity": "bicycle_rental", "bicycle_rental": "docking_station", "brand": "V\u00e9lib\u2019 M\u00e9tropole", "brand:wikidata": "Q1120762", "brand:wikipedia": "fr:V\u00e9lib' M\u00e9tropole", "capacity": "40", "name": "M\u00e9nilmontant - Oberkampf", "network": "V\u00e9lib\u2019 M\u00e9tropole", "network:wikidata": "Q1120762", "network:wikipedia": "fr:V\u00e9lib' M\u00e9tropole", "operator": "Smovengo", "operator:wikidata": "Q47008427", "operator:wikipedia": "fr:Smovengo", "ref": "11029", "source": "Autolib Velib M\u00e9tropole - 04/2020", "wikidata": "Q86254514"}}, {"type": "node", "id": 6424252614, "lat": 48.868027, "lon": 2.3850712, "tags": {"amenity": "bicycle_rental", "bicycle_rental": "docking_station", "brand": "V\u00e9lib\u2019 M\u00e9tropole", "brand:wikidata": "Q1120762", "brand:wikipedia": "fr:V\u00e9lib' M\u00e9tropole", "capacity": "33", "capacity:opendata": "34", "name": "\u00c9tienne Dolet - Place Maurice Chevalier", "network": "V\u00e9lib\u2019 M\u00e9tropole", "network:wikidata": "Q1120762", "network:wikipedia": "fr:V\u00e9lib' M\u00e9tropole", "operator": "Smovengo", "operator:wikidata": "Q47008427", "operator:wikipedia": "fr:Smovengo", "ref": "20033", "source": "Autolib Velib M\u00e9tropole - 04/2020", "source:capacity": "survey 2019-05-01", "unsigned_ref": "70736110", "wikidata": "Q86253108"}}, {"type": "node", "id": 6424262849, "lat": 48.8721161, "lon": 2.3917578, "tags": {"amenity": "bicycle_rental", "bicycle_rental": "docking_station", "brand": "V\u00e9lib\u2019 M\u00e9tropole", "brand:wikidata": "Q1120762", "brand:wikipedia": "fr:V\u00e9lib' M\u00e9tropole", "capacity": "40", "name": "Pyr\u00e9n\u00e9es - Emmery", "network": "V\u00e9lib\u2019 M\u00e9tropole", "network:wikidata": "Q1120762", "network:wikipedia": "fr:V\u00e9lib' M\u00e9tropole", "operator": "Smovengo", "operator:wikidata": "Q47008427", "operator:wikipedia": "fr:Smovengo", "ref": "20042", "unsigned_ref": "102324803", "wikidata": "Q86253226"}}, {"type": "node", "id": 6427426037, "lat": 48.8663224, "lon": 2.371105, "tags": {"amenity": "bicycle_rental", "bicycle_rental": "docking_station", "brand": "V\u00e9lib\u2019 M\u00e9tropole", "brand:wikidata": "Q1120762", "brand:wikipedia": "fr:V\u00e9lib' M\u00e9tropole", "capacity": "23", "check_date": "2023-07-14", "name": "Pierre Lev\u00e9e - Fontaine Timbaud", "network": "V\u00e9lib\u2019 M\u00e9tropole", "network:wikidata": "Q1120762", "network:wikipedia": "fr:V\u00e9lib' M\u00e9tropole", "operator": "Smovengo", "operator:wikidata": "Q47008427", "operator:wikipedia": "fr:Smovengo", "ref": "11109", "source": "survey 2019-04-25", "unsigned_ref": "35147530", "wikidata": "Q86254512"}}, {"type": "node", "id": 6433036361, "lat": 48.8592701, "lon": 2.3467044, "tags": {"amenity": "bicycle_rental", "bicycle_rental": "docking_station", "brand": "V\u00e9lib\u2019 M\u00e9tropole", "brand:wikidata": "Q1120762", "brand:wikipedia": "fr:V\u00e9lib' M\u00e9tropole", "capacity": "27", "name": "Lavandieres Sainte-Opportune - Rivoli", "network": "V\u00e9lib\u2019 M\u00e9tropole", "network:wikidata": "Q1120762", "network:wikipedia": "fr:V\u00e9lib' M\u00e9tropole", "operator": "Smovengo", "operator:wikidata": "Q47008427", "operator:wikipedia": "fr:Smovengo", "ref": "1120", "source": "Autolib Velib M\u00e9tropole - 2022-08", "wikidata": "Q86255052"}}, {"type": "node", "id": 6433039470, "lat": 48.8455394, "lon": 2.3726753, "tags": {"amenity": "bicycle_rental", "bicycle_rental": "docking_station", "capacity": "60", "name": "Gare de Lyon - Place Louis Armand", "network": "V\u00e9lib\u2019", "operator": "Smovengo", "ref": "12151", "source": "Autolib Velib M\u00e9tropole - 2021-03", "wikidata": "Q86252674"}}, {"type": "node", "id": 6433057571, "lat": 48.8590644, "lon": 2.34764, "tags": {"amenity": "bicycle_rental", "bicycle_rental": "docking_station", "brand": "V\u00e9lib\u2019 M\u00e9tropole", "brand:wikidata": "Q1120762", "brand:wikipedia": "fr:V\u00e9lib' M\u00e9tropole", "capacity": "43", "name": "Saint-Denis - Rivoli", "network": "V\u00e9lib\u2019 M\u00e9tropole", "network:wikidata": "Q1120762", "network:wikipedia": "fr:V\u00e9lib' M\u00e9tropole", "operator": "Smovengo", "operator:wikidata": "Q47008427", "operator:wikipedia": "fr:Smovengo", "ref": "1003", "source": "Autolib Velib M\u00e9tropole - 2021-03", "wikidata": "Q86255105"}}, {"type": "node", "id": 6433149877, "lat": 48.8456906, "lon": 2.3742067, "tags": {"amenity": "bicycle_rental", "bicycle_rental": "docking_station", "brand": "V\u00e9lib\u2019 M\u00e9tropole", "brand:wikidata": "Q1120762", "brand:wikipedia": "fr:V\u00e9lib' M\u00e9tropole", "capacity": "50", "name": "Gare de Lyon - Chalon", "network": "V\u00e9lib\u2019 M\u00e9tropole", "network:wikidata": "Q1120762", "network:wikipedia": "fr:V\u00e9lib' M\u00e9tropole", "operator": "Smovengo", "operator:wikidata": "Q47008427", "operator:wikipedia": "fr:Smovengo", "ref": "12007", "source": "Autolib Velib M\u00e9tropole - 04/2020", "wikidata": "Q86252710"}}, {"type": "node", "id": 6433154798, "lat": 48.8438961, "lon": 2.370511, "tags": {"amenity": "bicycle_rental", "bicycle_rental": "docking_station", "brand": "V\u00e9lib\u2019 M\u00e9tropole", "brand:wikidata": "Q1120762", "brand:wikipedia": "fr:V\u00e9lib' M\u00e9tropole", "capacity": "51", "name": "Gare de Lyon - Van Gogh", "network": "V\u00e9lib\u2019 M\u00e9tropole", "network:wikidata": "Q1120762", "network:wikipedia": "fr:V\u00e9lib' M\u00e9tropole", "operator": "Smovengo", "operator:wikidata": "Q47008427", "operator:wikipedia": "fr:Smovengo", "ref": "12006", "source": "Autolib Velib M\u00e9tropole - 04/2020", "wikidata": "Q86252682"}}, {"type": "node", "id": 6433159066, "lat": 48.8580209, "lon": 2.3468887, "tags": {"amenity": "bicycle_rental", "bicycle_rental": "docking_station", "brand": "V\u00e9lib\u2019 M\u00e9tropole", "brand:wikidata": "Q1120762", "brand:wikipedia": "fr:V\u00e9lib' M\u00e9tropole", "capacity": "22", "name": "Victoria - Place du Chatelet", "network": "V\u00e9lib\u2019 M\u00e9tropole", "network:wikidata": "Q1120762", "network:wikipedia": "fr:V\u00e9lib' M\u00e9tropole", "operator": "Smovengo", "operator:wikidata": "Q47008427", "operator:wikipedia": "fr:Smovengo", "ref": "1002", "source": "Autolib Velib M\u00e9tropole - 2021-03", "unsigned_ref": "82328045", "wikidata": "Q86255085"}}, {"type": "node", "id": 6433219535, "lat": 48.8616478, "lon": 2.3566847, "tags": {"amenity": "bicycle_rental", "bicycle_rental": "docking_station", "brand": "V\u00e9lib\u2019 M\u00e9tropole", "brand:wikidata": "Q1120762", "brand:wikipedia": "fr:V\u00e9lib' M\u00e9tropole", "capacity": "19", "name": "Temple - Haudriettes", "network": "V\u00e9lib\u2019 M\u00e9tropole", "network:wikidata": "Q1120762", "network:wikipedia": "fr:V\u00e9lib' M\u00e9tropole", "operator": "Smovengo", "operator:wikidata": "Q47008427", "operator:wikipedia": "fr:Smovengo", "ref": "3009", "source": "Autolib Velib M\u00e9tropole - 04/2020", "unsigned_ref": "128874528", "wikidata": "Q86255148"}}, {"type": "node", "id": 6433219536, "lat": 48.8601646, "lon": 2.3501401, "tags": {"amenity": "bicycle_rental", "bicycle_rental": "docking_station", "brand": "V\u00e9lib\u2019 M\u00e9tropole", "brand:wikidata": "Q1120762", "brand:wikipedia": "fr:V\u00e9lib' M\u00e9tropole", "capacity": "23", "name": "Place Edmond Michelet", "network": "V\u00e9lib\u2019 M\u00e9tropole", "network:wikidata": "Q1120762", "network:wikipedia": "fr:V\u00e9lib' M\u00e9tropole", "operator": "Smovengo", "operator:wikidata": "Q47008427", "operator:wikipedia": "fr:Smovengo", "ref": "4020", "source": "Autolib Velib M\u00e9tropole - 2021-03", "unsigned_ref": "266422568", "wikidata": "Q86254990"}}, {"type": "node", "id": 6433219537, "lat": 48.8527053, "lon": 2.3441427, "tags": {"amenity": "bicycle_rental", "bicycle_rental": "docking_station", "brand": "V\u00e9lib\u2019 M\u00e9tropole", "brand:wikidata": "Q1120762", "capacity": "30", "name": "Saint-S\u00e9verin - Saint-Michel", "network": "V\u00e9lib\u2019 M\u00e9tropole", "network:wikidata": "Q1120762", "operator": "Smovengo", "operator:wikidata": "Q47008427", "ref": "5033", "source": "Autolib Velib M\u00e9tropole - 2021-03", "unsigned_ref": "82335295", "wikidata": "Q86255353"}}, {"type": "node", "id": 6433219538, "lat": 48.8515263, "lon": 2.3436817, "tags": {"amenity": "bicycle_rental", "bicycle_rental": "docking_station", "brand": "V\u00e9lib\u2019 M\u00e9tropole", "brand:wikidata": "Q1120762", "brand:wikipedia": "fr:V\u00e9lib' M\u00e9tropole", "capacity": "45", "name": "Harpe - Saint-Germain", "network": "V\u00e9lib\u2019 M\u00e9tropole", "network:wikidata": "Q1120762", "network:wikipedia": "fr:V\u00e9lib' M\u00e9tropole", "operator": "Smovengo", "operator:wikidata": "Q47008427", "operator:wikipedia": "fr:Smovengo", "ref": "5001", "source": "Autolib Velib M\u00e9tropole - 2021-03", "unsigned_ref": "100769544", "wikidata": "Q86255364"}}, {"type": "node", "id": 6433219539, "lat": 48.8508678, "lon": 2.3421066, "tags": {"amenity": "bicycle_rental", "bicycle_rental": "docking_station", "capacity": "33", "name": "Pierre Sarrazin - Saint-Michel", "network": "V\u00e9lib\u2019", "operator": "Smovengo", "ref": "6031", "source": "Autolib Velib M\u00e9tropole - 2021-03", "unsigned_ref": "66491371", "wikidata": "Q86252811"}}, {"type": "node", "id": 6433219540, "lat": 48.8489196, "lon": 2.341038, "tags": {"amenity": "bicycle_rental", "bicycle_rental": "docking_station", "brand": "V\u00e9lib\u2019 M\u00e9tropole", "brand:wikidata": "Q1120762", "brand:wikipedia": "fr:V\u00e9lib' M\u00e9tropole", "capacity": "26", "name": "Vaugirard - Monsieur le Prince", "network": "V\u00e9lib\u2019 M\u00e9tropole", "network:wikidata": "Q1120762", "network:wikipedia": "fr:V\u00e9lib' M\u00e9tropole", "operator": "Smovengo", "operator:wikidata": "Q47008427", "operator:wikipedia": "fr:Smovengo", "ref": "6029", "source": "Autolib Velib M\u00e9tropole - 04/2020", "survey:date": "2020-06-09", "unsigned_ref": "210408693", "wikidata": "Q86252876"}}, {"type": "node", "id": 6433219541, "lat": 48.848185, "lon": 2.341833, "tags": {"amenity": "bicycle_rental", "bicycle_rental": "docking_station", "brand": "V\u00e9lib\u2019 M\u00e9tropole", "brand:wikidata": "Q1120762", "brand:wikipedia": "fr:V\u00e9lib' M\u00e9tropole", "capacity": "19", "name": "Cujas - Saint-Michel", "network": "V\u00e9lib\u2019 M\u00e9tropole", "network:wikidata": "Q1120762", "network:wikipedia": "fr:V\u00e9lib' M\u00e9tropole", "operator": "Smovengo", "operator:wikidata": "Q47008427", "operator:wikipedia": "fr:Smovengo", "phone": "+33 1 76 49 12 34", "ref": "5106", "source": "Autolib Velib M\u00e9tropole - 04/2020", "unsigned_ref": "35908", "website": "https://velib-metropole.fr", "wikidata": "Q86255385"}}, {"type": "node", "id": 6433219543, "lat": 48.8418644, "lon": 2.3412027, "tags": {"amenity": "bicycle_rental", "bicycle_rental": "docking_station", "brand": "V\u00e9lib\u2019 M\u00e9tropole", "brand:wikidata": "Q1120762", "brand:wikipedia": "fr:V\u00e9lib' M\u00e9tropole", "capacity": "20", "name": "Saint-Jacques - Val de Gr\u00e2ce", "network": "V\u00e9lib\u2019 M\u00e9tropole", "network:wikidata": "Q1120762", "network:wikipedia": "fr:V\u00e9lib' M\u00e9tropole", "note": "capacit\u00e9 valid\u00e9e sur place (19 et non pas 21 suivant OpenData fournie) , localisation approximative dans open data paris (de 25m)", "operator": "Smovengo", "operator:wikidata": "Q47008427", "operator:wikipedia": "fr:Smovengo", "ref": "5004", "source": "Autolib Velib M\u00e9tropole - 04/2020", "survey:date": "2019-04-30", "unsigned_ref": "27206194", "wikidata": "Q86255374"}}, {"type": "node", "id": 6433219544, "lat": 48.8447254, "lon": 2.3419262, "tags": {"amenity": "bicycle_rental", "bicycle_rental": "docking_station", "brand": "V\u00e9lib\u2019 M\u00e9tropole", "brand:wikidata": "Q1120762", "brand:wikipedia": "fr:V\u00e9lib' M\u00e9tropole", "capacity": "24", "name": "Gay Lussac - Saint-Jacques", "network": "V\u00e9lib\u2019 M\u00e9tropole", "network:wikidata": "Q1120762", "network:wikipedia": "fr:V\u00e9lib' M\u00e9tropole", "operator": "Smovengo", "operator:wikidata": "Q47008427", "operator:wikipedia": "fr:Smovengo", "ref": "5005", "source": "Autolib Velib M\u00e9tropole - 04/2020", "unsigned_ref": "7254", "wikidata": "Q86255370"}}, {"type": "node", "id": 6433219545, "lat": 48.8465357, "lon": 2.3431379, "tags": {"amenity": "bicycle_rental", "bicycle_rental": "docking_station", "brand": "V\u00e9lib\u2019 M\u00e9tropole", "brand:wikidata": "Q1120762", "brand:wikipedia": "fr:V\u00e9lib' M\u00e9tropole", "capacity": "19", "name": "Saint-Jacques - Soufflot", "network": "V\u00e9lib\u2019 M\u00e9tropole", "network:wikidata": "Q1120762", "network:wikipedia": "fr:V\u00e9lib' M\u00e9tropole", "operator": "Smovengo", "operator:wikidata": "Q47008427", "operator:wikipedia": "fr:Smovengo", "ref": "5006", "source": "Autolib Velib M\u00e9tropole - 04/2020", "unsigned_ref": "237041013", "website": "https://velib-metropole.fr/", "wikidata": "Q86255344"}}, {"type": "node", "id": 6433219546, "lat": 48.8502765, "lon": 2.3450091, "tags": {"amenity": "bicycle_rental", "bicycle_rental": "docking_station", "brand": "V\u00e9lib\u2019 M\u00e9tropole", "brand:wikidata": "Q1120762", "brand:wikipedia": "fr:V\u00e9lib' M\u00e9tropole", "capacity": "34", "name": "Sommerard - Saint-Jacques", "network": "V\u00e9lib\u2019 M\u00e9tropole", "network:wikidata": "Q1120762", "network:wikipedia": "fr:V\u00e9lib' M\u00e9tropole", "operator": "Smovengo", "operator:wikidata": "Q47008427", "operator:wikipedia": "fr:Smovengo", "ref": "5002", "source": "Autolib Velib M\u00e9tropole - 04/2020", "unsigned_ref": "15308782", "wikidata": "Q86255405"}}, {"type": "node", "id": 6433219547, "lat": 48.8671341, "lon": 2.3634865, "tags": {"amenity": "bicycle_rental", "bicycle_rental": "docking_station", "brand": "V\u00e9lib\u2019 M\u00e9tropole", "brand:wikidata": "Q1120762", "brand:wikipedia": "fr:V\u00e9lib' M\u00e9tropole", "capacity": "18", "name": "Place de la R\u00e9publique - Temple", "network": "V\u00e9lib\u2019 M\u00e9tropole", "network:wikidata": "Q1120762", "network:wikipedia": "fr:V\u00e9lib' M\u00e9tropole", "operator": "Smovengo", "operator:wikidata": "Q47008427", "operator:wikipedia": "fr:Smovengo", "ref": "3004", "source": "Autolib Velib M\u00e9tropole - 04/2020", "unsigned_ref": "442739463", "wikidata": "Q86255164"}}, {"type": "node", "id": 6433219548, "lat": 48.8713827, "lon": 2.3699255, "tags": {"amenity": "bicycle_rental", "bicycle_rental": "docking_station", "brand": "V\u00e9lib\u2019 M\u00e9tropole", "brand:wikidata": "Q1120762", "brand:wikipedia": "fr:V\u00e9lib' M\u00e9tropole", "capacity": "43", "check_date": "2023-03-16", "name": "Parmentier - H\u00f4pital Saint-Louis", "network": "V\u00e9lib\u2019 M\u00e9tropole", "network:wikidata": "Q1120762", "network:wikipedia": "fr:V\u00e9lib' M\u00e9tropole", "operator": "Smovengo", "operator:wikidata": "Q47008427", "operator:wikipedia": "fr:Smovengo", "ref": "10113", "source": "Autolib Velib M\u00e9tropole - 2021-03", "unsigned_ref": "66491392", "wikidata": "Q86252972"}}, {"type": "node", "id": 6433219549, "lat": 48.8718306, "lon": 2.3721882, "tags": {"amenity": "bicycle_rental", "bicycle_rental": "docking_station", "brand": "V\u00e9lib\u2019 M\u00e9tropole", "brand:wikidata": "Q1120762", "brand:wikipedia": "fr:V\u00e9lib' M\u00e9tropole", "capacity": "19", "check_date": "2023-03-23", "name": "Buisson Saint-Louis - Saint-Maur", "network": "V\u00e9lib\u2019 M\u00e9tropole", "network:wikidata": "Q1120762", "network:wikipedia": "fr:V\u00e9lib' M\u00e9tropole", "operator": "Smovengo", "operator:wikidata": "Q47008427", "operator:wikipedia": "fr:Smovengo", "ref": "10024", "source": "Autolib Velib M\u00e9tropole - 04/2020", "unsigned_ref": "271426439", "wikidata": "Q86253050"}}, {"type": "node", "id": 6435368573, "lat": 48.8573016, "lon": 2.3515339, "tags": {"amenity": "bicycle_rental", "bicycle_rental": "docking_station", "brand": "V\u00e9lib\u2019 M\u00e9tropole", "brand:wikidata": "Q1120762", "brand:wikipedia": "fr:V\u00e9lib' M\u00e9tropole", "capacity": "14", "name": "Place de l'H\u00f4tel de Ville", "network": "V\u00e9lib\u2019 M\u00e9tropole", "network:wikidata": "Q1120762", "network:wikipedia": "fr:V\u00e9lib' M\u00e9tropole", "operator": "Smovengo", "operator:wikidata": "Q47008427", "operator:wikipedia": "fr:Smovengo", "ref": "4017", "source": "survey 04/2019", "wikidata": "Q86255016"}}, {"type": "node", "id": 6437019441, "lat": 48.839763, "lon": 2.347519, "tags": {"amenity": "bicycle_rental", "bicycle_rental": "docking_station", "brand": "V\u00e9lib\u2019 M\u00e9tropole", "brand:wikidata": "Q1120762", "brand:wikipedia": "fr:V\u00e9lib' M\u00e9tropole", "capacity": "17", "name": "Claude Bernard - Arbal\u00e8te", "network": "V\u00e9lib\u2019 M\u00e9tropole", "network:wikidata": "Q1120762", "network:wikipedia": "fr:V\u00e9lib' M\u00e9tropole", "operator": "Smovengo", "operator:wikidata": "Q47008427", "operator:wikipedia": "fr:Smovengo", "ref": "5114", "source": "survey", "wikidata": "Q86255424"}}, {"type": "node", "id": 6437112089, "lat": 48.8530536, "lon": 2.3428777, "tags": {"amenity": "bicycle_rental", "bicycle_rental": "docking_station", "capacity": "37", "name": "Place Saint-Andr\u00e9 des Arts", "network": "V\u00e9lib\u2019", "operator": "Smovengo", "ref": "6020", "source": "Autolib Velib M\u00e9tropole - 2021-03", "unsigned_ref": "99798962", "wikidata": "Q86252795"}}, {"type": "node", "id": 6437112090, "lat": 48.8539625, "lon": 2.3390267, "tags": {"amenity": "bicycle_rental", "bicycle_rental": "docking_station", "brand": "V\u00e9lib\u2019 M\u00e9tropole", "brand:wikidata": "Q1120762", "brand:wikipedia": "fr:V\u00e9lib' M\u00e9tropole", "capacity": "55", "name": "Andr\u00e9 Mazet - Saint-Andr\u00e9 des Arts", "network": "V\u00e9lib\u2019 M\u00e9tropole", "network:wikidata": "Q1120762", "network:wikipedia": "fr:V\u00e9lib' M\u00e9tropole", "operator": "Smovengo", "operator:wikidata": "Q47008427", "operator:wikipedia": "fr:Smovengo", "ref": "6015", "source": "Autolib Velib M\u00e9tropole - 2021-03", "unsigned_ref": "99950133", "wikidata": "Q86252841"}}, {"type": "node", "id": 6437112095, "lat": 48.8679366, "lon": 2.3778873, "tags": {"amenity": "bicycle_rental", "bicycle_rental": "docking_station", "brand": "V\u00e9lib\u2019 M\u00e9tropole", "brand:wikidata": "Q1120762", "brand:wikipedia": "fr:V\u00e9lib' M\u00e9tropole", "capacity": "47", "check_date": "2022-07-21", "name": "Jean-Pierre Timbaud - Vaucouleurs", "network": "V\u00e9lib\u2019 M\u00e9tropole", "network:wikidata": "Q1120762", "network:wikipedia": "fr:V\u00e9lib' M\u00e9tropole", "operator": "Smovengo", "operator:wikidata": "Q47008427", "operator:wikipedia": "fr:Smovengo", "ref": "11032", "source": "Autolib Velib M\u00e9tropole - 04/2020", "unsigned_ref": "210745258", "wikidata": "Q86254491"}}, {"type": "node", "id": 6437112096, "lat": 48.86118, "lon": 2.3813258, "tags": {"amenity": "bicycle_rental", "bicycle_rental": "docking_station", "brand": "V\u00e9lib\u2019 M\u00e9tropole", "brand:wikidata": "Q1120762", "brand:wikipedia": "fr:V\u00e9lib' M\u00e9tropole", "capacity": "45", "check_date": "2023-04-02", "name": "Chemin Vert - Saint-Maur", "network": "V\u00e9lib\u2019 M\u00e9tropole", "network:wikidata": "Q1120762", "network:wikipedia": "fr:V\u00e9lib' M\u00e9tropole", "operator": "Smovengo", "operator:wikidata": "Q47008427", "operator:wikipedia": "fr:Smovengo", "ref": "11026", "source": "Autolib Velib M\u00e9tropole - 04/2020", "unsigned_ref": "210744286", "wikidata": "Q86254487"}}, {"type": "node", "id": 6437112097, "lat": 48.8586872, "lon": 2.3835548, "tags": {"amenity": "bicycle_rental", "bicycle_rental": "docking_station", "brand": "V\u00e9lib\u2019 M\u00e9tropole", "brand:wikidata": "Q1120762", "brand:wikipedia": "fr:V\u00e9lib' M\u00e9tropole", "capacity": "46", "name": "Saint-Maur - Roquette", "network": "V\u00e9lib\u2019 M\u00e9tropole", "network:wikidata": "Q1120762", "network:wikipedia": "fr:V\u00e9lib' M\u00e9tropole", "operator": "Smovengo", "operator:wikidata": "Q47008427", "operator:wikipedia": "fr:Smovengo", "ref": "11023", "source": "Autolib Velib M\u00e9tropole - 04/2020", "unsigned_ref": "129048000", "wikidata": "Q86254529"}}, {"type": "node", "id": 6437112098, "lat": 48.8579988, "lon": 2.3817959, "tags": {"amenity": "bicycle_rental", "bicycle_rental": "docking_station", "brand": "V\u00e9lib\u2019 M\u00e9tropole", "brand:wikidata": "Q1120762", "brand:wikipedia": "fr:V\u00e9lib' M\u00e9tropole", "capacity": "16", "name": "Roquette - Auguste Laurent", "network": "V\u00e9lib\u2019 M\u00e9tropole", "network:wikidata": "Q1120762", "network:wikipedia": "fr:V\u00e9lib' M\u00e9tropole", "operator": "Smovengo", "operator:wikidata": "Q47008427", "operator:wikipedia": "fr:Smovengo", "ref": "11022", "source": "Autolib Velib M\u00e9tropole - 04/2019", "unsigned_ref": "7402", "wikidata": "Q86254488"}}, {"type": "node", "id": 6437112099, "lat": 48.8380925, "lon": 2.3571119, "tags": {"amenity": "bicycle_rental", "bicycle_rental": "docking_station", "brand": "V\u00e9lib\u2019 M\u00e9tropole", "brand:wikidata": "Q1120762", "brand:wikipedia": "fr:V\u00e9lib' M\u00e9tropole", "capacity": "41", "name": "Dum\u00e9ril - Jeanne d'Arc", "network": "V\u00e9lib\u2019 M\u00e9tropole", "network:wikidata": "Q1120762", "network:wikipedia": "fr:V\u00e9lib' M\u00e9tropole", "operator": "Smovengo", "operator:wikidata": "Q47008427", "operator:wikipedia": "fr:Smovengo", "ref": "13006", "source": "Autolib Velib M\u00e9tropole - 04/2020", "unsigned_ref": "82429586", "wikidata": "Q86253327"}}, {"type": "node", "id": 6437112101, "lat": 48.8497124, "lon": 2.3435399, "tags": {"amenity": "bicycle_rental", "bicycle_rental": "docking_station", "brand": "V\u00e9lib\u2019 M\u00e9tropole", "brand:wikidata": "Q1120762", "brand:wikipedia": "fr:V\u00e9lib' M\u00e9tropole", "capacity": "50", "name": "Sorbonne - \u00c9coles", "network": "V\u00e9lib\u2019 M\u00e9tropole", "network:wikidata": "Q1120762", "network:wikipedia": "fr:V\u00e9lib' M\u00e9tropole", "operator": "Smovengo", "operator:wikidata": "Q47008427", "operator:wikipedia": "fr:Smovengo", "ref": "5030", "source": "Autolib Velib M\u00e9tropole - 2021-07", "unsigned_ref": "66491368", "wikidata": "Q86255340"}}, {"type": "node", "id": 6437112102, "lat": 48.8504578, "lon": 2.3524512, "tags": {"amenity": "bicycle_rental", "bicycle_rental": "docking_station", "brand": "V\u00e9lib\u2019 M\u00e9tropole", "brand:wikidata": "Q1120762", "brand:wikipedia": "fr:V\u00e9lib' M\u00e9tropole", "capacity": "23", "name": "Pontoise - La Tournelle", "network": "V\u00e9lib\u2019 M\u00e9tropole", "network:wikidata": "Q1120762", "network:wikipedia": "fr:V\u00e9lib' M\u00e9tropole", "operator": "Smovengo", "operator:wikidata": "Q47008427", "operator:wikipedia": "fr:Smovengo", "ref": "5107", "source": "Autolib Velib M\u00e9tropole - 2021-03", "unsigned_ref": "6295", "wikidata": "Q86255414"}}, {"type": "node", "id": 6437112103, "lat": 48.8538423, "lon": 2.3570103, "tags": {"amenity": "bicycle_rental", "bicycle_rental": "docking_station", "brand": "V\u00e9lib\u2019 M\u00e9tropole", "brand:wikidata": "Q1120762", "capacity": "36", "name": "H\u00f4tel de Ville - Pont-Marie", "network": "V\u00e9lib\u2019 M\u00e9tropole", "network:wikidata": "Q1120762", "operator": "Smovengo", "operator:wikidata": "Q47008427", "ref": "4011", "source": "Autolib Velib M\u00e9tropole - 2021-03", "unsigned_ref": "54000539", "wikidata": "Q86255014"}}, {"type": "node", "id": 6437112104, "lat": 48.8550106, "lon": 2.3612606, "tags": {"amenity": "bicycle_rental", "bicycle_rental": "docking_station", "brand": "V\u00e9lib\u2019 M\u00e9tropole", "brand:wikidata": "Q1120762", "brand:wikipedia": "fr:V\u00e9lib' M\u00e9tropole", "capacity": "26", "name": "Saint-Antoine S\u00e9vign\u00e9", "network": "V\u00e9lib\u2019 M\u00e9tropole", "network:wikidata": "Q1120762", "network:wikipedia": "fr:V\u00e9lib' M\u00e9tropole", "operator": "Smovengo", "operator:wikidata": "Q47008427", "operator:wikipedia": "fr:Smovengo", "ref": "4010", "source": "Autolib Velib M\u00e9tropole - 04/2020", "unsigned_ref": "476155906", "wikidata": "Q86254976"}}, {"type": "node", "id": 6437112105, "lat": 48.85816, "lon": 2.3647129, "tags": {"amenity": "bicycle_rental", "bicycle_rental": "docking_station", "brand": "V\u00e9lib\u2019 M\u00e9tropole", "brand:wikidata": "Q1120762", "brand:wikipedia": "fr:V\u00e9lib' M\u00e9tropole", "capacity": "18", "name": "Saint-Gilles - Turenne", "network": "V\u00e9lib\u2019 M\u00e9tropole", "network:wikidata": "Q1120762", "network:wikipedia": "fr:V\u00e9lib' M\u00e9tropole", "operator": "Smovengo", "operator:wikidata": "Q47008427", "operator:wikipedia": "fr:Smovengo", "ref": "3002", "source": "Autolib Velib M\u00e9tropole - 04/2020", "survey:date": "2019-04-30", "unsigned_ref": "54000537", "wikidata": "Q86255170"}}, {"type": "node", "id": 6437112106, "lat": 48.8621364, "lon": 2.3649486, "tags": {"amenity": "bicycle_rental", "bicycle_rental": "docking_station", "brand": "V\u00e9lib\u2019 M\u00e9tropole", "brand:wikidata": "Q1120762", "brand:wikipedia": "fr:V\u00e9lib' M\u00e9tropole", "capacity": "29", "name": "Fille du Calvaire - Turenne", "network": "V\u00e9lib\u2019 M\u00e9tropole", "network:wikidata": "Q1120762", "network:wikipedia": "fr:V\u00e9lib' M\u00e9tropole", "operator": "Smovengo", "operator:wikidata": "Q47008427", "operator:wikipedia": "fr:Smovengo", "ref": "3003", "source": "Autolib Velib M\u00e9tropole - 04/2020", "unsigned_ref": "96608796", "wikidata": "Q86255159"}}, {"type": "node", "id": 6438006187, "lat": 48.8489186, "lon": 2.3472055, "tags": {"amenity": "bicycle_rental", "bicycle_rental": "docking_station", "brand": "V\u00e9lib\u2019 M\u00e9tropole", "brand:wikidata": "Q1120762", "brand:wikipedia": "fr:V\u00e9lib' M\u00e9tropole", "capacity": "36", "name": "\u00c9coles - Carmes", "network": "V\u00e9lib\u2019 M\u00e9tropole", "network:wikidata": "Q1120762", "network:wikipedia": "fr:V\u00e9lib' M\u00e9tropole", "operator": "Smovengo", "operator:wikidata": "Q47008427", "operator:wikipedia": "fr:Smovengo", "ref": "5007", "source": "Autolib Velib M\u00e9tropole - 04/2020", "wikidata": "Q86255387"}}, {"type": "node", "id": 6438006188, "lat": 48.8484654, "lon": 2.35011, "tags": {"amenity": "bicycle_rental", "bicycle_rental": "docking_station", "brand": "V\u00e9lib\u2019 M\u00e9tropole", "brand:wikidata": "Q1120762", "brand:wikipedia": "fr:V\u00e9lib' M\u00e9tropole", "capacity": "37", "name": "Mutualit\u00e9", "network": "V\u00e9lib\u2019 M\u00e9tropole", "network:wikidata": "Q1120762", "network:wikipedia": "fr:V\u00e9lib' M\u00e9tropole", "operator": "Smovengo", "operator:wikidata": "Q47008427", "operator:wikipedia": "fr:Smovengo", "ref": "5018", "source": "Autolib Velib M\u00e9tropole - 04/2020", "wikidata": "Q86255422"}}, {"type": "node", "id": 6438006189, "lat": 48.8497521, "lon": 2.3530081, "tags": {"amenity": "bicycle_rental", "bicycle_rental": "docking_station", "brand": "V\u00e9lib\u2019 M\u00e9tropole", "brand:wikidata": "Q1120762", "brand:wikipedia": "fr:V\u00e9lib' M\u00e9tropole", "capacity": "25", "name": "Poissy - Saint-Germain", "network": "V\u00e9lib\u2019 M\u00e9tropole", "network:wikidata": "Q1120762", "network:wikipedia": "fr:V\u00e9lib' M\u00e9tropole", "operator": "Smovengo", "operator:wikidata": "Q47008427", "operator:wikipedia": "fr:Smovengo", "ref": "5019", "source": "Autolib Velib M\u00e9tropole - 04/2020", "wikidata": "Q86255380"}}, {"type": "node", "id": 6438006191, "lat": 48.8598693, "lon": 2.3610017, "tags": {"amenity": "bicycle_rental", "bicycle_rental": "docking_station", "brand": "V\u00e9lib\u2019 M\u00e9tropole", "brand:wikidata": "Q1120762", "brand:wikipedia": "fr:V\u00e9lib' M\u00e9tropole", "capacity": "36", "name": "Perle - Vieille du Temple", "network": "V\u00e9lib\u2019 M\u00e9tropole", "network:wikidata": "Q1120762", "network:wikipedia": "fr:V\u00e9lib' M\u00e9tropole", "operator": "Smovengo", "operator:wikidata": "Q47008427", "operator:wikipedia": "fr:Smovengo", "ref": "3008", "source": "Autolib Velib M\u00e9tropole - 2021-03", "unsigned_ref": "443153677", "wikidata": "Q86255152"}}, {"type": "node", "id": 6438006192, "lat": 48.8626413, "lon": 2.3670987, "tags": {"amenity": "bicycle_rental", "bicycle_rental": "docking_station", "brand": "V\u00e9lib\u2019 M\u00e9tropole", "brand:wikidata": "Q1120762", "brand:wikipedia": "fr:V\u00e9lib' M\u00e9tropole", "capacity": "21", "name": "Place Pasdeloup", "network": "V\u00e9lib\u2019 M\u00e9tropole", "network:wikidata": "Q1120762", "network:wikipedia": "fr:V\u00e9lib' M\u00e9tropole", "operator": "Smovengo", "operator:wikidata": "Q47008427", "operator:wikipedia": "fr:Smovengo", "ref": "11043", "source": "Autolib Velib M\u00e9tropole - 04/2020", "unsigned_ref": "100918666", "wikidata": "Q86254548"}}, {"type": "node", "id": 6438006193, "lat": 48.8451426, "lon": 2.3453608, "tags": {"amenity": "bicycle_rental", "bicycle_rental": "docking_station", "brand": "V\u00e9lib\u2019 M\u00e9tropole", "brand:wikidata": "Q1120762", "capacity": "16", "name": "Estrapade - Ulm", "network": "V\u00e9lib\u2019 M\u00e9tropole", "network:wikidata": "Q1120762", "operator": "Smovengo", "operator:wikidata": "Q47008427", "ref": "5012", "source": "Autolib Velib M\u00e9tropole - 2022-09", "wikidata": "Q86255411"}}, {"type": "node", "id": 6438006194, "lat": 48.8463178, "lon": 2.3413797, "tags": {"amenity": "bicycle_rental", "bicycle_rental": "docking_station", "brand": "V\u00e9lib\u2019 M\u00e9tropole", "brand:wikidata": "Q1120762", "brand:wikipedia": "fr:V\u00e9lib' M\u00e9tropole", "capacity": "35", "name": "Le Goff - Gay-Lussac", "network": "V\u00e9lib\u2019 M\u00e9tropole", "network:wikidata": "Q1120762", "network:wikipedia": "fr:V\u00e9lib' M\u00e9tropole", "operator": "Smovengo", "operator:wikidata": "Q47008427", "operator:wikipedia": "fr:Smovengo", "ref": "5003", "source": "Autolib Velib M\u00e9tropole - 2022-09", "unsigned_ref": "35380305", "wikidata": "Q86255342"}}, {"type": "node", "id": 6438519103, "lat": 48.8469927, "lon": 2.3465071, "tags": {"amenity": "bicycle_rental", "bicycle_rental": "docking_station", "brand": "V\u00e9lib\u2019 M\u00e9tropole", "brand:wikidata": "Q1120762", "brand:wikipedia": "fr:V\u00e9lib' M\u00e9tropole", "capacity": "39", "name": "Panth\u00e9on - Valette", "network": "V\u00e9lib\u2019 M\u00e9tropole", "network:wikidata": "Q1120762", "network:wikipedia": "fr:V\u00e9lib' M\u00e9tropole", "operator": "Smovengo", "operator:wikidata": "Q47008427", "operator:wikipedia": "fr:Smovengo", "ref": "5032", "source": "Autolib Velib M\u00e9tropole - 04/2020", "unsigned_ref": "210399835", "wikidata": "Q86255403"}}, {"type": "node", "id": 6438519104, "lat": 48.8462979, "lon": 2.3522246, "tags": {"amenity": "bicycle_rental", "bicycle_rental": "docking_station", "brand": "V\u00e9lib\u2019 M\u00e9tropole", "brand:wikidata": "Q1120762", "brand:wikipedia": "fr:V\u00e9lib' M\u00e9tropole", "capacity": "20", "name": "Boulangers - Cardinal Lemoine", "network": "V\u00e9lib\u2019 M\u00e9tropole", "network:wikidata": "Q1120762", "network:wikipedia": "fr:V\u00e9lib' M\u00e9tropole", "operator": "Smovengo", "operator:wikidata": "Q47008427", "operator:wikipedia": "fr:Smovengo", "ref": "5022", "source": "Autolib Velib M\u00e9tropole - 04/2020", "unsigned_ref": "72765603", "wikidata": "Q86255452"}}, {"type": "node", "id": 6438519105, "lat": 48.8491357, "lon": 2.3560598, "tags": {"amenity": "bicycle_rental", "bicycle_rental": "docking_station", "brand": "V\u00e9lib\u2019 M\u00e9tropole", "brand:wikidata": "Q1120762", "brand:wikipedia": "fr:V\u00e9lib' M\u00e9tropole", "capacity": "40", "name": "Institut du Monde Arabe - Saint-Germain", "network": "V\u00e9lib\u2019 M\u00e9tropole", "network:wikidata": "Q1120762", "network:wikipedia": "fr:V\u00e9lib' M\u00e9tropole", "operator": "Smovengo", "operator:wikidata": "Q47008427", "operator:wikipedia": "fr:Smovengo", "ref": "5020", "source": "Autolib Velib M\u00e9tropole - 2021-03", "unsigned_ref": "128882438", "wikidata": "Q86255372"}}, {"type": "node", "id": 6438519106, "lat": 48.8529369, "lon": 2.3520861, "tags": {"amenity": "bicycle_rental", "bicycle_rental": "docking_station", "brand": "V\u00e9lib\u2019 M\u00e9tropole", "brand:wikidata": "Q1120762", "brand:wikipedia": "fr:V\u00e9lib' M\u00e9tropole", "capacity": "21", "name": "Quai aux Fleurs - Pont Saint-Louis", "network": "V\u00e9lib\u2019 M\u00e9tropole", "network:wikidata": "Q1120762", "network:wikipedia": "fr:V\u00e9lib' M\u00e9tropole", "operator": "Smovengo", "operator:wikidata": "Q47008427", "operator:wikipedia": "fr:Smovengo", "ref": "4003", "source": "Autolib Velib M\u00e9tropole - 2021-03", "unsigned_ref": "27269170", "wikidata": "Q86255022"}}, {"type": "node", "id": 6438519107, "lat": 48.8572137, "lon": 2.3540069, "tags": {"amenity": "bicycle_rental", "bicycle_rental": "docking_station", "brand": "V\u00e9lib\u2019 M\u00e9tropole", "brand:wikidata": "Q1120762", "brand:wikipedia": "fr:V\u00e9lib' M\u00e9tropole", "capacity": "25", "name": "Archives - Rivoli", "network": "V\u00e9lib\u2019 M\u00e9tropole", "network:wikidata": "Q1120762", "network:wikipedia": "fr:V\u00e9lib' M\u00e9tropole", "operator": "Smovengo", "operator:wikidata": "Q47008427", "operator:wikipedia": "fr:Smovengo", "ref": "4103", "source": "Autolib Velib M\u00e9tropole - 2021-03", "unsigned_ref": "128880156", "wikidata": "Q86255025"}}, {"type": "node", "id": 6438519108, "lat": 48.8562451, "lon": 2.353283, "tags": {"amenity": "bicycle_rental", "bicycle_rental": "docking_station", "brand": "V\u00e9lib\u2019 M\u00e9tropole", "brand:wikidata": "Q1120762", "brand:wikipedia": "fr:V\u00e9lib' M\u00e9tropole", "capacity": "60", "name": "Lobau - H\u00f4tel de Ville", "network": "V\u00e9lib\u2019 M\u00e9tropole", "network:wikidata": "Q1120762", "network:wikipedia": "fr:V\u00e9lib' M\u00e9tropole", "operator": "Smovengo", "operator:wikidata": "Q47008427", "operator:wikipedia": "fr:Smovengo", "ref": "4016", "source": "Autolib Velib M\u00e9tropole - 2021-03", "unsigned_ref": "98187918", "wikidata": "Q86254997"}}, {"type": "node", "id": 6438519109, "lat": 48.8527132, "lon": 2.360881, "tags": {"amenity": "bicycle_rental", "bicycle_rental": "docking_station", "brand": "V\u00e9lib\u2019 M\u00e9tropole", "brand:wikidata": "Q1120762", "brand:wikipedia": "fr:V\u00e9lib' M\u00e9tropole", "capacity": "28", "name": "Village Saint-Paul", "network": "V\u00e9lib\u2019 M\u00e9tropole", "network:wikidata": "Q1120762", "network:wikipedia": "fr:V\u00e9lib' M\u00e9tropole", "operator": "Smovengo", "operator:wikidata": "Q47008427", "operator:wikipedia": "fr:Smovengo", "ref": "4009", "source": "Autolib Velib M\u00e9tropole - 04/2020", "unsigned_ref": "128878135", "wikidata": "Q86255046"}}, {"type": "node", "id": 6438519110, "lat": 48.8557759, "lon": 2.3578968, "tags": {"amenity": "bicycle_rental", "bicycle_rental": "docking_station", "capacity": "28", "name": "Tiron - Rivoli", "network": "V\u00e9lib\u2019", "operator": "Smovengo", "ref": "4012", "source": "Autolib Velib M\u00e9tropole - 2021-03", "unsigned_ref": "58391194", "wikidata": "Q86255033"}}, {"type": "node", "id": 6439759681, "lat": 48.8626276, "lon": 2.3499155, "tags": {"amenity": "bicycle_rental", "bicycle_rental": "docking_station", "brand": "V\u00e9lib\u2019 M\u00e9tropole", "brand:wikidata": "Q1120762", "brand:wikipedia": "fr:V\u00e9lib' M\u00e9tropole", "capacity": "33", "name": "Grande Truanderie - Saint-Denis", "network": "V\u00e9lib\u2019 M\u00e9tropole", "network:wikidata": "Q1120762", "network:wikipedia": "fr:V\u00e9lib' M\u00e9tropole", "operator": "Smovengo", "operator:wikidata": "Q47008427", "operator:wikipedia": "fr:Smovengo", "ref": "1006", "source": "Autolib Velib M\u00e9tropole - 2021-03", "unsigned_ref": "220504949", "wikidata": "Q86255089"}}, {"type": "node", "id": 6439759682, "lat": 48.850872, "lon": 2.3565874, "tags": {"amenity": "bicycle_rental", "bicycle_rental": "docking_station", "brand": "V\u00e9lib\u2019 M\u00e9tropole", "brand:wikidata": "Q1120762", "brand:wikipedia": "fr:V\u00e9lib' M\u00e9tropole", "capacity": "25", "name": "Quai de B\u00e9thune - Pont de la Tournelle", "network": "V\u00e9lib\u2019 M\u00e9tropole", "network:wikidata": "Q1120762", "network:wikipedia": "fr:V\u00e9lib' M\u00e9tropole", "operator": "Smovengo", "operator:wikidata": "Q47008427", "operator:wikipedia": "fr:Smovengo", "ref": "4108", "source": "Autolib Velib M\u00e9tropole - 04/2020", "survey:date": "2019-04-30", "unsigned_ref": "653042678", "wikidata": "Q86255028"}}, {"type": "node", "id": 6439759683, "lat": 48.8438835, "lon": 2.351794, "tags": {"amenity": "bicycle_rental", "bicycle_rental": "docking_station", "brand": "V\u00e9lib\u2019 M\u00e9tropole", "brand:wikidata": "Q1120762", "brand:wikipedia": "fr:V\u00e9lib' M\u00e9tropole", "capacity": "23", "name": "Lac\u00e9p\u00e8de - Monge", "network": "V\u00e9lib\u2019 M\u00e9tropole", "network:wikidata": "Q1120762", "network:wikipedia": "fr:V\u00e9lib' M\u00e9tropole", "operator": "Smovengo", "operator:wikidata": "Q47008427", "operator:wikipedia": "fr:Smovengo", "ref": "5110", "source": "Autolib Velib M\u00e9tropole - 04/2020", "unsigned_ref": "210403080", "wikidata": "Q86255366"}}, {"type": "node", "id": 6439760286, "lat": 48.8457297, "lon": 2.3557752, "tags": {"amenity": "bicycle_rental", "bicycle_rental": "docking_station", "brand": "V\u00e9lib\u2019 M\u00e9tropole", "brand:wikidata": "Q1120762", "brand:wikipedia": "fr:V\u00e9lib' M\u00e9tropole", "capacity": "40", "covered": "no", "fee": "yes", "name": "Jussieu - Guy de la Brosse", "network": "V\u00e9lib\u2019 M\u00e9tropole", "network:wikidata": "Q1120762", "network:wikipedia": "fr:V\u00e9lib' M\u00e9tropole", "operator": "Smovengo", "operator:type": "private", "operator:wikidata": "Q47008427", "operator:wikipedia": "fr:Smovengo", "ref": "5119", "source": "Autolib Velib M\u00e9tropole - 04/2020", "unsigned_ref": "653048150", "wikidata": "Q86255436"}}, {"type": "node", "id": 6439760287, "lat": 48.8390017, "lon": 2.3499383, "tags": {"amenity": "bicycle_rental", "bicycle_rental": "docking_station", "brand": "V\u00e9lib\u2019 M\u00e9tropole", "brand:wikidata": "Q1120762", "brand:wikipedia": "fr:V\u00e9lib' M\u00e9tropole", "capacity": "21", "name": "Pascal - Claude Bernard", "network": "V\u00e9lib\u2019 M\u00e9tropole", "network:wikidata": "Q1120762", "network:wikipedia": "fr:V\u00e9lib' M\u00e9tropole", "operator": "Smovengo", "operator:wikidata": "Q47008427", "operator:wikipedia": "fr:Smovengo", "ref": "5026", "source": "Autolib Velib M\u00e9tropole - 2022-08", "unsigned_ref": "82334007", "wikidata": "Q86255441"}}, {"type": "node", "id": 6439760288, "lat": 48.846673, "lon": 2.366963, "tags": {"amenity": "bicycle_rental", "bicycle_rental": "docking_station", "brand": "V\u00e9lib\u2019 M\u00e9tropole", "brand:wikidata": "Q1120762", "brand:wikipedia": "fr:V\u00e9lib' M\u00e9tropole", "capacity": "27", "name": "Bastille - Quai de la Rap\u00e9e", "network": "V\u00e9lib\u2019 M\u00e9tropole", "network:wikidata": "Q1120762", "network:wikipedia": "fr:V\u00e9lib' M\u00e9tropole", "operator": "Smovengo", "operator:wikidata": "Q47008427", "operator:wikipedia": "fr:Smovengo", "payment:credit_cards": "no", "ref": "12150", "source": "Autolib Velib M\u00e9tropole - 04/2020", "unsigned_ref": "1056979685", "wikidata": "Q86252632"}}, {"type": "node", "id": 6439760289, "lat": 48.84423, "lon": 2.3641238, "tags": {"amenity": "bicycle_rental", "bicycle_rental": "docking_station", "brand": "V\u00e9lib\u2019 M\u00e9tropole", "brand:wikidata": "Q1120762", "brand:wikipedia": "fr:V\u00e9lib' M\u00e9tropole", "capacity": "37", "name": "Place Valhubert", "network": "V\u00e9lib\u2019 M\u00e9tropole", "network:wikidata": "Q1120762", "network:wikipedia": "fr:V\u00e9lib' M\u00e9tropole", "operator": "Smovengo", "operator:wikidata": "Q47008427", "operator:wikipedia": "fr:Smovengo", "payment:credit_cards": "yes", "ref": "5116", "source": "Autolib Velib M\u00e9tropole - 04/2020", "unsigned_ref": "653046029", "wikidata": "Q86255356"}}, {"type": "node", "id": 6439760291, "lat": 48.8410486, "lon": 2.3553081, "tags": {"amenity": "bicycle_rental", "bicycle_rental": "docking_station", "brand": "V\u00e9lib\u2019 M\u00e9tropole", "brand:wikidata": "Q1120762", "brand:wikipedia": "fr:V\u00e9lib' M\u00e9tropole", "capacity": "28", "name": "Censier - Jardin des Plantes", "network": "V\u00e9lib\u2019 M\u00e9tropole", "network:wikidata": "Q1120762", "network:wikipedia": "fr:V\u00e9lib' M\u00e9tropole", "operator": "Smovengo", "operator:wikidata": "Q47008427", "operator:wikipedia": "fr:Smovengo", "ref": "5028", "source": "Autolib Velib M\u00e9tropole - 04/2020", "unsigned_ref": "41610121", "wikidata": "Q86255358"}}, {"type": "node", "id": 6439760292, "lat": 48.8406179, "lon": 2.3536042, "tags": {"amenity": "bicycle_rental", "bicycle_rental": "docking_station", "brand": "V\u00e9lib\u2019 M\u00e9tropole", "brand:wikidata": "Q1120762", "brand:wikipedia": "fr:V\u00e9lib' M\u00e9tropole", "capacity": "69", "name": "Censier - Santeuil", "network": "V\u00e9lib\u2019 M\u00e9tropole", "network:wikidata": "Q1120762", "network:wikipedia": "fr:V\u00e9lib' M\u00e9tropole", "operator": "Smovengo", "operator:wikidata": "Q47008427", "operator:wikipedia": "fr:Smovengo", "ref": "5034", "source": "Autolib Velib M\u00e9tropole - 04/2020", "unsigned_ref": "100783424", "wikidata": "Q86255407"}}, {"type": "node", "id": 6440839674, "lat": 48.857041, "lon": 2.3728963, "tags": {"addr:postcode": "75011", "amenity": "bicycle_rental", "bicycle_rental": "docking_station", "brand": "V\u00e9lib\u2019 M\u00e9tropole", "brand:wikidata": "Q1120762", "brand:wikipedia": "fr:V\u00e9lib' M\u00e9tropole", "capacity": "43", "name": "Froment - Br\u00e9guet", "network": "V\u00e9lib\u2019 M\u00e9tropole", "network:wikidata": "Q1120762", "network:wikipedia": "fr:V\u00e9lib' M\u00e9tropole", "opening_hours": "24/7", "operator": "Smovengo", "operator:wikidata": "Q47008427", "operator:wikipedia": "fr:Smovengo", "ref": "11025", "source": "Autolib Velib M\u00e9tropole - 04/2020", "unsigned_ref": "82405965", "wikidata": "Q86254536"}}, {"type": "node", "id": 6440839675, "lat": 48.8569404, "lon": 2.3705913, "tags": {"amenity": "bicycle_rental", "capacity": "33", "name": "Br\u00e9guet - Sabin", "network": "V\u00e9lib\u2019", "operator": "Smovengo", "ref": "11033", "source": "Autolib Velib M\u00e9tropole - 2021-03", "unsigned_ref": "27363337", "wikidata": "Q86254513"}}, {"type": "node", "id": 6440839676, "lat": 48.8601003, "lon": 2.3712213, "tags": {"amenity": "bicycle_rental", "bicycle_rental": "docking_station", "brand": "V\u00e9lib\u2019 M\u00e9tropole", "brand:wikidata": "Q1120762", "brand:wikipedia": "fr:V\u00e9lib' M\u00e9tropole", "capacity": "38", "name": "Pel\u00e9e - Alphonse Baudin", "network": "V\u00e9lib\u2019 M\u00e9tropole", "network:wikidata": "Q1120762", "network:wikipedia": "fr:V\u00e9lib' M\u00e9tropole", "operator": "Smovengo", "operator:wikidata": "Q47008427", "operator:wikipedia": "fr:Smovengo", "ref": "11103", "source": "Autolib Velib M\u00e9tropole - 04/2020", "unsigned_ref": "124622630", "wikidata": "Q86254522"}}, {"type": "node", "id": 6454083895, "lat": 48.8610366, "lon": 2.3678085, "tags": {"amenity": "bicycle_rental", "bicycle_rental": "docking_station", "brand": "V\u00e9lib\u2019 M\u00e9tropole", "brand:wikidata": "Q1120762", "capacity": "30", "name": "Amelot - Saint-S\u00e9bastien", "network": "V\u00e9lib\u2019 M\u00e9tropole", "network:wikidata": "Q1120762", "operator": "Smovengo", "operator:wikidata": "Q47008427", "ref": "11047", "source": "Autolib Velib M\u00e9tropole - 2021-03", "unsigned_ref": "813544903", "wikidata": "Q86254486"}}, {"type": "node", "id": 6454083896, "lat": 48.8580345, "lon": 2.3678092, "tags": {"amenity": "bicycle_rental", "bicycle_rental": "docking_station", "capacity": "51", "name": "Beaumarchais - Saint-Gilles", "network": "V\u00e9lib\u2019", "operator": "Smovengo", "ref": "3001", "source": "Autolib Velib M\u00e9tropole - 2021-03", "unsigned_ref": "266963426", "wikidata": "Q86255154"}}, {"type": "node", "id": 6454083897, "lat": 48.8555502, "lon": 2.3684087, "tags": {"amenity": "bicycle_rental", "bicycle_rental": "docking_station", "brand": "V\u00e9lib\u2019 M\u00e9tropole", "brand:wikidata": "Q1120762", "brand:wikipedia": "fr:V\u00e9lib' M\u00e9tropole", "capacity": "18", "name": "Beaumarchais - Pas de la Mule", "network": "V\u00e9lib\u2019 M\u00e9tropole", "network:wikidata": "Q1120762", "network:wikipedia": "fr:V\u00e9lib' M\u00e9tropole", "operator": "Smovengo", "operator:wikidata": "Q47008427", "operator:wikipedia": "fr:Smovengo", "ref": "4107", "source": "Autolib Velib M\u00e9tropole - 2021-03", "unsigned_ref": "284711589", "wikidata": "Q86254986"}}, {"type": "node", "id": 6454083898, "lat": 48.8538017, "lon": 2.3683993, "tags": {"amenity": "bicycle_rental", "bicycle_rental": "docking_station", "brand": "V\u00e9lib\u2019 M\u00e9tropole", "brand:wikidata": "Q1120762", "brand:wikipedia": "fr:V\u00e9lib' M\u00e9tropole", "capacity": "23", "name": "Bastille - Beaumarchais", "network": "V\u00e9lib\u2019 M\u00e9tropole", "network:wikidata": "Q1120762", "network:wikipedia": "fr:V\u00e9lib' M\u00e9tropole", "operator": "Smovengo", "operator:wikidata": "Q47008427", "operator:wikipedia": "fr:Smovengo", "ref": "4101", "source": "Autolib Velib M\u00e9tropole - 2021-03", "wheelchair": "yes", "wikidata": "Q86255019"}}, {"type": "node", "id": 6454083899, "lat": 48.852229, "lon": 2.3740155, "tags": {"amenity": "bicycle_rental", "bicycle_rental": "docking_station", "brand": "V\u00e9lib\u2019 M\u00e9tropole", "brand:wikidata": "Q1120762", "brand:wikipedia": "fr:V\u00e9lib' M\u00e9tropole", "capacity": "34", "name": "Charonne - Faubourg Saint-Antoine", "network": "V\u00e9lib\u2019 M\u00e9tropole", "network:wikidata": "Q1120762", "network:wikipedia": "fr:V\u00e9lib' M\u00e9tropole", "operator": "Smovengo", "operator:wikidata": "Q47008427", "operator:wikipedia": "fr:Smovengo", "ref": "11004", "source": "Autolib Velib M\u00e9tropole - 04/2020", "unsigned_ref": "55664548", "wikidata": "Q86254530"}}, {"type": "node", "id": 6454083900, "lat": 48.8438554, "lon": 2.365595, "tags": {"amenity": "bicycle_rental", "bicycle_rental": "docking_station", "brand": "V\u00e9lib\u2019 M\u00e9tropole", "brand:wikidata": "Q1120762", "brand:wikipedia": "fr:V\u00e9lib' M\u00e9tropole", "capacity": "27", "name": "Gare d'Austerlitz - Quai Saint-Bernard", "network": "V\u00e9lib\u2019 M\u00e9tropole", "network:wikidata": "Q1120762", "network:wikipedia": "fr:V\u00e9lib' M\u00e9tropole", "operator": "Smovengo", "operator:wikidata": "Q47008427", "operator:wikipedia": "fr:Smovengo", "payment:credit_cards": "yes", "ref": "13104", "source": "Autolib Velib M\u00e9tropole - 04/2020", "unsigned_ref": "35196898", "wikidata": "Q86253354"}}, {"type": "node", "id": 6454781085, "lat": 48.8449065, "lon": 2.3824866, "tags": {"amenity": "bicycle_rental", "bicycle_rental": "docking_station", "capacity": "35", "name": "Charenton - Place du Colonel Bourgoin", "network": "V\u00e9lib\u2019", "operator": "Smovengo", "ref": "12011", "source": "Autolib Velib M\u00e9tropole - 2021-03", "wikidata": "Q86252591"}}, {"type": "node", "id": 6457697386, "lat": 48.8608328, "lon": 2.3756422, "tags": {"amenity": "bicycle_rental", "bicycle_rental": "docking_station", "brand": "V\u00e9lib\u2019 M\u00e9tropole", "brand:wikidata": "Q1120762", "brand:wikipedia": "fr:V\u00e9lib' M\u00e9tropole", "capacity": "43", "check_date": "2022-07-28", "name": "Square Saint-Ambroise", "network": "V\u00e9lib\u2019 M\u00e9tropole", "network:wikidata": "Q1120762", "network:wikipedia": "fr:V\u00e9lib' M\u00e9tropole", "operator": "Smovengo", "operator:wikidata": "Q47008427", "operator:wikipedia": "fr:Smovengo", "ref": "11041", "unsigned_ref": "66491394", "wikidata": "Q86254508"}}, {"type": "node", "id": 6457697387, "lat": 48.8618104, "lon": 2.3726962, "tags": {"amenity": "bicycle_rental", "bicycle_rental": "docking_station", "brand": "V\u00e9lib\u2019 M\u00e9tropole", "brand:wikidata": "Q1120762", "brand:wikipedia": "fr:V\u00e9lib' M\u00e9tropole", "capacity": "25", "check_date": "2022-07-28", "name": "Richard Lenoir - Voltaire", "network": "V\u00e9lib\u2019 M\u00e9tropole", "network:wikidata": "Q1120762", "network:wikipedia": "fr:V\u00e9lib' M\u00e9tropole", "operator": "Smovengo", "operator:wikidata": "Q47008427", "operator:wikipedia": "fr:Smovengo", "ref": "11011", "source": "Autolib Velib M\u00e9tropole - 04/2020", "unsigned_ref": "42907187", "wikidata": "Q86254528"}}, {"type": "node", "id": 6457764607, "lat": 48.8653136, "lon": 2.3760221, "tags": {"amenity": "bicycle_rental", "bicycle_rental": "docking_station", "brand": "V\u00e9lib\u2019 M\u00e9tropole", "brand:wikidata": "Q1120762", "brand:wikipedia": "fr:V\u00e9lib' M\u00e9tropole", "capacity": "24", "check_date": "2023-04-01", "name": "Oberkampf - R\u00e9publique", "network": "V\u00e9lib\u2019 M\u00e9tropole", "network:wikidata": "Q1120762", "network:wikipedia": "fr:V\u00e9lib' M\u00e9tropole", "operator": "Smovengo", "operator:wikidata": "Q47008427", "operator:wikipedia": "fr:Smovengo", "ref": "11030", "source": "Autolib Velib M\u00e9tropole - 04/2020", "unsigned_ref": "41498023", "wikidata": "Q86254524"}}, {"type": "node", "id": 6457764608, "lat": 48.8645908, "lon": 2.3751356, "tags": {"amenity": "bicycle_rental", "bicycle_rental": "docking_station", "brand": "V\u00e9lib\u2019 M\u00e9tropole", "brand:wikidata": "Q1120762", "brand:wikipedia": "fr:V\u00e9lib' M\u00e9tropole", "capacity": "50", "check_date": "2023-04-02", "name": "Parmentier - R\u00e9publique", "network": "V\u00e9lib\u2019 M\u00e9tropole", "network:wikidata": "Q1120762", "network:wikipedia": "fr:V\u00e9lib' M\u00e9tropole", "operator": "Smovengo", "operator:wikidata": "Q47008427", "operator:wikipedia": "fr:Smovengo", "ref": "11105", "source": "Autolib Velib M\u00e9tropole - 04/2020", "unsigned_ref": "97677210", "wikidata": "Q86254493"}}, {"type": "node", "id": 6457764609, "lat": 48.8646501, "lon": 2.3692589, "tags": {"amenity": "bicycle_rental", "bicycle_rental": "docking_station", "brand": "V\u00e9lib\u2019 M\u00e9tropole", "brand:wikidata": "Q1120762", "brand:wikipedia": "fr:V\u00e9lib' M\u00e9tropole", "capacity": "49", "check_date": "2022-07-28", "name": "Grand Prieur\u00e9 - Crussol", "network": "V\u00e9lib\u2019 M\u00e9tropole", "network:wikidata": "Q1120762", "network:wikipedia": "fr:V\u00e9lib' M\u00e9tropole", "operator": "Smovengo", "operator:wikidata": "Q47008427", "operator:wikipedia": "fr:Smovengo", "ref": "11042", "source": "Autolib Velib M\u00e9tropole - 04/2020", "unsigned_ref": "210746090", "wikidata": "Q86254550"}}, {"type": "node", "id": 6457764610, "lat": 48.8621263, "lon": 2.3772164, "tags": {"amenity": "bicycle_rental", "bicycle_rental": "docking_station", "brand": "V\u00e9lib\u2019 M\u00e9tropole", "brand:wikidata": "Q1120762", "brand:wikipedia": "fr:V\u00e9lib' M\u00e9tropole", "capacity": "38", "check_date": "2022-07-28", "name": "Saint-Ambroise - Parmentier", "network": "V\u00e9lib\u2019 M\u00e9tropole", "network:wikidata": "Q1120762", "network:wikipedia": "fr:V\u00e9lib' M\u00e9tropole", "operator": "Smovengo", "operator:wikidata": "Q47008427", "operator:wikipedia": "fr:Smovengo", "ref": "11027", "source": "Autolib Velib M\u00e9tropole - 04/2020", "unsigned_ref": "54000569", "wikidata": "Q86254492"}}, {"type": "node", "id": 6457966877, "lat": 48.8492227, "lon": 2.3704958, "tags": {"amenity": "bicycle_rental", "bicycle_rental": "docking_station", "capacity": "16", "name": "Lacu\u00e9e - Lyon", "network": "V\u00e9lib\u2019", "operator": "Smovengo", "ref": "12002", "source": "Autolib Velib M\u00e9tropole - 2021-03", "unsigned_ref": "39626277", "wikidata": "Q86252648"}}, {"type": "node", "id": 6463677154, "lat": 48.8634064, "lon": 2.3712344, "tags": {"amenity": "bicycle_rental", "bicycle_rental": "docking_station", "brand": "V\u00e9lib\u2019 M\u00e9tropole", "brand:wikidata": "Q1120762", "brand:wikipedia": "fr:V\u00e9lib' M\u00e9tropole", "capacity": "20", "name": "Square du Bataclan", "network": "V\u00e9lib\u2019 M\u00e9tropole", "network:wikidata": "Q1120762", "network:wikipedia": "fr:V\u00e9lib' M\u00e9tropole", "operator": "Smovengo", "operator:wikidata": "Q47008427", "operator:wikipedia": "fr:Smovengo", "ref": "11044", "unsigned_ref": "460558111", "wikidata": "Q86254496"}}, {"type": "node", "id": 6486388510, "lat": 48.8594004, "lon": 2.3559334, "tags": {"amenity": "bicycle_rental", "bicycle_rental": "docking_station", "brand": "V\u00e9lib\u2019 M\u00e9tropole", "brand:wikidata": "Q1120762", "brand:wikipedia": "fr:V\u00e9lib' M\u00e9tropole", "capacity": "29", "name": "Blancs-Manteaux - Archives", "network": "V\u00e9lib\u2019 M\u00e9tropole", "network:wikidata": "Q1120762", "network:wikipedia": "fr:V\u00e9lib' M\u00e9tropole", "operator": "Smovengo", "operator:wikidata": "Q47008427", "operator:wikipedia": "fr:Smovengo", "ref": "4014", "source": "Autolib Velib M\u00e9tropole - 2021-03", "unsigned_ref": "54000542", "wikidata": "Q86254984"}}, {"type": "node", "id": 6486388511, "lat": 48.8585606, "lon": 2.358674, "tags": {"amenity": "bicycle_rental", "capacity": "29", "name": "Vieille du Temple - Francs Bourgeois", "network": "V\u00e9lib\u2019", "operator": "Smovengo", "ref": "4013", "source": "Autolib Velib M\u00e9tropole - 2021-03", "survey:date": "2021-02-16", "unsigned_ref": "54000541", "wikidata": "Q86254978"}}, {"type": "node", "id": 6486520733, "lat": 48.8592424, "lon": 2.386589, "tags": {"amenity": "bicycle_rental", "bicycle_rental": "docking_station", "brand": "V\u00e9lib\u2019 M\u00e9tropole", "brand:wikidata": "Q1120762", "brand:wikipedia": "fr:V\u00e9lib' M\u00e9tropole", "capacity": "52", "name": "Roquette - Folie Regnault", "network": "V\u00e9lib\u2019 M\u00e9tropole", "network:wikidata": "Q1120762", "network:wikipedia": "fr:V\u00e9lib' M\u00e9tropole", "operator": "Smovengo", "operator:wikidata": "Q47008427", "operator:wikipedia": "fr:Smovengo", "ref": "11110", "source": "Autolib Velib M\u00e9tropole - 04/2020", "unsigned_ref": "84983562", "wikidata": "Q86254527"}}, {"type": "node", "id": 6486520734, "lat": 48.8461896, "lon": 2.3704052, "tags": {"amenity": "bicycle_rental", "bicycle_rental": "docking_station", "brand": "V\u00e9lib\u2019 M\u00e9tropole", "brand:wikidata": "Q1120762", "brand:wikipedia": "fr:V\u00e9lib' M\u00e9tropole", "capacity": "30", "name": "Bercy - Traversi\u00e9re", "network": "V\u00e9lib\u2019 M\u00e9tropole", "network:wikidata": "Q1120762", "network:wikipedia": "fr:V\u00e9lib' M\u00e9tropole", "operator": "Smovengo", "operator:wikidata": "Q47008427", "operator:wikipedia": "fr:Smovengo", "ref": "12102", "source": "Autolib Velib M\u00e9tropole - 2021-03", "wikidata": "Q86252646"}}, {"type": "node", "id": 6486520735, "lat": 48.8427327, "lon": 2.352469, "tags": {"amenity": "bicycle_rental", "bicycle_rental": "docking_station", "brand": "V\u00e9lib\u2019 M\u00e9tropole", "brand:wikidata": "Q1120762", "brand:wikipedia": "fr:V\u00e9lib' M\u00e9tropole", "capacity": "21", "name": "Place Monge", "network": "V\u00e9lib\u2019 M\u00e9tropole", "network:wikidata": "Q1120762", "network:wikipedia": "fr:V\u00e9lib' M\u00e9tropole", "operator": "Smovengo", "operator:wikidata": "Q47008427", "operator:wikipedia": "fr:Smovengo", "ref": "05024", "unsigned_ref": "27414544", "wikidata": "Q86255427"}}, {"type": "node", "id": 6486541922, "lat": 48.8637889, "lon": 2.3808273, "tags": {"amenity": "bicycle_rental", "bicycle_rental": "docking_station", "brand": "V\u00e9lib\u2019 M\u00e9tropole", "brand:wikidata": "Q1120762", "brand:wikipedia": "fr:V\u00e9lib' M\u00e9tropole", "capacity": "38", "name": "Guillaume Bertrand - R\u00e9publique", "network": "V\u00e9lib\u2019 M\u00e9tropole", "network:wikidata": "Q1120762", "network:wikipedia": "fr:V\u00e9lib' M\u00e9tropole", "operator": "Smovengo", "operator:wikidata": "Q47008427", "operator:wikipedia": "fr:Smovengo", "ref": "11028", "source": "Autolib Velib M\u00e9tropole - 04/2020", "unsigned_ref": "82408364", "wikidata": "Q86254509"}}, {"type": "node", "id": 6487410155, "lat": 48.8504157, "lon": 2.3468564, "tags": {"amenity": "bicycle_rental", "bicycle_rental": "docking_station", "brand": "V\u00e9lib\u2019 M\u00e9tropole", "brand:wikidata": "Q1120762", "capacity": "31", "name": "Saint-Germain - Thenard", "network": "V\u00e9lib\u2019 M\u00e9tropole", "network:wikidata": "Q1120762", "operator": "Smovengo", "operator:wikidata": "Q47008427", "ref": "5123", "source": "Autolib Velib M\u00e9tropole - 04/2020", "unsigned_ref": "647826568", "wikidata": "Q86255438"}}, {"type": "node", "id": 6487410156, "lat": 48.8535546, "lon": 2.3639153, "tags": {"amenity": "bicycle_rental", "bicycle_rental": "docking_station", "brand": "V\u00e9lib\u2019 M\u00e9tropole", "brand:wikidata": "Q1120762", "brand:wikipedia": "fr:V\u00e9lib' M\u00e9tropole", "capacity": "20", "name": "Neuve Saint-Pierre - Beautreillis", "network": "V\u00e9lib\u2019 M\u00e9tropole", "network:wikidata": "Q1120762", "network:wikipedia": "fr:V\u00e9lib' M\u00e9tropole", "operator": "Smovengo", "operator:wikidata": "Q47008427", "operator:wikipedia": "fr:Smovengo", "ref": "4110", "source": "Autolib Velib M\u00e9tropole - 04/2020", "unsigned_ref": "1020700136", "wikidata": "Q86255035"}}, {"type": "node", "id": 6496145379, "lat": 48.8525325, "lon": 2.380551, "tags": {"amenity": "bicycle_rental", "bicycle_rental": "docking_station", "brand": "V\u00e9lib\u2019 M\u00e9tropole", "brand:wikidata": "Q1120762", "brand:wikipedia": "fr:V\u00e9lib' M\u00e9tropole", "capacity": "49", "name": "Charles Delescluze", "network": "V\u00e9lib\u2019 M\u00e9tropole", "network:wikidata": "Q1120762", "network:wikipedia": "fr:V\u00e9lib' M\u00e9tropole", "operator": "Smovengo", "operator:wikidata": "Q47008427", "operator:wikipedia": "fr:Smovengo", "ref": "11101", "unsigned_ref": "15299574", "wikidata": "Q86254484"}}, {"type": "node", "id": 6496145380, "lat": 48.8563446, "lon": 2.3831571, "tags": {"amenity": "bicycle_rental", "bicycle_rental": "docking_station", "brand": "V\u00e9lib\u2019 M\u00e9tropole", "brand:wikidata": "Q1120762", "brand:wikipedia": "fr:V\u00e9lib' M\u00e9tropole", "capacity": "39", "name": "Belfort - Voltaire", "network": "V\u00e9lib\u2019 M\u00e9tropole", "network:wikidata": "Q1120762", "network:wikipedia": "fr:V\u00e9lib' M\u00e9tropole", "operator": "Smovengo", "operator:wikidata": "Q47008427", "operator:wikipedia": "fr:Smovengo", "ref": "11020", "source": "Autolib Velib M\u00e9tropole - 04/2020", "unsigned_ref": "43165673", "wikidata": "Q86254506"}}, {"type": "node", "id": 6496145381, "lat": 48.8563699, "lon": 2.3790071, "tags": {"amenity": "bicycle_rental", "bicycle_rental": "docking_station", "brand": "V\u00e9lib\u2019 M\u00e9tropole", "brand:wikidata": "Q1120762", "brand:wikipedia": "fr:V\u00e9lib' M\u00e9tropole", "capacity": "37", "name": "Ledru-Rollin - Place du P\u00e8re Chaillet", "network": "V\u00e9lib\u2019 M\u00e9tropole", "network:wikidata": "Q1120762", "network:wikipedia": "fr:V\u00e9lib' M\u00e9tropole", "operator": "Smovengo", "operator:wikidata": "Q47008427", "operator:wikipedia": "fr:Smovengo", "ref": "11006", "source": "Autolib Velib M\u00e9tropole - 04/2020", "unsigned_ref": "82404497", "wikidata": "Q86254552"}}, {"type": "node", "id": 6610235083, "lat": 48.8521921, "lon": 2.3890288, "tags": {"amenity": "bicycle_rental", "bicycle_rental": "docking_station", "brand": "V\u00e9lib\u2019 M\u00e9tropole", "brand:wikidata": "Q1120762", "brand:wikipedia": "fr:V\u00e9lib' M\u00e9tropole", "capacity": "24", "name": "Boulets - Voltaire", "network": "V\u00e9lib\u2019 M\u00e9tropole", "network:wikidata": "Q1120762", "network:wikipedia": "fr:V\u00e9lib' M\u00e9tropole", "operator": "Smovengo", "operator:wikidata": "Q47008427", "operator:wikipedia": "fr:Smovengo", "ref": "11009", "source": "Autolib Velib M\u00e9tropole - 04/2020", "wikidata": "Q86254505"}}, {"type": "node", "id": 6610235084, "lat": 48.8549649, "lon": 2.3872173, "tags": {"amenity": "bicycle_rental", "bicycle_rental": "docking_station", "brand": "V\u00e9lib\u2019 M\u00e9tropole", "brand:wikidata": "Q1120762", "brand:wikipedia": "fr:V\u00e9lib' M\u00e9tropole", "capacity": "19", "name": "L\u00e9on Frot - Charonne", "network": "V\u00e9lib\u2019 M\u00e9tropole", "network:wikidata": "Q1120762", "network:wikipedia": "fr:V\u00e9lib' M\u00e9tropole", "operator": "Smovengo", "operator:wikidata": "Q47008427", "operator:wikipedia": "fr:Smovengo", "ref": "11111", "source": "Autolib Velib M\u00e9tropole - 04/2020", "wikidata": "Q86254561"}}, {"type": "node", "id": 6610236985, "lat": 48.8543095, "lon": 2.3848902, "tags": {"amenity": "bicycle_rental", "bicycle_rental": "docking_station", "brand": "V\u00e9lib\u2019 M\u00e9tropole", "brand:wikidata": "Q1120762", "brand:wikipedia": "fr:V\u00e9lib' M\u00e9tropole", "capacity": "23", "name": "Jules Vall\u00e8s - Charonne", "network": "V\u00e9lib\u2019 M\u00e9tropole", "network:wikidata": "Q1120762", "network:wikipedia": "fr:V\u00e9lib' M\u00e9tropole", "operator": "Smovengo", "operator:wikidata": "Q47008427", "operator:wikipedia": "fr:Smovengo", "ref": "11112", "source": "Autolib Velib M\u00e9tropole - 04/2020", "wikidata": "Q86254569"}}, {"type": "node", "id": 6610236986, "lat": 48.8516161, "lon": 2.3836885, "tags": {"amenity": "bicycle_rental", "bicycle_rental": "docking_station", "brand": "V\u00e9lib\u2019 M\u00e9tropole", "brand:wikidata": "Q1120762", "brand:wikipedia": "fr:V\u00e9lib' M\u00e9tropole", "capacity": "44", "name": "Faidherbe - Dahomey", "network": "V\u00e9lib\u2019 M\u00e9tropole", "network:wikidata": "Q1120762", "network:wikipedia": "fr:V\u00e9lib' M\u00e9tropole", "operator": "Smovengo", "operator:wikidata": "Q47008427", "operator:wikipedia": "fr:Smovengo", "ref": "11107", "source": "Autolib Velib M\u00e9tropole - 04/2020", "wikidata": "Q86254535"}}, {"type": "node", "id": 6736637867, "lat": 48.8708236, "lon": 2.3538271, "tags": {"amenity": "bicycle_rental", "bicycle_rental": "docking_station", "brand": "V\u00e9lib\u2019 M\u00e9tropole", "brand:wikidata": "Q1120762", "brand:wikipedia": "fr:V\u00e9lib' M\u00e9tropole", "capacity": "48", "name": "Metz - Faubourg Saint-Denis", "network": "V\u00e9lib\u2019 M\u00e9tropole", "network:wikidata": "Q1120762", "network:wikipedia": "fr:V\u00e9lib' M\u00e9tropole", "operator": "Smovengo", "operator:wikidata": "Q47008427", "operator:wikipedia": "fr:Smovengo", "ref": "10004", "source": "Autolib Velib M\u00e9tropole - 04/2019", "wikidata": "Q86253038"}}, {"type": "node", "id": 6736639209, "lat": 48.8707979, "lon": 2.3496534, "tags": {"amenity": "bicycle_rental", "bicycle_rental": "docking_station", "brand": "V\u00e9lib\u2019 M\u00e9tropole", "brand:wikidata": "Q1120762", "brand:wikipedia": "fr:V\u00e9lib' M\u00e9tropole", "capacity": "17", "name": "Hauteville - Bonne Nouvelle", "network": "V\u00e9lib\u2019 M\u00e9tropole", "network:wikidata": "Q1120762", "network:wikipedia": "fr:V\u00e9lib' M\u00e9tropole", "operator": "Smovengo", "operator:wikidata": "Q47008427", "operator:wikipedia": "fr:Smovengo", "ref": "10003", "source": "Autolib Velib M\u00e9tropole - 04/2020", "wikidata": "Q86252986"}}, {"type": "node", "id": 6742656166, "lat": 48.8707655, "lon": 2.3587313, "tags": {"amenity": "bicycle_rental", "bicycle_rental": "docking_station", "brand": "V\u00e9lib\u2019 M\u00e9tropole", "brand:wikidata": "Q1120762", "brand:wikipedia": "fr:V\u00e9lib' M\u00e9tropole", "capacity": "18", "name": "Cit\u00e9 Riverin - Ch\u00e2teau d'Eau", "network": "V\u00e9lib\u2019 M\u00e9tropole", "network:wikidata": "Q1120762", "network:wikipedia": "fr:V\u00e9lib' M\u00e9tropole", "operator": "Smovengo", "operator:wikidata": "Q47008427", "operator:wikipedia": "fr:Smovengo", "ref": "10008", "source": "Autolib Velib M\u00e9tropole - 04/2020", "wikidata": "Q86252912"}}, {"type": "node", "id": 6742672134, "lat": 48.8720861, "lon": 2.3576627, "tags": {"amenity": "bicycle_rental", "bicycle_rental": "docking_station", "brand": "V\u00e9lib\u2019 M\u00e9tropole", "brand:wikidata": "Q1120762", "brand:wikipedia": "fr:V\u00e9lib' M\u00e9tropole", "capacity": "19", "name": "Mairie du 10\u00e8me", "network": "V\u00e9lib\u2019 M\u00e9tropole", "network:wikidata": "Q1120762", "network:wikipedia": "fr:V\u00e9lib' M\u00e9tropole", "operator": "Smovengo", "operator:wikidata": "Q47008427", "operator:wikipedia": "fr:Smovengo", "ref": "10009", "source": "Autolib Velib M\u00e9tropole - 04/2020", "wikidata": "Q86252948"}}, {"type": "node", "id": 6742674363, "lat": 48.8710305, "lon": 2.3611261, "tags": {"amenity": "bicycle_rental", "bicycle_rental": "docking_station", "brand": "V\u00e9lib\u2019 M\u00e9tropole", "brand:wikidata": "Q1120762", "capacity": "33", "check_date": "2022-09-01", "name": "Place Jacques Bonsergent", "network": "V\u00e9lib\u2019 M\u00e9tropole", "network:wikidata": "Q1120762", "operator": "Smovengo", "operator:wikidata": "Q47008427", "ref": "10010", "source": "Autolib Velib M\u00e9tropole - 2021-03", "wikidata": "Q86253035"}}, {"type": "node", "id": 6742675422, "lat": 48.8729626, "lon": 2.353959, "tags": {"amenity": "bicycle_rental", "bicycle_rental": "docking_station", "brand": "V\u00e9lib\u2019 M\u00e9tropole", "brand:wikidata": "Q1120762", "brand:wikipedia": "fr:V\u00e9lib' M\u00e9tropole", "capacity": "28", "name": "Petites Ecuries - Faubourg Saint-Denis", "network": "V\u00e9lib\u2019 M\u00e9tropole", "network:wikidata": "Q1120762", "network:wikipedia": "fr:V\u00e9lib' M\u00e9tropole", "operator": "Smovengo", "operator:wikidata": "Q47008427", "operator:wikipedia": "fr:Smovengo", "ref": "10006", "source": "Autolib Velib M\u00e9tropole - 04/2020", "wikidata": "Q86253042"}}, {"type": "node", "id": 6742703257, "lat": 48.8732653, "lon": 2.3593232, "tags": {"amenity": "bicycle_rental", "bicycle_rental": "docking_station", "brand": "V\u00e9lib\u2019 M\u00e9tropole", "brand:wikidata": "Q1120762", "brand:wikipedia": "fr:V\u00e9lib' M\u00e9tropole", "capacity": "25", "name": "Vinaigriers - Magenta", "network": "V\u00e9lib\u2019 M\u00e9tropole", "network:wikidata": "Q1120762", "network:wikipedia": "fr:V\u00e9lib' M\u00e9tropole", "operator": "Smovengo", "operator:wikidata": "Q47008427", "operator:wikipedia": "fr:Smovengo", "ref": "10012", "source": "Autolib Velib M\u00e9tropole - 04/2020", "wikidata": "Q86253019"}}, {"type": "node", "id": 6763717998, "lat": 48.8728595, "lon": 2.3700298, "tags": {"amenity": "bicycle_rental", "bicycle_rental": "docking_station", "brand": "V\u00e9lib\u2019 M\u00e9tropole", "brand:wikidata": "Q1120762", "brand:wikipedia": "fr:V\u00e9lib' M\u00e9tropole", "capacity": "32", "check_date": "2023-07-06", "name": "Claude Vellefaux - H\u00f4pital Saint-Louis", "network": "V\u00e9lib\u2019 M\u00e9tropole", "network:wikidata": "Q1120762", "network:wikipedia": "fr:V\u00e9lib' M\u00e9tropole", "operator": "Smovengo", "operator:wikidata": "Q47008427", "operator:wikipedia": "fr:Smovengo", "ref": "10032", "source": "Autolib Velib M\u00e9tropole - 04/2020", "wikidata": "Q86253048"}}, {"type": "node", "id": 6763718002, "lat": 48.8636064, "lon": 2.3478837, "tags": {"amenity": "bicycle_rental", "bicycle_rental": "docking_station", "brand": "V\u00e9lib\u2019 M\u00e9tropole", "brand:wikidata": "Q1120762", "brand:wikipedia": "fr:V\u00e9lib' M\u00e9tropole", "capacity": "16", "name": "Turbigo - Fran\u00e7aise", "network": "V\u00e9lib\u2019 M\u00e9tropole", "network:wikidata": "Q1120762", "network:wikipedia": "fr:V\u00e9lib' M\u00e9tropole", "operator": "Smovengo", "operator:wikidata": "Q47008427", "operator:wikipedia": "fr:Smovengo", "ref": "1007", "source": "Autolib Velib M\u00e9tropole - 04/2020", "wikidata": "Q86255078"}}, {"type": "node", "id": 6763718003, "lat": 48.8638018, "lon": 2.3425753, "tags": {"amenity": "bicycle_rental", "bicycle_rental": "docking_station", "brand": "V\u00e9lib\u2019 M\u00e9tropole", "brand:wikidata": "Q1120762", "brand:wikipedia": "fr:V\u00e9lib' M\u00e9tropole", "capacity": "21", "name": "Coquilli\u00e8re - Louvre", "network": "V\u00e9lib\u2019 M\u00e9tropole", "network:wikidata": "Q1120762", "network:wikipedia": "fr:V\u00e9lib' M\u00e9tropole", "operator": "Smovengo", "operator:wikidata": "Q47008427", "operator:wikipedia": "fr:Smovengo", "ref": "1024", "source": "Autolib Velib M\u00e9tropole - 04/2020", "wikidata": "Q86255110"}}, {"type": "node", "id": 6763718004, "lat": 48.8702627, "lon": 2.3512688, "tags": {"amenity": "bicycle_rental", "bicycle_rental": "docking_station", "brand": "V\u00e9lib\u2019 M\u00e9tropole", "brand:wikidata": "Q1120762", "brand:wikipedia": "fr:V\u00e9lib' M\u00e9tropole", "capacity": "25", "name": "Mazagran - Bonne Nouvelle", "network": "V\u00e9lib\u2019 M\u00e9tropole", "network:wikidata": "Q1120762", "network:wikipedia": "fr:V\u00e9lib' M\u00e9tropole", "operator": "Smovengo", "operator:wikidata": "Q47008427", "operator:wikipedia": "fr:Smovengo", "ref": "10105", "source": "Autolib Velib M\u00e9tropole - 04/2019", "wikidata": "Q86252929"}}, {"type": "node", "id": 6795914872, "lat": 48.8734686, "lon": 2.3640343, "tags": {"amenity": "bicycle_rental", "bicycle_rental": "docking_station", "brand": "V\u00e9lib\u2019 M\u00e9tropole", "brand:wikidata": "Q1120762", "brand:wikipedia": "fr:V\u00e9lib' M\u00e9tropole", "capacity": "23", "name": "Jemmapes - Grange aux Belles", "network": "V\u00e9lib\u2019 M\u00e9tropole", "network:wikidata": "Q1120762", "network:wikipedia": "fr:V\u00e9lib' M\u00e9tropole", "operator": "Smovengo", "operator:wikidata": "Q47008427", "operator:wikipedia": "fr:Smovengo", "ref": "10111", "source": "Autolib Velib M\u00e9tropole - 04/2019", "wikidata": "Q86252955"}}, {"type": "node", "id": 6795914873, "lat": 48.8629772, "lon": 2.3415179, "tags": {"amenity": "bicycle_rental", "bicycle_rental": "docking_station", "brand": "V\u00e9lib\u2019 M\u00e9tropole", "brand:wikidata": "Q1120762", "brand:wikipedia": "fr:V\u00e9lib' M\u00e9tropole", "capacity": "22", "name": "Jean-Jacques Rousseau - Deux Ecus", "network": "V\u00e9lib\u2019 M\u00e9tropole", "network:wikidata": "Q1120762", "network:wikipedia": "fr:V\u00e9lib' M\u00e9tropole", "operator": "Smovengo", "operator:wikidata": "Q47008427", "operator:wikipedia": "fr:Smovengo", "ref": "1012", "source": "Autolib Velib M\u00e9tropole - 04/2020", "wikidata": "Q86255107"}}, {"type": "node", "id": 6795914874, "lat": 48.8624227, "lon": 2.3385936, "tags": {"amenity": "bicycle_rental", "bicycle_rental": "docking_station", "brand": "V\u00e9lib\u2019 M\u00e9tropole", "brand:wikidata": "Q1120762", "brand:wikipedia": "fr:V\u00e9lib' M\u00e9tropole", "capacity": "67", "name": "Place du Palais Royal", "network": "V\u00e9lib\u2019 M\u00e9tropole", "network:wikidata": "Q1120762", "network:wikipedia": "fr:V\u00e9lib' M\u00e9tropole", "operator": "Smovengo", "operator:wikidata": "Q47008427", "operator:wikipedia": "fr:Smovengo", "ref": "1013", "source": "Autolib Velib M\u00e9tropole - 04/2020", "wikidata": "Q86255083"}}, {"type": "node", "id": 6801503714, "lat": 48.8635063, "lon": 2.3426393, "tags": {"amenity": "bicycle_rental", "bicycle_rental": "docking_station", "brand": "V\u00e9lib\u2019 M\u00e9tropole", "brand:wikidata": "Q1120762", "brand:wikipedia": "fr:V\u00e9lib' M\u00e9tropole", "capacity": "32", "name": "Les Halles - Saint-Eustache", "network": "V\u00e9lib\u2019 M\u00e9tropole", "network:wikidata": "Q1120762", "network:wikipedia": "fr:V\u00e9lib' M\u00e9tropole", "operator": "Smovengo", "operator:wikidata": "Q47008427", "operator:wikipedia": "fr:Smovengo", "ref": "1008", "source": "Autolib Velib M\u00e9tropole - 04/2020", "wikidata": "Q86255066"}}, {"type": "node", "id": 6801503715, "lat": 48.8613995, "lon": 2.3400377, "tags": {"amenity": "bicycle_rental", "bicycle_rental": "docking_station", "brand": "V\u00e9lib\u2019 M\u00e9tropole", "brand:wikidata": "Q1120762", "brand:wikipedia": "fr:V\u00e9lib' M\u00e9tropole", "capacity": "18", "name": "Oratoire - Rivoli", "network": "V\u00e9lib\u2019 M\u00e9tropole", "network:wikidata": "Q1120762", "network:wikipedia": "fr:V\u00e9lib' M\u00e9tropole", "operator": "Smovengo", "operator:wikidata": "Q47008427", "operator:wikipedia": "fr:Smovengo", "ref": "1025", "source": "Autolib Velib M\u00e9tropole - 04/2020", "wikidata": "Q86255075"}}, {"type": "node", "id": 6801503716, "lat": 48.8634398, "lon": 2.3400532, "tags": {"amenity": "bicycle_rental", "bicycle_rental": "docking_station", "brand": "V\u00e9lib\u2019 M\u00e9tropole", "brand:wikidata": "Q1120762", "brand:wikipedia": "fr:V\u00e9lib' M\u00e9tropole", "capacity": "30", "name": "Place du Lieutenant Henri Karcher", "network": "V\u00e9lib\u2019 M\u00e9tropole", "network:wikidata": "Q1120762", "network:wikipedia": "fr:V\u00e9lib' M\u00e9tropole", "operator": "Smovengo", "operator:wikidata": "Q47008427", "operator:wikipedia": "fr:Smovengo", "ref": "1026", "source": "Autolib Velib M\u00e9tropole - 04/2020", "wikidata": "Q86255092"}}, {"type": "node", "id": 6801503717, "lat": 48.8493307, "lon": 2.3916891, "tags": {"amenity": "bicycle_rental", "bicycle_rental": "docking_station", "brand": "V\u00e9lib\u2019 M\u00e9tropole", "brand:wikidata": "Q1120762", "brand:wikipedia": "fr:V\u00e9lib' M\u00e9tropole", "capacity": "43", "check_date": "2023-04-02", "name": "Boulets - Faubourg Saint-Antoine", "network": "V\u00e9lib\u2019 M\u00e9tropole", "network:wikidata": "Q1120762", "network:wikipedia": "fr:V\u00e9lib' M\u00e9tropole", "operator": "Smovengo", "operator:wikidata": "Q47008427", "operator:wikipedia": "fr:Smovengo", "ref": "11010", "source": "Autolib Velib M\u00e9tropole - 04/2020", "wikidata": "Q86254559"}}, {"type": "node", "id": 6801503720, "lat": 48.8640235, "lon": 2.3475846, "tags": {"amenity": "bicycle_rental", "bicycle_rental": "docking_station", "brand": "V\u00e9lib\u2019 M\u00e9tropole", "brand:wikidata": "Q1120762", "brand:wikipedia": "fr:V\u00e9lib' M\u00e9tropole", "capacity": "37", "name": "Fran\u00e7aise - \u00c9tienne Marcel", "network": "V\u00e9lib\u2019 M\u00e9tropole", "network:wikidata": "Q1120762", "network:wikipedia": "fr:V\u00e9lib' M\u00e9tropole", "operator": "Smovengo", "operator:wikidata": "Q47008427", "operator:wikipedia": "fr:Smovengo", "ref": "1102", "source": "Autolib Velib M\u00e9tropole - 2021-03", "wikidata": "Q86255120"}}, {"type": "node", "id": 6910100841, "lat": 48.8650144, "lon": 2.3450705, "tags": {"amenity": "bicycle_rental", "bicycle_rental": "docking_station", "brand": "V\u00e9lib\u2019 M\u00e9tropole", "brand:wikidata": "Q1120762", "brand:wikipedia": "fr:V\u00e9lib' M\u00e9tropole", "capacity": "16", "name": "Montmartre - \u00c9tienne Marcel", "network": "V\u00e9lib\u2019 M\u00e9tropole", "network:wikidata": "Q1120762", "network:wikipedia": "fr:V\u00e9lib' M\u00e9tropole", "operator": "Smovengo", "operator:wikidata": "Q47008427", "operator:wikipedia": "fr:Smovengo", "ref": "2005", "source": "Autolib Velib M\u00e9tropole - 04/2020", "wikidata": "Q86254780"}}, {"type": "node", "id": 6913843962, "lat": 48.848183, "lon": 2.3763473, "tags": {"amenity": "bicycle_rental", "capacity": "26", "name": "Charenton - Prague", "network": "V\u00e9lib\u2019", "operator": "Smovengo", "ref": "12101", "source": "Autolib Velib M\u00e9tropole - 2021-03", "wikidata": "Q86252727"}}, {"type": "node", "id": 6913843963, "lat": 48.8468877, "lon": 2.3770544, "tags": {"amenity": "bicycle_rental", "capacity": "54", "name": "Hector Malot - Daumesnil", "network": "V\u00e9lib\u2019", "operator": "Smovengo", "ref": "12008", "source": "survey", "wikidata": "Q86252671"}}, {"type": "node", "id": 6913843964, "lat": 48.8462822, "lon": 2.3792585, "tags": {"amenity": "bicycle_rental", "bicycle_rental": "docking_station", "brand": "V\u00e9lib\u2019 M\u00e9tropole", "brand:wikidata": "Q1120762", "brand:wikipedia": "fr:V\u00e9lib' M\u00e9tropole", "capacity": "18", "name": "Charenton - Diderot", "network": "V\u00e9lib\u2019 M\u00e9tropole", "network:wikidata": "Q1120762", "network:wikipedia": "fr:V\u00e9lib' M\u00e9tropole", "operator": "Smovengo", "operator:wikidata": "Q47008427", "operator:wikipedia": "fr:Smovengo", "ref": "12009", "source": "Autolib Velib M\u00e9tropole - 2021-03", "wikidata": "Q86252739"}}, {"type": "node", "id": 6915610842, "lat": 48.8504535, "lon": 2.3838299, "tags": {"amenity": "bicycle_rental", "bicycle_rental": "docking_station", "brand": "V\u00e9lib\u2019 M\u00e9tropole", "brand:wikidata": "Q1120762", "brand:wikipedia": "fr:V\u00e9lib' M\u00e9tropole", "capacity": "43", "name": "Place Mireille Havet", "network": "V\u00e9lib\u2019 M\u00e9tropole", "network:wikidata": "Q1120762", "network:wikipedia": "fr:V\u00e9lib' M\u00e9tropole", "operator": "Smovengo", "operator:wikidata": "Q47008427", "operator:wikipedia": "fr:Smovengo", "ref": "11048", "source": "Autolib Velib M\u00e9tropole - 04/2020", "wikidata": "Q86254541"}}, {"type": "node", "id": 6915610843, "lat": 48.8476038, "lon": 2.390215, "tags": {"amenity": "bicycle_rental", "bicycle_rental": "docking_station", "brand": "V\u00e9lib\u2019 M\u00e9tropole", "brand:wikidata": "Q1120762", "brand:wikipedia": "fr:V\u00e9lib' M\u00e9tropole", "capacity": "21", "name": "Diderot - Pierre Bourdan", "network": "V\u00e9lib\u2019 M\u00e9tropole", "network:wikidata": "Q1120762", "network:wikipedia": "fr:V\u00e9lib' M\u00e9tropole", "operator": "Smovengo", "operator:wikidata": "Q47008427", "operator:wikipedia": "fr:Smovengo", "ref": "12107", "source": "Autolib Velib M\u00e9tropole - 04/2020", "wikidata": "Q86252620"}}, {"type": "node", "id": 6916896355, "lat": 48.864532, "lon": 2.3695075, "tags": {"amenity": "bicycle_rental", "bicycle_rental": "docking_station", "brand": "V\u00e9lib\u2019 M\u00e9tropole", "brand:wikidata": "Q1120762", "brand:wikipedia": "fr:V\u00e9lib' M\u00e9tropole", "capacity": "49", "check_date": "2022-07-28", "description": "Deuxi\u00e8me partie de la station, abonnement uniquement.", "name": "Grand Prieur\u00e9 - Crussol", "network": "V\u00e9lib\u2019 M\u00e9tropole", "network:wikidata": "Q1120762", "network:wikipedia": "fr:V\u00e9lib' M\u00e9tropole", "operator": "Smovengo", "operator:wikidata": "Q47008427", "operator:wikipedia": "fr:Smovengo", "ref": "11042", "source": "Autolib Velib M\u00e9tropole - 04/2020", "wikidata": "Q86254550"}}, {"type": "node", "id": 7212506780, "lat": 48.8443838, "lon": 2.38973, "tags": {"amenity": "bicycle_rental", "bicycle_rental": "docking_station", "brand": "V\u00e9lib\u2019 M\u00e9tropole", "brand:wikidata": "Q1120762", "brand:wikipedia": "fr:V\u00e9lib' M\u00e9tropole", "capacity": "16", "name": "Montgallet - Reuilly", "network": "V\u00e9lib\u2019 M\u00e9tropole", "network:wikidata": "Q1120762", "network:wikipedia": "fr:V\u00e9lib' M\u00e9tropole", "operator": "Smovengo", "operator:wikidata": "Q47008427", "operator:wikipedia": "fr:Smovengo", "ref": "12013", "source": "Autolib Velib M\u00e9tropole - 04/2020", "wikidata": "Q86252590"}}, {"type": "node", "id": 7212506781, "lat": 48.837803, "lon": 2.382356, "tags": {"amenity": "bicycle_rental", "bicycle_rental": "docking_station", "brand": "V\u00e9lib\u2019 M\u00e9tropole", "brand:wikidata": "Q1120762", "brand:wikipedia": "fr:V\u00e9lib' M\u00e9tropole", "capacity": "51", "name": "Place Ginette Hamelin", "network": "V\u00e9lib\u2019 M\u00e9tropole", "network:wikidata": "Q1120762", "network:wikipedia": "fr:V\u00e9lib' M\u00e9tropole", "operator": "Smovengo", "operator:wikidata": "Q47008427", "operator:wikipedia": "fr:Smovengo", "ref": "12026", "source": "Autolib Velib M\u00e9tropole - 04/2020", "wikidata": "Q86252635"}}, {"type": "node", "id": 7250825936, "lat": 48.8531258, "lon": 2.3883549, "tags": {"amenity": "bicycle_rental", "bicycle_rental": "docking_station", "brand": "V\u00e9lib\u2019 M\u00e9tropole", "brand:wikidata": "Q1120762", "brand:wikipedia": "fr:V\u00e9lib' M\u00e9tropole", "capacity": "59", "check_date": "2023-04-02", "description": "deuxi\u00e8me partie de la station v\u00e9lib'", "name": "Alexandre Dumas - Voltaire", "network": "V\u00e9lib\u2019 M\u00e9tropole", "network:wikidata": "Q1120762", "network:wikipedia": "fr:V\u00e9lib' M\u00e9tropole", "operator": "Smovengo", "operator:wikidata": "Q47008427", "operator:wikipedia": "fr:Smovengo", "ref": "11102", "source": "Autolib Velib M\u00e9tropole - 04/2020", "wikidata": "Q86254482"}}, {"type": "node", "id": 7274196142, "lat": 48.8426571, "lon": 2.3861854, "tags": {"amenity": "bicycle_rental", "bicycle_rental": "docking_station", "capacity": "16", "name": "Montgallet - Charenton", "network": "V\u00e9lib\u2019", "operator": "Smovengo", "ref": "12027", "source": "Autolib Velib M\u00e9tropole - 2021-03", "wikidata": "Q86252676"}}, {"type": "node", "id": 7274196143, "lat": 48.8419124, "lon": 2.3896989, "tags": {"amenity": "bicycle_rental", "bicycle_rental": "docking_station", "brand": "V\u00e9lib\u2019 M\u00e9tropole", "brand:wikidata": "Q1120762", "brand:wikipedia": "fr:V\u00e9lib' M\u00e9tropole", "capacity": "27", "name": "Vivaldi - Antoine-Julien H\u00e9nard", "network": "V\u00e9lib\u2019 M\u00e9tropole", "network:wikidata": "Q1120762", "network:wikipedia": "fr:V\u00e9lib' M\u00e9tropole", "operator": "Smovengo", "operator:wikidata": "Q47008427", "operator:wikipedia": "fr:Smovengo", "ref": "12028", "source": "Autolib Velib M\u00e9tropole - 04/2020", "wikidata": "Q86252597"}}, {"type": "node", "id": 7274196146, "lat": 48.8427578, "lon": 2.3845025, "tags": {"amenity": "bicycle_rental", "bicycle_rental": "docking_station", "brand": "V\u00e9lib\u2019 M\u00e9tropole", "brand:wikidata": "Q1120762", "brand:wikipedia": "fr:V\u00e9lib' M\u00e9tropole", "capacity": "40", "name": "Daumesnil - H\u00e9brard", "network": "V\u00e9lib\u2019 M\u00e9tropole", "network:wikidata": "Q1120762", "network:wikipedia": "fr:V\u00e9lib' M\u00e9tropole", "operator": "Smovengo", "operator:wikidata": "Q47008427", "operator:wikipedia": "fr:Smovengo", "ref": "12043", "source": "Autolib Velib M\u00e9tropole - 2021-03", "wikidata": "Q86252609"}}, {"type": "node", "id": 7274196148, "lat": 48.8471841, "lon": 2.3860782, "tags": {"amenity": "bicycle_rental", "bicycle_rental": "docking_station", "brand": "V\u00e9lib\u2019 M\u00e9tropole", "brand:wikidata": "Q1120762", "brand:wikipedia": "fr:V\u00e9lib' M\u00e9tropole", "capacity": "44", "name": "Diderot - Reuilly", "network": "V\u00e9lib\u2019 M\u00e9tropole", "network:wikidata": "Q1120762", "network:wikipedia": "fr:V\u00e9lib' M\u00e9tropole", "operator": "Smovengo", "operator:wikidata": "Q47008427", "operator:wikipedia": "fr:Smovengo", "ref": "12161", "source": "Autolib Velib M\u00e9tropole - 04/2020", "wikidata": "Q86252777"}}, {"type": "node", "id": 7366564818, "lat": 48.8423198, "lon": 2.36703, "tags": {"amenity": "bicycle_rental", "bicycle_rental": "docking_station", "brand": "V\u00e9lib\u2019 M\u00e9tropole", "brand:wikidata": "Q1120762", "brand:wikipedia": "fr:V\u00e9lib' M\u00e9tropole", "capacity": "55", "name": "Gare d'Austerlitz - Pont Charles de Gaulle", "network": "V\u00e9lib\u2019 M\u00e9tropole", "network:wikidata": "Q1120762", "network:wikipedia": "fr:V\u00e9lib' M\u00e9tropole", "operator": "Smovengo", "operator:wikidata": "Q47008427", "operator:wikipedia": "fr:Smovengo", "ref": "13125", "source": "Autolib Velib M\u00e9tropole - 04/2019", "wikidata": "Q86253284"}}, {"type": "node", "id": 7366564819, "lat": 48.8389473, "lon": 2.3704236, "tags": {"amenity": "bicycle_rental", "bicycle_rental": "docking_station", "brand": "V\u00e9lib\u2019 M\u00e9tropole", "brand:wikidata": "Q1120762", "brand:wikipedia": "fr:V\u00e9lib' M\u00e9tropole", "capacity": "43", "name": "Paul Klee - Place Augusta Holmes", "network": "V\u00e9lib\u2019 M\u00e9tropole", "network:wikidata": "Q1120762", "network:wikipedia": "fr:V\u00e9lib' M\u00e9tropole", "operator": "Smovengo", "operator:wikidata": "Q47008427", "operator:wikipedia": "fr:Smovengo", "ref": "13020", "source": "Autolib Velib M\u00e9tropole - 04/2019", "wikidata": "Q86253292"}}, {"type": "node", "id": 7366568992, "lat": 48.8538857, "lon": 2.3493662, "tags": {"amenity": "bicycle_rental", "bicycle_rental": "docking_station", "brand": "V\u00e9lib\u2019 M\u00e9tropole", "brand:wikidata": "Q1120762", "brand:wikipedia": "fr:V\u00e9lib' M\u00e9tropole", "capacity": "31", "name": "Arcole - Notre-Dame", "network": "V\u00e9lib\u2019 M\u00e9tropole", "network:wikidata": "Q1120762", "network:wikipedia": "fr:V\u00e9lib' M\u00e9tropole", "operator": "Smovengo", "operator:wikidata": "Q47008427", "operator:wikipedia": "fr:Smovengo", "ref": "4001", "source": "Autolib Velib M\u00e9tropole - 2021-03", "wikidata": "Q86255037"}}, {"type": "node", "id": 7366568995, "lat": 48.8426287, "lon": 2.3446012, "tags": {"amenity": "bicycle_rental", "bicycle_rental": "docking_station", "brand": "V\u00e9lib\u2019 M\u00e9tropole", "brand:wikidata": "Q1120762", "brand:wikipedia": "fr:V\u00e9lib' M\u00e9tropole", "capacity": "24", "name": "Ulm - Louis Thuillier", "network": "V\u00e9lib\u2019 M\u00e9tropole", "network:wikidata": "Q1120762", "network:wikipedia": "fr:V\u00e9lib' M\u00e9tropole", "operator": "Smovengo", "operator:wikidata": "Q47008427", "operator:wikipedia": "fr:Smovengo", "ref": "5124", "source": "Autolib Velib M\u00e9tropole - 04/2020", "wikidata": "Q86255453"}}, {"type": "node", "id": 7366596406, "lat": 48.8426666, "lon": 2.3618586, "tags": {"amenity": "bicycle_rental", "bicycle_rental": "docking_station", "brand": "V\u00e9lib\u2019 M\u00e9tropole", "brand:wikidata": "Q1120762", "brand:wikipedia": "fr:V\u00e9lib' M\u00e9tropole", "capacity": "30", "name": "Buffon - Jardin des Plantes", "network": "V\u00e9lib\u2019 M\u00e9tropole", "network:wikidata": "Q1120762", "network:wikipedia": "fr:V\u00e9lib' M\u00e9tropole", "operator": "Smovengo", "operator:wikidata": "Q47008427", "operator:wikipedia": "fr:Smovengo", "ref": "5115", "source": "Autolib Velib M\u00e9tropole - 04/2019", "wikidata": "Q86255361"}}, {"type": "node", "id": 7368652172, "lat": 48.8661563, "lon": 2.3891324, "tags": {"amenity": "bicycle_rental", "bicycle_rental": "docking_station", "brand": "V\u00e9lib\u2019 M\u00e9tropole", "brand:wikidata": "Q1120762", "brand:wikipedia": "fr:V\u00e9lib' M\u00e9tropole", "capacity": "12", "name": "Square des Amandiers", "network": "V\u00e9lib\u2019 M\u00e9tropole", "network:wikidata": "Q1120762", "network:wikipedia": "fr:V\u00e9lib' M\u00e9tropole", "operator": "Smovengo", "operator:wikidata": "Q47008427", "operator:wikipedia": "fr:Smovengo", "ref": "20032", "source": "Autolib Velib M\u00e9tropole - 04/2020", "wikidata": "Q86253202"}}, {"type": "node", "id": 7368652173, "lat": 48.8641287, "lon": 2.3916404, "tags": {"amenity": "bicycle_rental", "bicycle_rental": "docking_station", "brand": "V\u00e9lib\u2019 M\u00e9tropole", "brand:wikidata": "Q1120762", "brand:wikipedia": "fr:V\u00e9lib' M\u00e9tropole", "capacity": "20", "name": "M\u00fbriers - P\u00e8re Lachaise", "network": "V\u00e9lib\u2019 M\u00e9tropole", "network:wikidata": "Q1120762", "network:wikipedia": "fr:V\u00e9lib' M\u00e9tropole", "operator": "Smovengo", "operator:wikidata": "Q47008427", "operator:wikipedia": "fr:Smovengo", "ref": "20142", "source": "Autolib Velib M\u00e9tropole - 04/2020", "wikidata": "Q86253224"}}, {"type": "node", "id": 7368681186, "lat": 48.8536375, "lon": 2.3774181, "tags": {"amenity": "bicycle_rental", "bicycle_rental": "docking_station", "brand": "V\u00e9lib\u2019 M\u00e9tropole", "brand:wikidata": "Q1120762", "brand:wikipedia": "fr:V\u00e9lib' M\u00e9tropole", "capacity": "32", "name": "Ledru-Rollin - Charonne", "network": "V\u00e9lib\u2019 M\u00e9tropole", "network:wikidata": "Q1120762", "network:wikipedia": "fr:V\u00e9lib' M\u00e9tropole", "operator": "Smovengo", "operator:wikidata": "Q47008427", "operator:wikipedia": "fr:Smovengo", "ref": "11114", "source": "Autolib Velib M\u00e9tropole - 04/2019", "wikidata": "Q86254540"}}, {"type": "node", "id": 7368681187, "lat": 48.8504882, "lon": 2.3890856, "tags": {"amenity": "bicycle_rental", "bicycle_rental": "docking_station", "brand": "V\u00e9lib\u2019 M\u00e9tropole", "brand:wikidata": "Q1120762", "brand:wikipedia": "fr:V\u00e9lib' M\u00e9tropole", "capacity": "24", "name": "Montreuil - Gonnet", "network": "V\u00e9lib\u2019 M\u00e9tropole", "network:wikidata": "Q1120762", "network:wikipedia": "fr:V\u00e9lib' M\u00e9tropole", "operator": "Smovengo", "operator:wikidata": "Q47008427", "operator:wikipedia": "fr:Smovengo", "ref": "11115", "source": "Autolib Velib M\u00e9tropole - 04/2020", "wikidata": "Q86254531"}}, {"type": "node", "id": 7368681193, "lat": 48.8639051, "lon": 2.3523875, "tags": {"amenity": "bicycle_rental", "bicycle_rental": "docking_station", "brand": "V\u00e9lib\u2019 M\u00e9tropole", "brand:wikidata": "Q1120762", "brand:wikipedia": "fr:V\u00e9lib' M\u00e9tropole", "capacity": "42", "name": "Bourg l'Abb\u00e9 - Saint-Martin", "network": "V\u00e9lib\u2019 M\u00e9tropole", "network:wikidata": "Q1120762", "network:wikipedia": "fr:V\u00e9lib' M\u00e9tropole", "operator": "Smovengo", "operator:wikidata": "Q47008427", "operator:wikipedia": "fr:Smovengo", "ref": "3102", "source": "Autolib Velib M\u00e9tropole - 2021-03", "wikidata": "Q86255145"}}, {"type": "node", "id": 7368681194, "lat": 48.8605777, "lon": 2.3460998, "tags": {"amenity": "bicycle_rental", "bicycle_rental": "docking_station", "brand": "V\u00e9lib\u2019 M\u00e9tropole", "brand:wikidata": "Q1120762", "brand:wikipedia": "fr:V\u00e9lib' M\u00e9tropole", "capacity": "20", "name": "Halles - Bourdonnais", "network": "V\u00e9lib\u2019 M\u00e9tropole", "network:wikidata": "Q1120762", "network:wikipedia": "fr:V\u00e9lib' M\u00e9tropole", "operator": "Smovengo", "operator:wikidata": "Q47008427", "operator:wikipedia": "fr:Smovengo", "ref": "1021", "source": "Autolib Velib M\u00e9tropole - 2021-03", "wikidata": "Q86255102"}}, {"type": "node", "id": 7368681195, "lat": 48.8600899, "lon": 2.3440576, "tags": {"amenity": "bicycle_rental", "bicycle_rental": "docking_station", "brand": "V\u00e9lib\u2019 M\u00e9tropole", "brand:wikidata": "Q1120762", "brand:wikipedia": "fr:V\u00e9lib' M\u00e9tropole", "capacity": "27", "name": "Pont Neuf - Rivoli", "network": "V\u00e9lib\u2019 M\u00e9tropole", "network:wikidata": "Q1120762", "network:wikipedia": "fr:V\u00e9lib' M\u00e9tropole", "operator": "Smovengo", "operator:wikidata": "Q47008427", "operator:wikipedia": "fr:Smovengo", "ref": "1117", "source": "Autolib Velib M\u00e9tropole - 2021-03", "wikidata": "Q86255125"}}, {"type": "node", "id": 7369001586, "lat": 48.8732681, "lon": 2.3407533, "tags": {"amenity": "bicycle_rental", "bicycle_rental": "docking_station", "brand": "V\u00e9lib\u2019 M\u00e9tropole", "brand:wikidata": "Q1120762", "brand:wikipedia": "fr:V\u00e9lib' M\u00e9tropole", "capacity": "24", "name": "Mairie du 9\u00e8me", "network": "V\u00e9lib\u2019 M\u00e9tropole", "network:wikidata": "Q1120762", "network:wikipedia": "fr:V\u00e9lib' M\u00e9tropole", "operator": "Smovengo", "operator:wikidata": "Q47008427", "operator:wikipedia": "fr:Smovengo", "ref": "9013", "source": "Autolib Velib M\u00e9tropole - 04/2019", "wikidata": "Q86254644"}}, {"type": "node", "id": 7369001588, "lat": 48.8708267, "lon": 2.345926, "tags": {"amenity": "bicycle_rental", "bicycle_rental": "docking_station", "brand": "V\u00e9lib\u2019 M\u00e9tropole", "brand:wikidata": "Q1120762", "brand:wikipedia": "fr:V\u00e9lib' M\u00e9tropole", "capacity": "35", "name": "Saint-Fiacre - Poissoni\u00e8re", "network": "V\u00e9lib\u2019 M\u00e9tropole", "network:wikidata": "Q1120762", "network:wikipedia": "fr:V\u00e9lib' M\u00e9tropole", "operator": "Smovengo", "operator:wikidata": "Q47008427", "operator:wikipedia": "fr:Smovengo", "ref": "2022", "source": "Autolib Velib M\u00e9tropole - 04/2019", "wikidata": "Q86254766"}}, {"type": "node", "id": 7369001589, "lat": 48.870791, "lon": 2.343101, "tags": {"amenity": "bicycle_rental", "bicycle_rental": "docking_station", "brand": "V\u00e9lib\u2019 M\u00e9tropole", "brand:wikidata": "Q1120762", "brand:wikipedia": "fr:V\u00e9lib' M\u00e9tropole", "capacity": "29", "name": "Uz\u00e8s - Montmartre", "network": "V\u00e9lib\u2019 M\u00e9tropole", "network:wikidata": "Q1120762", "network:wikipedia": "fr:V\u00e9lib' M\u00e9tropole", "operator": "Smovengo", "operator:wikidata": "Q47008427", "operator:wikipedia": "fr:Smovengo", "ref": "2010", "source": "Autolib Velib M\u00e9tropole - 04/2019", "wikidata": "Q86254739"}}, {"type": "node", "id": 7369001590, "lat": 48.8689829, "lon": 2.3469129, "tags": {"amenity": "bicycle_rental", "bicycle_rental": "docking_station", "brand": "V\u00e9lib\u2019 M\u00e9tropole", "brand:wikidata": "Q1120762", "brand:wikipedia": "fr:V\u00e9lib' M\u00e9tropole", "capacity": "28", "name": "Je\u00fbneurs - Mulhouse", "network": "V\u00e9lib\u2019 M\u00e9tropole", "network:wikidata": "Q1120762", "network:wikipedia": "fr:V\u00e9lib' M\u00e9tropole", "operator": "Smovengo", "operator:wikidata": "Q47008427", "operator:wikipedia": "fr:Smovengo", "ref": "2110", "source": "Autolib Velib M\u00e9tropole - 04/2019", "wikidata": "Q86254778"}}, {"type": "node", "id": 7369001591, "lat": 48.8682037, "lon": 2.3437952, "tags": {"amenity": "bicycle_rental", "bicycle_rental": "docking_station", "brand": "V\u00e9lib\u2019 M\u00e9tropole", "brand:wikidata": "Q1120762", "brand:wikipedia": "fr:V\u00e9lib' M\u00e9tropole", "capacity": "19", "name": "R\u00e9aumur - Montmartre", "network": "V\u00e9lib\u2019 M\u00e9tropole", "network:wikidata": "Q1120762", "network:wikipedia": "fr:V\u00e9lib' M\u00e9tropole", "operator": "Smovengo", "operator:wikidata": "Q47008427", "operator:wikipedia": "fr:Smovengo", "ref": "2109", "source": "Autolib Velib M\u00e9tropole - 04/2019", "wikidata": "Q86254750"}}, {"type": "node", "id": 7369001592, "lat": 48.8703107, "lon": 2.3419792, "tags": {"amenity": "bicycle_rental", "bicycle_rental": "docking_station", "brand": "V\u00e9lib\u2019 M\u00e9tropole", "brand:wikidata": "Q1120762", "brand:wikipedia": "fr:V\u00e9lib' M\u00e9tropole", "capacity": "37", "name": "Saint-Marc - Feydeau", "network": "V\u00e9lib\u2019 M\u00e9tropole", "network:wikidata": "Q1120762", "network:wikipedia": "fr:V\u00e9lib' M\u00e9tropole", "operator": "Smovengo", "operator:wikidata": "Q47008427", "operator:wikipedia": "fr:Smovengo", "ref": "2102", "source": "Autolib Velib M\u00e9tropole - 04/2019", "wikidata": "Q86254728"}}, {"type": "node", "id": 7369001593, "lat": 48.868866, "lon": 2.3397317, "tags": {"amenity": "bicycle_rental", "bicycle_rental": "docking_station", "brand": "V\u00e9lib\u2019 M\u00e9tropole", "brand:wikidata": "Q1120762", "brand:wikipedia": "fr:V\u00e9lib' M\u00e9tropole", "capacity": "58", "check_date": "2023-03-19", "name": "Filles Saint-Thomas - Place de la Bourse", "network": "V\u00e9lib\u2019 M\u00e9tropole", "network:wikidata": "Q1120762", "network:wikipedia": "fr:V\u00e9lib' M\u00e9tropole", "operator": "Smovengo", "operator:wikidata": "Q47008427", "operator:wikipedia": "fr:Smovengo", "ref": "2009", "source": "Autolib Velib M\u00e9tropole - 04/2019", "wikidata": "Q86254741"}}, {"type": "node", "id": 7369001599, "lat": 48.8672322, "lon": 2.3405014, "tags": {"amenity": "bicycle_rental", "bicycle_rental": "docking_station", "brand": "V\u00e9lib\u2019 M\u00e9tropole", "brand:wikidata": "Q1120762", "brand:wikipedia": "fr:V\u00e9lib' M\u00e9tropole", "capacity": "28", "name": "Mairie du 2\u00e8me", "network": "V\u00e9lib\u2019 M\u00e9tropole", "network:wikidata": "Q1120762", "network:wikipedia": "fr:V\u00e9lib' M\u00e9tropole", "operator": "Smovengo", "operator:wikidata": "Q47008427", "operator:wikipedia": "fr:Smovengo", "ref": "2008", "source": "Autolib Velib M\u00e9tropole - 04/2019", "wikidata": "Q86254735"}}, {"type": "node", "id": 7369001600, "lat": 48.8696016, "lon": 2.3542909, "tags": {"amenity": "bicycle_rental", "bicycle_rental": "docking_station", "brand": "V\u00e9lib\u2019 M\u00e9tropole", "brand:wikidata": "Q1120762", "brand:wikipedia": "fr:V\u00e9lib' M\u00e9tropole", "capacity": "16", "name": "Strasbourg - Saint-Denis", "network": "V\u00e9lib\u2019 M\u00e9tropole", "network:wikidata": "Q1120762", "network:wikipedia": "fr:V\u00e9lib' M\u00e9tropole", "operator": "Smovengo", "operator:wikidata": "Q47008427", "operator:wikipedia": "fr:Smovengo", "ref": "10166", "source": "Autolib Velib M\u00e9tropole - 04/2019", "wikidata": "Q86252926"}}, {"type": "node", "id": 7369001601, "lat": 48.8686829, "lon": 2.3502042, "tags": {"amenity": "bicycle_rental", "bicycle_rental": "docking_station", "brand": "V\u00e9lib\u2019 M\u00e9tropole", "brand:wikidata": "Q1120762", "brand:wikipedia": "fr:V\u00e9lib' M\u00e9tropole", "capacity": "21", "name": "Aboukir - Alexandrie", "network": "V\u00e9lib\u2019 M\u00e9tropole", "network:wikidata": "Q1120762", "network:wikipedia": "fr:V\u00e9lib' M\u00e9tropole", "operator": "Smovengo", "operator:wikidata": "Q47008427", "operator:wikipedia": "fr:Smovengo", "ref": "2016", "source": "Autolib Velib M\u00e9tropole - 04/2020", "wikidata": "Q86254763"}}, {"type": "node", "id": 7369001602, "lat": 48.8670273, "lon": 2.3483584, "tags": {"amenity": "bicycle_rental", "bicycle_rental": "docking_station", "brand": "V\u00e9lib\u2019 M\u00e9tropole", "brand:wikidata": "Q1120762", "brand:wikipedia": "fr:V\u00e9lib' M\u00e9tropole", "capacity": "17", "name": "Square Pierre Lazareff", "network": "V\u00e9lib\u2019 M\u00e9tropole", "network:wikidata": "Q1120762", "network:wikipedia": "fr:V\u00e9lib' M\u00e9tropole", "operator": "Smovengo", "operator:wikidata": "Q47008427", "operator:wikipedia": "fr:Smovengo", "ref": "2004", "source": "Autolib Velib M\u00e9tropole - 2021-03", "wikidata": "Q86254769"}}, {"type": "node", "id": 7369001603, "lat": 48.867458, "lon": 2.3445211, "tags": {"amenity": "bicycle_rental", "bicycle_rental": "docking_station", "brand": "V\u00e9lib\u2019 M\u00e9tropole", "brand:wikidata": "Q1120762", "brand:wikipedia": "fr:V\u00e9lib' M\u00e9tropole", "capacity": "44", "name": "Cl\u00e9ry - Montmartre", "network": "V\u00e9lib\u2019 M\u00e9tropole", "network:wikidata": "Q1120762", "network:wikipedia": "fr:V\u00e9lib' M\u00e9tropole", "operator": "Smovengo", "operator:wikidata": "Q47008427", "operator:wikipedia": "fr:Smovengo", "ref": "2021", "source": "Autolib Velib M\u00e9tropole - 04/2019", "wikidata": "Q86254782"}}, {"type": "node", "id": 7369001604, "lat": 48.8660355, "lon": 2.3420334, "tags": {"amenity": "bicycle_rental", "bicycle_rental": "docking_station", "brand": "V\u00e9lib\u2019 M\u00e9tropole", "brand:wikidata": "Q1120762", "brand:wikipedia": "fr:V\u00e9lib' M\u00e9tropole", "capacity": "24", "name": "Place des Victoires", "network": "V\u00e9lib\u2019 M\u00e9tropole", "network:wikidata": "Q1120762", "network:wikipedia": "fr:V\u00e9lib' M\u00e9tropole", "operator": "Smovengo", "operator:wikidata": "Q47008427", "operator:wikipedia": "fr:Smovengo", "ref": "2006", "source": "Autolib Velib M\u00e9tropole - 04/2019", "wikidata": "Q86254737"}}, {"type": "node", "id": 7426508324, "lat": 48.8613247, "lon": 2.3493569, "tags": {"amenity": "bicycle_rental", "bicycle_rental": "docking_station", "brand": "V\u00e9lib\u2019 M\u00e9tropole", "brand:wikidata": "Q1120762", "brand:wikipedia": "fr:V\u00e9lib' M\u00e9tropole", "capacity": "24", "name": "Cossonnerie - S\u00e9bastopol", "network": "V\u00e9lib\u2019 M\u00e9tropole", "network:wikidata": "Q1120762", "network:wikipedia": "fr:V\u00e9lib' M\u00e9tropole", "operator": "Smovengo", "operator:wikidata": "Q47008427", "operator:wikipedia": "fr:Smovengo", "ref": "1119", "source": "Autolib Velib M\u00e9tropole - 2021-03", "wikidata": "Q86255117"}}, {"type": "node", "id": 7426545135, "lat": 48.8716023, "lon": 2.3458634, "tags": {"amenity": "bicycle_rental", "bicycle_rental": "docking_station", "brand": "V\u00e9lib\u2019 M\u00e9tropole", "brand:wikidata": "Q1120762", "brand:wikipedia": "fr:V\u00e9lib' M\u00e9tropole", "capacity": "30", "name": "Rougemont - Poissonni\u00e8re", "network": "V\u00e9lib\u2019 M\u00e9tropole", "network:wikidata": "Q1120762", "network:wikipedia": "fr:V\u00e9lib' M\u00e9tropole", "operator": "Smovengo", "operator:wikidata": "Q47008427", "operator:wikipedia": "fr:Smovengo", "ref": "9012", "wikidata": "Q86254652"}}, {"type": "node", "id": 7426547569, "lat": 48.8714404, "lon": 2.3382935, "tags": {"amenity": "bicycle_rental", "bicycle_rental": "docking_station", "brand": "V\u00e9lib\u2019 M\u00e9tropole", "brand:wikidata": "Q1120762", "brand:wikipedia": "fr:V\u00e9lib' M\u00e9tropole", "capacity": "17", "name": "Favart - Italiens", "network": "V\u00e9lib\u2019 M\u00e9tropole", "network:wikidata": "Q1120762", "network:wikipedia": "fr:V\u00e9lib' M\u00e9tropole", "operator": "Smovengo", "operator:wikidata": "Q47008427", "operator:wikipedia": "fr:Smovengo", "ref": "2013", "wikidata": "Q86254759"}}, {"type": "node", "id": 7441503578, "lat": 48.8528959, "lon": 2.3891656, "tags": {"amenity": "bicycle_rental", "bicycle_rental": "docking_station", "brand": "V\u00e9lib\u2019 M\u00e9tropole", "brand:wikidata": "Q1120762", "brand:wikipedia": "fr:V\u00e9lib' M\u00e9tropole", "capacity": "59", "name": "Alexandre Dumas - Voltaire", "network": "V\u00e9lib\u2019 M\u00e9tropole", "network:wikidata": "Q1120762", "network:wikipedia": "fr:V\u00e9lib' M\u00e9tropole", "operator": "Smovengo", "operator:wikidata": "Q47008427", "operator:wikipedia": "fr:Smovengo", "ref": "11102", "source": "Autolib Velib M\u00e9tropole - 04/2020", "wikidata": "Q86254482"}}, {"type": "node", "id": 7531612754, "lat": 48.8724201, "lon": 2.3483952, "tags": {"amenity": "bicycle_rental", "bicycle_rental": "docking_station", "brand": "V\u00e9lib\u2019 M\u00e9tropole", "brand:wikidata": "Q1120762", "brand:wikipedia": "fr:V\u00e9lib' M\u00e9tropole", "capacity": "33", "name": "Enghien - Faubourg Poissonni\u00e8re", "network": "V\u00e9lib\u2019 M\u00e9tropole", "network:wikidata": "Q1120762", "network:wikipedia": "fr:V\u00e9lib' M\u00e9tropole", "operator": "Smovengo", "operator:wikidata": "Q47008427", "operator:wikipedia": "fr:Smovengo", "ref": "10042", "source": "Autolib Velib M\u00e9tropole - 04/2020", "survey:date": "2020-06-05", "wikidata": "Q86253030"}}, {"type": "node", "id": 7792501197, "lat": 48.8673418, "lon": 2.3528841, "tags": {"addr:city": "Paris", "addr:housenumber": "115", "addr:postcode": "75002", "addr:street": "Boulevard de S\u00e9bastopol", "amenity": "bicycle_rental", "bicycle_rental": "shop", "brand": "Swapfiets", "brand:wikidata": "Q62104374", "name": "Swapfiets", "network": "Swapfiets", "network:wikidata": "Q62104374", "opening_hours": "Mo 12:00-18:00; Tu-Sa 10:00-19:00", "operator": "Swapfiets", "operator:wikidata": "Q62104374", "phone": "+33 17 34 40 919", "service:bicycle:rental": "yes", "service:bicycle:repair": "no", "service:bicycle:retail": "no", "shop": "rental", "website": "https://swapfiets.com/fr-FR"}}, {"type": "node", "id": 9075543381, "lat": 48.8511869, "lon": 2.3835996, "tags": {"amenity": "bicycle_rental", "bicycle_rental": "docking_station", "brand": "V\u00e9lib\u2019 M\u00e9tropole", "brand:wikidata": "Q1120762", "brand:wikipedia": "fr:V\u00e9lib' M\u00e9tropole", "capacity": "24", "name": "Faidherbe - Dahomey", "network": "V\u00e9lib\u2019 M\u00e9tropole", "network:wikidata": "Q1120762", "network:wikipedia": "fr:V\u00e9lib' M\u00e9tropole", "operator": "Smovengo", "operator:wikidata": "Q47008427", "operator:wikipedia": "fr:Smovengo", "ref": "11107", "source": "Autolib Velib M\u00e9tropole - 04/2020", "wikidata": "Q86254535"}}, {"type": "node", "id": 9406340523, "lat": 48.8523659, "lon": 2.3680979, "tags": {"amenity": "bicycle_rental", "bicycle_rental": "docking_station", "brand": "V\u00e9lib\u2019 M\u00e9tropole", "brand:wikidata": "Q1120762", "brand:wikipedia": "fr:V\u00e9lib' M\u00e9tropole", "capacity": "35", "name": "Place de la Bastille - Bourdon", "network": "V\u00e9lib\u2019 M\u00e9tropole", "network:wikidata": "Q1120762", "network:wikipedia": "fr:V\u00e9lib' M\u00e9tropole", "operator": "Smovengo", "operator:wikidata": "Q47008427", "operator:wikipedia": "fr:Smovengo", "ref": "4007", "source": "Autolib Velib M\u00e9tropole - 2021-03", "wikidata": "Q110496310"}}, {"type": "node", "id": 9487023569, "lat": 48.8450186, "lon": 2.3394485, "tags": {"amenity": "bicycle_rental", "bicycle_rental": "docking_station", "brand": "V\u00e9lib\u2019 M\u00e9tropole", "brand:wikidata": "Q1120762", "capacity": "29", "name": "Saint-Michel - Luxembourg", "network": "V\u00e9lib\u2019 M\u00e9tropole", "network:wikidata": "Q1120762", "operator": "Smovengo", "operator:wikidata": "Q47008427", "ref": "5122", "source": "Autolib Velib M\u00e9tropole - 2022-01"}}, {"type": "node", "id": 9617142288, "lat": 48.8637347, "lon": 2.3426487}, {"type": "node", "id": 9617142289, "lat": 48.8637555, "lon": 2.3426578}, {"type": "node", "id": 9844392187, "lat": 48.8639599, "lon": 2.3522937, "tags": {"addr:city": "Paris", "addr:housenumber": "4", "addr:postcode": "75003", "addr:street": "Rue du Bourg l'Abb\u00e9", "amenity": "bicycle_rental", "bicycle_rental": "shop", "email": "contact@parisbybike.eu", "facebook": "https://www.facebook.com/parisbybike.eu/", "name": "Paris By Bike", "phone": "+33 7 63901252", "shop": "rental", "website": "https://www.parisbybike.eu/", "wheelchair": "yes"}}, {"type": "node", "id": 9898240319, "lat": 48.8594308, "lon": 2.3560075, "tags": {"amenity": "bicycle_rental"}}, {"type": "node", "id": 10099545064, "lat": 48.8625199, "lon": 2.3382637}, {"type": "node", "id": 10103805540, "lat": 48.862506, "lon": 2.3382551}, {"type": "node", "id": 10103805541, "lat": 48.8623385, "lon": 2.3388813}, {"type": "node", "id": 10103805542, "lat": 48.8623514, "lon": 2.3388882}, {"type": "node", "id": 10113367785, "lat": 48.8436471, "lon": 2.3722465, "tags": {"address": "193 rue de Bercy, 75012 Paris", "amenity": "bicycle_rental", "fee": "yes", "name": "Weelo Gare de Lyon", "network": "Weelo", "not:brand:wikidata": "Q1120762", "opening_hours": "Mo-Su 07:30-21:00", "operator": "Smovengo", "operator:type": "private", "payment:app": "yes", "url": "https://weelo.fr/stations"}}, {"type": "node", "id": 10198505424, "lat": 48.8645946, "lon": 2.3461642}, {"type": "node", "id": 10198505425, "lat": 48.8646073, "lon": 2.3461709}, {"type": "node", "id": 10198505426, "lat": 48.8645452, "lon": 2.3464321}, {"type": "node", "id": 10198505427, "lat": 48.8645247, "lon": 2.3464457}, {"type": "node", "id": 10224617033, "lat": 48.8675301, "lon": 2.3447943}, {"type": "node", "id": 10224617034, "lat": 48.8675454, "lon": 2.3447841}, {"type": "node", "id": 10224617035, "lat": 48.8674257, "lon": 2.3443425}, {"type": "node", "id": 10224617036, "lat": 48.8674112, "lon": 2.3443523}, {"type": "node", "id": 10572778809, "lat": 48.8503674, "lon": 2.3792215, "tags": {"amenity": "bicycle_rental", "bicycle_rental": "docking_station", "survey:date": "2023-01-21"}}, {"type": "node", "id": 10649422135, "lat": 48.8649889, "lon": 2.345063}, {"type": "node", "id": 10649422136, "lat": 48.8649947, "lon": 2.3450909}, {"type": "node", "id": 10649422137, "lat": 48.865054, "lon": 2.3450657}, {"type": "node", "id": 10649422138, "lat": 48.8650488, "lon": 2.3450377}, {"type": "node", "id": 10650894969, "lat": 48.8651263, "lon": 2.3450045}, {"type": "node", "id": 10650894970, "lat": 48.8651314, "lon": 2.3450323}, {"type": "node", "id": 10650894971, "lat": 48.8650717, "lon": 2.3450581}, {"type": "node", "id": 10671861710, "lat": 48.8602947, "lon": 2.3414086, "tags": {"amenity": "bicycle_rental", "bicycle_rental": "docking_station", "brand": "V\u00e9lib\u2019 M\u00e9tropole", "brand:wikidata": "Q1120762", "brand:wikipedia": "fr:V\u00e9lib' M\u00e9tropole", "capacity": "28", "name": "Perrault - Place du Louvre", "network": "V\u00e9lib\u2019 M\u00e9tropole", "network:wikidata": "Q1120762", "network:wikipedia": "fr:V\u00e9lib' M\u00e9tropole", "operator": "Smovengo", "operator:wikidata": "Q47008427", "operator:wikipedia": "fr:Smovengo", "ref": "1201", "wikidata": "Q116796021"}}, {"type": "node", "id": 10671861712, "lat": 48.8578329, "lon": 2.3622643, "tags": {"amenity": "bicycle_rental", "bicycle_rental": "docking_station", "brand": "V\u00e9lib\u2019 M\u00e9tropole", "brand:wikidata": "Q1120762", "brand:wikipedia": "fr:V\u00e9lib' M\u00e9tropole", "capacity": "24", "name": "Payenne - Square George Ca\u00efn", "network": "V\u00e9lib\u2019 M\u00e9tropole", "network:wikidata": "Q1120762", "network:wikipedia": "fr:V\u00e9lib' M\u00e9tropole", "operator": "Smovengo", "operator:wikidata": "Q47008427", "operator:wikipedia": "fr:Smovengo", "ref": "3201", "wikidata": "Q116796023"}}, {"type": "node", "id": 10683960043, "lat": 48.8603165, "lon": 2.3415441}, {"type": "node", "id": 10683960045, "lat": 48.8602547, "lon": 2.3412499}, {"type": "node", "id": 10683960047, "lat": 48.8603321, "lon": 2.3415362}, {"type": "node", "id": 10683960048, "lat": 48.8602716, "lon": 2.3412428}, {"type": "node", "id": 10696561622, "lat": 48.843355, "lon": 2.3542893}, {"type": "node", "id": 10696561623, "lat": 48.8433571, "lon": 2.3543116}, {"type": "node", "id": 10696561624, "lat": 48.843565, "lon": 2.3542617}, {"type": "node", "id": 10696561625, "lat": 48.8435628, "lon": 2.3542379}, {"type": "node", "id": 10696561626, "lat": 48.8436788, "lon": 2.3547254}, {"type": "node", "id": 10696561627, "lat": 48.8436647, "lon": 2.3547245}, {"type": "node", "id": 10696561628, "lat": 48.843671, "lon": 2.3544546}, {"type": "node", "id": 10696561629, "lat": 48.8436854, "lon": 2.3544557}, {"type": "node", "id": 10698805407, "lat": 48.8630001, "lon": 2.3415821}, {"type": "node", "id": 10698805408, "lat": 48.8629169, "lon": 2.3414213}, {"type": "node", "id": 10698805409, "lat": 48.8629306, "lon": 2.3414031}, {"type": "node", "id": 10698805410, "lat": 48.8630138, "lon": 2.3415644}, {"type": "node", "id": 10973438992, "lat": 48.8663528, "lon": 2.3598295, "tags": {"amenity": "bicycle_rental", "bicycle_rental": "docking_station", "brand": "V\u00e9lib\u2019 M\u00e9tropole", "brand:wikidata": "Q1120762", "brand:wikipedia": "fr:V\u00e9lib' M\u00e9tropole", "capacity": "33", "name": "Sainte-Elisabeth - Turbigo", "network": "V\u00e9lib\u2019 M\u00e9tropole", "network:wikidata": "Q1120762", "network:wikipedia": "fr:V\u00e9lib' M\u00e9tropole", "operator": "Smovengo", "operator:wikidata": "Q47008427", "operator:wikipedia": "fr:Smovengo", "ref": "3005", "source": "Autolib Velib M\u00e9tropole - 04/2020", "wikidata": "Q86255129"}}, {"type": "node", "id": 11313875984, "lat": 48.8387438, "lon": 2.3897976, "tags": {"amenity": "bicycle_rental", "brand": "V\u00e9lib\u2019 M\u00e9tropole", "brand:wikidata": "Q1120762", "capacity": "53", "fee": "yes", "name": "Dugommier", "network": "V\u00e9lib\u2019 M\u00e9tropole", "network:wikidata": "Q1120762", "operator": "Smovengo", "operator:wikidata": "Q47008427", "ref": "12201"}}, {"type": "way", "id": 207286065, "nodes": [2174795266, 2174795264, 2174795259, 2174795260, 2174795266], "tags": {"amenity": "bicycle_rental", "bicycle_rental": "docking_station", "brand": "V\u00e9lib\u2019 M\u00e9tropole", "brand:wikidata": "Q1120762", "brand:wikipedia": "fr:V\u00e9lib' M\u00e9tropole", "capacity": "16", "name": "Sebastopol - Rambuteau", "network": "V\u00e9lib\u2019 M\u00e9tropole", "network:wikidata": "Q1120762", "network:wikipedia": "fr:V\u00e9lib' M\u00e9tropole", "operator": "Smovengo", "operator:wikidata": "Q47008427", "operator:wikipedia": "fr:Smovengo", "ref": "04104", "source": "survey", "survey:date": "2020-08-03", "wikidata": "Q86255044"}}, {"type": "way", "id": 1045530843, "nodes": [9617142288, 9617142289, 5957673015, 5957673016, 9617142288], "tags": {"amenity": "bicycle_rental", "bicycle_rental": "docking_station", "brand": "V\u00e9lib\u2019 M\u00e9tropole", "brand:wikidata": "Q1120762", "brand:wikipedia": "fr:V\u00e9lib' M\u00e9tropole", "capacity": "21", "name": "Coquilli\u00e8re - Louvre", "network": "V\u00e9lib\u2019 M\u00e9tropole", "network:wikidata": "Q1120762", "network:wikipedia": "fr:V\u00e9lib' M\u00e9tropole", "operator": "Smovengo", "operator:wikidata": "Q47008427", "operator:wikipedia": "fr:Smovengo"}}, {"type": "way", "id": 1104150648, "nodes": [10099545064, 10103805540, 10103805541, 10103805542, 10099545064], "tags": {"amenity": "bicycle_rental", "bicycle_rental": "docking_station", "brand": "V\u00e9lib\u2019 M\u00e9tropole", "brand:wikidata": "Q1120762", "capacity": "67", "name": "Place du Palais Royal", "network": "V\u00e9lib\u2019 M\u00e9tropole", "network:wikidata": "Q1120762", "operator": "Smovengo", "operator:wikidata": "Q47008427"}}, {"type": "way", "id": 1115098864, "nodes": [10198505426, 10198505425, 10198505424, 10198505427, 10198505426], "tags": {"amenity": "bicycle_rental", "bicycle_rental": "docking_station", "brand": "V\u00e9lib\u2019 M\u00e9tropole", "brand:wikidata": "Q1120762", "capacity": "28", "name": "\u00c9tienne Marcel - Montorgueil", "network": "V\u00e9lib\u2019 M\u00e9tropole", "network:wikidata": "Q1120762", "operator": "Smovengo", "operator:wikidata": "Q47008427"}}, {"type": "way", "id": 1117941577, "nodes": [10224617033, 10224617034, 10224617035, 10224617036, 10224617033], "tags": {"amenity": "bicycle_rental", "bicycle_rental": "docking_station", "brand": "V\u00e9lib\u2019 M\u00e9tropole", "brand:wikidata": "Q1120762", "capacity": "44", "name": "Cl\u00e9ry - Montmartre", "network": "V\u00e9lib\u2019 M\u00e9tropole", "network:wikidata": "Q1120762", "operator": "Smovengo", "operator:wikidata": "Q47008427"}}, {"type": "way", "id": 1144037197, "nodes": [10649422135, 10649422136, 10649422137, 10650894971, 10650894970, 10650894969, 10649422138, 10649422135], "tags": {"amenity": "bicycle_rental", "bicycle_rental": "docking_station", "brand": "V\u00e9lib\u2019 M\u00e9tropole", "brand:wikidata": "Q1120762", "capacity": "16", "name": "Montmartre - \u00c9tienne Marcel", "network": "V\u00e9lib\u2019 M\u00e9tropole", "network:wikidata": "Q1120762", "operator": "Smovengo", "operator:wikidata": "Q47008427"}}, {"type": "way", "id": 1148303690, "nodes": [10683960047, 10683960043, 10683960045, 10683960048, 10683960047], "tags": {"amenity": "bicycle_rental", "bicycle_rental": "docking_station", "brand": "V\u00e9lib\u2019 M\u00e9tropole", "brand:wikidata": "Q1120762", "capacity": "28", "name": "Perrault - Place du Louvre", "network": "V\u00e9lib\u2019 M\u00e9tropole", "network:wikidata": "Q1120762", "operator": "Smovengo", "operator:wikidata": "Q47008427"}}, {"type": "way", "id": 1149835035, "nodes": [10696561625, 10696561624, 10696561623, 10696561622, 10696561625]}, {"type": "way", "id": 1149835036, "nodes": [10696561629, 10696561628, 10696561627, 10696561626, 10696561629]}, {"type": "way", "id": 1150089202, "nodes": [10698805407, 10698805408, 10698805409, 10698805410, 10698805407], "tags": {"amenity": "bicycle_rental", "bicycle_rental": "docking_station", "brand": "V\u00e9lib\u2019 M\u00e9tropole", "brand:wikidata": "Q1120762", "capacity": "22", "network": "V\u00e9lib\u2019 M\u00e9tropole", "network:wikidata": "Q1120762", "operator": "Smovengo", "operator:wikidata": "Q47008427"}}, {"type": "relation", "id": 15538165, "members": [{"type": "way", "ref": 1149835035, "role": "outer"}, {"type": "way", "ref": 1149835036, "role": "outer"}], "tags": {"amenity": "bicycle_rental", "name": "Lac\u00e9p\u00e8de - Linn\u00e9", "network": "V\u00e9lib\u2019 M\u00e9tropole", "operator": "Smovengo", "ref": "5031", "source": "Autolib Velib M\u00e9tropole - 04/2020", "type": "multipolygon", "unsigned_ref": "84961467", "wikidata": "Q86255430"}}]}