{"version": 0.6, "generator": "Overpass API 0.7.61.5 4133829e", "osm3s": {"timestamp_osm_base": "2023-12-10T00:25:03Z", "copyright": "The data included in this document is from www.openstreetmap.org. The data is made available under ODbL."}, "elements": [{"type": "node", "id": 235377792, "lat": 48.8842416, "lon": 2.3670741, "tags": {"STIF:zone": "1", "name": "Stalingrad", "name:ru": "\u0421\u0442\u0430\u043b\u0438\u043d\u0433\u0440\u0430\u0434", "old_name": "Aubervilliers", "public_transport": "station", "railway": "station", "ref:FR:FANTOIR": "75119S536F", "ref:FR:RATP": "1627", "ref:FR:STIF": "22107", "source": "STIF - 12/2016", "station": "subway", "subway": "yes", "type:RATP": "metro", "wheelchair": "yes", "wikidata": "Q1418821", "wikipedia": "fr:Stalingrad (m\u00e9tro de Paris)"}}, {"type": "node", "id": 243493916, "lat": 48.8774215, "lon": 2.3710197, "tags": {"STIF:zone": "1", "name": "Colonel Fabien", "old_name": "Combat", "public_transport": "stop_position", "railway": "station", "ref:FR:FANTOIR": "75110S097R", "ref:FR:RATP": "1972", "ref:FR:STIF": "22120", "source": "STIF - 12/2016", "station": "subway", "subway": "yes", "type:RATP": "metro", "wheelchair": "no", "wikidata": "Q1110656", "wikipedia": "fr:Colonel Fabien (m\u00e9tro de Paris)"}}, {"type": "node", "id": 264508548, "lat": 48.8762027, "lon": 2.3579127, "tags": {"STIF:zone": "1", "addr:city": "Paris", "addr:postcode": "75010", "alt_name": "Gare de l'Est (Verdun)", "name": "Gare de l'Est", "network": "M\u00e9tro de Paris;RATP", "operator": "RATP", "public_transport": "station", "railway": "station", "ref:FR:FANTOIR": "75110S184K", "ref:FR:RATP": "1841", "ref:FR:STIF": "41010", "source": "STIF - 12/2016", "station": "subway", "subway": "yes", "type:RATP": "metro", "wikidata": "Q1494172", "wikipedia": "fr:Gare de l'Est (m\u00e9tro de Paris)"}}, {"type": "node", "id": 326309672, "lat": 48.8788923, "lon": 2.3624779, "tags": {"STIF:zone": "1", "name": "Ch\u00e2teau Landon", "public_transport": "stop_position", "railway": "station", "ref:FR:FANTOIR": "75110S087E", "ref:FR:RATP": "1963", "ref:FR:STIF": "22367", "source": "STIF - 12/2016", "station": "subway", "subway": "yes", "type:RATP": "metro", "wheelchair": "no", "wikidata": "Q1090315", "wikipedia": "fr:Ch\u00e2teau-Landon (m\u00e9tro de Paris)"}}, {"type": "node", "id": 329974472, "lat": 48.8808038, "lon": 2.3587094, "tags": {"STIF:zone": "1", "layer": "-3", "name": "Magenta", "network": "RER", "note": "Please do not add the tag public_transport=station, it is already on the way that defines the footprint of the station", "operator": "SNCF", "railway": "station", "ref:FR:RATP": "51923", "ref:FR:STIF": "41126", "ref:FR:uic8": "87281873", "source": "\u00cele-de-France Mobilit\u00e9s - 03/2022", "start_date": "1999-07-14", "train": "yes", "type:RATP": "rer", "uic_ref": "8728187", "wheelchair": "limited", "wikidata": "Q608428", "wikipedia": "fr:Gare de Magenta"}}, {"type": "node", "id": 1997722992, "lat": 48.8825949, "lon": 2.3703263, "tags": {"STIF:zone": "1", "addr:city": "Paris", "name": "Jaur\u00e8s", "old_name": "Rue d\u2019Allemagne", "public_transport": "station", "railway": "station", "ref:FR:FANTOIR": "75119S254Z;75110S254L", "ref:FR:RATP": "1861", "ref:FR:STIF": "24680", "source": "STIF - 12/2016", "station": "subway", "subway": "yes", "type:RATP": "metro", "wheelchair": "no", "wikidata": "Q568195", "wikipedia": "fr:Jaur\u00e8s (m\u00e9tro de Paris)"}}, {"type": "node", "id": 2506241285, "lat": 48.8770979, "lon": 2.3594905, "tags": {"SNCF:stop_name": "Paris-Est", "STIF:zone": "1", "addr:city": "Paris", "addr:postcode": "75010", "addr:street": "Place du 11 Novembre 1918", "alt_name": "Paris-Est;Gare de Paris-Est;Gare de l'Est", "bench": "yes", "internet_access": "wlan", "internet_access:fee": "no", "name": "Paris Gare de l'Est", "name:de": "Paris Ostbahnhof", "name:ru": "\u0412\u043e\u0441\u0442\u043e\u0447\u043d\u044b\u0439 \u0432\u043e\u043a\u0437\u0430\u043b", "note": "Please do not add public_transport=station on this node as it is already present on the polygon", "operator": "SNCF", "owner": "SNCF Gares & Connexions", "railway": "station", "railway:ref": "PE", "railway:ref:DBAG": "XFPO", "ref:FR:STIF": "22387", "ref:FR:uic8": "87113001", "ref_name": "Paris Gare de l'Est", "shelter": "yes", "source": "STIF - 12/2016", "start_date": "1849-07-05", "train": "yes", "uic_ref": "8711300", "website": "https://www.garesetconnexions.sncf/fr", "wheelchair": "yes", "wikidata": "Q757180", "wikipedia": "fr:Gare de Paris-Est"}}, {"type": "node", "id": 3090733718, "lat": 48.8804003, "lon": 2.3549733, "tags": {"SNCF:stop_name": "Paris-Nord", "STIF:zone": "1", "addr:city": "Paris", "addr:country": "FR", "addr:housenumber": "112", "addr:postcode": "75010", "addr:street": "rue de Maubeuge", "internet_access": "wlan", "name": "Paris Gare du Nord", "name:de": "Paris Nordbahnhof", "name:ru": "\u0421\u0435\u0432\u0435\u0440\u043d\u044b\u0439 \u0432\u043e\u043a\u0437\u0430\u043b", "network": "SNCF.", "note": "Please do not add the tag public_transport=station, it is already on the way that defines the footprint of the station", "old_name": "Embarcad\u00e8re du Chemin de Fer du Nord", "operator": "SNCF", "railway": "station", "railway:ref:DB": "XFPN", "ref:FR:STIF": "41071", "ref:FR:uic8": "87271007;87271031", "train": "yes", "uic_ref": "8727100;8727103", "website": "https://www.garesetconnexions.sncf/fr/gare/frpno/paris-gare-du-nord", "wheelchair": "yes", "wikidata": "Q745942", "wikipedia": "fr:Gare de Paris-Nord"}}, {"type": "node", "id": 3417692493, "lat": 48.8828803, "lon": 2.3442565, "tags": {"STIF:zone": "1", "name": "Anvers", "public_transport": "station", "railway": "station", "ref:FR:FANTOIR": "75118S009P", "ref:FR:RATP": "1984", "ref:FR:STIF": "22123", "source": "STIF - 12/2016", "station": "subway", "subway": "yes", "type:RATP": "metro", "wheelchair": "no", "wikidata": "Q612971", "wikipedia": "fr:Anvers (m\u00e9tro de Paris)"}}, {"type": "node", "id": 3417692501, "lat": 48.8844068, "lon": 2.3603057, "tags": {"STIF:zone": "1", "name": "La Chapelle", "public_transport": "station", "railway": "station", "ref:FR:FANTOIR": "75110S081Y", "ref:FR:RATP": "1868", "ref:FR:STIF": "22119", "source": "STIF - 12/2016", "station": "subway", "subway": "yes", "type:RATP": "metro", "wheelchair": "no", "wikidata": "Q1577103", "wikipedia": "fr:La Chapelle (m\u00e9tro de Paris)"}}, {"type": "node", "id": 4075421186, "lat": 48.8872884, "lon": 2.3495532, "tags": {"STIF:zone": "1", "check_date:wheelchair": "2023-04-11", "name": "Ch\u00e2teau Rouge", "operator": "RATP", "public_transport": "station", "railway": "station", "ref:FR:FANTOIR": "75118S088A", "ref:FR:RATP": "1960", "ref:FR:STIF": "22152", "source": "STIF - 12/2016", "station": "subway", "subway": "yes", "type:RATP": "metro", "wheelchair": "no", "wikidata": "Q957172", "wikipedia": "fr:Ch\u00e2teau Rouge (m\u00e9tro de Paris)"}}, {"type": "node", "id": 5226708287, "lat": 48.8837466, "lon": 2.3496958, "tags": {"STIF:zone": "1", "name": "Barb\u00e8s - Rochechouart", "operator": "RATP", "public_transport": "station", "railway": "station", "ref:FR:FANTOIR": "75109S035C", "ref:FR:RATP": "1999", "ref:FR:STIF": "22127", "source": "STIF - 12/2016", "station": "subway", "subway": "yes", "type:RATP": "metro", "wheelchair": "no", "wikidata": "Q807893", "wikipedia": "fr:Barb\u00e8s - Rochechouart (m\u00e9tro de Paris)"}}, {"type": "node", "id": 5228032207, "lat": 48.8815943, "lon": 2.3657982, "tags": {"STIF:zone": "1", "name": "Louis Blanc", "public_transport": "station", "railway": "station", "ref:FR:FANTOIR": "75110S290A", "ref:FR:RATP": "1806", "ref:FR:STIF": "24681", "source": "STIF - 12/2016", "station": "subway", "subway": "yes", "type:RATP": "metro", "wheelchair": "no", "wikidata": "Q1537255", "wikipedia": "fr:Louis Blanc (m\u00e9tro de Paris)"}}, {"type": "node", "id": 5230752679, "lat": 48.881399, "lon": 2.357438, "tags": {"STIF:zone": "1", "alt_name": "Paris Nord RER", "layer": "-2", "name": "Gare du Nord (RER)", "official_name": "PARIS NORD (GARE DU NORD)", "operator": "SNCF", "railway": "station", "railway:traffic_mode": "passenger", "ref": "RER B,D", "ref:FR:RATP": "1843", "ref:FR:STIF": "41071", "ref:FR:uic8": "87271023;87271007", "short_name": "Gare du Nord", "train": "yes", "type:RATP": "rer", "uic_ref": "8727102;8727100", "wheelchair": "yes", "wikidata": "Q745942", "wikipedia": "fr:Gare de Paris-Nord"}}, {"type": "node", "id": 5364676905, "lat": 48.8795666, "lon": 2.3572124, "tags": {"STIF:zone": "1", "addr:city": "Paris", "addr:postcode": "75010", "name": "Gare du Nord (M\u00e9tro)", "network": "RATP", "operator": "RATP", "public_transport": "station", "railway": "station", "ref:FR:FANTOIR": "75110S186M", "ref:FR:RATP": "1842", "ref:FR:STIF": "22007;22149", "short_name": "Gare du Nord", "start_date": "1907-11-15", "station": "subway", "subway": "yes", "type:RATP": "metro", "wheelchair": "no", "wikidata": "Q1494174", "wikipedia": "fr:Gare du Nord (m\u00e9tro de Paris)"}}, {"type": "node", "id": 5527859168, "lat": 48.8728888, "lon": 2.3563528, "tags": {"STIF:zone": "1", "heritage": "3", "heritage:operator": "mhs", "mhs:inscription_date": "1978", "name": "Ch\u00e2teau d'Eau", "operator": "RATP", "public_transport": "station", "railway": "station", "ref:FR:FANTOIR": "75110S086D", "ref:FR:RATP": "1961", "ref:FR:STIF": "22153", "ref:mhs": "PA00086508", "source": "STIF - 12/2016", "station": "subway", "subway": "yes", "type:RATP": "metro", "wheelchair": "no", "wikidata": "Q1090753", "wikipedia": "fr:Ch\u00e2teau d'Eau (m\u00e9tro de Paris)"}}, {"type": "node", "id": 5528174520, "lat": 48.8759778, "lon": 2.3444894, "tags": {"STIF:zone": "1", "name": "Cadet", "public_transport": "station", "railway": "station", "ref:FR:FANTOIR": "75109S071S", "ref:FR:RATP": "1939", "ref:FR:STIF": "22390", "source": "STIF - 12/2016", "station": "subway", "subway": "yes", "type:RATP": "metro", "wheelchair": "no", "wikidata": "Q1025135", "wikipedia": "fr:Cadet (m\u00e9tro de Paris)"}}, {"type": "node", "id": 5528176223, "lat": 48.8771197, "lon": 2.3487446, "tags": {"STIF:zone": "1", "addr:city": "Paris", "addr:postcode": "75009;75010", "addr:street": "Rue La Fayette", "name": "Poissonni\u00e8re", "network": "M\u00e9tro de Paris;RATP", "operator": "RATP", "public_transport": "station", "railway": "station", "ref:FR:FANTOIR": "75109S420W", "ref:FR:RATP": "1706", "ref:FR:STIF": "22377", "source": "STIF - 12/2016", "station": "subway", "subway": "yes", "type:RATP": "metro", "wheelchair": "no", "wikidata": "Q764106", "wikipedia": "fr:Poissonni\u00e8re (m\u00e9tro de Paris)"}}]}