{"version": 0.6, "generator": "Overpass API 0.7.61.5 4133829e", "osm3s": {"timestamp_osm_base": "2023-12-09T22:50:21Z", "copyright": "The data included in this document is from www.openstreetmap.org. The data is made available under ODbL."}, "elements": [{"type": "node", "id": 428508903, "lat": 48.8803674, "lon": 2.3528307, "tags": {"amenity": "bicycle_rental", "bicycle_rental": "docking_station", "brand": "V\u00e9lib\u2019 M\u00e9tropole", "brand:wikidata": "Q1120762", "brand:wikipedia": "fr:V\u00e9lib' M\u00e9tropole", "capacity": "29", "name": "Gare du Nord - Dunkerque", "network": "V\u00e9lib\u2019 M\u00e9tropole", "network:wikidata": "Q1120762", "network:wikipedia": "fr:V\u00e9lib' M\u00e9tropole", "operator": "Smovengo", "operator:wikidata": "Q47008427", "operator:wikipedia": "fr:Smovengo", "ref": "10028", "source": "survey 10/2018", "wheelchair": "no", "wikidata": "Q86252960"}}, {"type": "node", "id": 5363801429, "lat": 48.8781041, "lon": 2.3294724, "tags": {"amenity": "bicycle_rental", "bicycle_rental": "docking_station", "brand": "V\u00e9lib\u2019 M\u00e9tropole", "brand:wikidata": "Q1120762", "brand:wikipedia": "fr:V\u00e9lib' M\u00e9tropole", "capacity": "20", "name": "Ath\u00e8nes - Clichy", "network": "V\u00e9lib\u2019 M\u00e9tropole", "network:wikidata": "Q1120762", "network:wikipedia": "fr:V\u00e9lib' M\u00e9tropole", "operator": "Smovengo", "operator:wikidata": "Q47008427", "operator:wikipedia": "fr:Smovengo", "ref": "9036", "source": "Autolib Velib M\u00e9tropole - 04/2020", "wikidata": "Q86254706"}}, {"type": "node", "id": 5540287647, "lat": 48.8798271, "lon": 2.3454459}, {"type": "node", "id": 5540287648, "lat": 48.8798141, "lon": 2.3454382}, {"type": "node", "id": 5540287649, "lat": 48.8798674, "lon": 2.3452076}, {"type": "node", "id": 5540287650, "lat": 48.8798815, "lon": 2.3452153}, {"type": "node", "id": 5569041170, "lat": 48.8935069, "lon": 2.3366674, "tags": {"amenity": "bicycle_rental", "bicycle_rental": "docking_station", "capacity": "30", "name": "Damr\u00e9mont - Ordener", "network": "V\u00e9lib\u2019", "operator": "Smovengo", "ref": "18027", "source": "Autolib Velib M\u00e9tropole - 2021-03", "wikidata": "Q86254466"}}, {"type": "node", "id": 5569041179, "lat": 48.8912197, "lon": 2.3512598, "tags": {"amenity": "bicycle_rental", "capacity": "35", "name": "Ordener - Poissonniers", "network": "V\u00e9lib\u2019", "operator": "Smovengo", "ref": "18023", "source": "Autolib Velib M\u00e9tropole - 2021-03", "wikidata": "Q86253526"}}, {"type": "node", "id": 5596256890, "lat": 48.8829038, "lon": 2.3463669, "tags": {"amenity": "bicycle_rental", "bicycle_rental": "docking_station", "brand": "V\u00e9lib\u2019 M\u00e9tropole", "brand:wikidata": "Q1120762", "brand:wikipedia": "fr:V\u00e9lib' M\u00e9tropole", "capacity": "21", "name": "G\u00e9rando - Rochechouart", "network": "V\u00e9lib\u2019 M\u00e9tropole", "network:wikidata": "Q1120762", "network:wikipedia": "fr:V\u00e9lib' M\u00e9tropole", "operator": "Smovengo", "operator:wikidata": "Q47008427", "operator:wikipedia": "fr:Smovengo", "ref": "9004", "source": "Autolib Velib M\u00e9tropole - 04/2019", "vending": "no", "wikidata": "Q86254667"}}, {"type": "node", "id": 5596257214, "lat": 48.8826283, "lon": 2.3449016, "tags": {"amenity": "bicycle_rental", "bicycle_rental": "docking_station", "brand": "V\u00e9lib\u2019 M\u00e9tropole", "brand:wikidata": "Q1120762", "brand:wikipedia": "fr:V\u00e9lib' M\u00e9tropole", "capacity": "33", "name": "Square d'Anvers", "network": "V\u00e9lib\u2019 M\u00e9tropole", "network:wikidata": "Q1120762", "network:wikipedia": "fr:V\u00e9lib' M\u00e9tropole", "operator": "Smovengo", "operator:wikidata": "Q47008427", "operator:wikipedia": "fr:Smovengo", "ref": "9005", "source": "Autolib Velib M\u00e9tropole - 04/2020", "vending": "no", "wikidata": "Q86254701"}}, {"type": "node", "id": 6418479198, "lat": 48.879226, "lon": 2.3491474, "tags": {"amenity": "bicycle_rental", "bicycle_rental": "docking_station", "brand": "V\u00e9lib\u2019 M\u00e9tropole", "brand:wikidata": "Q1120762", "brand:wikipedia": "fr:V\u00e9lib' M\u00e9tropole", "capacity": "14", "name": "Abbeville - Faubourg Poissonni\u00e8re", "network": "V\u00e9lib\u2019 M\u00e9tropole", "network:wikidata": "Q1120762", "network:wikipedia": "fr:V\u00e9lib' M\u00e9tropole", "operator": "Smovengo", "operator:wikidata": "Q47008427", "operator:wikipedia": "fr:Smovengo", "ref": "9002", "wikidata": "Q86254696"}}, {"type": "node", "id": 6424068486, "lat": 48.8811578, "lon": 2.3366444, "tags": {"amenity": "bicycle_rental", "bicycle_rental": "docking_station", "brand": "V\u00e9lib\u2019 M\u00e9tropole", "brand:wikidata": "Q1120762", "brand:wikipedia": "fr:V\u00e9lib' M\u00e9tropole", "capacity": "18", "name": "Victor Mass\u00e9 - Jean-Baptiste Pigalle", "network": "V\u00e9lib\u2019 M\u00e9tropole", "network:wikidata": "Q1120762", "network:wikipedia": "fr:V\u00e9lib' M\u00e9tropole", "operator": "Smovengo", "operator:wikidata": "Q47008427", "operator:wikipedia": "fr:Smovengo", "ref": "9019", "wikidata": "Q86254719"}}, {"type": "node", "id": 6424083985, "lat": 48.8819441, "lon": 2.3523463, "tags": {"amenity": "bicycle_rental", "bicycle_rental": "docking_station", "brand": "V\u00e9lib\u2019 M\u00e9tropole", "brand:wikidata": "Q1120762", "brand:wikipedia": "fr:V\u00e9lib' M\u00e9tropole", "capacity": "49", "name": "Gare du Nord - H\u00f4pital Lariboisi\u00e8re", "network": "V\u00e9lib\u2019 M\u00e9tropole", "network:wikidata": "Q1120762", "network:wikipedia": "fr:V\u00e9lib' M\u00e9tropole", "operator": "Smovengo", "operator:wikidata": "Q47008427", "operator:wikipedia": "fr:Smovengo", "ref": "10107", "wikidata": "Q86253005"}}, {"type": "node", "id": 6424090385, "lat": 48.8809587, "lon": 2.3524469, "tags": {"amenity": "bicycle_rental", "bicycle_rental": "docking_station", "brand": "V\u00e9lib\u2019 M\u00e9tropole", "brand:wikidata": "Q1120762", "brand:wikipedia": "fr:V\u00e9lib' M\u00e9tropole", "capacity": "24", "name": "Gare du Nord - Saint-Vincent de Paul", "network": "V\u00e9lib\u2019 M\u00e9tropole", "network:wikidata": "Q1120762", "network:wikipedia": "fr:V\u00e9lib' M\u00e9tropole", "operator": "Smovengo", "operator:wikidata": "Q47008427", "operator:wikipedia": "fr:Smovengo", "ref": "10033", "source": "Autolib Velib M\u00e9tropole - 04/2020", "wikidata": "Q86252990"}}, {"type": "node", "id": 6433805360, "lat": 48.889501, "lon": 2.3333959, "tags": {"amenity": "bicycle_rental", "bicycle_rental": "docking_station", "capacity": "25", "name": "F\u00e9lix Ziem - Armand Gauthier", "network": "V\u00e9lib\u2019", "operator": "Smovengo", "ref": "18111", "source": "Autolib Velib M\u00e9tropole - 2021-03", "wikidata": "Q86253552"}}, {"type": "node", "id": 6755991828, "lat": 48.8779506, "lon": 2.3374655, "tags": {"amenity": "bicycle_rental", "bicycle_rental": "docking_station", "brand": "V\u00e9lib\u2019 M\u00e9tropole", "brand:wikidata": "Q1120762", "brand:wikipedia": "fr:V\u00e9lib' M\u00e9tropole", "capacity": "23", "name": "Saint-Georges - d'Aumale", "network": "V\u00e9lib\u2019 M\u00e9tropole", "network:wikidata": "Q1120762", "network:wikipedia": "fr:V\u00e9lib' M\u00e9tropole", "operator": "Smovengo", "operator:wikidata": "Q47008427", "operator:wikipedia": "fr:Smovengo", "payment:contactless": "yes", "payment:mastercard": "yes", "payment:visa": "yes", "ref": "9021", "source": "Autolib Velib M\u00e9tropole - 04/2020", "vending": "yes", "wikidata": "Q86254704"}}, {"type": "node", "id": 6763717996, "lat": 48.8807212, "lon": 2.3514536, "tags": {"amenity": "bicycle_rental", "bicycle_rental": "docking_station", "brand": "V\u00e9lib\u2019 M\u00e9tropole", "brand:wikidata": "Q1120762", "brand:wikipedia": "fr:V\u00e9lib' M\u00e9tropole", "capacity": "24", "name": "Dunkerque - Rocroy", "network": "V\u00e9lib\u2019 M\u00e9tropole", "network:wikidata": "Q1120762", "network:wikipedia": "fr:V\u00e9lib' M\u00e9tropole", "operator": "Smovengo", "operator:wikidata": "Q47008427", "operator:wikipedia": "fr:Smovengo", "ref": "10029", "source": "Autolib Velib M\u00e9tropole - 04/2020", "wikidata": "Q86252893"}}, {"type": "node", "id": 6795916696, "lat": 48.8791079, "lon": 2.354235, "tags": {"amenity": "bicycle_rental", "bicycle_rental": "docking_station", "brand": "V\u00e9lib\u2019 M\u00e9tropole", "brand:wikidata": "Q1120762", "brand:wikipedia": "fr:V\u00e9lib' M\u00e9tropole", "capacity": "25", "name": "Gare du Nord - Place de Valenciennes", "network": "V\u00e9lib\u2019 M\u00e9tropole", "network:wikidata": "Q1120762", "network:wikipedia": "fr:V\u00e9lib' M\u00e9tropole", "operator": "Smovengo", "operator:wikidata": "Q47008427", "operator:wikipedia": "fr:Smovengo", "ref": "10152", "source": "Autolib Velib M\u00e9tropole - 04/2020", "wikidata": "Q86252943"}}, {"type": "node", "id": 6795916697, "lat": 48.8795828, "lon": 2.3544902, "tags": {"amenity": "bicycle_rental", "bicycle_rental": "docking_station", "brand": "V\u00e9lib\u2019 M\u00e9tropole", "brand:wikidata": "Q1120762", "brand:wikipedia": "fr:V\u00e9lib' M\u00e9tropole", "capacity": "20", "name": "Gare du Nord - Denain", "network": "V\u00e9lib\u2019 M\u00e9tropole", "network:wikidata": "Q1120762", "network:wikipedia": "fr:V\u00e9lib' M\u00e9tropole", "operator": "Smovengo", "operator:wikidata": "Q47008427", "operator:wikipedia": "fr:Smovengo", "ref": "10153", "source": "Autolib Velib M\u00e9tropole - 04/2019", "wikidata": "Q86252983"}}, {"type": "node", "id": 7075760808, "lat": 48.892501, "lon": 2.3522178, "tags": {"amenity": "bicycle_rental", "bicycle_rental": "docking_station", "brand": "V\u00e9lib\u2019 M\u00e9tropole", "brand:wikidata": "Q1120762", "brand:wikipedia": "fr:V\u00e9lib' M\u00e9tropole", "capacity": "28", "name": "Poissonniers - Nord", "network": "V\u00e9lib\u2019 M\u00e9tropole", "network:wikidata": "Q1120762", "network:wikipedia": "fr:V\u00e9lib' M\u00e9tropole", "operator": "Smovengo", "operator:wikidata": "Q47008427", "operator:wikipedia": "fr:Smovengo", "ref": "18137", "source": "Autolib Velib M\u00e9tropole - 04/2019", "wikidata": "Q86253572"}}, {"type": "node", "id": 7075760809, "lat": 48.8954506, "lon": 2.3529971, "tags": {"amenity": "bicycle_rental", "bicycle_rental": "docking_station", "brand": "V\u00e9lib\u2019 M\u00e9tropole", "brand:wikidata": "Q1120762", "brand:wikipedia": "fr:V\u00e9lib' M\u00e9tropole", "capacity": "28", "name": "Poissonniers - Championnet", "network": "V\u00e9lib\u2019 M\u00e9tropole", "network:wikidata": "Q1120762", "network:wikipedia": "fr:V\u00e9lib' M\u00e9tropole", "operator": "Smovengo", "operator:wikidata": "Q47008427", "operator:wikipedia": "fr:Smovengo", "ref": "18139", "source": "Autolib Velib M\u00e9tropole - 04/2019", "wikidata": "Q86254414"}}, {"type": "node", "id": 7075896234, "lat": 48.8954673, "lon": 2.3498792, "tags": {"amenity": "bicycle_rental", "bicycle_rental": "docking_station", "brand": "V\u00e9lib\u2019 M\u00e9tropole", "brand:wikidata": "Q1120762", "brand:wikipedia": "fr:V\u00e9lib' M\u00e9tropole", "capacity": "22", "name": "Championnet", "network": "V\u00e9lib\u2019 M\u00e9tropole", "network:wikidata": "Q1120762", "network:wikipedia": "fr:V\u00e9lib' M\u00e9tropole", "operator": "Smovengo", "operator:wikidata": "Q47008427", "operator:wikipedia": "fr:Smovengo", "ref": "18101", "source": "Autolib Velib M\u00e9tropole - 04/2019", "wikidata": "Q86254447"}}, {"type": "node", "id": 7075965462, "lat": 48.8957977, "lon": 2.3455801, "tags": {"amenity": "bicycle_rental", "capacity": "46", "name": "Place Albert Kahn", "network": "V\u00e9lib\u2019", "operator": "Smovengo", "ref": "18031", "source": "Autolib Velib M\u00e9tropole - 2021-03", "wikidata": "Q86253605"}}, {"type": "node", "id": 7076001695, "lat": 48.8937071, "lon": 2.3476008, "tags": {"amenity": "bicycle_rental", "bicycle_rental": "docking_station", "capacity": "37", "name": "Joseph Dijon - Ornano", "network": "V\u00e9lib\u2019", "operator": "Smovengo", "ref": "18030", "source": "Autolib Velib M\u00e9tropole - 2021-03", "wikidata": "Q86254423"}}, {"type": "node", "id": 7104646166, "lat": 48.8888491, "lon": 2.3559626, "tags": {"amenity": "bicycle_rental", "bicycle_rental": "docking_station", "capacity": "36", "name": "Stephenson - Doudeauville", "network": "V\u00e9lib\u2019", "operator": "Smovengo", "payment:credit_cards": "yes", "ref": "18012", "source": "Autolib Velib M\u00e9tropole - 2021-03", "wikidata": "Q86253523"}}, {"type": "node", "id": 7104646168, "lat": 48.8866532, "lon": 2.3531454, "tags": {"amenity": "bicycle_rental", "bicycle_rental": "docking_station", "brand": "V\u00e9lib\u2019 M\u00e9tropole", "brand:wikidata": "Q1120762", "brand:wikipedia": "fr:V\u00e9lib' M\u00e9tropole", "capacity": "33", "name": "Square L\u00e9on", "network": "V\u00e9lib\u2019 M\u00e9tropole", "network:wikidata": "Q1120762", "network:wikipedia": "fr:V\u00e9lib' M\u00e9tropole", "operator": "Smovengo", "operator:wikidata": "Q47008427", "operator:wikipedia": "fr:Smovengo", "payment:credit_cards": "no", "ref": "18008", "source": "Autolib Velib M\u00e9tropole - 04/2020", "wikidata": "Q86254476"}}, {"type": "node", "id": 7104646169, "lat": 48.8883276, "lon": 2.3535768, "tags": {"amenity": "bicycle_rental", "bicycle_rental": "docking_station", "capacity": "13", "name": "L\u00e9on - Doudeauville", "network": "V\u00e9lib\u2019", "operator": "Smovengo", "payment:credit_cards": "no", "ref": "18014", "source": "Autolib Velib M\u00e9tropole - 2021-03", "wikidata": "Q86254418"}}, {"type": "node", "id": 7149870071, "lat": 48.8841668, "lon": 2.3560692, "tags": {"amenity": "bicycle_rental", "bicycle_rental": "dropoff_point", "capacity": "18", "name": "Gare du Nord - La Chapelle", "network": "V\u00e9lib\u2019", "operator": "Smovengo", "ref": "10041", "source": "survey 01/2020", "unsigned_ref": "549876068", "wikidata": "Q86252977"}}, {"type": "node", "id": 7368681556, "lat": 48.8847466, "lon": 2.3534589, "tags": {"amenity": "bicycle_rental", "capacity": "34", "name": "Chartres - La Charbonni\u00e8re", "network": "V\u00e9lib\u2019", "operator": "Smovengo", "ref": "18107", "source": "Autolib Velib M\u00e9tropole - 2021-03", "wikidata": "Q86254457"}}, {"type": "node", "id": 7371231529, "lat": 48.8832092, "lon": 2.3308451, "tags": {"amenity": "bicycle_rental", "bicycle_rental": "docking_station", "brand": "V\u00e9lib\u2019 M\u00e9tropole", "brand:wikidata": "Q1120762", "capacity": "27", "name": "Douai - Bruxelles", "network": "V\u00e9lib\u2019 M\u00e9tropole", "network:wikidata": "Q1120762", "operator": "Smovengo", "operator:wikidata": "Q47008427", "ref": "9038", "source": "Autolib Velib M\u00e9tropole - 2021-03", "wikidata": "Q86254709"}}, {"type": "node", "id": 7371231530, "lat": 48.882343, "lon": 2.3332645, "tags": {"amenity": "bicycle_rental", "bicycle_rental": "docking_station", "brand": "V\u00e9lib\u2019 M\u00e9tropole", "brand:wikidata": "Q1120762", "brand:wikipedia": "fr:V\u00e9lib' M\u00e9tropole", "capacity": "25", "name": "Douai - Pierre Fontaine", "network": "V\u00e9lib\u2019 M\u00e9tropole", "network:wikidata": "Q1120762", "network:wikipedia": "fr:V\u00e9lib' M\u00e9tropole", "operator": "Smovengo", "operator:wikidata": "Q47008427", "operator:wikipedia": "fr:Smovengo", "ref": "9027", "source": "Autolib Velib M\u00e9tropole - 04/2020", "wikidata": "Q86254655"}}, {"type": "node", "id": 7371231531, "lat": 48.8825569, "lon": 2.3497293, "tags": {"amenity": "bicycle_rental", "bicycle_rental": "docking_station", "capacity": "36", "name": "Faubourg Poissonniere - Delta", "network": "V\u00e9lib\u2019", "operator": "Smovengo", "ref": "9118", "source": "Autolib Velib M\u00e9tropole - 2021-03", "wikidata": "Q86253008"}}, {"type": "node", "id": 7371231532, "lat": 48.8808834, "lon": 2.3499182, "tags": {"amenity": "bicycle_rental", "bicycle_rental": "docking_station", "brand": "V\u00e9lib\u2019 M\u00e9tropole", "brand:wikidata": "Q1120762", "brand:wikipedia": "fr:V\u00e9lib' M\u00e9tropole", "capacity": "30", "name": "Faubourg Poissonni\u00e8re - Dunkerque", "network": "V\u00e9lib\u2019 M\u00e9tropole", "network:wikidata": "Q1120762", "network:wikipedia": "fr:V\u00e9lib' M\u00e9tropole", "operator": "Smovengo", "operator:wikidata": "Q47008427", "operator:wikipedia": "fr:Smovengo", "ref": "9114", "source": "Autolib Velib M\u00e9tropole - 04/2020", "wikidata": "Q86252922"}}, {"type": "node", "id": 7371231533, "lat": 48.8810969, "lon": 2.3408171, "tags": {"amenity": "bicycle_rental", "bicycle_rental": "docking_station", "brand": "V\u00e9lib\u2019 M\u00e9tropole", "brand:wikidata": "Q1120762", "brand:wikipedia": "fr:V\u00e9lib' M\u00e9tropole", "capacity": "29", "name": "Lallier - Trudaine", "network": "V\u00e9lib\u2019 M\u00e9tropole", "network:wikidata": "Q1120762", "network:wikipedia": "fr:V\u00e9lib' M\u00e9tropole", "operator": "Smovengo", "operator:wikidata": "Q47008427", "operator:wikipedia": "fr:Smovengo", "ref": "9017", "source": "Autolib Velib M\u00e9tropole - 04/2020", "wikidata": "Q86254639"}}, {"type": "node", "id": 7371231536, "lat": 48.880085, "lon": 2.3310797, "tags": {"amenity": "bicycle_rental", "bicycle_rental": "docking_station", "brand": "V\u00e9lib\u2019 M\u00e9tropole", "brand:wikidata": "Q1120762", "brand:wikipedia": "fr:V\u00e9lib' M\u00e9tropole", "capacity": "17", "name": "Moncey - Blanche", "network": "V\u00e9lib\u2019 M\u00e9tropole", "network:wikidata": "Q1120762", "network:wikipedia": "fr:V\u00e9lib' M\u00e9tropole", "operator": "Smovengo", "operator:wikidata": "Q47008427", "operator:wikipedia": "fr:Smovengo", "ref": "9028", "source": "Autolib Velib M\u00e9tropole - 04/2020", "wikidata": "Q86254683"}}, {"type": "node", "id": 7371231537, "lat": 48.8793983, "lon": 2.3337092, "tags": {"amenity": "bicycle_rental", "bicycle_rental": "docking_station", "brand": "V\u00e9lib\u2019 M\u00e9tropole", "brand:wikidata": "Q1120762", "brand:wikipedia": "fr:V\u00e9lib' M\u00e9tropole", "capacity": "17", "name": "Jean-Baptiste Pigalle - La Bruyere", "network": "V\u00e9lib\u2019 M\u00e9tropole", "network:wikidata": "Q1120762", "network:wikipedia": "fr:V\u00e9lib' M\u00e9tropole", "operator": "Smovengo", "operator:wikidata": "Q47008427", "operator:wikipedia": "fr:Smovengo", "ref": "9026", "source": "Autolib Velib M\u00e9tropole - 04/2020", "wikidata": "Q86254722"}}, {"type": "node", "id": 7371231538, "lat": 48.8795243, "lon": 2.3371209, "tags": {"amenity": "bicycle_rental", "bicycle_rental": "docking_station", "brand": "V\u00e9lib\u2019 M\u00e9tropole", "brand:wikidata": "Q1120762", "brand:wikipedia": "fr:V\u00e9lib' M\u00e9tropole", "capacity": "21", "name": "Toudouze - Clauzel", "network": "V\u00e9lib\u2019 M\u00e9tropole", "network:wikidata": "Q1120762", "network:wikipedia": "fr:V\u00e9lib' M\u00e9tropole", "operator": "Smovengo", "operator:wikidata": "Q47008427", "operator:wikipedia": "fr:Smovengo", "ref": "9020", "source": "Autolib Velib M\u00e9tropole - 04/2020", "wikidata": "Q86254572"}}, {"type": "node", "id": 7371231539, "lat": 48.879161, "lon": 2.343698, "tags": {"amenity": "bicycle_rental", "bicycle_rental": "docking_station", "brand": "V\u00e9lib\u2019 M\u00e9tropole", "brand:wikidata": "Q1120762", "brand:wikipedia": "fr:V\u00e9lib' M\u00e9tropole", "capacity": "17", "check_date": "2023-01-26", "name": "Tour d'Auvergne - Rodier", "network": "V\u00e9lib\u2019 M\u00e9tropole", "network:wikidata": "Q1120762", "network:wikipedia": "fr:V\u00e9lib' M\u00e9tropole", "operator": "Smovengo", "operator:wikidata": "Q47008427", "operator:wikipedia": "fr:Smovengo", "ref": "9008", "source": "Autolib Velib M\u00e9tropole - 04/2020", "wikidata": "Q86254603"}}, {"type": "node", "id": 7371231540, "lat": 48.8782554, "lon": 2.3452642, "tags": {"amenity": "bicycle_rental", "bicycle_rental": "docking_station", "brand": "V\u00e9lib\u2019 M\u00e9tropole", "brand:wikidata": "Q1120762", "brand:wikipedia": "fr:V\u00e9lib' M\u00e9tropole", "capacity": "31", "name": "Bellefond - Maubeuge", "network": "V\u00e9lib\u2019 M\u00e9tropole", "network:wikidata": "Q1120762", "network:wikipedia": "fr:V\u00e9lib' M\u00e9tropole", "operator": "Smovengo", "operator:wikidata": "Q47008427", "operator:wikipedia": "fr:Smovengo", "ref": "9117", "source": "Autolib Velib M\u00e9tropole - 04/2020", "wikidata": "Q86254609"}}, {"type": "node", "id": 7371231544, "lat": 48.8782486, "lon": 2.3411569, "tags": {"amenity": "bicycle_rental", "bicycle_rental": "docking_station", "brand": "V\u00e9lib\u2019 M\u00e9tropole", "brand:wikidata": "Q1120762", "brand:wikipedia": "fr:V\u00e9lib' M\u00e9tropole", "capacity": "22", "name": "Milton - Manuel", "network": "V\u00e9lib\u2019 M\u00e9tropole", "network:wikidata": "Q1120762", "network:wikipedia": "fr:V\u00e9lib' M\u00e9tropole", "operator": "Smovengo", "operator:wikidata": "Q47008427", "operator:wikipedia": "fr:Smovengo", "ref": "9115", "source": "Autolib Velib M\u00e9tropole - 04/2020", "wikidata": "Q86254635"}}, {"type": "node", "id": 7371263875, "lat": 48.8910294, "lon": 2.3399918, "tags": {"amenity": "bicycle_rental", "bicycle_rental": "docking_station", "brand": "V\u00e9lib\u2019 M\u00e9tropole", "brand:wikidata": "Q1120762", "brand:wikipedia": "fr:V\u00e9lib' M\u00e9tropole", "capacity": "20", "name": "Franc\u0153ur - Marcadet", "network": "V\u00e9lib\u2019 M\u00e9tropole", "network:wikidata": "Q1120762", "network:wikipedia": "fr:V\u00e9lib' M\u00e9tropole", "operator": "Smovengo", "operator:wikidata": "Q47008427", "operator:wikipedia": "fr:Smovengo", "ref": "18020", "source": "Autolib Velib M\u00e9tropole - 04/2020", "wikidata": "Q86254416"}}, {"type": "node", "id": 7371263876, "lat": 48.8918469, "lon": 2.3354181, "tags": {"amenity": "bicycle_rental", "bicycle_rental": "docking_station", "capacity": "52", "name": "Square Raymond Souplex", "network": "V\u00e9lib\u2019", "operator": "Smovengo", "ref": "18019", "source": "Autolib Velib M\u00e9tropole - 2021-03", "wikidata": "Q86254454"}}, {"type": "node", "id": 7371263877, "lat": 48.8875351, "lon": 2.3343077, "tags": {"amenity": "bicycle_rental", "bicycle_rental": "docking_station", "brand": "V\u00e9lib\u2019 M\u00e9tropole", "brand:wikidata": "Q1120762", "brand:wikipedia": "fr:V\u00e9lib' M\u00e9tropole", "capacity": "24", "name": "Lepic - Arm\u00e9e d'Orient", "network": "V\u00e9lib\u2019 M\u00e9tropole", "network:wikidata": "Q1120762", "network:wikipedia": "fr:V\u00e9lib' M\u00e9tropole", "operator": "Smovengo", "operator:wikidata": "Q47008427", "operator:wikipedia": "fr:Smovengo", "ref": "18113", "source": "Autolib Velib M\u00e9tropole - 04/2020", "wikidata": "Q86253594"}}, {"type": "node", "id": 7371263878, "lat": 48.8896779, "lon": 2.3381787, "tags": {"amenity": "bicycle_rental", "bicycle_rental": "docking_station", "brand": "V\u00e9lib\u2019 M\u00e9tropole", "brand:wikidata": "Q1120762", "brand:wikipedia": "fr:V\u00e9lib' M\u00e9tropole", "capacity": "44", "name": "Caulaincourt - Place Constantin Pecqueur", "network": "V\u00e9lib\u2019 M\u00e9tropole", "network:wikidata": "Q1120762", "network:wikipedia": "fr:V\u00e9lib' M\u00e9tropole", "operator": "Smovengo", "operator:wikidata": "Q47008427", "operator:wikipedia": "fr:Smovengo", "ref": "18017", "source": "Autolib Velib M\u00e9tropole - 04/2020", "wikidata": "Q86254405"}}, {"type": "node", "id": 7371263879, "lat": 48.8899847, "lon": 2.3425217, "tags": {"amenity": "bicycle_rental", "bicycle_rental": "docking_station", "brand": "V\u00e9lib\u2019 M\u00e9tropole", "brand:wikidata": "Q1120762", "brand:wikipedia": "fr:V\u00e9lib' M\u00e9tropole", "capacity": "34", "name": "Franc\u0153ur - Caulaincourt", "network": "V\u00e9lib\u2019 M\u00e9tropole", "network:wikidata": "Q1120762", "network:wikipedia": "fr:V\u00e9lib' M\u00e9tropole", "operator": "Smovengo", "operator:wikidata": "Q47008427", "operator:wikipedia": "fr:Smovengo", "ref": "18016", "source": "Autolib Velib M\u00e9tropole - 04/2020", "wikidata": "Q86254461"}}, {"type": "node", "id": 7371263880, "lat": 48.8886381, "lon": 2.3468967, "tags": {"amenity": "bicycle_rental", "bicycle_rental": "docking_station", "brand": "V\u00e9lib\u2019 M\u00e9tropole", "brand:wikidata": "Q1120762", "brand:wikipedia": "fr:V\u00e9lib' M\u00e9tropole", "capacity": "41", "name": "Custine - Ramey", "network": "V\u00e9lib\u2019 M\u00e9tropole", "network:wikidata": "Q1120762", "network:wikipedia": "fr:V\u00e9lib' M\u00e9tropole", "operator": "Smovengo", "operator:wikidata": "Q47008427", "operator:wikipedia": "fr:Smovengo", "ref": "18015", "source": "Autolib Velib M\u00e9tropole - 04/2020", "wikidata": "Q86253591"}}, {"type": "node", "id": 7371263881, "lat": 48.8871269, "lon": 2.349076, "tags": {"amenity": "bicycle_rental", "capacity": "20", "name": "Poulet - Barb\u00e8s", "network": "V\u00e9lib\u2019", "operator": "Smovengo", "ref": "18136", "source": "Autolib Velib M\u00e9tropole - 2021-03", "wikidata": "Q86253531"}}, {"type": "node", "id": 7371263882, "lat": 48.8851287, "lon": 2.3496882, "tags": {"amenity": "bicycle_rental", "bicycle_rental": "docking_station", "brand": "V\u00e9lib\u2019 M\u00e9tropole", "brand:wikidata": "Q1120762", "brand:wikipedia": "fr:V\u00e9lib' M\u00e9tropole", "capacity": "20", "name": "Goutte d'or - Barb\u00e8s", "network": "V\u00e9lib\u2019 M\u00e9tropole", "network:wikidata": "Q1120762", "network:wikipedia": "fr:V\u00e9lib' M\u00e9tropole", "operator": "Smovengo", "operator:wikidata": "Q47008427", "operator:wikipedia": "fr:Smovengo", "ref": "18007", "source": "Autolib Velib M\u00e9tropole - 2021-03", "wikidata": "Q86253580"}}, {"type": "node", "id": 7371263883, "lat": 48.8851199, "lon": 2.3471949, "tags": {"amenity": "bicycle_rental", "bicycle_rental": "docking_station", "brand": "V\u00e9lib\u2019 M\u00e9tropole", "brand:wikidata": "Q1120762", "brand:wikipedia": "fr:V\u00e9lib' M\u00e9tropole", "capacity": "19", "name": "Clignancourt - Sofia", "network": "V\u00e9lib\u2019 M\u00e9tropole", "network:wikidata": "Q1120762", "network:wikipedia": "fr:V\u00e9lib' M\u00e9tropole", "operator": "Smovengo", "operator:wikidata": "Q47008427", "operator:wikipedia": "fr:Smovengo", "ref": "18141", "source": "Autolib Velib M\u00e9tropole - 04/2020", "wikidata": "Q86253563"}}, {"type": "node", "id": 7371263884, "lat": 48.8846855, "lon": 2.3441293, "tags": {"amenity": "bicycle_rental", "bicycle_rental": "docking_station", "brand": "V\u00e9lib\u2019 M\u00e9tropole", "brand:wikidata": "Q1120762", "brand:wikipedia": "fr:V\u00e9lib' M\u00e9tropole", "capacity": "36", "name": "Square Louise Michel", "network": "V\u00e9lib\u2019 M\u00e9tropole", "network:wikidata": "Q1120762", "network:wikipedia": "fr:V\u00e9lib' M\u00e9tropole", "operator": "Smovengo", "operator:wikidata": "Q47008427", "operator:wikipedia": "fr:Smovengo", "ref": "18006", "source": "Autolib Velib M\u00e9tropole - 04/2020", "wikidata": "Q86254421"}}, {"type": "node", "id": 7371318685, "lat": 48.8841515, "lon": 2.3418427, "tags": {"amenity": "bicycle_rental", "bicycle_rental": "docking_station", "brand": "V\u00e9lib\u2019 M\u00e9tropole", "brand:wikidata": "Q1120762", "brand:wikipedia": "fr:V\u00e9lib' M\u00e9tropole", "capacity": "18", "name": "Tardieu - Chappe", "network": "V\u00e9lib\u2019 M\u00e9tropole", "network:wikidata": "Q1120762", "network:wikipedia": "fr:V\u00e9lib' M\u00e9tropole", "operator": "Smovengo", "operator:wikidata": "Q47008427", "operator:wikipedia": "fr:Smovengo", "ref": "18005", "source": "Autolib Velib M\u00e9tropole - 04/2020", "wikidata": "Q86254449"}}, {"type": "node", "id": 7371318686, "lat": 48.8845135, "lon": 2.3388287, "tags": {"amenity": "bicycle_rental", "bicycle_rental": "docking_station", "brand": "V\u00e9lib\u2019 M\u00e9tropole", "brand:wikidata": "Q1120762", "brand:wikipedia": "fr:V\u00e9lib' M\u00e9tropole", "capacity": "12", "name": "Place des Abbesses", "network": "V\u00e9lib\u2019 M\u00e9tropole", "network:wikidata": "Q1120762", "network:wikipedia": "fr:V\u00e9lib' M\u00e9tropole", "operator": "Smovengo", "operator:wikidata": "Q47008427", "operator:wikipedia": "fr:Smovengo", "ref": "18004", "source": "Autolib Velib M\u00e9tropole - 04/2020", "wikidata": "Q86254424"}}, {"type": "node", "id": 7371318687, "lat": 48.8852692, "lon": 2.3345721, "tags": {"amenity": "bicycle_rental", "capacity": "23", "name": "V\u00e9ron - Lepic", "network": "V\u00e9lib\u2019", "operator": "Smovengo", "ref": "18114", "source": "Autolib Velib M\u00e9tropole - 2021-03", "wikidata": "Q86253587"}}, {"type": "node", "id": 7371318688, "lat": 48.8864725, "lon": 2.3328902, "tags": {"amenity": "bicycle_rental", "bicycle_rental": "docking_station", "capacity": "43", "name": "Cimeti\u00e8re de Montmartre", "network": "V\u00e9lib\u2019", "operator": "Smovengo", "ref": "18003", "source": "Autolib Velib M\u00e9tropole - 2021-03", "wikidata": "Q86253555"}}, {"type": "node", "id": 7371318689, "lat": 48.8871422, "lon": 2.3326149, "tags": {"amenity": "bicycle_rental", "bicycle_rental": "docking_station", "brand": "V\u00e9lib\u2019 M\u00e9tropole", "brand:wikidata": "Q1120762", "brand:wikipedia": "fr:V\u00e9lib' M\u00e9tropole", "capacity": "18", "name": "Damr\u00e9mont - Caulaincourt", "network": "V\u00e9lib\u2019 M\u00e9tropole", "network:wikidata": "Q1120762", "network:wikipedia": "fr:V\u00e9lib' M\u00e9tropole", "operator": "Smovengo", "operator:wikidata": "Q47008427", "operator:wikipedia": "fr:Smovengo", "ref": "18001", "source": "Autolib Velib M\u00e9tropole - 04/2020", "wikidata": "Q86253539"}}, {"type": "node", "id": 7371318690, "lat": 48.8907013, "lon": 2.3308771, "tags": {"amenity": "bicycle_rental", "capacity": "19", "name": "Carpeaux - Place Jacques Froment", "network": "V\u00e9lib\u2019", "operator": "Smovengo", "ref": "18018", "source": "Autolib Velib M\u00e9tropole - 2021-03", "wikidata": "Q86254415"}}, {"type": "node", "id": 7371318708, "lat": 48.8836011, "lon": 2.3332238, "tags": {"amenity": "bicycle_rental", "bicycle_rental": "docking_station", "capacity": "20", "name": "Clichy - Place Blanche", "network": "V\u00e9lib\u2019", "operator": "Smovengo", "ref": "18043", "source": "Autolib Velib M\u00e9tropole - 2021-03", "wikidata": "Q86254685"}}, {"type": "node", "id": 7371318709, "lat": 48.8827555, "lon": 2.3361566, "tags": {"amenity": "bicycle_rental", "bicycle_rental": "docking_station", "brand": "V\u00e9lib\u2019 M\u00e9tropole", "brand:wikidata": "Q1120762", "brand:wikipedia": "fr:V\u00e9lib' M\u00e9tropole", "capacity": "21", "name": "Place Pigalle", "network": "V\u00e9lib\u2019 M\u00e9tropole", "network:wikidata": "Q1120762", "network:wikipedia": "fr:V\u00e9lib' M\u00e9tropole", "operator": "Smovengo", "operator:wikidata": "Q47008427", "operator:wikipedia": "fr:Smovengo", "ref": "18042", "source": "Autolib Velib M\u00e9tropole - 04/2020", "wikidata": "Q86253535"}}, {"type": "node", "id": 7371318710, "lat": 48.8821938, "lon": 2.3405496, "tags": {"amenity": "bicycle_rental", "bicycle_rental": "docking_station", "brand": "V\u00e9lib\u2019 M\u00e9tropole", "brand:wikidata": "Q1120762", "brand:wikipedia": "fr:V\u00e9lib' M\u00e9tropole", "capacity": "20", "name": "Rochechouart - Martyrs", "network": "V\u00e9lib\u2019 M\u00e9tropole", "network:wikidata": "Q1120762", "network:wikipedia": "fr:V\u00e9lib' M\u00e9tropole", "operator": "Smovengo", "operator:wikidata": "Q47008427", "operator:wikipedia": "fr:Smovengo", "ref": "18041", "source": "Autolib Velib M\u00e9tropole - 04/2020", "wikidata": "Q86254413"}}, {"type": "node", "id": 7371329391, "lat": 48.8940125, "lon": 2.33199, "tags": {"amenity": "bicycle_rental", "bicycle_rental": "docking_station", "brand": "V\u00e9lib\u2019 M\u00e9tropole", "brand:wikidata": "Q1120762", "brand:wikipedia": "fr:V\u00e9lib' M\u00e9tropole", "capacity": "33", "name": "Championnet - Vauvenargues", "network": "V\u00e9lib\u2019 M\u00e9tropole", "network:wikidata": "Q1120762", "network:wikipedia": "fr:V\u00e9lib' M\u00e9tropole", "operator": "Smovengo", "operator:wikidata": "Q47008427", "operator:wikipedia": "fr:Smovengo", "ref": "18028", "source": "Autolib Velib M\u00e9tropole - 04/2020", "wikidata": "Q86253561"}}, {"type": "node", "id": 7371329392, "lat": 48.8943954, "lon": 2.3414726, "tags": {"amenity": "bicycle_rental", "capacity": "39", "name": "Emile Blemont - Poteau", "network": "V\u00e9lib\u2019", "operator": "Smovengo", "ref": "18029", "source": "Autolib Velib M\u00e9tropole - 2021-03", "wikidata": "Q86253607"}}, {"type": "node", "id": 7371329393, "lat": 48.8929946, "lon": 2.3401449, "tags": {"amenity": "bicycle_rental", "bicycle_rental": "docking_station", "capacity": "35", "name": "Ruisseau - Ordener", "network": "V\u00e9lib\u2019", "operator": "Smovengo", "ref": "18026", "source": "Autolib Velib M\u00e9tropole - 2021-03", "wikidata": "Q86253544"}}, {"type": "node", "id": 7371329394, "lat": 48.892949, "lon": 2.344531, "tags": {"amenity": "bicycle_rental", "bicycle_rental": "docking_station", "capacity": "40", "name": "Mairie du 18\u00e8me", "network": "V\u00e9lib\u2019", "operator": "Smovengo", "ref": "18025", "source": "Autolib Velib M\u00e9tropole - 2021-03", "wikidata": "Q86253558"}}, {"type": "node", "id": 7371329395, "lat": 48.8908882, "lon": 2.3449099, "tags": {"amenity": "bicycle_rental", "bicycle_rental": "docking_station", "brand": "V\u00e9lib\u2019 M\u00e9tropole", "brand:wikidata": "Q1120762", "brand:wikipedia": "fr:V\u00e9lib' M\u00e9tropole", "capacity": "21", "name": "Marcadet - Ramey", "network": "V\u00e9lib\u2019 M\u00e9tropole", "network:wikidata": "Q1120762", "network:wikipedia": "fr:V\u00e9lib' M\u00e9tropole", "operator": "Smovengo", "operator:wikidata": "Q47008427", "operator:wikipedia": "fr:Smovengo", "ref": "18021", "source": "Autolib Velib M\u00e9tropole - 04/2020", "wikidata": "Q86254456"}}, {"type": "node", "id": 7371329396, "lat": 48.8914577, "lon": 2.3486365, "tags": {"amenity": "bicycle_rental", "bicycle_rental": "docking_station", "capacity": "35", "name": "Clignancourt - Ordener", "network": "V\u00e9lib\u2019", "operator": "Smovengo", "ref": "18024", "source": "Autolib Velib M\u00e9tropole - 2021-03", "wikidata": "Q86254464"}}, {"type": "node", "id": 7371329397, "lat": 48.8904495, "lon": 2.3490574, "tags": {"amenity": "bicycle_rental", "capacity": "37", "name": "Marcadet - Barb\u00e8s", "network": "V\u00e9lib\u2019", "operator": "Smovengo", "ref": "18022", "source": "Autolib Velib M\u00e9tropole - 2021-03", "wikidata": "Q86254427"}}, {"type": "node", "id": 7426505264, "lat": 48.8821526, "lon": 2.3463187, "tags": {"amenity": "bicycle_rental", "bicycle_rental": "docking_station", "brand": "V\u00e9lib\u2019 M\u00e9tropole", "brand:wikidata": "Q1120762", "brand:wikipedia": "fr:V\u00e9lib' M\u00e9tropole", "capacity": "16", "name": "Dunkerque - Trudaine", "network": "V\u00e9lib\u2019 M\u00e9tropole", "network:wikidata": "Q1120762", "network:wikipedia": "fr:V\u00e9lib' M\u00e9tropole", "operator": "Smovengo", "operator:wikidata": "Q47008427", "operator:wikipedia": "fr:Smovengo", "ref": "9006", "wikidata": "Q86254597"}}, {"type": "way", "id": 578111481, "nodes": [5540287650, 5540287649, 5540287648, 5540287647, 5540287650], "tags": {"amenity": "bicycle_rental", "brand": "V\u00e9lib\u2019 M\u00e9tropole", "brand:wikidata": "Q1120762", "capacity": "20", "name": "Condorcet - Turgot", "network": "V\u00e9lib\u2019 M\u00e9tropole", "network:wikidata": "Q1120762", "operator": "Smovengo", "operator:wikidata": "Q47008427", "ref": "9007", "source": "survey 2018; BDOrtho IGN", "wikidata": "Q86254724"}}]}