{"version": 0.6, "generator": "Overpass API 0.7.61.5 4133829e", "osm3s": {"timestamp_osm_base": "2023-12-09T22:50:21Z", "copyright": "The data included in this document is from www.openstreetmap.org. The data is made available under ODbL."}, "elements": [{"type": "node", "id": 479429138, "lat": 48.8337873, "lon": 2.3947302, "tags": {"amenity": "bicycle_rental", "capacity": "31", "disused:amenity": "bicycle_rental", "name": "Charenton - Jardiniers", "network": "V\u00e9lib\u2019", "operator": "Smovengo", "ref": "12112", "source": "Autolib Velib M\u00e9tropole - 2021-03", "wikidata": "Q86252641"}}, {"type": "node", "id": 1432236932, "lat": 48.8425887, "lon": 2.3972686, "tags": {"amenity": "bicycle_rental", "bicycle_rental": "docking_station", "brand": "V\u00e9lib\u2019 M\u00e9tropole", "brand:wikidata": "Q1120762", "brand:wikipedia": "fr:V\u00e9lib' M\u00e9tropole", "capacity": "28", "check_date": "2023-04-02", "name": "Gare de Reuilly - Picpus", "network": "V\u00e9lib\u2019 M\u00e9tropole", "network:wikidata": "Q1120762", "network:wikipedia": "fr:V\u00e9lib' M\u00e9tropole", "operator": "Smovengo", "operator:wikidata": "Q47008427", "operator:wikipedia": "fr:Smovengo", "ref": "12019", "source": "Autolib Velib M\u00e9tropole - 04/2020", "wikidata": "Q86252783"}}, {"type": "node", "id": 5730943762, "lat": 48.8354364, "lon": 2.4077144, "tags": {"amenity": "bicycle_rental", "capacity": "36", "name": "Porte Dor\u00e9e", "network": "V\u00e9lib\u2019", "operator": "Smovengo", "ref": "12032", "source": "survey 06/2018", "wikidata": "Q86252703"}}, {"type": "node", "id": 6408614820, "lat": 48.8408744, "lon": 2.3875652, "tags": {"amenity": "bicycle_rental", "bicycle_rental": "docking_station", "capacity": "30", "covered": "no", "fee": "yes", "name": "Mairie du 12\u00e8me", "network": "V\u00e9lib\u2019", "opening_hours": "24/7", "operator": "Smovengo", "payment:credit_cards": "no", "ref": "12109", "source": "Autolib Velib M\u00e9tropole - 2021-03", "vending": "no", "wikidata": "Q86252604"}}, {"type": "node", "id": 6419525434, "lat": 48.8395052, "lon": 2.3974453, "tags": {"amenity": "bicycle_rental", "bicycle_rental": "docking_station", "brand": "V\u00e9lib\u2019 M\u00e9tropole", "brand:wikidata": "Q1120762", "brand:wikipedia": "fr:V\u00e9lib' M\u00e9tropole", "capacity": "36", "name": "Reuilly - Daumesnil", "network": "V\u00e9lib\u2019 M\u00e9tropole", "network:wikidata": "Q1120762", "network:wikipedia": "fr:V\u00e9lib' M\u00e9tropole", "operator": "Smovengo", "operator:wikidata": "Q47008427", "operator:wikipedia": "fr:Smovengo", "ref": "12037", "source": "Autolib Velib M\u00e9tropole - 2021-03", "wikidata": "Q86252780"}}, {"type": "node", "id": 6433138700, "lat": 48.8471144, "lon": 2.3955995, "tags": {"amenity": "bicycle_rental", "bicycle_rental": "docking_station", "brand": "V\u00e9lib\u2019 M\u00e9tropole", "brand:wikidata": "Q1120762", "brand:wikipedia": "fr:V\u00e9lib' M\u00e9tropole", "capacity": "68", "name": "Fabre d'Eglantine - Place de la Nation", "network": "V\u00e9lib\u2019 M\u00e9tropole", "network:wikidata": "Q1120762", "network:wikipedia": "fr:V\u00e9lib' M\u00e9tropole", "operator": "Smovengo", "operator:wikidata": "Q47008427", "operator:wikipedia": "fr:Smovengo", "ref": "12157", "source": "Autolib Velib M\u00e9tropole - 04/2019", "wikidata": "Q86252772"}}, {"type": "node", "id": 6433789467, "lat": 48.8366809, "lon": 2.3917982, "tags": {"amenity": "bicycle_rental", "bicycle_rental": "docking_station", "brand": "V\u00e9lib\u2019 M\u00e9tropole", "brand:wikidata": "Q1120762", "brand:wikipedia": "fr:V\u00e9lib' M\u00e9tropole", "capacity": "33", "name": "Charenton - Wattignies", "network": "V\u00e9lib\u2019 M\u00e9tropole", "network:wikidata": "Q1120762", "network:wikipedia": "fr:V\u00e9lib' M\u00e9tropole", "operator": "Smovengo", "operator:wikidata": "Q47008427", "operator:wikipedia": "fr:Smovengo", "ref": "12030", "source": "Autolib Velib M\u00e9tropole - 2021-03", "wikidata": "Q86252756"}}, {"type": "node", "id": 6726053713, "lat": 48.8321836, "lon": 2.388796, "tags": {"amenity": "bicycle_rental", "bicycle_rental": "docking_station", "brand": "V\u00e9lib\u2019 M\u00e9tropole", "brand:wikidata": "Q1120762", "brand:wikipedia": "fr:V\u00e9lib' M\u00e9tropole", "capacity": "55", "name": "Terroirs de France - Lheureux", "network": "V\u00e9lib\u2019 M\u00e9tropole", "network:wikidata": "Q1120762", "network:wikipedia": "fr:V\u00e9lib' M\u00e9tropole", "operator": "Smovengo", "operator:type": "private", "operator:wikidata": "Q47008427", "operator:wikipedia": "fr:Smovengo", "ref": "12153", "source": "connaissance locale", "wikidata": "Q86252759"}}, {"type": "node", "id": 6822683487, "lat": 48.8337018, "lon": 2.3865665, "tags": {"amenity": "bicycle_rental", "bicycle_rental": "docking_station", "brand": "V\u00e9lib\u2019 M\u00e9tropole", "brand:wikidata": "Q1120762", "brand:wikipedia": "fr:V\u00e9lib' M\u00e9tropole", "capacity": "66", "name": "Fran\u00e7ois Truffaut - Saint-\u00c9milion", "network": "V\u00e9lib\u2019 M\u00e9tropole", "network:wikidata": "Q1120762", "network:wikipedia": "fr:V\u00e9lib' M\u00e9tropole", "operator": "Smovengo", "operator:wikidata": "Q47008427", "operator:wikipedia": "fr:Smovengo", "ref": "12033", "source": "Autolib Velib M\u00e9tropole - 04/2020", "wikidata": "Q86252623"}}, {"type": "node", "id": 6913843960, "lat": 48.8375475, "lon": 2.3973356, "tags": {"amenity": "bicycle_rental", "bicycle_rental": "docking_station", "brand": "V\u00e9lib\u2019 M\u00e9tropole", "brand:wikidata": "Q1120762", "brand:wikipedia": "fr:V\u00e9lib' M\u00e9tropole", "capacity": "27", "name": "Claude Decaen - Cannebi\u00e8re", "network": "V\u00e9lib\u2019 M\u00e9tropole", "network:wikidata": "Q1120762", "network:wikipedia": "fr:V\u00e9lib' M\u00e9tropole", "operator": "Smovengo", "operator:wikidata": "Q47008427", "operator:wikipedia": "fr:Smovengo", "ref": "12111", "source": "Autolib Velib M\u00e9tropole - 2021-03", "wikidata": "Q86252615"}}, {"type": "node", "id": 6913843961, "lat": 48.8404407, "lon": 2.394476, "tags": {"amenity": "bicycle_rental", "bicycle_rental": "docking_station", "brand": "V\u00e9lib\u2019 M\u00e9tropole", "brand:wikidata": "Q1120762", "brand:wikipedia": "fr:V\u00e9lib' M\u00e9tropole", "capacity": "42", "name": "Reuilly - Place F\u00e9lix \u00c9bou\u00e9", "network": "V\u00e9lib\u2019 M\u00e9tropole", "network:wikidata": "Q1120762", "network:wikipedia": "fr:V\u00e9lib' M\u00e9tropole", "operator": "Smovengo", "operator:wikidata": "Q47008427", "operator:wikipedia": "fr:Smovengo", "ref": "12036", "source": "Autolib Velib M\u00e9tropole - 04/2020", "wikidata": "Q86252733"}}, {"type": "node", "id": 6913843965, "lat": 48.8351409, "lon": 2.3854752, "tags": {"amenity": "bicycle_rental", "bicycle_rental": "docking_station", "brand": "V\u00e9lib\u2019 M\u00e9tropole", "brand:wikidata": "Q1120762", "brand:wikipedia": "fr:V\u00e9lib' M\u00e9tropole", "capacity": "36", "name": "Gabriel Lam\u00e9", "network": "V\u00e9lib\u2019 M\u00e9tropole", "network:wikidata": "Q1120762", "network:wikipedia": "fr:V\u00e9lib' M\u00e9tropole", "operator": "Smovengo", "operator:wikidata": "Q47008427", "operator:wikipedia": "fr:Smovengo", "ref": "12031", "source": "Autolib Velib M\u00e9tropole - 04/2020", "wikidata": "Q86252653"}}, {"type": "node", "id": 6913843966, "lat": 48.8323202, "lon": 2.3863744, "tags": {"amenity": "bicycle_rental", "bicycle_rental": "docking_station", "brand": "V\u00e9lib\u2019 M\u00e9tropole", "brand:wikidata": "Q1120762", "brand:wikipedia": "fr:V\u00e9lib' M\u00e9tropole", "capacity": "49", "name": "Pirogues de Bercy - Libourne", "network": "V\u00e9lib\u2019 M\u00e9tropole", "network:wikidata": "Q1120762", "network:wikipedia": "fr:V\u00e9lib' M\u00e9tropole", "operator": "Smovengo", "operator:wikidata": "Q47008427", "operator:wikipedia": "fr:Smovengo", "ref": "12034", "source": "Autolib Velib M\u00e9tropole - 04/2020", "wikidata": "Q86252656"}}, {"type": "node", "id": 6913952378, "lat": 48.8469309, "lon": 2.3999243, "tags": {"amenity": "bicycle_rental", "bicycle_rental": "docking_station", "brand": "V\u00e9lib\u2019 M\u00e9tropole", "brand:wikidata": "Q1120762", "brand:wikipedia": "fr:V\u00e9lib' M\u00e9tropole", "capacity": "36", "name": "Place de la Nation - Picpus", "network": "V\u00e9lib\u2019 M\u00e9tropole", "network:wikidata": "Q1120762", "network:wikipedia": "fr:V\u00e9lib' M\u00e9tropole", "operator": "Smovengo", "operator:wikidata": "Q47008427", "operator:wikipedia": "fr:Smovengo", "ref": "12015", "source": "Autolib Velib M\u00e9tropole - 04/2020", "wikidata": "Q86252638"}}, {"type": "node", "id": 6913952379, "lat": 48.8451309, "lon": 2.401315, "tags": {"amenity": "bicycle_rental", "bicycle_rental": "docking_station", "brand": "V\u00e9lib\u2019 M\u00e9tropole", "brand:wikidata": "Q1120762", "brand:wikipedia": "fr:V\u00e9lib' M\u00e9tropole", "capacity": "35", "name": "Saint-Mande - Picpus", "network": "V\u00e9lib\u2019 M\u00e9tropole", "network:wikidata": "Q1120762", "network:wikipedia": "fr:V\u00e9lib' M\u00e9tropole", "operator": "Smovengo", "operator:wikidata": "Q47008427", "operator:wikipedia": "fr:Smovengo", "ref": "12016", "source": "Autolib Velib M\u00e9tropole - 04/2020", "wikidata": "Q86252601"}}, {"type": "node", "id": 6913952380, "lat": 48.844644, "lon": 2.4049866, "tags": {"amenity": "bicycle_rental", "bicycle_rental": "docking_station", "brand": "V\u00e9lib\u2019 M\u00e9tropole", "brand:wikidata": "Q1120762", "brand:wikipedia": "fr:V\u00e9lib' M\u00e9tropole", "capacity": "39", "name": "Saint-Mand\u00e9 - Docteur Arnold Netter", "network": "V\u00e9lib\u2019 M\u00e9tropole", "network:wikidata": "Q1120762", "network:wikipedia": "fr:V\u00e9lib' M\u00e9tropole", "operator": "Smovengo", "operator:wikidata": "Q47008427", "operator:wikipedia": "fr:Smovengo", "ref": "12017", "source": "Autolib Velib M\u00e9tropole - 04/2020", "wikidata": "Q86252725"}}, {"type": "node", "id": 6913952384, "lat": 48.8409008, "lon": 2.4042993, "tags": {"amenity": "bicycle_rental", "bicycle_rental": "docking_station", "brand": "V\u00e9lib\u2019 M\u00e9tropole", "brand:wikidata": "Q1120762", "brand:wikipedia": "fr:V\u00e9lib' M\u00e9tropole", "capacity": "33", "name": "Sahel - G\u00e9n\u00e9ral Michel Bizot", "network": "V\u00e9lib\u2019 M\u00e9tropole", "network:wikidata": "Q1120762", "network:wikipedia": "fr:V\u00e9lib' M\u00e9tropole", "operator": "Smovengo", "operator:wikidata": "Q47008427", "operator:wikipedia": "fr:Smovengo", "ref": "12022", "source": "Autolib Velib M\u00e9tropole - 04/2020", "wikidata": "Q86252774"}}, {"type": "node", "id": 6913965485, "lat": 48.8406743, "lon": 2.4096637, "tags": {"amenity": "bicycle_rental", "bicycle_rental": "docking_station", "brand": "V\u00e9lib\u2019 M\u00e9tropole", "brand:wikidata": "Q1120762", "brand:wikipedia": "fr:V\u00e9lib' M\u00e9tropole", "capacity": "40", "name": "Square Georges Melies", "network": "V\u00e9lib\u2019 M\u00e9tropole", "network:wikidata": "Q1120762", "network:wikipedia": "fr:V\u00e9lib' M\u00e9tropole", "operator": "Smovengo", "operator:wikidata": "Q47008427", "operator:wikipedia": "fr:Smovengo", "ref": "12154", "source": "Autolib Velib M\u00e9tropole - 04/2020", "wikidata": "Q86252689"}}, {"type": "node", "id": 6913965486, "lat": 48.8400102, "lon": 2.4005435, "tags": {"amenity": "bicycle_rental", "bicycle_rental": "docking_station", "brand": "V\u00e9lib\u2019 M\u00e9tropole", "brand:wikidata": "Q1120762", "capacity": "44", "name": "Picpus - Louis Braille", "network": "V\u00e9lib\u2019 M\u00e9tropole", "network:wikidata": "Q1120762", "operator": "Smovengo", "operator:wikidata": "Q47008427", "ref": "12038", "source": "Autolib Velib M\u00e9tropole - 2021-03", "wikidata": "Q86252713"}}, {"type": "node", "id": 6913965487, "lat": 48.8329044, "lon": 2.4026769, "tags": {"amenity": "bicycle_rental", "bicycle_rental": "docking_station", "brand": "V\u00e9lib\u2019 M\u00e9tropole", "brand:wikidata": "Q1120762", "brand:wikipedia": "fr:V\u00e9lib' M\u00e9tropole", "capacity": "46", "name": "Cardinal Lavigerie", "network": "V\u00e9lib\u2019 M\u00e9tropole", "network:wikidata": "Q1120762", "network:wikipedia": "fr:V\u00e9lib' M\u00e9tropole", "operator": "Smovengo", "operator:wikidata": "Q47008427", "operator:wikipedia": "fr:Smovengo", "ref": "12113", "source": "Autolib Velib M\u00e9tropole - 2021-03", "wikidata": "Q86252630"}}, {"type": "node", "id": 6913965490, "lat": 48.8312725, "lon": 2.3988729, "tags": {"amenity": "bicycle_rental", "bicycle_rental": "docking_station", "brand": "V\u00e9lib\u2019 M\u00e9tropole", "brand:wikidata": "Q1120762", "brand:wikipedia": "fr:V\u00e9lib' M\u00e9tropole", "capacity": "67", "fee": "yes", "name": "Porte de Charenton", "network": "V\u00e9lib\u2019 M\u00e9tropole", "network:wikidata": "Q1120762", "network:wikipedia": "fr:V\u00e9lib' M\u00e9tropole", "operator": "Smovengo", "operator:wikidata": "Q47008427", "operator:wikipedia": "fr:Smovengo", "ref": "12040", "source": "Autolib Velib M\u00e9tropole - 2021-03", "wikidata": "Q86252735"}}, {"type": "node", "id": 6913965491, "lat": 48.8347057, "lon": 2.397115, "tags": {"amenity": "bicycle_rental", "bicycle_rental": "docking_station", "capacity": "33", "name": "Madagascar - Meuniers", "network": "V\u00e9lib\u2019", "operator": "Smovengo", "ref": "12035", "source": "Autolib Velib M\u00e9tropole - 2021-03", "wikidata": "Q86252669"}}, {"type": "node", "id": 7212506779, "lat": 48.8374411, "lon": 2.4019032, "tags": {"amenity": "bicycle_rental", "bicycle_rental": "docking_station", "brand": "V\u00e9lib\u2019 M\u00e9tropole", "brand:wikidata": "Q1120762", "brand:wikipedia": "fr:V\u00e9lib' M\u00e9tropole", "capacity": "21", "name": "Daumesnil - Picpus", "network": "V\u00e9lib\u2019 M\u00e9tropole", "network:wikidata": "Q1120762", "network:wikipedia": "fr:V\u00e9lib' M\u00e9tropole", "operator": "Smovengo", "operator:wikidata": "Q47008427", "operator:wikipedia": "fr:Smovengo", "ref": "12010", "source": "Autolib Velib M\u00e9tropole - 2021-03", "wikidata": "Q86252731"}}, {"type": "node", "id": 7212506780, "lat": 48.8443838, "lon": 2.38973, "tags": {"amenity": "bicycle_rental", "bicycle_rental": "docking_station", "brand": "V\u00e9lib\u2019 M\u00e9tropole", "brand:wikidata": "Q1120762", "brand:wikipedia": "fr:V\u00e9lib' M\u00e9tropole", "capacity": "16", "name": "Montgallet - Reuilly", "network": "V\u00e9lib\u2019 M\u00e9tropole", "network:wikidata": "Q1120762", "network:wikipedia": "fr:V\u00e9lib' M\u00e9tropole", "operator": "Smovengo", "operator:wikidata": "Q47008427", "operator:wikipedia": "fr:Smovengo", "ref": "12013", "source": "Autolib Velib M\u00e9tropole - 04/2020", "wikidata": "Q86252590"}}, {"type": "node", "id": 7274196142, "lat": 48.8426571, "lon": 2.3861854, "tags": {"amenity": "bicycle_rental", "bicycle_rental": "docking_station", "capacity": "16", "name": "Montgallet - Charenton", "network": "V\u00e9lib\u2019", "operator": "Smovengo", "ref": "12027", "source": "Autolib Velib M\u00e9tropole - 2021-03", "wikidata": "Q86252676"}}, {"type": "node", "id": 7274196143, "lat": 48.8419124, "lon": 2.3896989, "tags": {"amenity": "bicycle_rental", "bicycle_rental": "docking_station", "brand": "V\u00e9lib\u2019 M\u00e9tropole", "brand:wikidata": "Q1120762", "brand:wikipedia": "fr:V\u00e9lib' M\u00e9tropole", "capacity": "27", "name": "Vivaldi - Antoine-Julien H\u00e9nard", "network": "V\u00e9lib\u2019 M\u00e9tropole", "network:wikidata": "Q1120762", "network:wikipedia": "fr:V\u00e9lib' M\u00e9tropole", "operator": "Smovengo", "operator:wikidata": "Q47008427", "operator:wikipedia": "fr:Smovengo", "ref": "12028", "source": "Autolib Velib M\u00e9tropole - 04/2020", "wikidata": "Q86252597"}}, {"type": "node", "id": 7274196144, "lat": 48.8349431, "lon": 2.401105, "tags": {"amenity": "bicycle_rental", "bicycle_rental": "docking_station", "capacity": "38", "name": "G\u00e9n\u00e9ral Michel Bizot - Claude Decaen", "network": "V\u00e9lib\u2019", "operator": "Smovengo", "ref": "12039", "source": "Autolib Velib M\u00e9tropole - 2021-03", "wikidata": "Q86252715"}}, {"type": "node", "id": 7274196146, "lat": 48.8427578, "lon": 2.3845025, "tags": {"amenity": "bicycle_rental", "bicycle_rental": "docking_station", "brand": "V\u00e9lib\u2019 M\u00e9tropole", "brand:wikidata": "Q1120762", "brand:wikipedia": "fr:V\u00e9lib' M\u00e9tropole", "capacity": "40", "name": "Daumesnil - H\u00e9brard", "network": "V\u00e9lib\u2019 M\u00e9tropole", "network:wikidata": "Q1120762", "network:wikipedia": "fr:V\u00e9lib' M\u00e9tropole", "operator": "Smovengo", "operator:wikidata": "Q47008427", "operator:wikipedia": "fr:Smovengo", "ref": "12043", "source": "Autolib Velib M\u00e9tropole - 2021-03", "wikidata": "Q86252609"}}, {"type": "node", "id": 7274196148, "lat": 48.8471841, "lon": 2.3860782, "tags": {"amenity": "bicycle_rental", "bicycle_rental": "docking_station", "brand": "V\u00e9lib\u2019 M\u00e9tropole", "brand:wikidata": "Q1120762", "brand:wikipedia": "fr:V\u00e9lib' M\u00e9tropole", "capacity": "44", "name": "Diderot - Reuilly", "network": "V\u00e9lib\u2019 M\u00e9tropole", "network:wikidata": "Q1120762", "network:wikipedia": "fr:V\u00e9lib' M\u00e9tropole", "operator": "Smovengo", "operator:wikidata": "Q47008427", "operator:wikipedia": "fr:Smovengo", "ref": "12161", "source": "Autolib Velib M\u00e9tropole - 04/2020", "wikidata": "Q86252777"}}, {"type": "node", "id": 7368681189, "lat": 48.8469188, "lon": 2.410522, "tags": {"amenity": "bicycle_rental", "bicycle_rental": "docking_station", "brand": "V\u00e9lib\u2019 M\u00e9tropole", "brand:wikidata": "Q1120762", "brand:wikipedia": "fr:V\u00e9lib' M\u00e9tropole", "capacity": "45", "name": "Cours de Vincennes - Soult", "network": "V\u00e9lib\u2019 M\u00e9tropole", "network:wikidata": "Q1120762", "network:wikipedia": "fr:V\u00e9lib' M\u00e9tropole", "operator": "Smovengo", "operator:wikidata": "Q47008427", "operator:wikipedia": "fr:Smovengo", "ref": "12020", "source": "Autolib Velib M\u00e9tropole - 04/2019", "wikidata": "Q86252723"}}, {"type": "node", "id": 7368681190, "lat": 48.8437004, "lon": 2.4103613, "tags": {"amenity": "bicycle_rental", "bicycle_rental": "docking_station", "brand": "V\u00e9lib\u2019 M\u00e9tropole", "brand:wikidata": "Q1120762", "brand:wikipedia": "fr:V\u00e9lib' M\u00e9tropole", "capacity": "24", "name": "Niger - Soult", "network": "V\u00e9lib\u2019 M\u00e9tropole", "network:wikidata": "Q1120762", "network:wikipedia": "fr:V\u00e9lib' M\u00e9tropole", "operator": "Smovengo", "operator:wikidata": "Q47008427", "operator:wikipedia": "fr:Smovengo", "ref": "12156", "source": "Autolib Velib M\u00e9tropole - 04/2019", "wikidata": "Q86252764"}}, {"type": "node", "id": 7368681191, "lat": 48.8455987, "lon": 2.3959353, "tags": {"amenity": "bicycle_rental", "bicycle_rental": "docking_station", "brand": "V\u00e9lib\u2019 M\u00e9tropole", "brand:wikidata": "Q1120762", "brand:wikipedia": "fr:V\u00e9lib' M\u00e9tropole", "capacity": "34", "name": "Saint-Mand\u00e9 - Fabre d'Eglantine", "network": "V\u00e9lib\u2019 M\u00e9tropole", "network:wikidata": "Q1120762", "network:wikipedia": "fr:V\u00e9lib' M\u00e9tropole", "operator": "Smovengo", "operator:wikidata": "Q47008427", "operator:wikipedia": "fr:Smovengo", "ref": "12018", "source": "Autolib Velib M\u00e9tropole - 04/2019", "wikidata": "Q86252666"}}, {"type": "node", "id": 7368681192, "lat": 48.8378792, "lon": 2.4044054, "tags": {"amenity": "bicycle_rental", "bicycle_rental": "docking_station", "brand": "V\u00e9lib\u2019 M\u00e9tropole", "brand:wikidata": "Q1120762", "brand:wikipedia": "fr:V\u00e9lib' M\u00e9tropole", "capacity": "43", "name": "Rottembourg - G\u00e9n\u00e9ral Michel Bizot", "network": "V\u00e9lib\u2019 M\u00e9tropole", "network:wikidata": "Q1120762", "network:wikipedia": "fr:V\u00e9lib' M\u00e9tropole", "operator": "Smovengo", "operator:wikidata": "Q47008427", "operator:wikipedia": "fr:Smovengo", "ref": "12155", "source": "Autolib Velib M\u00e9tropole - 04/2019", "wikidata": "Q86252762"}}, {"type": "node", "id": 11313875984, "lat": 48.8387438, "lon": 2.3897976, "tags": {"amenity": "bicycle_rental", "brand": "V\u00e9lib\u2019 M\u00e9tropole", "brand:wikidata": "Q1120762", "capacity": "53", "fee": "yes", "name": "Dugommier", "network": "V\u00e9lib\u2019 M\u00e9tropole", "network:wikidata": "Q1120762", "operator": "Smovengo", "operator:wikidata": "Q47008427", "ref": "12201"}}]}