{"version": 0.6, "generator": "Overpass API 0.7.61.5 4133829e", "osm3s": {"timestamp_osm_base": "2023-12-11T10:29:44Z", "copyright": "The data included in this document is from www.openstreetmap.org. The data is made available under ODbL."}, "elements": [{"type": "node", "id": 436617783, "lat": 48.8580787, "lon": 2.3502718, "tags": {"amenity": "bicycle_rental", "bicycle_rental": "docking_station", "brand": "V\u00e9lib\u2019 M\u00e9tropole", "brand:wikidata": "Q1120762", "brand:wikipedia": "fr:V\u00e9lib' M\u00e9tropole", "capacity": "19", "name": "Saint-Bon - Rivoli", "network": "V\u00e9lib\u2019 M\u00e9tropole", "network:wikidata": "Q1120762", "network:wikipedia": "fr:V\u00e9lib' M\u00e9tropole", "operator": "Smovengo", "operator:wikidata": "Q47008427", "operator:wikipedia": "fr:Smovengo", "ref": "4018", "source": "Autolib Velib M\u00e9tropole - 2021-03", "wikidata": "Q86255030"}}, {"type": "node", "id": 782578990, "lat": 48.8576071, "lon": 2.3358845, "tags": {"amenity": "bicycle_rental", "bicycle_rental": "docking_station", "brand": "V\u00e9lib\u2019 M\u00e9tropole", "brand:wikidata": "Q1120762", "brand:wikipedia": "fr:V\u00e9lib' M\u00e9tropole", "capacity": "17", "name": "Institut de France", "network": "V\u00e9lib\u2019 M\u00e9tropole", "network:wikidata": "Q1120762", "network:wikipedia": "fr:V\u00e9lib' M\u00e9tropole", "operator": "Smovengo", "operator:wikidata": "Q47008427", "operator:wikipedia": "fr:Smovengo", "ref": "6001", "source": "Autolib Velib M\u00e9tropole - 2021-03", "wikidata": "Q86252833"}}, {"type": "node", "id": 998020842, "lat": 48.8667755, "lon": 2.3343748, "tags": {"amenity": "bicycle_rental", "bicycle_rental": "docking_station", "brand": "V\u00e9lib\u2019 M\u00e9tropole", "brand:wikidata": "Q1120762", "brand:wikipedia": "fr:V\u00e9lib' M\u00e9tropole", "capacity": "27", "name": "Ventadour - Op\u00e9ra", "network": "V\u00e9lib\u2019 M\u00e9tropole", "network:wikidata": "Q1120762", "network:wikipedia": "fr:V\u00e9lib' M\u00e9tropole", "operator": "Smovengo", "operator:wikidata": "Q47008427", "operator:wikipedia": "fr:Smovengo", "ref": "1116", "wikidata": "Q86255061"}}, {"type": "node", "id": 1490016248, "lat": 48.8552293, "lon": 2.3473369, "tags": {"amenity": "bicycle_rental", "bicycle_rental": "docking_station", "brand": "V\u00e9lib\u2019 M\u00e9tropole", "brand:wikidata": "Q1120762", "brand:wikipedia": "fr:V\u00e9lib' M\u00e9tropole", "capacity": "23", "disused:amenity": "bicycle_rental", "name": "March\u00e9 aux Fleurs", "network": "V\u00e9lib\u2019 M\u00e9tropole", "network:wikidata": "Q1120762", "network:wikipedia": "fr:V\u00e9lib' M\u00e9tropole", "operator": "Smovengo", "operator:wikidata": "Q47008427", "operator:wikipedia": "fr:Smovengo", "ref": "4002", "source": "survey 2019-05-02", "wikidata": "Q86255000"}}, {"type": "node", "id": 2174795259, "lat": 48.8617427, "lon": 2.3501518}, {"type": "node", "id": 2174795260, "lat": 48.8617483, "lon": 2.3501289}, {"type": "node", "id": 2174795264, "lat": 48.8618708, "lon": 2.3502258}, {"type": "node", "id": 2174795266, "lat": 48.8618765, "lon": 2.3502028}, {"type": "node", "id": 2279282604, "lat": 48.8552856, "lon": 2.3399457, "tags": {"amenity": "bicycle_rental", "bicycle_rental": "docking_station", "brand": "V\u00e9lib\u2019 M\u00e9tropole", "brand:wikidata": "Q1120762", "brand:wikipedia": "fr:V\u00e9lib' M\u00e9tropole", "capacity": "23", "name": "Pont de Lodi - Dauphine", "network": "V\u00e9lib\u2019 M\u00e9tropole", "network:wikidata": "Q1120762", "network:wikipedia": "fr:V\u00e9lib' M\u00e9tropole", "operator": "Smovengo", "operator:wikidata": "Q47008427", "operator:wikipedia": "fr:Smovengo", "ref": "6014", "source": "Autolib Velib M\u00e9tropole - 2022-09", "unsigned_ref": "36003", "wikidata": "Q86252890"}}, {"type": "node", "id": 5627118343, "lat": 48.8645723, "lon": 2.3463019, "tags": {"amenity": "bicycle_rental", "bicycle_rental": "docking_station", "brand": "V\u00e9lib\u2019 M\u00e9tropole", "brand:wikidata": "Q1120762", "brand:wikipedia": "fr:V\u00e9lib' M\u00e9tropole", "capacity": "28", "name": "\u00c9tienne Marcel - Montorgueil", "network": "V\u00e9lib\u2019 M\u00e9tropole", "network:wikidata": "Q1120762", "network:wikipedia": "fr:V\u00e9lib' M\u00e9tropole", "operator": "Smovengo", "operator:wikidata": "Q47008427", "operator:wikipedia": "fr:Smovengo", "ref": "2002", "source": "Autolib Velib M\u00e9tropole - 2021-03", "wikidata": "Q86255072"}}, {"type": "node", "id": 5655597962, "lat": 48.8558581, "lon": 2.3508449, "tags": {"amenity": "bicycle_rental", "bicycle_rental": "docking_station", "brand": "V\u00e9lib\u2019 M\u00e9tropole", "brand:wikidata": "Q1120762", "brand:wikipedia": "fr:V\u00e9lib' M\u00e9tropole", "capacity": "20", "layer": "-1", "location": "station au niveau de la voie sur berge", "name": "H\u00f4tel de Ville - Pont d'Arcole", "network": "V\u00e9lib\u2019 M\u00e9tropole", "network:wikidata": "Q1120762", "network:wikipedia": "fr:V\u00e9lib' M\u00e9tropole", "operator": "Smovengo", "operator:wikidata": "Q47008427", "operator:wikipedia": "fr:Smovengo", "ref": "4111", "source": "Autolib Velib M\u00e9tropole - 2021-03", "unsigned_ref": "303563942", "wikidata": "Q86254993"}}, {"type": "node", "id": 5655931519, "lat": 48.8552486, "lon": 2.3375564, "tags": {"amenity": "bicycle_rental", "bicycle_rental": "docking_station", "brand": "V\u00e9lib\u2019 M\u00e9tropole", "brand:wikidata": "Q1120762", "brand:wikipedia": "fr:V\u00e9lib' M\u00e9tropole", "capacity": "28", "name": "Jacques Callot - Mazarine", "network": "V\u00e9lib\u2019 M\u00e9tropole", "network:wikidata": "Q1120762", "network:wikipedia": "fr:V\u00e9lib' M\u00e9tropole", "operator": "Smovengo", "operator:wikidata": "Q47008427", "operator:wikipedia": "fr:Smovengo", "ref": "6013", "source": "Autolib Velib M\u00e9tropole - 04/2020", "wikidata": "Q86252836"}}, {"type": "node", "id": 5659056369, "lat": 48.8661047, "lon": 2.3454362, "tags": {"amenity": "bicycle_rental", "bicycle_rental": "docking_station", "brand": "V\u00e9lib\u2019 M\u00e9tropole", "brand:wikidata": "Q1120762", "brand:wikipedia": "fr:V\u00e9lib' M\u00e9tropole", "capacity": "33", "name": "Bachaumont - Montmartre", "network": "V\u00e9lib\u2019 M\u00e9tropole", "network:wikidata": "Q1120762", "network:wikipedia": "fr:V\u00e9lib' M\u00e9tropole", "note": "localisation aproximative dans open data paris (de 50m)", "operator": "Smovengo", "operator:wikidata": "Q47008427", "operator:wikipedia": "fr:Smovengo", "ref": "2101", "source": "Autolib Velib M\u00e9tropole - 04/2020", "wikidata": "Q86254761"}}, {"type": "node", "id": 5708095754, "lat": 48.858858, "lon": 2.3518235, "tags": {"addr:city": "Paris", "addr:housenumber": "4", "addr:postcode": "75004", "addr:street": "Rue du Clo\u00eetre Saint-Merri", "amenity": "bicycle_rental", "bicycle_rental": "docking_station", "brand": "V\u00e9lib\u2019 M\u00e9tropole", "brand:wikidata": "Q1120762", "brand:wikipedia": "fr:V\u00e9lib' M\u00e9tropole", "capacity": "32", "capacity:opendata": "32", "name": "Clo\u00eetre Saint-Merri - Renard", "network": "V\u00e9lib\u2019 M\u00e9tropole", "network:wikidata": "Q1120762", "network:wikipedia": "fr:V\u00e9lib' M\u00e9tropole", "operator": "Smovengo", "operator:wikidata": "Q47008427", "operator:wikipedia": "fr:Smovengo", "payment:none": "yes", "ref": "4019", "source": "Autolib Velib M\u00e9tropole - 2021-03", "unsigned_ref": "54000543", "website": "https://www.velib-metropole.fr/map#/", "wikidata": "Q86255012"}}, {"type": "node", "id": 5838535122, "lat": 48.8655857, "lon": 2.3561633, "tags": {"amenity": "bicycle_rental", "bicycle_rental": "docking_station", "brand": "V\u00e9lib\u2019 M\u00e9tropole", "brand:wikidata": "Q1120762", "brand:wikipedia": "fr:V\u00e9lib' M\u00e9tropole", "capacity": "31", "name": "Turbigo - R\u00e9aumur", "network": "V\u00e9lib\u2019 M\u00e9tropole", "network:wikidata": "Q1120762", "network:wikipedia": "fr:V\u00e9lib' M\u00e9tropole", "operator": "Smovengo", "operator:wikidata": "Q47008427", "operator:wikipedia": "fr:Smovengo", "ref": "3011", "source": "Autolib Velib M\u00e9tropole - 2021-03", "wikidata": "Q86255157"}}, {"type": "node", "id": 5925974721, "lat": 48.8652434, "lon": 2.3516713, "tags": {"amenity": "bicycle_rental", "bicycle_rental": "docking_station", "brand": "V\u00e9lib\u2019 M\u00e9tropole", "brand:wikidata": "Q1120762", "brand:wikipedia": "fr:V\u00e9lib' M\u00e9tropole", "capacity": "30", "name": "Greneta - Sebastopol", "network": "V\u00e9lib\u2019 M\u00e9tropole", "network:wikidata": "Q1120762", "network:wikipedia": "fr:V\u00e9lib' M\u00e9tropole", "operator": "Smovengo", "operator:wikidata": "Q47008427", "operator:wikipedia": "fr:Smovengo", "ref": "2001", "source": "Autolib Velib M\u00e9tropole - 04/2020", "wikidata": "Q86254755"}}, {"type": "node", "id": 5925974722, "lat": 48.8661916, "lon": 2.3508795, "tags": {"amenity": "bicycle_rental", "bicycle_rental": "docking_station", "brand": "V\u00e9lib\u2019 M\u00e9tropole", "brand:wikidata": "Q1120762", "brand:wikipedia": "fr:V\u00e9lib' M\u00e9tropole", "capacity": "32", "name": "Saint-Denis - R\u00e9aumur", "network": "V\u00e9lib\u2019 M\u00e9tropole", "network:wikidata": "Q1120762", "network:wikipedia": "fr:V\u00e9lib' M\u00e9tropole", "operator": "Smovengo", "operator:wikidata": "Q47008427", "operator:wikipedia": "fr:Smovengo", "ref": "2003", "source": "Autolib Velib M\u00e9tropole - 2021-03", "wikidata": "Q86254732"}}, {"type": "node", "id": 5957673015, "lat": 48.8638545, "lon": 2.3425244}, {"type": "node", "id": 5957673016, "lat": 48.8638515, "lon": 2.3424921}, {"type": "node", "id": 5964620983, "lat": 48.8570865, "lon": 2.3417635, "tags": {"amenity": "bicycle_rental", "bicycle_rental": "docking_station", "brand": "V\u00e9lib\u2019 M\u00e9tropole", "brand:wikidata": "Q1120762", "brand:wikipedia": "fr:V\u00e9lib' M\u00e9tropole", "capacity": "17", "name": "Quai de l'Horloge - Pont Neuf", "network": "V\u00e9lib\u2019 M\u00e9tropole", "network:wikidata": "Q1120762", "network:wikipedia": "fr:V\u00e9lib' M\u00e9tropole", "operator": "Smovengo", "operator:wikidata": "Q47008427", "operator:wikipedia": "fr:Smovengo", "ref": "1001", "source": "Autolib Velib M\u00e9tropole - 2021-03", "unsigned_ref": "323616530", "wikidata": "Q86255080"}}, {"type": "node", "id": 6320368373, "lat": 48.8559636, "lon": 2.3563873, "tags": {"amenity": "bicycle_rental", "bicycle_rental": "docking_station", "brand": "V\u00e9lib\u2019 M\u00e9tropole", "brand:wikidata": "Q1120762", "brand:wikipedia": "fr:V\u00e9lib' M\u00e9tropole", "capacity": "44", "contact:city": "Paris", "contact:email": "info@velib-metropole.fr", "contact:housenumber": "25", "contact:phone": "+33 1 76 49 12 34", "contact:postcode": "75004", "contact:street": "Rue du Pont Louis-Philippe", "contact:website": "https://www.velib-metropole.fr", "covered": "no", "fee": "yes", "name": "Mairie du 4\u00e8me", "network": "V\u00e9lib\u2019 M\u00e9tropole", "network:wikidata": "Q1120762", "network:wikipedia": "fr:V\u00e9lib' M\u00e9tropole", "opening_hours": "24/7", "operator": "Smovengo", "operator:wikidata": "Q47008427", "operator:wikipedia": "fr:Smovengo", "ref": "4015", "source": "Autolib Velib M\u00e9tropole - 2021-03", "unsigned_ref": "100767550", "wheelchair": "yes", "wikidata": "Q86255040"}}, {"type": "node", "id": 6389571744, "lat": 48.8660926, "lon": 2.3596278, "tags": {"amenity": "bicycle_rental", "bicycle_rental": "docking_station", "brand": "V\u00e9lib\u2019 M\u00e9tropole", "brand:wikidata": "Q1120762", "brand:wikipedia": "fr:V\u00e9lib' M\u00e9tropole", "capacity": "33", "name": "Sainte-Elisabeth - Turbigo", "network": "V\u00e9lib\u2019 M\u00e9tropole", "network:wikidata": "Q1120762", "network:wikipedia": "fr:V\u00e9lib' M\u00e9tropole", "operator": "Smovengo", "operator:wikidata": "Q47008427", "operator:wikipedia": "fr:Smovengo", "ref": "3005", "source": "Autolib Velib M\u00e9tropole - 04/2020", "wikidata": "Q86255129"}}, {"type": "node", "id": 6389571745, "lat": 48.8624372, "lon": 2.3595188, "tags": {"amenity": "bicycle_rental", "bicycle_rental": "docking_station", "brand": "V\u00e9lib\u2019 M\u00e9tropole", "brand:wikidata": "Q1120762", "brand:wikipedia": "fr:V\u00e9lib' M\u00e9tropole", "capacity": "28", "name": "Archives - Pastourelle", "network": "V\u00e9lib\u2019 M\u00e9tropole", "network:wikidata": "Q1120762", "network:wikipedia": "fr:V\u00e9lib' M\u00e9tropole", "operator": "Smovengo", "operator:wikidata": "Q47008427", "operator:wikipedia": "fr:Smovengo", "ref": "3007", "source": "Autolib Velib M\u00e9tropole - 04/2020", "unsigned_ref": "653040243", "wikidata": "Q86255162"}}, {"type": "node", "id": 6389571746, "lat": 48.8613954, "lon": 2.3525409, "tags": {"amenity": "bicycle_rental", "bicycle_rental": "docking_station", "brand": "V\u00e9lib\u2019 M\u00e9tropole", "brand:wikidata": "Q1120762", "brand:wikipedia": "fr:V\u00e9lib' M\u00e9tropole", "capacity": "26", "name": "Centre Georges Pompidou", "network": "V\u00e9lib\u2019 M\u00e9tropole", "network:wikidata": "Q1120762", "network:wikipedia": "fr:V\u00e9lib' M\u00e9tropole", "operator": "Smovengo", "operator:wikidata": "Q47008427", "operator:wikipedia": "fr:Smovengo", "ref": "4021", "source": "Autolib Velib M\u00e9tropole - 2021-03", "unsigned_ref": "210395439", "wikidata": "Q86254982"}}, {"type": "node", "id": 6389571747, "lat": 48.8624999, "lon": 2.3542486, "tags": {"amenity": "bicycle_rental", "bicycle_rental": "docking_station", "brand": "V\u00e9lib\u2019 M\u00e9tropole", "brand:wikidata": "Q1120762", "brand:wikipedia": "fr:V\u00e9lib' M\u00e9tropole", "capacity": "17", "name": "Beaubourg - Michel-le-Comte", "network": "V\u00e9lib\u2019 M\u00e9tropole", "network:wikidata": "Q1120762", "network:wikipedia": "fr:V\u00e9lib' M\u00e9tropole", "operator": "Smovengo", "operator:wikidata": "Q47008427", "operator:wikipedia": "fr:Smovengo", "ref": "3010", "source": "Autolib Velib M\u00e9tropole - 2022-09", "unsigned_ref": "66491367", "wikidata": "Q86255137"}}, {"type": "node", "id": 6389571748, "lat": 48.8684965, "lon": 2.3600097, "tags": {"amenity": "bicycle_rental", "bicycle_rental": "docking_station", "brand": "V\u00e9lib\u2019 M\u00e9tropole", "brand:wikidata": "Q1120762", "brand:wikipedia": "fr:V\u00e9lib' M\u00e9tropole", "capacity": "62", "check_date": "2023-03-18", "name": "Ren\u00e9 Boulanger - Lancry", "network": "V\u00e9lib\u2019 M\u00e9tropole", "network:wikidata": "Q1120762", "network:wikipedia": "fr:V\u00e9lib' M\u00e9tropole", "operator": "Smovengo", "operator:wikidata": "Q47008427", "operator:wikipedia": "fr:Smovengo", "ref": "10001", "source": "Autolib Velib M\u00e9tropole - 04/2020", "wikidata": "Q86252931"}}, {"type": "node", "id": 6389571749, "lat": 48.8685995, "lon": 2.3557832, "tags": {"amenity": "bicycle_rental", "bicycle_rental": "docking_station", "brand": "V\u00e9lib\u2019 M\u00e9tropole", "brand:wikidata": "Q1120762", "brand:wikipedia": "fr:V\u00e9lib' M\u00e9tropole", "capacity": "35", "name": "Porte Saint-Martin", "network": "V\u00e9lib\u2019 M\u00e9tropole", "network:wikidata": "Q1120762", "network:wikipedia": "fr:V\u00e9lib' M\u00e9tropole", "operator": "Smovengo", "operator:wikidata": "Q47008427", "operator:wikipedia": "fr:Smovengo", "ref": "3101", "source": "Autolib Velib M\u00e9tropole - 04/2020", "wikidata": "Q86255167"}}, {"type": "node", "id": 6389571750, "lat": 48.8674928, "lon": 2.3536572, "tags": {"amenity": "bicycle_rental", "bicycle_rental": "docking_station", "brand": "V\u00e9lib\u2019 M\u00e9tropole", "brand:wikidata": "Q1120762", "brand:wikipedia": "fr:V\u00e9lib' M\u00e9tropole", "capacity": "25", "name": "Square \u00c9mile - Chautemps", "network": "V\u00e9lib\u2019 M\u00e9tropole", "network:wikidata": "Q1120762", "network:wikipedia": "fr:V\u00e9lib' M\u00e9tropole", "operator": "Smovengo", "operator:wikidata": "Q47008427", "operator:wikipedia": "fr:Smovengo", "ref": "3012", "source": "Autolib Velib M\u00e9tropole - 2021-03", "wikidata": "Q86255143"}}, {"type": "node", "id": 6424025689, "lat": 48.8678369, "lon": 2.3495454, "tags": {"amenity": "bicycle_rental", "bicycle_rental": "docking_station", "brand": "V\u00e9lib\u2019 M\u00e9tropole", "brand:wikidata": "Q1120762", "brand:wikipedia": "fr:V\u00e9lib' M\u00e9tropole", "capacity": "40", "name": "Caire - Dussoubs", "network": "V\u00e9lib\u2019 M\u00e9tropole", "network:wikidata": "Q1120762", "network:wikipedia": "fr:V\u00e9lib' M\u00e9tropole", "operator": "Smovengo", "operator:wikidata": "Q47008427", "operator:wikipedia": "fr:Smovengo", "ref": "2017", "source": "Autolib Velib M\u00e9tropole - 04/2019", "wikidata": "Q86254773"}}, {"type": "node", "id": 6433036361, "lat": 48.8592701, "lon": 2.3467044, "tags": {"amenity": "bicycle_rental", "bicycle_rental": "docking_station", "brand": "V\u00e9lib\u2019 M\u00e9tropole", "brand:wikidata": "Q1120762", "brand:wikipedia": "fr:V\u00e9lib' M\u00e9tropole", "capacity": "27", "name": "Lavandieres Sainte-Opportune - Rivoli", "network": "V\u00e9lib\u2019 M\u00e9tropole", "network:wikidata": "Q1120762", "network:wikipedia": "fr:V\u00e9lib' M\u00e9tropole", "operator": "Smovengo", "operator:wikidata": "Q47008427", "operator:wikipedia": "fr:Smovengo", "ref": "1120", "source": "Autolib Velib M\u00e9tropole - 2022-08", "wikidata": "Q86255052"}}, {"type": "node", "id": 6433057571, "lat": 48.8590644, "lon": 2.34764, "tags": {"amenity": "bicycle_rental", "bicycle_rental": "docking_station", "brand": "V\u00e9lib\u2019 M\u00e9tropole", "brand:wikidata": "Q1120762", "brand:wikipedia": "fr:V\u00e9lib' M\u00e9tropole", "capacity": "43", "name": "Saint-Denis - Rivoli", "network": "V\u00e9lib\u2019 M\u00e9tropole", "network:wikidata": "Q1120762", "network:wikipedia": "fr:V\u00e9lib' M\u00e9tropole", "operator": "Smovengo", "operator:wikidata": "Q47008427", "operator:wikipedia": "fr:Smovengo", "ref": "1003", "source": "Autolib Velib M\u00e9tropole - 2021-03", "wikidata": "Q86255105"}}, {"type": "node", "id": 6433159066, "lat": 48.8580209, "lon": 2.3468887, "tags": {"amenity": "bicycle_rental", "bicycle_rental": "docking_station", "brand": "V\u00e9lib\u2019 M\u00e9tropole", "brand:wikidata": "Q1120762", "brand:wikipedia": "fr:V\u00e9lib' M\u00e9tropole", "capacity": "22", "name": "Victoria - Place du Chatelet", "network": "V\u00e9lib\u2019 M\u00e9tropole", "network:wikidata": "Q1120762", "network:wikipedia": "fr:V\u00e9lib' M\u00e9tropole", "operator": "Smovengo", "operator:wikidata": "Q47008427", "operator:wikipedia": "fr:Smovengo", "ref": "1002", "source": "Autolib Velib M\u00e9tropole - 2021-03", "unsigned_ref": "82328045", "wikidata": "Q86255085"}}, {"type": "node", "id": 6433219535, "lat": 48.8616478, "lon": 2.3566847, "tags": {"amenity": "bicycle_rental", "bicycle_rental": "docking_station", "brand": "V\u00e9lib\u2019 M\u00e9tropole", "brand:wikidata": "Q1120762", "brand:wikipedia": "fr:V\u00e9lib' M\u00e9tropole", "capacity": "19", "name": "Temple - Haudriettes", "network": "V\u00e9lib\u2019 M\u00e9tropole", "network:wikidata": "Q1120762", "network:wikipedia": "fr:V\u00e9lib' M\u00e9tropole", "operator": "Smovengo", "operator:wikidata": "Q47008427", "operator:wikipedia": "fr:Smovengo", "ref": "3009", "source": "Autolib Velib M\u00e9tropole - 04/2020", "unsigned_ref": "128874528", "wikidata": "Q86255148"}}, {"type": "node", "id": 6433219536, "lat": 48.8601646, "lon": 2.3501401, "tags": {"amenity": "bicycle_rental", "bicycle_rental": "docking_station", "brand": "V\u00e9lib\u2019 M\u00e9tropole", "brand:wikidata": "Q1120762", "brand:wikipedia": "fr:V\u00e9lib' M\u00e9tropole", "capacity": "23", "name": "Place Edmond Michelet", "network": "V\u00e9lib\u2019 M\u00e9tropole", "network:wikidata": "Q1120762", "network:wikipedia": "fr:V\u00e9lib' M\u00e9tropole", "operator": "Smovengo", "operator:wikidata": "Q47008427", "operator:wikipedia": "fr:Smovengo", "ref": "4020", "source": "Autolib Velib M\u00e9tropole - 2021-03", "unsigned_ref": "266422568", "wikidata": "Q86254990"}}, {"type": "node", "id": 6433219537, "lat": 48.8527053, "lon": 2.3441427, "tags": {"amenity": "bicycle_rental", "bicycle_rental": "docking_station", "brand": "V\u00e9lib\u2019 M\u00e9tropole", "brand:wikidata": "Q1120762", "capacity": "30", "name": "Saint-S\u00e9verin - Saint-Michel", "network": "V\u00e9lib\u2019 M\u00e9tropole", "network:wikidata": "Q1120762", "operator": "Smovengo", "operator:wikidata": "Q47008427", "ref": "5033", "source": "Autolib Velib M\u00e9tropole - 2021-03", "unsigned_ref": "82335295", "wikidata": "Q86255353"}}, {"type": "node", "id": 6433803365, "lat": 48.8639458, "lon": 2.3356757, "tags": {"amenity": "bicycle_rental", "bicycle_rental": "docking_station", "brand": "V\u00e9lib\u2019 M\u00e9tropole", "brand:wikidata": "Q1120762", "brand:wikipedia": "fr:V\u00e9lib' M\u00e9tropole", "capacity": "19", "name": "Place Andr\u00e9 Malraux", "network": "V\u00e9lib\u2019 M\u00e9tropole", "network:wikidata": "Q1120762", "network:wikipedia": "fr:V\u00e9lib' M\u00e9tropole", "operator": "Smovengo", "operator:wikidata": "Q47008427", "operator:wikipedia": "fr:Smovengo", "ref": "1015", "source": "Autolib Velib M\u00e9tropole - 04/2020", "wikidata": "Q86255069"}}, {"type": "node", "id": 6435368573, "lat": 48.8573016, "lon": 2.3515339, "tags": {"amenity": "bicycle_rental", "bicycle_rental": "docking_station", "brand": "V\u00e9lib\u2019 M\u00e9tropole", "brand:wikidata": "Q1120762", "brand:wikipedia": "fr:V\u00e9lib' M\u00e9tropole", "capacity": "14", "name": "Place de l'H\u00f4tel de Ville", "network": "V\u00e9lib\u2019 M\u00e9tropole", "network:wikidata": "Q1120762", "network:wikipedia": "fr:V\u00e9lib' M\u00e9tropole", "operator": "Smovengo", "operator:wikidata": "Q47008427", "operator:wikipedia": "fr:Smovengo", "ref": "4017", "source": "survey 04/2019", "wikidata": "Q86255016"}}, {"type": "node", "id": 6437112089, "lat": 48.8530536, "lon": 2.3428777, "tags": {"amenity": "bicycle_rental", "bicycle_rental": "docking_station", "capacity": "37", "name": "Place Saint-Andr\u00e9 des Arts", "network": "V\u00e9lib\u2019", "operator": "Smovengo", "ref": "6020", "source": "Autolib Velib M\u00e9tropole - 2021-03", "unsigned_ref": "99798962", "wikidata": "Q86252795"}}, {"type": "node", "id": 6437112090, "lat": 48.8539625, "lon": 2.3390267, "tags": {"amenity": "bicycle_rental", "bicycle_rental": "docking_station", "brand": "V\u00e9lib\u2019 M\u00e9tropole", "brand:wikidata": "Q1120762", "brand:wikipedia": "fr:V\u00e9lib' M\u00e9tropole", "capacity": "55", "name": "Andr\u00e9 Mazet - Saint-Andr\u00e9 des Arts", "network": "V\u00e9lib\u2019 M\u00e9tropole", "network:wikidata": "Q1120762", "network:wikipedia": "fr:V\u00e9lib' M\u00e9tropole", "operator": "Smovengo", "operator:wikidata": "Q47008427", "operator:wikipedia": "fr:Smovengo", "ref": "6015", "source": "Autolib Velib M\u00e9tropole - 2021-03", "unsigned_ref": "99950133", "wikidata": "Q86252841"}}, {"type": "node", "id": 6437112103, "lat": 48.8538423, "lon": 2.3570103, "tags": {"amenity": "bicycle_rental", "bicycle_rental": "docking_station", "brand": "V\u00e9lib\u2019 M\u00e9tropole", "brand:wikidata": "Q1120762", "capacity": "36", "name": "H\u00f4tel de Ville - Pont-Marie", "network": "V\u00e9lib\u2019 M\u00e9tropole", "network:wikidata": "Q1120762", "operator": "Smovengo", "operator:wikidata": "Q47008427", "ref": "4011", "source": "Autolib Velib M\u00e9tropole - 2021-03", "unsigned_ref": "54000539", "wikidata": "Q86255014"}}, {"type": "node", "id": 6438519106, "lat": 48.8529369, "lon": 2.3520861, "tags": {"amenity": "bicycle_rental", "bicycle_rental": "docking_station", "brand": "V\u00e9lib\u2019 M\u00e9tropole", "brand:wikidata": "Q1120762", "brand:wikipedia": "fr:V\u00e9lib' M\u00e9tropole", "capacity": "21", "name": "Quai aux Fleurs - Pont Saint-Louis", "network": "V\u00e9lib\u2019 M\u00e9tropole", "network:wikidata": "Q1120762", "network:wikipedia": "fr:V\u00e9lib' M\u00e9tropole", "operator": "Smovengo", "operator:wikidata": "Q47008427", "operator:wikipedia": "fr:Smovengo", "ref": "4003", "source": "Autolib Velib M\u00e9tropole - 2021-03", "unsigned_ref": "27269170", "wikidata": "Q86255022"}}, {"type": "node", "id": 6438519107, "lat": 48.8572137, "lon": 2.3540069, "tags": {"amenity": "bicycle_rental", "bicycle_rental": "docking_station", "brand": "V\u00e9lib\u2019 M\u00e9tropole", "brand:wikidata": "Q1120762", "brand:wikipedia": "fr:V\u00e9lib' M\u00e9tropole", "capacity": "25", "name": "Archives - Rivoli", "network": "V\u00e9lib\u2019 M\u00e9tropole", "network:wikidata": "Q1120762", "network:wikipedia": "fr:V\u00e9lib' M\u00e9tropole", "operator": "Smovengo", "operator:wikidata": "Q47008427", "operator:wikipedia": "fr:Smovengo", "ref": "4103", "source": "Autolib Velib M\u00e9tropole - 2021-03", "unsigned_ref": "128880156", "wikidata": "Q86255025"}}, {"type": "node", "id": 6438519108, "lat": 48.8562451, "lon": 2.353283, "tags": {"amenity": "bicycle_rental", "bicycle_rental": "docking_station", "brand": "V\u00e9lib\u2019 M\u00e9tropole", "brand:wikidata": "Q1120762", "brand:wikipedia": "fr:V\u00e9lib' M\u00e9tropole", "capacity": "60", "name": "Lobau - H\u00f4tel de Ville", "network": "V\u00e9lib\u2019 M\u00e9tropole", "network:wikidata": "Q1120762", "network:wikipedia": "fr:V\u00e9lib' M\u00e9tropole", "operator": "Smovengo", "operator:wikidata": "Q47008427", "operator:wikipedia": "fr:Smovengo", "ref": "4016", "source": "Autolib Velib M\u00e9tropole - 2021-03", "unsigned_ref": "98187918", "wikidata": "Q86254997"}}, {"type": "node", "id": 6438519110, "lat": 48.8557759, "lon": 2.3578968, "tags": {"amenity": "bicycle_rental", "bicycle_rental": "docking_station", "capacity": "28", "name": "Tiron - Rivoli", "network": "V\u00e9lib\u2019", "operator": "Smovengo", "ref": "4012", "source": "Autolib Velib M\u00e9tropole - 2021-03", "unsigned_ref": "58391194", "wikidata": "Q86255033"}}, {"type": "node", "id": 6439759681, "lat": 48.8626276, "lon": 2.3499155, "tags": {"amenity": "bicycle_rental", "bicycle_rental": "docking_station", "brand": "V\u00e9lib\u2019 M\u00e9tropole", "brand:wikidata": "Q1120762", "brand:wikipedia": "fr:V\u00e9lib' M\u00e9tropole", "capacity": "33", "name": "Grande Truanderie - Saint-Denis", "network": "V\u00e9lib\u2019 M\u00e9tropole", "network:wikidata": "Q1120762", "network:wikipedia": "fr:V\u00e9lib' M\u00e9tropole", "operator": "Smovengo", "operator:wikidata": "Q47008427", "operator:wikipedia": "fr:Smovengo", "ref": "1006", "source": "Autolib Velib M\u00e9tropole - 2021-03", "unsigned_ref": "220504949", "wikidata": "Q86255089"}}, {"type": "node", "id": 6443510625, "lat": 48.8532952, "lon": 2.3343875, "tags": {"amenity": "bicycle_rental", "bicycle_rental": "docking_station", "brand": "V\u00e9lib\u2019 M\u00e9tropole", "brand:wikidata": "Q1120762", "brand:wikipedia": "fr:V\u00e9lib' M\u00e9tropole", "capacity": "18", "capacity:opendata": "17", "name": "Saint-Germain - Ciseaux", "network": "V\u00e9lib\u2019 M\u00e9tropole", "network:wikidata": "Q1120762", "network:wikipedia": "fr:V\u00e9lib' M\u00e9tropole", "note": "divergence fichier vs terrain quant \u00e0 capacit\u00e9", "operator": "Smovengo", "operator:wikidata": "Q47008427", "operator:wikipedia": "fr:Smovengo", "ref": "6012", "source": "Autolib Velib M\u00e9tropole - 04/2020", "unsigned_ref": "82336035", "wikidata": "Q86252814"}}, {"type": "node", "id": 6486388510, "lat": 48.8594004, "lon": 2.3559334, "tags": {"amenity": "bicycle_rental", "bicycle_rental": "docking_station", "brand": "V\u00e9lib\u2019 M\u00e9tropole", "brand:wikidata": "Q1120762", "brand:wikipedia": "fr:V\u00e9lib' M\u00e9tropole", "capacity": "29", "name": "Blancs-Manteaux - Archives", "network": "V\u00e9lib\u2019 M\u00e9tropole", "network:wikidata": "Q1120762", "network:wikipedia": "fr:V\u00e9lib' M\u00e9tropole", "operator": "Smovengo", "operator:wikidata": "Q47008427", "operator:wikipedia": "fr:Smovengo", "ref": "4014", "source": "Autolib Velib M\u00e9tropole - 2021-03", "unsigned_ref": "54000542", "wikidata": "Q86254984"}}, {"type": "node", "id": 6763718002, "lat": 48.8636064, "lon": 2.3478837, "tags": {"amenity": "bicycle_rental", "bicycle_rental": "docking_station", "brand": "V\u00e9lib\u2019 M\u00e9tropole", "brand:wikidata": "Q1120762", "brand:wikipedia": "fr:V\u00e9lib' M\u00e9tropole", "capacity": "16", "name": "Turbigo - Fran\u00e7aise", "network": "V\u00e9lib\u2019 M\u00e9tropole", "network:wikidata": "Q1120762", "network:wikipedia": "fr:V\u00e9lib' M\u00e9tropole", "operator": "Smovengo", "operator:wikidata": "Q47008427", "operator:wikipedia": "fr:Smovengo", "ref": "1007", "source": "Autolib Velib M\u00e9tropole - 04/2020", "wikidata": "Q86255078"}}, {"type": "node", "id": 6763718003, "lat": 48.8638018, "lon": 2.3425753, "tags": {"amenity": "bicycle_rental", "bicycle_rental": "docking_station", "brand": "V\u00e9lib\u2019 M\u00e9tropole", "brand:wikidata": "Q1120762", "brand:wikipedia": "fr:V\u00e9lib' M\u00e9tropole", "capacity": "21", "name": "Coquilli\u00e8re - Louvre", "network": "V\u00e9lib\u2019 M\u00e9tropole", "network:wikidata": "Q1120762", "network:wikipedia": "fr:V\u00e9lib' M\u00e9tropole", "operator": "Smovengo", "operator:wikidata": "Q47008427", "operator:wikipedia": "fr:Smovengo", "ref": "1024", "source": "Autolib Velib M\u00e9tropole - 04/2020", "wikidata": "Q86255110"}}, {"type": "node", "id": 6763718004, "lat": 48.8702627, "lon": 2.3512688, "tags": {"amenity": "bicycle_rental", "bicycle_rental": "docking_station", "brand": "V\u00e9lib\u2019 M\u00e9tropole", "brand:wikidata": "Q1120762", "brand:wikipedia": "fr:V\u00e9lib' M\u00e9tropole", "capacity": "25", "name": "Mazagran - Bonne Nouvelle", "network": "V\u00e9lib\u2019 M\u00e9tropole", "network:wikidata": "Q1120762", "network:wikipedia": "fr:V\u00e9lib' M\u00e9tropole", "operator": "Smovengo", "operator:wikidata": "Q47008427", "operator:wikipedia": "fr:Smovengo", "ref": "10105", "source": "Autolib Velib M\u00e9tropole - 04/2019", "wikidata": "Q86252929"}}, {"type": "node", "id": 6795914873, "lat": 48.8629772, "lon": 2.3415179, "tags": {"amenity": "bicycle_rental", "bicycle_rental": "docking_station", "brand": "V\u00e9lib\u2019 M\u00e9tropole", "brand:wikidata": "Q1120762", "brand:wikipedia": "fr:V\u00e9lib' M\u00e9tropole", "capacity": "22", "name": "Jean-Jacques Rousseau - Deux Ecus", "network": "V\u00e9lib\u2019 M\u00e9tropole", "network:wikidata": "Q1120762", "network:wikipedia": "fr:V\u00e9lib' M\u00e9tropole", "operator": "Smovengo", "operator:wikidata": "Q47008427", "operator:wikipedia": "fr:Smovengo", "ref": "1012", "source": "Autolib Velib M\u00e9tropole - 04/2020", "wikidata": "Q86255107"}}, {"type": "node", "id": 6795914874, "lat": 48.8624227, "lon": 2.3385936, "tags": {"amenity": "bicycle_rental", "bicycle_rental": "docking_station", "brand": "V\u00e9lib\u2019 M\u00e9tropole", "brand:wikidata": "Q1120762", "brand:wikipedia": "fr:V\u00e9lib' M\u00e9tropole", "capacity": "67", "name": "Place du Palais Royal", "network": "V\u00e9lib\u2019 M\u00e9tropole", "network:wikidata": "Q1120762", "network:wikipedia": "fr:V\u00e9lib' M\u00e9tropole", "operator": "Smovengo", "operator:wikidata": "Q47008427", "operator:wikipedia": "fr:Smovengo", "ref": "1013", "source": "Autolib Velib M\u00e9tropole - 04/2020", "wikidata": "Q86255083"}}, {"type": "node", "id": 6795916694, "lat": 48.8636827, "lon": 2.3340472, "tags": {"amenity": "bicycle_rental", "bicycle_rental": "docking_station", "brand": "V\u00e9lib\u2019 M\u00e9tropole", "brand:wikidata": "Q1120762", "brand:wikipedia": "fr:V\u00e9lib' M\u00e9tropole", "capacity": "24", "name": "Rivoli - Mus\u00e9e du Louvre", "network": "V\u00e9lib\u2019 M\u00e9tropole", "network:wikidata": "Q1120762", "network:wikipedia": "fr:V\u00e9lib' M\u00e9tropole", "operator": "Smovengo", "operator:wikidata": "Q47008427", "operator:wikipedia": "fr:Smovengo", "ref": "1014", "source": "Autolib Velib M\u00e9tropole - 04/2020", "wikidata": "Q86255127"}}, {"type": "node", "id": 6795916698, "lat": 48.866462, "lon": 2.3344911, "tags": {"amenity": "bicycle_rental", "bicycle_rental": "docking_station", "brand": "V\u00e9lib\u2019 M\u00e9tropole", "brand:wikidata": "Q1120762", "brand:wikipedia": "fr:V\u00e9lib' M\u00e9tropole", "capacity": "25", "name": "Th\u00e9r\u00e8se - Op\u00e9ra", "network": "V\u00e9lib\u2019 M\u00e9tropole", "network:wikidata": "Q1120762", "network:wikipedia": "fr:V\u00e9lib' M\u00e9tropole", "operator": "Smovengo", "operator:wikidata": "Q47008427", "operator:wikipedia": "fr:Smovengo", "ref": "1016", "source": "Autolib Velib M\u00e9tropole - 04/2020", "wikidata": "Q86255098"}}, {"type": "node", "id": 6801503713, "lat": 48.8634637, "lon": 2.3348827, "tags": {"amenity": "bicycle_rental", "bicycle_rental": "docking_station", "brand": "V\u00e9lib\u2019 M\u00e9tropole", "brand:wikidata": "Q1120762", "brand:wikipedia": "fr:V\u00e9lib' M\u00e9tropole", "capacity": "22", "name": "Saint-Honor\u00e9 - Mus\u00e9e du Louvre", "network": "V\u00e9lib\u2019 M\u00e9tropole", "network:wikidata": "Q1120762", "network:wikipedia": "fr:V\u00e9lib' M\u00e9tropole", "operator": "Smovengo", "operator:wikidata": "Q47008427", "operator:wikipedia": "fr:Smovengo", "ref": "1023", "source": "Autolib Velib M\u00e9tropole - 04/2020", "wikidata": "Q86255063"}}, {"type": "node", "id": 6801503714, "lat": 48.8635063, "lon": 2.3426393, "tags": {"amenity": "bicycle_rental", "bicycle_rental": "docking_station", "brand": "V\u00e9lib\u2019 M\u00e9tropole", "brand:wikidata": "Q1120762", "brand:wikipedia": "fr:V\u00e9lib' M\u00e9tropole", "capacity": "32", "name": "Les Halles - Saint-Eustache", "network": "V\u00e9lib\u2019 M\u00e9tropole", "network:wikidata": "Q1120762", "network:wikipedia": "fr:V\u00e9lib' M\u00e9tropole", "operator": "Smovengo", "operator:wikidata": "Q47008427", "operator:wikipedia": "fr:Smovengo", "ref": "1008", "source": "Autolib Velib M\u00e9tropole - 04/2020", "wikidata": "Q86255066"}}, {"type": "node", "id": 6801503715, "lat": 48.8613995, "lon": 2.3400377, "tags": {"amenity": "bicycle_rental", "bicycle_rental": "docking_station", "brand": "V\u00e9lib\u2019 M\u00e9tropole", "brand:wikidata": "Q1120762", "brand:wikipedia": "fr:V\u00e9lib' M\u00e9tropole", "capacity": "18", "name": "Oratoire - Rivoli", "network": "V\u00e9lib\u2019 M\u00e9tropole", "network:wikidata": "Q1120762", "network:wikipedia": "fr:V\u00e9lib' M\u00e9tropole", "operator": "Smovengo", "operator:wikidata": "Q47008427", "operator:wikipedia": "fr:Smovengo", "ref": "1025", "source": "Autolib Velib M\u00e9tropole - 04/2020", "wikidata": "Q86255075"}}, {"type": "node", "id": 6801503716, "lat": 48.8634398, "lon": 2.3400532, "tags": {"amenity": "bicycle_rental", "bicycle_rental": "docking_station", "brand": "V\u00e9lib\u2019 M\u00e9tropole", "brand:wikidata": "Q1120762", "brand:wikipedia": "fr:V\u00e9lib' M\u00e9tropole", "capacity": "30", "name": "Place du Lieutenant Henri Karcher", "network": "V\u00e9lib\u2019 M\u00e9tropole", "network:wikidata": "Q1120762", "network:wikipedia": "fr:V\u00e9lib' M\u00e9tropole", "operator": "Smovengo", "operator:wikidata": "Q47008427", "operator:wikipedia": "fr:Smovengo", "ref": "1026", "source": "Autolib Velib M\u00e9tropole - 04/2020", "wikidata": "Q86255092"}}, {"type": "node", "id": 6801503720, "lat": 48.8640235, "lon": 2.3475846, "tags": {"amenity": "bicycle_rental", "bicycle_rental": "docking_station", "brand": "V\u00e9lib\u2019 M\u00e9tropole", "brand:wikidata": "Q1120762", "brand:wikipedia": "fr:V\u00e9lib' M\u00e9tropole", "capacity": "37", "name": "Fran\u00e7aise - \u00c9tienne Marcel", "network": "V\u00e9lib\u2019 M\u00e9tropole", "network:wikidata": "Q1120762", "network:wikipedia": "fr:V\u00e9lib' M\u00e9tropole", "operator": "Smovengo", "operator:wikidata": "Q47008427", "operator:wikipedia": "fr:Smovengo", "ref": "1102", "source": "Autolib Velib M\u00e9tropole - 2021-03", "wikidata": "Q86255120"}}, {"type": "node", "id": 6910100841, "lat": 48.8650144, "lon": 2.3450705, "tags": {"amenity": "bicycle_rental", "bicycle_rental": "docking_station", "brand": "V\u00e9lib\u2019 M\u00e9tropole", "brand:wikidata": "Q1120762", "brand:wikipedia": "fr:V\u00e9lib' M\u00e9tropole", "capacity": "16", "name": "Montmartre - \u00c9tienne Marcel", "network": "V\u00e9lib\u2019 M\u00e9tropole", "network:wikidata": "Q1120762", "network:wikipedia": "fr:V\u00e9lib' M\u00e9tropole", "operator": "Smovengo", "operator:wikidata": "Q47008427", "operator:wikipedia": "fr:Smovengo", "ref": "2005", "source": "Autolib Velib M\u00e9tropole - 04/2020", "wikidata": "Q86254780"}}, {"type": "node", "id": 7366568992, "lat": 48.8538857, "lon": 2.3493662, "tags": {"amenity": "bicycle_rental", "bicycle_rental": "docking_station", "brand": "V\u00e9lib\u2019 M\u00e9tropole", "brand:wikidata": "Q1120762", "brand:wikipedia": "fr:V\u00e9lib' M\u00e9tropole", "capacity": "31", "name": "Arcole - Notre-Dame", "network": "V\u00e9lib\u2019 M\u00e9tropole", "network:wikidata": "Q1120762", "network:wikipedia": "fr:V\u00e9lib' M\u00e9tropole", "operator": "Smovengo", "operator:wikidata": "Q47008427", "operator:wikipedia": "fr:Smovengo", "ref": "4001", "source": "Autolib Velib M\u00e9tropole - 2021-03", "wikidata": "Q86255037"}}, {"type": "node", "id": 7366568993, "lat": 48.8554977, "lon": 2.3334494, "tags": {"amenity": "bicycle_rental", "bicycle_rental": "docking_station", "brand": "V\u00e9lib\u2019 M\u00e9tropole", "brand:wikidata": "Q1120762", "brand:wikipedia": "fr:V\u00e9lib' M\u00e9tropole", "capacity": "23", "name": "Saint-Beno\u00eet - Jacob", "network": "V\u00e9lib\u2019 M\u00e9tropole", "network:wikidata": "Q1120762", "network:wikipedia": "fr:V\u00e9lib' M\u00e9tropole", "operator": "Smovengo", "operator:wikidata": "Q47008427", "operator:wikipedia": "fr:Smovengo", "ref": "6002", "source": "Autolib Velib M\u00e9tropole - 04/2020", "wikidata": "Q86252816"}}, {"type": "node", "id": 7366568994, "lat": 48.8564316, "lon": 2.3348466, "tags": {"amenity": "bicycle_rental", "bicycle_rental": "docking_station", "brand": "V\u00e9lib\u2019 M\u00e9tropole", "brand:wikidata": "Q1120762", "brand:wikipedia": "fr:V\u00e9lib' M\u00e9tropole", "capacity": "20", "name": "Beaux-Arts - Bonaparte", "network": "V\u00e9lib\u2019 M\u00e9tropole", "network:wikidata": "Q1120762", "network:wikipedia": "fr:V\u00e9lib' M\u00e9tropole", "operator": "Smovengo", "operator:wikidata": "Q47008427", "operator:wikipedia": "fr:Smovengo", "ref": "6021", "source": "Autolib Velib M\u00e9tropole - 04/2019", "wikidata": "Q86252831"}}, {"type": "node", "id": 7368681193, "lat": 48.8639051, "lon": 2.3523875, "tags": {"amenity": "bicycle_rental", "bicycle_rental": "docking_station", "brand": "V\u00e9lib\u2019 M\u00e9tropole", "brand:wikidata": "Q1120762", "brand:wikipedia": "fr:V\u00e9lib' M\u00e9tropole", "capacity": "42", "name": "Bourg l'Abb\u00e9 - Saint-Martin", "network": "V\u00e9lib\u2019 M\u00e9tropole", "network:wikidata": "Q1120762", "network:wikipedia": "fr:V\u00e9lib' M\u00e9tropole", "operator": "Smovengo", "operator:wikidata": "Q47008427", "operator:wikipedia": "fr:Smovengo", "ref": "3102", "source": "Autolib Velib M\u00e9tropole - 2021-03", "wikidata": "Q86255145"}}, {"type": "node", "id": 7368681194, "lat": 48.8605777, "lon": 2.3460998, "tags": {"amenity": "bicycle_rental", "bicycle_rental": "docking_station", "brand": "V\u00e9lib\u2019 M\u00e9tropole", "brand:wikidata": "Q1120762", "brand:wikipedia": "fr:V\u00e9lib' M\u00e9tropole", "capacity": "20", "name": "Halles - Bourdonnais", "network": "V\u00e9lib\u2019 M\u00e9tropole", "network:wikidata": "Q1120762", "network:wikipedia": "fr:V\u00e9lib' M\u00e9tropole", "operator": "Smovengo", "operator:wikidata": "Q47008427", "operator:wikipedia": "fr:Smovengo", "ref": "1021", "source": "Autolib Velib M\u00e9tropole - 2021-03", "wikidata": "Q86255102"}}, {"type": "node", "id": 7368681195, "lat": 48.8600899, "lon": 2.3440576, "tags": {"amenity": "bicycle_rental", "bicycle_rental": "docking_station", "brand": "V\u00e9lib\u2019 M\u00e9tropole", "brand:wikidata": "Q1120762", "brand:wikipedia": "fr:V\u00e9lib' M\u00e9tropole", "capacity": "27", "name": "Pont Neuf - Rivoli", "network": "V\u00e9lib\u2019 M\u00e9tropole", "network:wikidata": "Q1120762", "network:wikipedia": "fr:V\u00e9lib' M\u00e9tropole", "operator": "Smovengo", "operator:wikidata": "Q47008427", "operator:wikipedia": "fr:Smovengo", "ref": "1117", "source": "Autolib Velib M\u00e9tropole - 2021-03", "wikidata": "Q86255125"}}, {"type": "node", "id": 7369001590, "lat": 48.8689829, "lon": 2.3469129, "tags": {"amenity": "bicycle_rental", "bicycle_rental": "docking_station", "brand": "V\u00e9lib\u2019 M\u00e9tropole", "brand:wikidata": "Q1120762", "brand:wikipedia": "fr:V\u00e9lib' M\u00e9tropole", "capacity": "28", "name": "Je\u00fbneurs - Mulhouse", "network": "V\u00e9lib\u2019 M\u00e9tropole", "network:wikidata": "Q1120762", "network:wikipedia": "fr:V\u00e9lib' M\u00e9tropole", "operator": "Smovengo", "operator:wikidata": "Q47008427", "operator:wikipedia": "fr:Smovengo", "ref": "2110", "source": "Autolib Velib M\u00e9tropole - 04/2019", "wikidata": "Q86254778"}}, {"type": "node", "id": 7369001591, "lat": 48.8682037, "lon": 2.3437952, "tags": {"amenity": "bicycle_rental", "bicycle_rental": "docking_station", "brand": "V\u00e9lib\u2019 M\u00e9tropole", "brand:wikidata": "Q1120762", "brand:wikipedia": "fr:V\u00e9lib' M\u00e9tropole", "capacity": "19", "name": "R\u00e9aumur - Montmartre", "network": "V\u00e9lib\u2019 M\u00e9tropole", "network:wikidata": "Q1120762", "network:wikipedia": "fr:V\u00e9lib' M\u00e9tropole", "operator": "Smovengo", "operator:wikidata": "Q47008427", "operator:wikipedia": "fr:Smovengo", "ref": "2109", "source": "Autolib Velib M\u00e9tropole - 04/2019", "wikidata": "Q86254750"}}, {"type": "node", "id": 7369001592, "lat": 48.8703107, "lon": 2.3419792, "tags": {"amenity": "bicycle_rental", "bicycle_rental": "docking_station", "brand": "V\u00e9lib\u2019 M\u00e9tropole", "brand:wikidata": "Q1120762", "brand:wikipedia": "fr:V\u00e9lib' M\u00e9tropole", "capacity": "37", "name": "Saint-Marc - Feydeau", "network": "V\u00e9lib\u2019 M\u00e9tropole", "network:wikidata": "Q1120762", "network:wikipedia": "fr:V\u00e9lib' M\u00e9tropole", "operator": "Smovengo", "operator:wikidata": "Q47008427", "operator:wikipedia": "fr:Smovengo", "ref": "2102", "source": "Autolib Velib M\u00e9tropole - 04/2019", "wikidata": "Q86254728"}}, {"type": "node", "id": 7369001593, "lat": 48.868866, "lon": 2.3397317, "tags": {"amenity": "bicycle_rental", "bicycle_rental": "docking_station", "brand": "V\u00e9lib\u2019 M\u00e9tropole", "brand:wikidata": "Q1120762", "brand:wikipedia": "fr:V\u00e9lib' M\u00e9tropole", "capacity": "58", "check_date": "2023-03-19", "name": "Filles Saint-Thomas - Place de la Bourse", "network": "V\u00e9lib\u2019 M\u00e9tropole", "network:wikidata": "Q1120762", "network:wikipedia": "fr:V\u00e9lib' M\u00e9tropole", "operator": "Smovengo", "operator:wikidata": "Q47008427", "operator:wikipedia": "fr:Smovengo", "ref": "2009", "source": "Autolib Velib M\u00e9tropole - 04/2019", "wikidata": "Q86254741"}}, {"type": "node", "id": 7369001594, "lat": 48.8699355, "lon": 2.3359975, "tags": {"amenity": "bicycle_rental", "bicycle_rental": "docking_station", "brand": "V\u00e9lib\u2019 M\u00e9tropole", "brand:wikidata": "Q1120762", "brand:wikipedia": "fr:V\u00e9lib' M\u00e9tropole", "capacity": "44", "name": "Choiseul - Quatre Septembre", "network": "V\u00e9lib\u2019 M\u00e9tropole", "network:wikidata": "Q1120762", "network:wikipedia": "fr:V\u00e9lib' M\u00e9tropole", "operator": "Smovengo", "operator:wikidata": "Q47008427", "operator:wikipedia": "fr:Smovengo", "ref": "2012", "source": "Autolib Velib M\u00e9tropole - 04/2019", "wikidata": "Q86254757"}}, {"type": "node", "id": 7369001595, "lat": 48.8705107, "lon": 2.3340478, "tags": {"amenity": "bicycle_rental", "bicycle_rental": "docking_station", "brand": "V\u00e9lib\u2019 M\u00e9tropole", "brand:wikidata": "Q1120762", "brand:wikipedia": "fr:V\u00e9lib' M\u00e9tropole", "capacity": "33", "name": "Louis le Grand - Italiens", "network": "V\u00e9lib\u2019 M\u00e9tropole", "network:wikidata": "Q1120762", "network:wikipedia": "fr:V\u00e9lib' M\u00e9tropole", "operator": "Smovengo", "operator:wikidata": "Q47008427", "operator:wikipedia": "fr:Smovengo", "ref": "2015", "source": "Autolib Velib M\u00e9tropole - 04/2019", "wikidata": "Q86254775"}}, {"type": "node", "id": 7369001597, "lat": 48.8676432, "lon": 2.3333894, "tags": {"amenity": "bicycle_rental", "bicycle_rental": "docking_station", "brand": "V\u00e9lib\u2019 M\u00e9tropole", "brand:wikidata": "Q1120762", "brand:wikipedia": "fr:V\u00e9lib' M\u00e9tropole", "capacity": "20", "name": "Danielle Casanova - Op\u00e9ra", "network": "V\u00e9lib\u2019 M\u00e9tropole", "network:wikidata": "Q1120762", "network:wikipedia": "fr:V\u00e9lib' M\u00e9tropole", "operator": "Smovengo", "operator:wikidata": "Q47008427", "operator:wikipedia": "fr:Smovengo", "ref": "2020", "source": "Autolib Velib M\u00e9tropole - 04/2019", "wikidata": "Q86254784"}}, {"type": "node", "id": 7369001598, "lat": 48.868289, "lon": 2.3380893, "tags": {"amenity": "bicycle_rental", "bicycle_rental": "docking_station", "brand": "V\u00e9lib\u2019 M\u00e9tropole", "brand:wikidata": "Q1120762", "brand:wikipedia": "fr:V\u00e9lib' M\u00e9tropole", "capacity": "17", "name": "Biblioth\u00e8que Nationale", "network": "V\u00e9lib\u2019 M\u00e9tropole", "network:wikidata": "Q1120762", "network:wikipedia": "fr:V\u00e9lib' M\u00e9tropole", "operator": "Smovengo", "operator:wikidata": "Q47008427", "operator:wikipedia": "fr:Smovengo", "ref": "2112", "source": "Autolib Velib M\u00e9tropole - 04/2020", "wikidata": "Q86254743"}}, {"type": "node", "id": 7369001599, "lat": 48.8672322, "lon": 2.3405014, "tags": {"amenity": "bicycle_rental", "bicycle_rental": "docking_station", "brand": "V\u00e9lib\u2019 M\u00e9tropole", "brand:wikidata": "Q1120762", "brand:wikipedia": "fr:V\u00e9lib' M\u00e9tropole", "capacity": "28", "name": "Mairie du 2\u00e8me", "network": "V\u00e9lib\u2019 M\u00e9tropole", "network:wikidata": "Q1120762", "network:wikipedia": "fr:V\u00e9lib' M\u00e9tropole", "operator": "Smovengo", "operator:wikidata": "Q47008427", "operator:wikipedia": "fr:Smovengo", "ref": "2008", "source": "Autolib Velib M\u00e9tropole - 04/2019", "wikidata": "Q86254735"}}, {"type": "node", "id": 7369001600, "lat": 48.8696016, "lon": 2.3542909, "tags": {"amenity": "bicycle_rental", "bicycle_rental": "docking_station", "brand": "V\u00e9lib\u2019 M\u00e9tropole", "brand:wikidata": "Q1120762", "brand:wikipedia": "fr:V\u00e9lib' M\u00e9tropole", "capacity": "16", "name": "Strasbourg - Saint-Denis", "network": "V\u00e9lib\u2019 M\u00e9tropole", "network:wikidata": "Q1120762", "network:wikipedia": "fr:V\u00e9lib' M\u00e9tropole", "operator": "Smovengo", "operator:wikidata": "Q47008427", "operator:wikipedia": "fr:Smovengo", "ref": "10166", "source": "Autolib Velib M\u00e9tropole - 04/2019", "wikidata": "Q86252926"}}, {"type": "node", "id": 7369001601, "lat": 48.8686829, "lon": 2.3502042, "tags": {"amenity": "bicycle_rental", "bicycle_rental": "docking_station", "brand": "V\u00e9lib\u2019 M\u00e9tropole", "brand:wikidata": "Q1120762", "brand:wikipedia": "fr:V\u00e9lib' M\u00e9tropole", "capacity": "21", "name": "Aboukir - Alexandrie", "network": "V\u00e9lib\u2019 M\u00e9tropole", "network:wikidata": "Q1120762", "network:wikipedia": "fr:V\u00e9lib' M\u00e9tropole", "operator": "Smovengo", "operator:wikidata": "Q47008427", "operator:wikipedia": "fr:Smovengo", "ref": "2016", "source": "Autolib Velib M\u00e9tropole - 04/2020", "wikidata": "Q86254763"}}, {"type": "node", "id": 7369001602, "lat": 48.8670273, "lon": 2.3483584, "tags": {"amenity": "bicycle_rental", "bicycle_rental": "docking_station", "brand": "V\u00e9lib\u2019 M\u00e9tropole", "brand:wikidata": "Q1120762", "brand:wikipedia": "fr:V\u00e9lib' M\u00e9tropole", "capacity": "17", "name": "Square Pierre Lazareff", "network": "V\u00e9lib\u2019 M\u00e9tropole", "network:wikidata": "Q1120762", "network:wikipedia": "fr:V\u00e9lib' M\u00e9tropole", "operator": "Smovengo", "operator:wikidata": "Q47008427", "operator:wikipedia": "fr:Smovengo", "ref": "2004", "source": "Autolib Velib M\u00e9tropole - 2021-03", "wikidata": "Q86254769"}}, {"type": "node", "id": 7369001603, "lat": 48.867458, "lon": 2.3445211, "tags": {"amenity": "bicycle_rental", "bicycle_rental": "docking_station", "brand": "V\u00e9lib\u2019 M\u00e9tropole", "brand:wikidata": "Q1120762", "brand:wikipedia": "fr:V\u00e9lib' M\u00e9tropole", "capacity": "44", "name": "Cl\u00e9ry - Montmartre", "network": "V\u00e9lib\u2019 M\u00e9tropole", "network:wikidata": "Q1120762", "network:wikipedia": "fr:V\u00e9lib' M\u00e9tropole", "operator": "Smovengo", "operator:wikidata": "Q47008427", "operator:wikipedia": "fr:Smovengo", "ref": "2021", "source": "Autolib Velib M\u00e9tropole - 04/2019", "wikidata": "Q86254782"}}, {"type": "node", "id": 7369001604, "lat": 48.8660355, "lon": 2.3420334, "tags": {"amenity": "bicycle_rental", "bicycle_rental": "docking_station", "brand": "V\u00e9lib\u2019 M\u00e9tropole", "brand:wikidata": "Q1120762", "brand:wikipedia": "fr:V\u00e9lib' M\u00e9tropole", "capacity": "24", "name": "Place des Victoires", "network": "V\u00e9lib\u2019 M\u00e9tropole", "network:wikidata": "Q1120762", "network:wikipedia": "fr:V\u00e9lib' M\u00e9tropole", "operator": "Smovengo", "operator:wikidata": "Q47008427", "operator:wikipedia": "fr:Smovengo", "ref": "2006", "source": "Autolib Velib M\u00e9tropole - 04/2019", "wikidata": "Q86254737"}}, {"type": "node", "id": 7426508324, "lat": 48.8613247, "lon": 2.3493569, "tags": {"amenity": "bicycle_rental", "bicycle_rental": "docking_station", "brand": "V\u00e9lib\u2019 M\u00e9tropole", "brand:wikidata": "Q1120762", "brand:wikipedia": "fr:V\u00e9lib' M\u00e9tropole", "capacity": "24", "name": "Cossonnerie - S\u00e9bastopol", "network": "V\u00e9lib\u2019 M\u00e9tropole", "network:wikidata": "Q1120762", "network:wikipedia": "fr:V\u00e9lib' M\u00e9tropole", "operator": "Smovengo", "operator:wikidata": "Q47008427", "operator:wikipedia": "fr:Smovengo", "ref": "1119", "source": "Autolib Velib M\u00e9tropole - 2021-03", "wikidata": "Q86255117"}}, {"type": "node", "id": 9487023553, "lat": 48.8670374, "lon": 2.336716, "tags": {"amenity": "bicycle_rental", "bicycle_rental": "docking_station", "brand": "V\u00e9lib\u2019 M\u00e9tropole", "brand:wikidata": "Q1120762", "brand:wikipedia": "fr:V\u00e9lib' M\u00e9tropole", "capacity": "30", "name": "Chabanais - Petits Champs", "network": "V\u00e9lib\u2019 M\u00e9tropole", "network:wikidata": "Q1120762", "network:wikipedia": "fr:V\u00e9lib' M\u00e9tropole", "operator": "Smovengo", "operator:wikidata": "Q47008427", "operator:wikipedia": "fr:Smovengo", "ref": "2111", "source": "Autolib Velib M\u00e9tropole - 2022-01", "wikidata": "Q86254730"}}, {"type": "node", "id": 9617142288, "lat": 48.8637347, "lon": 2.3426487}, {"type": "node", "id": 9617142289, "lat": 48.8637555, "lon": 2.3426578}, {"type": "node", "id": 10099545064, "lat": 48.8625199, "lon": 2.3382637}, {"type": "node", "id": 10103805540, "lat": 48.862506, "lon": 2.3382551}, {"type": "node", "id": 10103805541, "lat": 48.8623385, "lon": 2.3388813}, {"type": "node", "id": 10103805542, "lat": 48.8623514, "lon": 2.3388882}, {"type": "node", "id": 10198505424, "lat": 48.8645946, "lon": 2.3461642}, {"type": "node", "id": 10198505425, "lat": 48.8646073, "lon": 2.3461709}, {"type": "node", "id": 10198505426, "lat": 48.8645452, "lon": 2.3464321}, {"type": "node", "id": 10198505427, "lat": 48.8645247, "lon": 2.3464457}, {"type": "node", "id": 10224617033, "lat": 48.8675301, "lon": 2.3447943}, {"type": "node", "id": 10224617034, "lat": 48.8675454, "lon": 2.3447841}, {"type": "node", "id": 10224617035, "lat": 48.8674257, "lon": 2.3443425}, {"type": "node", "id": 10224617036, "lat": 48.8674112, "lon": 2.3443523}, {"type": "node", "id": 10649422135, "lat": 48.8649889, "lon": 2.345063}, {"type": "node", "id": 10649422136, "lat": 48.8649947, "lon": 2.3450909}, {"type": "node", "id": 10649422137, "lat": 48.865054, "lon": 2.3450657}, {"type": "node", "id": 10649422138, "lat": 48.8650488, "lon": 2.3450377}, {"type": "node", "id": 10650894969, "lat": 48.8651263, "lon": 2.3450045}, {"type": "node", "id": 10650894970, "lat": 48.8651314, "lon": 2.3450323}, {"type": "node", "id": 10650894971, "lat": 48.8650717, "lon": 2.3450581}, {"type": "node", "id": 10671861710, "lat": 48.8602947, "lon": 2.3414086, "tags": {"amenity": "bicycle_rental", "bicycle_rental": "docking_station", "brand": "V\u00e9lib\u2019 M\u00e9tropole", "brand:wikidata": "Q1120762", "brand:wikipedia": "fr:V\u00e9lib' M\u00e9tropole", "capacity": "28", "name": "Perrault - Place du Louvre", "network": "V\u00e9lib\u2019 M\u00e9tropole", "network:wikidata": "Q1120762", "network:wikipedia": "fr:V\u00e9lib' M\u00e9tropole", "operator": "Smovengo", "operator:wikidata": "Q47008427", "operator:wikipedia": "fr:Smovengo", "ref": "1201", "wikidata": "Q116796021"}}, {"type": "node", "id": 10683960043, "lat": 48.8603165, "lon": 2.3415441}, {"type": "node", "id": 10683960045, "lat": 48.8602547, "lon": 2.3412499}, {"type": "node", "id": 10683960047, "lat": 48.8603321, "lon": 2.3415362}, {"type": "node", "id": 10683960048, "lat": 48.8602716, "lon": 2.3412428}, {"type": "node", "id": 10698805407, "lat": 48.8630001, "lon": 2.3415821}, {"type": "node", "id": 10698805408, "lat": 48.8629169, "lon": 2.3414213}, {"type": "node", "id": 10698805409, "lat": 48.8629306, "lon": 2.3414031}, {"type": "node", "id": 10698805410, "lat": 48.8630138, "lon": 2.3415644}, {"type": "node", "id": 10973438992, "lat": 48.8663528, "lon": 2.3598295, "tags": {"amenity": "bicycle_rental", "bicycle_rental": "docking_station", "brand": "V\u00e9lib\u2019 M\u00e9tropole", "brand:wikidata": "Q1120762", "brand:wikipedia": "fr:V\u00e9lib' M\u00e9tropole", "capacity": "33", "name": "Sainte-Elisabeth - Turbigo", "network": "V\u00e9lib\u2019 M\u00e9tropole", "network:wikidata": "Q1120762", "network:wikipedia": "fr:V\u00e9lib' M\u00e9tropole", "operator": "Smovengo", "operator:wikidata": "Q47008427", "operator:wikipedia": "fr:Smovengo", "ref": "3005", "source": "Autolib Velib M\u00e9tropole - 04/2020", "wikidata": "Q86255129"}}, {"type": "way", "id": 207286065, "nodes": [2174795266, 2174795264, 2174795259, 2174795260, 2174795266], "tags": {"amenity": "bicycle_rental", "bicycle_rental": "docking_station", "brand": "V\u00e9lib\u2019 M\u00e9tropole", "brand:wikidata": "Q1120762", "brand:wikipedia": "fr:V\u00e9lib' M\u00e9tropole", "capacity": "16", "name": "Sebastopol - Rambuteau", "network": "V\u00e9lib\u2019 M\u00e9tropole", "network:wikidata": "Q1120762", "network:wikipedia": "fr:V\u00e9lib' M\u00e9tropole", "operator": "Smovengo", "operator:wikidata": "Q47008427", "operator:wikipedia": "fr:Smovengo", "ref": "04104", "source": "survey", "survey:date": "2020-08-03", "wikidata": "Q86255044"}}, {"type": "way", "id": 1045530843, "nodes": [9617142288, 9617142289, 5957673015, 5957673016, 9617142288], "tags": {"amenity": "bicycle_rental", "bicycle_rental": "docking_station", "brand": "V\u00e9lib\u2019 M\u00e9tropole", "brand:wikidata": "Q1120762", "brand:wikipedia": "fr:V\u00e9lib' M\u00e9tropole", "capacity": "21", "name": "Coquilli\u00e8re - Louvre", "network": "V\u00e9lib\u2019 M\u00e9tropole", "network:wikidata": "Q1120762", "network:wikipedia": "fr:V\u00e9lib' M\u00e9tropole", "operator": "Smovengo", "operator:wikidata": "Q47008427", "operator:wikipedia": "fr:Smovengo"}}, {"type": "way", "id": 1104150648, "nodes": [10099545064, 10103805540, 10103805541, 10103805542, 10099545064], "tags": {"amenity": "bicycle_rental", "bicycle_rental": "docking_station", "brand": "V\u00e9lib\u2019 M\u00e9tropole", "brand:wikidata": "Q1120762", "capacity": "67", "name": "Place du Palais Royal", "network": "V\u00e9lib\u2019 M\u00e9tropole", "network:wikidata": "Q1120762", "operator": "Smovengo", "operator:wikidata": "Q47008427"}}, {"type": "way", "id": 1115098864, "nodes": [10198505426, 10198505425, 10198505424, 10198505427, 10198505426], "tags": {"amenity": "bicycle_rental", "bicycle_rental": "docking_station", "brand": "V\u00e9lib\u2019 M\u00e9tropole", "brand:wikidata": "Q1120762", "capacity": "28", "name": "\u00c9tienne Marcel - Montorgueil", "network": "V\u00e9lib\u2019 M\u00e9tropole", "network:wikidata": "Q1120762", "operator": "Smovengo", "operator:wikidata": "Q47008427"}}, {"type": "way", "id": 1117941577, "nodes": [10224617033, 10224617034, 10224617035, 10224617036, 10224617033], "tags": {"amenity": "bicycle_rental", "bicycle_rental": "docking_station", "brand": "V\u00e9lib\u2019 M\u00e9tropole", "brand:wikidata": "Q1120762", "capacity": "44", "name": "Cl\u00e9ry - Montmartre", "network": "V\u00e9lib\u2019 M\u00e9tropole", "network:wikidata": "Q1120762", "operator": "Smovengo", "operator:wikidata": "Q47008427"}}, {"type": "way", "id": 1144037197, "nodes": [10649422135, 10649422136, 10649422137, 10650894971, 10650894970, 10650894969, 10649422138, 10649422135], "tags": {"amenity": "bicycle_rental", "bicycle_rental": "docking_station", "brand": "V\u00e9lib\u2019 M\u00e9tropole", "brand:wikidata": "Q1120762", "capacity": "16", "name": "Montmartre - \u00c9tienne Marcel", "network": "V\u00e9lib\u2019 M\u00e9tropole", "network:wikidata": "Q1120762", "operator": "Smovengo", "operator:wikidata": "Q47008427"}}, {"type": "way", "id": 1148303690, "nodes": [10683960047, 10683960043, 10683960045, 10683960048, 10683960047], "tags": {"amenity": "bicycle_rental", "bicycle_rental": "docking_station", "brand": "V\u00e9lib\u2019 M\u00e9tropole", "brand:wikidata": "Q1120762", "capacity": "28", "name": "Perrault - Place du Louvre", "network": "V\u00e9lib\u2019 M\u00e9tropole", "network:wikidata": "Q1120762", "operator": "Smovengo", "operator:wikidata": "Q47008427"}}, {"type": "way", "id": 1150089202, "nodes": [10698805407, 10698805408, 10698805409, 10698805410, 10698805407], "tags": {"amenity": "bicycle_rental", "bicycle_rental": "docking_station", "brand": "V\u00e9lib\u2019 M\u00e9tropole", "brand:wikidata": "Q1120762", "capacity": "22", "network": "V\u00e9lib\u2019 M\u00e9tropole", "network:wikidata": "Q1120762", "operator": "Smovengo", "operator:wikidata": "Q47008427"}}]}