{"version": 0.6, "generator": "Overpass API 0.7.61.5 4133829e", "osm3s": {"timestamp_osm_base": "2023-12-09T23:49:30Z", "copyright": "The data included in this document is from www.openstreetmap.org. The data is made available under ODbL."}, "elements": [{"type": "node", "id": 496815520, "lat": 48.8680759, "lon": 2.2814412, "tags": {"amenity": "bicycle_rental", "bicycle_rental": "docking_station", "brand": "V\u00e9lib\u2019 M\u00e9tropole", "brand:wikidata": "Q1120762", "brand:wikipedia": "fr:V\u00e9lib' M\u00e9tropole", "capacity": "41", "name": "Victor Hugo - La Pompe", "network": "V\u00e9lib\u2019 M\u00e9tropole", "network:wikidata": "Q1120762", "network:wikipedia": "fr:V\u00e9lib' M\u00e9tropole", "operator": "Smovengo", "operator:wikidata": "Q47008427", "operator:wikipedia": "fr:Smovengo", "ref": "16011", "source": "Autolib Velib M\u00e9tropole - 04/2019", "wikidata": "Q86238769"}}, {"type": "node", "id": 942587005, "lat": 48.8707206, "lon": 2.281151, "tags": {"amenity": "bicycle_rental", "bicycle_rental": "docking_station", "brand": "V\u00e9lib\u2019 M\u00e9tropole", "brand:wikidata": "Q1120762", "brand:wikipedia": "fr:V\u00e9lib' M\u00e9tropole", "capacity": "31", "name": "Crevaux - Bugeaud", "network": "V\u00e9lib\u2019 M\u00e9tropole", "network:wikidata": "Q1120762", "network:wikipedia": "fr:V\u00e9lib' M\u00e9tropole", "operator": "Smovengo", "operator:wikidata": "Q47008427", "operator:wikipedia": "fr:Smovengo", "ref": "16105", "source": "cadastre-dgi-fr source : Direction G\u00e9n\u00e9rale des Imp\u00f4ts - Cadastre. Mise \u00e0 jour : 2010", "wikidata": "Q86238625"}}, {"type": "node", "id": 1764095108, "lat": 48.8848869, "lon": 2.3109585, "tags": {"amenity": "bicycle_rental", "bicycle_rental": "docking_station", "brand": "V\u00e9lib\u2019 M\u00e9tropole", "brand:wikidata": "Q1120762", "brand:wikipedia": "fr:V\u00e9lib' M\u00e9tropole", "capacity": "33", "name": "Toqueville - Cardinet", "network": "V\u00e9lib\u2019 M\u00e9tropole", "network:wikidata": "Q1120762", "network:wikipedia": "fr:V\u00e9lib' M\u00e9tropole", "operator": "Smovengo", "operator:wikidata": "Q47008427", "operator:wikipedia": "fr:Smovengo", "ref": "17119", "source": "Autolib Velib M\u00e9tropole - 04/2020", "wikidata": "Q86238375"}}, {"type": "node", "id": 2531866611, "lat": 48.8708161, "lon": 2.2749183, "tags": {"amenity": "bicycle_rental", "bicycle_rental": "docking_station", "brand": "V\u00e9lib\u2019 M\u00e9tropole", "brand:wikidata": "Q1120762", "brand:wikipedia": "fr:V\u00e9lib' M\u00e9tropole", "capacity": "70", "name": "Universit\u00e9 Paris Dauphine", "network": "V\u00e9lib\u2019 M\u00e9tropole", "network:wikidata": "Q1120762", "network:wikipedia": "fr:V\u00e9lib' M\u00e9tropole", "operator": "Smovengo", "operator:--2017-10-01": "JCDecaux", "operator:wikidata": "Q47008427", "operator:wikipedia": "fr:Smovengo", "ref": "16004", "source": "Autolib Velib M\u00e9tropole - 04/2019", "wikidata": "Q86238570"}}, {"type": "node", "id": 2937425832, "lat": 48.8850146, "lon": 2.3070199, "tags": {"amenity": "bicycle_rental", "bicycle_parking": "wide_stands", "bicycle_rental": "docking_station", "brand": "V\u00e9lib\u2019 M\u00e9tropole", "brand:wikidata": "Q1120762", "brand:wikipedia": "fr:V\u00e9lib' M\u00e9tropole", "capacity": "27", "covered": "no", "name": "Jouffroy d'Abbans - Malesherbes", "network": "V\u00e9lib\u2019 M\u00e9tropole", "network:wikidata": "Q1120762", "network:wikipedia": "fr:V\u00e9lib' M\u00e9tropole", "operator": "Smovengo", "operator:wikidata": "Q47008427", "operator:wikipedia": "fr:Smovengo", "ref": "17020", "source": "Survey", "supervised": "no", "wikidata": "Q86238283"}}, {"type": "node", "id": 5328053572, "lat": 48.8735554, "lon": 2.2814911, "tags": {"amenity": "bicycle_rental", "bicycle_rental": "docking_station", "brand": "V\u00e9lib\u2019 M\u00e9tropole", "brand:wikidata": "Q1120762", "brand:wikipedia": "fr:V\u00e9lib' M\u00e9tropole", "capacity": "27", "name": "Pergol\u00e8se - Marbeau", "network": "V\u00e9lib\u2019 M\u00e9tropole", "network:wikidata": "Q1120762", "network:wikipedia": "fr:V\u00e9lib' M\u00e9tropole", "operator": "Smovengo", "operator:wikidata": "Q47008427", "operator:wikipedia": "fr:Smovengo", "ref": "16102", "source": "Autolib Velib M\u00e9tropole - 04/2019", "wikidata": "Q86238783"}}, {"type": "node", "id": 5328057456, "lat": 48.8687039, "lon": 2.274287, "tags": {"amenity": "bicycle_rental", "bicycle_rental": "docking_station", "brand": "V\u00e9lib\u2019 M\u00e9tropole", "brand:wikidata": "Q1120762", "brand:wikipedia": "fr:V\u00e9lib' M\u00e9tropole", "capacity": "42", "name": "Flandrin - Longchamp", "network": "V\u00e9lib\u2019 M\u00e9tropole", "network:wikidata": "Q1120762", "network:wikipedia": "fr:V\u00e9lib' M\u00e9tropole", "operator": "Smovengo", "operator:wikidata": "Q47008427", "operator:wikipedia": "fr:Smovengo", "ref": "16012", "source": "Autolib Velib M\u00e9tropole - 04/2019", "wikidata": "Q86238873"}}, {"type": "node", "id": 6016301689, "lat": 48.8606515, "lon": 2.3148342, "tags": {"amenity": "bicycle_rental", "bicycle_rental": "docking_station", "brand": "V\u00e9lib\u2019 M\u00e9tropole", "brand:wikidata": "Q1120762", "brand:wikipedia": "fr:V\u00e9lib' M\u00e9tropole", "capacity": "65", "name": "Constantine - Universit\u00e9", "network": "V\u00e9lib\u2019 M\u00e9tropole", "network:wikidata": "Q1120762", "network:wikipedia": "fr:V\u00e9lib' M\u00e9tropole", "operator": "Smovengo", "operator:wikidata": "Q47008427", "operator:wikipedia": "fr:Smovengo", "ref": "7010", "source": "Autolib Velib M\u00e9tropole - 04/2020", "wikidata": "Q86252402"}}, {"type": "node", "id": 6016301692, "lat": 48.8590743, "lon": 2.3186208, "tags": {"amenity": "bicycle_rental", "bicycle_rental": "docking_station", "brand": "V\u00e9lib\u2019 M\u00e9tropole", "brand:wikidata": "Q1120762", "brand:wikipedia": "fr:V\u00e9lib' M\u00e9tropole", "capacity": "22", "name": "Las Cases - Bourgogne", "network": "V\u00e9lib\u2019 M\u00e9tropole", "network:wikidata": "Q1120762", "network:wikipedia": "fr:V\u00e9lib' M\u00e9tropole", "operator": "Smovengo", "operator:wikidata": "Q47008427", "operator:wikipedia": "fr:Smovengo", "ref": "7011", "source": "Autolib Velib M\u00e9tropole - 04/2020", "wikidata": "Q86252405"}}, {"type": "node", "id": 6016301694, "lat": 48.8576838, "lon": 2.3149556, "tags": {"amenity": "bicycle_rental", "bicycle_rental": "docking_station", "brand": "V\u00e9lib\u2019 M\u00e9tropole", "brand:wikidata": "Q1120762", "brand:wikipedia": "fr:V\u00e9lib' M\u00e9tropole", "capacity": "47", "name": "Varenne", "network": "V\u00e9lib\u2019 M\u00e9tropole", "network:wikidata": "Q1120762", "network:wikipedia": "fr:V\u00e9lib' M\u00e9tropole", "note": "deuxi\u00e8me partie de la station v\u00e9lib'", "operator": "Smovengo", "operator:wikidata": "Q47008427", "operator:wikipedia": "fr:Smovengo", "ref": "07015", "source": "Autolib Velib M\u00e9tropole - 04/2020", "wikidata": "Q86252345"}}, {"type": "node", "id": 6031787138, "lat": 48.8877521, "lon": 2.3203072, "tags": {"amenity": "bicycle_rental", "bicycle_rental": "docking_station", "brand": "V\u00e9lib\u2019 M\u00e9tropole", "brand:wikidata": "Q1120762", "brand:wikipedia": "fr:V\u00e9lib' M\u00e9tropole", "capacity": "30", "name": "Legendre - Nollet", "network": "V\u00e9lib\u2019 M\u00e9tropole", "network:wikidata": "Q1120762", "network:wikipedia": "fr:V\u00e9lib' M\u00e9tropole", "operator": "Smovengo", "operator:wikidata": "Q47008427", "operator:wikipedia": "fr:Smovengo", "ref": "17110", "source": "Autolib Velib M\u00e9tropole - 04/2020", "wikidata": "Q86238250"}}, {"type": "node", "id": 6082724645, "lat": 48.8561359, "lon": 2.2752106, "tags": {"amenity": "bicycle_rental", "bicycle_rental": "docking_station", "brand": "V\u00e9lib\u2019 M\u00e9tropole", "brand:wikidata": "Q1120762", "brand:wikipedia": "fr:V\u00e9lib' M\u00e9tropole", "capacity": "21", "name": "Vignes - Boulainvilliers", "network": "V\u00e9lib\u2019 M\u00e9tropole", "network:wikidata": "Q1120762", "network:wikipedia": "fr:V\u00e9lib' M\u00e9tropole", "operator": "Smovengo", "operator:wikidata": "Q47008427", "operator:wikipedia": "fr:Smovengo", "ref": "16031", "source": "Autolib Velib M\u00e9tropole - 04/2019", "wikidata": "Q86238579"}}, {"type": "node", "id": 6100300958, "lat": 48.8777509, "lon": 2.2844435, "tags": {"amenity": "bicycle_rental", "capacity": "52", "name": "Porte Maillot - Pereire", "network": "V\u00e9lib\u2019", "operator": "Smovengo", "ref": "17042", "source": "Autolib Velib M\u00e9tropole - 2021-03", "wikidata": "Q86238181"}}, {"type": "node", "id": 6200272270, "lat": 48.8668746, "lon": 2.306685, "tags": {"amenity": "bicycle_rental", "bicycle_rental": "docking_station", "brand": "V\u00e9lib\u2019 M\u00e9tropole", "brand:wikidata": "Q1120762", "brand:wikipedia": "fr:V\u00e9lib' M\u00e9tropole", "capacity": "29", "name": "Fran\u00e7ois 1er - Montaigne", "network": "V\u00e9lib\u2019 M\u00e9tropole", "network:wikidata": "Q1120762", "network:wikipedia": "fr:V\u00e9lib' M\u00e9tropole", "operator": "Smovengo", "operator:wikidata": "Q47008427", "operator:wikipedia": "fr:Smovengo", "ref": "8038", "source": "survey 2019-10", "wikidata": "Q86255293"}}, {"type": "node", "id": 6200279782, "lat": 48.8652463, "lon": 2.3101062, "tags": {"amenity": "bicycle_rental", "bicycle_rental": "docking_station", "brand": "V\u00e9lib\u2019 M\u00e9tropole", "brand:wikidata": "Q1120762", "brand:wikipedia": "fr:V\u00e9lib' M\u00e9tropole", "capacity": "40", "name": "Place du Canada", "network": "V\u00e9lib\u2019 M\u00e9tropole", "network:wikidata": "Q1120762", "network:wikipedia": "fr:V\u00e9lib' M\u00e9tropole", "operator": "Smovengo", "operator:wikidata": "Q47008427", "operator:wikipedia": "fr:Smovengo", "ref": "8029", "source": "survey 2019-01", "wikidata": "Q86255242"}}, {"type": "node", "id": 6424106819, "lat": 48.8638549, "lon": 2.2818379, "tags": {"amenity": "bicycle_rental", "bicycle_rental": "docking_station", "brand": "V\u00e9lib\u2019 M\u00e9tropole", "brand:wikidata": "Q1120762", "brand:wikipedia": "fr:V\u00e9lib' M\u00e9tropole", "capacity": "38", "name": "Sablons - Georges Mandel", "network": "V\u00e9lib\u2019 M\u00e9tropole", "network:wikidata": "Q1120762", "network:wikipedia": "fr:V\u00e9lib' M\u00e9tropole", "operator": "Smovengo", "operator:wikidata": "Q47008427", "operator:wikipedia": "fr:Smovengo", "ref": "16108", "wikidata": "Q86235907"}}, {"type": "node", "id": 6424110081, "lat": 48.8703247, "lon": 2.2850536, "tags": {"amenity": "bicycle_rental", "bicycle_rental": "docking_station", "brand": "V\u00e9lib\u2019 M\u00e9tropole", "brand:wikidata": "Q1120762", "brand:wikipedia": "fr:V\u00e9lib' M\u00e9tropole", "capacity": "25", "name": "Raymond Poincar\u00e9 - Place Victor Hugo", "network": "V\u00e9lib\u2019 M\u00e9tropole", "network:wikidata": "Q1120762", "network:wikipedia": "fr:V\u00e9lib' M\u00e9tropole", "operator": "Smovengo", "operator:wikidata": "Q47008427", "operator:wikipedia": "fr:Smovengo", "ref": "16005", "source": "Autolib Velib M\u00e9tropole - 04/2019", "wikidata": "Q86238823"}}, {"type": "node", "id": 6424114996, "lat": 48.8727911, "lon": 2.2915221, "tags": {"amenity": "bicycle_rental", "bicycle_rental": "docking_station", "brand": "V\u00e9lib\u2019 M\u00e9tropole", "brand:wikidata": "Q1120762", "brand:wikipedia": "fr:V\u00e9lib' M\u00e9tropole", "capacity": "22", "name": "Traktir - Foch", "network": "V\u00e9lib\u2019 M\u00e9tropole", "network:wikidata": "Q1120762", "network:wikipedia": "fr:V\u00e9lib' M\u00e9tropole", "operator": "Smovengo", "operator:wikidata": "Q47008427", "operator:wikipedia": "fr:Smovengo", "ref": "16103", "source": "Autolib Velib M\u00e9tropole - 04/2019", "wikidata": "Q86238815"}}, {"type": "node", "id": 6424116487, "lat": 48.890766, "lon": 2.29493, "tags": {"amenity": "bicycle_rental", "bicycle_rental": "docking_station", "brand": "V\u00e9lib\u2019 M\u00e9tropole", "brand:wikidata": "Q1120762", "brand:wikipedia": "fr:V\u00e9lib' M\u00e9tropole", "capacity": "25", "level": "0", "name": "Jules Guesde - Alsace", "network": "V\u00e9lib\u2019 M\u00e9tropole", "network:wikidata": "Q1120762", "network:wikipedia": "fr:V\u00e9lib' M\u00e9tropole", "operator": "Smovengo", "operator:wikidata": "Q47008427", "operator:wikipedia": "fr:Smovengo", "ref": "23006", "survey:date": "2020-06-09", "wikidata": "Q86255906"}}, {"type": "node", "id": 6424125235, "lat": 48.8635604, "lon": 2.2863683, "tags": {"amenity": "bicycle_rental", "bicycle_rental": "docking_station", "capacity": "24", "name": "Eylau - Trocad\u00e9ro", "network": "V\u00e9lib\u2019", "operator": "Smovengo", "ref": "16014", "source": "Autolib Velib M\u00e9tropole - 2021-03", "wikidata": "Q86238759"}}, {"type": "node", "id": 6424128607, "lat": 48.8664409, "lon": 2.2857019, "tags": {"amenity": "bicycle_rental", "bicycle_rental": "docking_station", "brand": "V\u00e9lib\u2019 M\u00e9tropole", "brand:wikidata": "Q1120762", "brand:wikipedia": "fr:V\u00e9lib' M\u00e9tropole", "capacity": "17", "name": "Saint-Didier - Raymond Poincar\u00e9", "network": "V\u00e9lib\u2019 M\u00e9tropole", "network:wikidata": "Q1120762", "network:wikipedia": "fr:V\u00e9lib' M\u00e9tropole", "operator": "Smovengo", "operator:wikidata": "Q47008427", "operator:wikipedia": "fr:Smovengo", "ref": "16009", "source": "Autolib Velib M\u00e9tropole - 04/2019", "wikidata": "Q86238868"}}, {"type": "node", "id": 6424147487, "lat": 48.8885102, "lon": 2.2959297, "tags": {"amenity": "bicycle_rental", "bicycle_rental": "docking_station", "brand": "V\u00e9lib\u2019 M\u00e9tropole", "brand:wikidata": "Q1120762", "brand:wikipedia": "fr:V\u00e9lib' M\u00e9tropole", "capacity": "37", "level": "0", "name": "Reims - Raymond Pitet", "network": "V\u00e9lib\u2019 M\u00e9tropole", "network:wikidata": "Q1120762", "network:wikipedia": "fr:V\u00e9lib' M\u00e9tropole", "operator": "Smovengo", "operator:wikidata": "Q47008427", "operator:wikipedia": "fr:Smovengo", "ref": "17028", "survey:date": "2020-06-09", "wikidata": "Q86237840"}}, {"type": "node", "id": 6433048199, "lat": 48.8748336, "lon": 2.2971313, "tags": {"amenity": "bicycle_rental", "bicycle_rental": "docking_station", "brand": "V\u00e9lib\u2019 M\u00e9tropole", "brand:wikidata": "Q1120762", "brand:wikipedia": "fr:V\u00e9lib' M\u00e9tropole", "capacity": "33", "name": "Hoche - Tilsitt", "network": "V\u00e9lib\u2019 M\u00e9tropole", "network:wikidata": "Q1120762", "network:wikipedia": "fr:V\u00e9lib' M\u00e9tropole", "operator": "Smovengo", "operator:wikidata": "Q47008427", "operator:wikipedia": "fr:Smovengo", "ref": "8057", "source": "Autolib Velib M\u00e9tropole - 04/2019", "wikidata": "Q86255318"}}, {"type": "node", "id": 6433138032, "lat": 48.8734479, "lon": 2.2978151, "tags": {"amenity": "bicycle_rental", "bicycle_rental": "docking_station", "brand": "V\u00e9lib\u2019 M\u00e9tropole", "brand:wikidata": "Q1120762", "brand:wikipedia": "fr:V\u00e9lib' M\u00e9tropole", "capacity": "29", "name": "Ars\u00e8ne Houssaye - Champs-Elys\u00e9es", "network": "V\u00e9lib\u2019 M\u00e9tropole", "network:wikidata": "Q1120762", "network:wikipedia": "fr:V\u00e9lib' M\u00e9tropole", "operator": "Smovengo", "operator:wikidata": "Q47008427", "operator:wikipedia": "fr:Smovengo", "ref": "8028", "source": "Autolib Velib M\u00e9tropole - 04/2019", "wikidata": "Q86255251"}}, {"type": "node", "id": 6433145045, "lat": 48.8753651, "lon": 2.296617, "tags": {"amenity": "bicycle_rental", "bicycle_rental": "docking_station", "brand": "V\u00e9lib\u2019 M\u00e9tropole", "brand:wikidata": "Q1120762", "brand:wikipedia": "fr:V\u00e9lib' M\u00e9tropole", "capacity": "29", "name": "Beaujon - Wagram", "network": "V\u00e9lib\u2019 M\u00e9tropole", "network:wikidata": "Q1120762", "network:wikipedia": "fr:V\u00e9lib' M\u00e9tropole", "operator": "Smovengo", "operator:wikidata": "Q47008427", "operator:wikipedia": "fr:Smovengo", "ref": "8056", "source": "Autolib Velib M\u00e9tropole - 04/2019", "wikidata": "Q86255262"}}, {"type": "node", "id": 6433157196, "lat": 48.8754708, "lon": 2.2937604, "tags": {"amenity": "bicycle_rental", "capacity": "33", "name": "Carnot - G\u00e9n\u00e9ral Lanrezac", "network": "V\u00e9lib\u2019", "operator": "Smovengo", "ref": "17033", "source": "Autolib Velib M\u00e9tropole - 2021-03", "wikidata": "Q86252070"}}, {"type": "node", "id": 6549488949, "lat": 48.8762106, "lon": 2.3198369, "tags": {"amenity": "bicycle_rental", "bicycle_rental": "docking_station", "brand": "V\u00e9lib\u2019 M\u00e9tropole", "brand:wikidata": "Q1120762", "brand:wikipedia": "fr:V\u00e9lib' M\u00e9tropole", "capacity": "31", "fee": "yes", "name": "Saint-Augustin", "network": "V\u00e9lib\u2019 M\u00e9tropole", "network:wikidata": "Q1120762", "network:wikipedia": "fr:V\u00e9lib' M\u00e9tropole", "opening_hours": "24/7", "operator": "Smovengo", "operator:wikidata": "Q47008427", "operator:wikipedia": "fr:Smovengo", "payment:debit_cards": "yes", "ref": "8018", "source": "Autolib Velib M\u00e9tropole - 04/2020", "wikidata": "Q86255330"}}, {"type": "node", "id": 6871778503, "lat": 48.8695192, "lon": 2.3024203, "tags": {"amenity": "bicycle_rental", "bicycle_rental": "docking_station", "brand": "V\u00e9lib\u2019 M\u00e9tropole", "brand:wikidata": "Q1120762", "brand:wikipedia": "fr:V\u00e9lib' M\u00e9tropole", "capacity": "31", "name": "Fran\u00e7ois 1er - Lincoln", "network": "V\u00e9lib\u2019 M\u00e9tropole", "network:wikidata": "Q1120762", "network:wikipedia": "fr:V\u00e9lib' M\u00e9tropole", "operator": "Smovengo", "operator:wikidata": "Q47008427", "operator:wikipedia": "fr:Smovengo", "ref": "8105", "source": "Autolib Velib M\u00e9tropole - 04/2020", "wikidata": "Q86255328"}}, {"type": "node", "id": 7284781836, "lat": 48.8842912, "lon": 2.3055055, "tags": {"amenity": "bicycle_rental", "bicycle_rental": "docking_station", "brand": "V\u00e9lib\u2019 M\u00e9tropole", "brand:wikidata": "Q1120762", "brand:wikipedia": "fr:V\u00e9lib' M\u00e9tropole", "capacity": "34", "name": "Jouffroy d'Abbans - Villiers", "network": "V\u00e9lib\u2019 M\u00e9tropole", "network:wikidata": "Q1120762", "network:wikipedia": "fr:V\u00e9lib' M\u00e9tropole", "operator": "Smovengo", "operator:wikidata": "Q47008427", "operator:wikipedia": "fr:Smovengo", "ref": "17021", "source": "Survey", "wikidata": "Q86238295"}}, {"type": "node", "id": 7366607226, "lat": 48.8581047, "lon": 2.3004074, "tags": {"amenity": "bicycle_rental", "bicycle_rental": "docking_station", "brand": "V\u00e9lib\u2019 M\u00e9tropole", "brand:wikidata": "Q1120762", "brand:wikipedia": "fr:V\u00e9lib' M\u00e9tropole", "capacity": "31", "name": "Rapp - Place du G\u00e9n\u00e9ral Gouraud", "network": "V\u00e9lib\u2019 M\u00e9tropole", "network:wikidata": "Q1120762", "network:wikipedia": "fr:V\u00e9lib' M\u00e9tropole", "operator": "Smovengo", "operator:wikidata": "Q47008427", "operator:wikipedia": "fr:Smovengo", "ref": "7024", "source": "Autolib Velib M\u00e9tropole - 2021-03", "wikidata": "Q86252437"}}, {"type": "node", "id": 7366607227, "lat": 48.8608971, "lon": 2.2955997, "tags": {"amenity": "bicycle_rental", "bicycle_rental": "docking_station", "brand": "V\u00e9lib\u2019 M\u00e9tropole", "brand:wikidata": "Q1120762", "brand:wikipedia": "fr:V\u00e9lib' M\u00e9tropole", "capacity": "60", "name": "Bourdonnais - Tour Eiffel", "network": "V\u00e9lib\u2019 M\u00e9tropole", "network:wikidata": "Q1120762", "network:wikipedia": "fr:V\u00e9lib' M\u00e9tropole", "operator": "Smovengo", "operator:wikidata": "Q47008427", "operator:wikipedia": "fr:Smovengo", "ref": "7023", "source": "Autolib Velib M\u00e9tropole - 2021-03", "wheelchair": "yes", "wikidata": "Q86252374"}}, {"type": "node", "id": 7366607228, "lat": 48.8586517, "lon": 2.3037166, "tags": {"amenity": "bicycle_rental", "bicycle_rental": "docking_station", "brand": "V\u00e9lib\u2019 M\u00e9tropole", "brand:wikidata": "Q1120762", "brand:wikipedia": "fr:V\u00e9lib' M\u00e9tropole", "capacity": "28", "name": "Bosquet - Saint-Dominique", "network": "V\u00e9lib\u2019 M\u00e9tropole", "network:wikidata": "Q1120762", "network:wikipedia": "fr:V\u00e9lib' M\u00e9tropole", "operator": "Smovengo", "operator:wikidata": "Q47008427", "operator:wikipedia": "fr:Smovengo", "ref": "7021", "source": "Autolib Velib M\u00e9tropole - 04/2019", "wikidata": "Q86252415"}}, {"type": "node", "id": 7366607229, "lat": 48.8566742, "lon": 2.3066523, "tags": {"amenity": "bicycle_rental", "bicycle_rental": "docking_station", "brand": "V\u00e9lib\u2019 M\u00e9tropole", "brand:wikidata": "Q1120762", "brand:wikipedia": "fr:V\u00e9lib' M\u00e9tropole", "capacity": "41", "name": "Champ de Mars - Cler", "network": "V\u00e9lib\u2019 M\u00e9tropole", "network:wikidata": "Q1120762", "network:wikipedia": "fr:V\u00e9lib' M\u00e9tropole", "operator": "Smovengo", "operator:wikidata": "Q47008427", "operator:wikipedia": "fr:Smovengo", "ref": "7020", "source": "Autolib Velib M\u00e9tropole - 04/2019", "wikidata": "Q86252351"}}, {"type": "node", "id": 7366607231, "lat": 48.861273, "lon": 2.3094536, "tags": {"amenity": "bicycle_rental", "bicycle_rental": "docking_station", "brand": "V\u00e9lib\u2019 M\u00e9tropole", "brand:wikidata": "Q1120762", "brand:wikipedia": "fr:V\u00e9lib' M\u00e9tropole", "capacity": "58", "name": "Surcouf - Universit\u00e9", "network": "V\u00e9lib\u2019 M\u00e9tropole", "network:wikidata": "Q1120762", "network:wikipedia": "fr:V\u00e9lib' M\u00e9tropole", "operator": "Smovengo", "operator:wikidata": "Q47008427", "operator:wikipedia": "fr:Smovengo", "ref": "7016", "source": "Autolib Velib M\u00e9tropole - 04/2019", "wikidata": "Q86252360"}}, {"type": "node", "id": 7366607232, "lat": 48.8624083, "lon": 2.3113624, "tags": {"amenity": "bicycle_rental", "bicycle_rental": "docking_station", "brand": "V\u00e9lib\u2019 M\u00e9tropole", "brand:wikidata": "Q1120762", "brand:wikipedia": "fr:V\u00e9lib' M\u00e9tropole", "capacity": "25", "name": "Place de Finlande", "network": "V\u00e9lib\u2019 M\u00e9tropole", "network:wikidata": "Q1120762", "network:wikipedia": "fr:V\u00e9lib' M\u00e9tropole", "operator": "Smovengo", "operator:wikidata": "Q47008427", "operator:wikipedia": "fr:Smovengo", "ref": "7026", "source": "Autolib Velib M\u00e9tropole - 04/2019", "wikidata": "Q86252390"}}, {"type": "node", "id": 7366621207, "lat": 48.8578644, "lon": 2.3192493, "tags": {"amenity": "bicycle_rental", "bicycle_rental": "docking_station", "brand": "V\u00e9lib\u2019 M\u00e9tropole", "brand:wikidata": "Q1120762", "brand:wikipedia": "fr:V\u00e9lib' M\u00e9tropole", "capacity": "27", "name": "Mairie du 7\u00e8me", "network": "V\u00e9lib\u2019 M\u00e9tropole", "network:wikidata": "Q1120762", "network:wikipedia": "fr:V\u00e9lib' M\u00e9tropole", "operator": "Smovengo", "operator:wikidata": "Q47008427", "operator:wikipedia": "fr:Smovengo", "ref": "7102", "source": "Autolib Velib M\u00e9tropole - 04/2019", "wikidata": "Q86252378"}}, {"type": "node", "id": 7366621208, "lat": 48.861411, "lon": 2.3201214, "tags": {"amenity": "bicycle_rental", "bicycle_rental": "docking_station", "brand": "V\u00e9lib\u2019 M\u00e9tropole", "brand:wikidata": "Q1120762", "brand:wikipedia": "fr:V\u00e9lib' M\u00e9tropole", "capacity": "63", "name": "Assembl\u00e9e Nationale", "network": "V\u00e9lib\u2019 M\u00e9tropole", "network:wikidata": "Q1120762", "network:wikipedia": "fr:V\u00e9lib' M\u00e9tropole", "operator": "Smovengo", "operator:wikidata": "Q47008427", "operator:wikipedia": "fr:Smovengo", "ref": "7009", "source": "Autolib Velib M\u00e9tropole - 04/2020", "wikidata": "Q86252408"}}, {"type": "node", "id": 7366637099, "lat": 48.8568021, "lon": 2.3094714, "tags": {"amenity": "bicycle_rental", "bicycle_rental": "docking_station", "brand": "V\u00e9lib\u2019 M\u00e9tropole", "brand:wikidata": "Q1120762", "brand:wikipedia": "fr:V\u00e9lib' M\u00e9tropole", "capacity": "40", "name": "La Motte-Picquet - La Tour Maubourg", "network": "V\u00e9lib\u2019 M\u00e9tropole", "network:wikidata": "Q1120762", "network:wikipedia": "fr:V\u00e9lib' M\u00e9tropole", "operator": "Smovengo", "operator:wikidata": "Q47008427", "operator:wikipedia": "fr:Smovengo", "ref": "7017", "source": "Autolib Velib M\u00e9tropole - 04/2019", "wikidata": "Q86252411"}}, {"type": "node", "id": 7366662324, "lat": 48.856503, "lon": 2.2931788, "tags": {"amenity": "bicycle_rental", "bicycle_rental": "docking_station", "brand": "V\u00e9lib\u2019 M\u00e9tropole", "brand:wikidata": "Q1120762", "brand:wikipedia": "fr:V\u00e9lib' M\u00e9tropole", "capacity": "33", "name": "Octave Gr\u00e9ard - Tour Eiffel", "network": "V\u00e9lib\u2019 M\u00e9tropole", "network:wikidata": "Q1120762", "network:wikipedia": "fr:V\u00e9lib' M\u00e9tropole", "operator": "Smovengo", "operator:wikidata": "Q47008427", "operator:wikipedia": "fr:Smovengo", "ref": "7025", "source": "Autolib Velib M\u00e9tropole - 2021-03", "wheelchair": "no", "wikidata": "Q86252392"}}, {"type": "node", "id": 7368440033, "lat": 48.8904038, "lon": 2.2701063, "tags": {"amenity": "bicycle_rental", "bicycle_rental": "docking_station", "brand": "V\u00e9lib\u2019 M\u00e9tropole", "brand:wikidata": "Q1120762", "brand:wikipedia": "fr:V\u00e9lib' M\u00e9tropole", "capacity": "23", "name": "Ch\u00e2teau - Bineau", "network": "V\u00e9lib\u2019 M\u00e9tropole", "network:wikidata": "Q1120762", "network:wikipedia": "fr:V\u00e9lib' M\u00e9tropole", "operator": "Smovengo", "operator:wikidata": "Q47008427", "operator:wikipedia": "fr:Smovengo", "ref": "22001", "source": "Autolib Velib M\u00e9tropole - 04/2019", "wikidata": "Q86255894"}}, {"type": "node", "id": 7368440034, "lat": 48.8875823, "lon": 2.278389, "tags": {"amenity": "bicycle_rental", "bicycle_rental": "docking_station", "brand": "V\u00e9lib\u2019 M\u00e9tropole", "brand:wikidata": "Q1120762", "brand:wikipedia": "fr:V\u00e9lib' M\u00e9tropole", "capacity": "25", "name": "Victor Hugo - Bineau", "network": "V\u00e9lib\u2019 M\u00e9tropole", "network:wikidata": "Q1120762", "network:wikipedia": "fr:V\u00e9lib' M\u00e9tropole", "operator": "Smovengo", "operator:wikidata": "Q47008427", "operator:wikipedia": "fr:Smovengo", "ref": "22014", "source": "Autolib Velib M\u00e9tropole - 04/2019", "wikidata": "Q86255885"}}, {"type": "node", "id": 7368440035, "lat": 48.8866691, "lon": 2.2840049, "tags": {"amenity": "bicycle_rental", "bicycle_rental": "docking_station", "brand": "V\u00e9lib\u2019 M\u00e9tropole", "brand:wikidata": "Q1120762", "brand:wikipedia": "fr:V\u00e9lib' M\u00e9tropole", "capacity": "25", "name": "Bineau - Louise Michel", "network": "V\u00e9lib\u2019 M\u00e9tropole", "network:wikidata": "Q1120762", "network:wikipedia": "fr:V\u00e9lib' M\u00e9tropole", "operator": "Smovengo", "operator:wikidata": "Q47008427", "operator:wikipedia": "fr:Smovengo", "ref": "23011", "source": "Autolib Velib M\u00e9tropole - 04/2019", "wikidata": "Q86255909"}}, {"type": "node", "id": 7368440036, "lat": 48.8865547, "lon": 2.2886405, "tags": {"amenity": "bicycle_rental", "bicycle_rental": "docking_station", "brand": "V\u00e9lib\u2019 M\u00e9tropole", "brand:wikidata": "Q1120762", "brand:wikipedia": "fr:V\u00e9lib' M\u00e9tropole", "capacity": "21", "check_date": "2022-12-24", "name": "Jean Oestreicher - Porte de Champerret", "network": "V\u00e9lib\u2019 M\u00e9tropole", "network:wikidata": "Q1120762", "network:wikipedia": "fr:V\u00e9lib' M\u00e9tropole", "operator": "Smovengo", "operator:wikidata": "Q47008427", "operator:wikipedia": "fr:Smovengo", "ref": "17032", "source": "Autolib Velib M\u00e9tropole - 04/2019", "wikidata": "Q86237867"}}, {"type": "node", "id": 7368440037, "lat": 48.8887329, "lon": 2.2881577, "tags": {"amenity": "bicycle_rental", "bicycle_rental": "docking_station", "brand": "V\u00e9lib\u2019 M\u00e9tropole", "brand:wikidata": "Q1120762", "brand:wikipedia": "fr:V\u00e9lib' M\u00e9tropole", "capacity": "50", "name": "Anatole France - Louise Michel", "network": "V\u00e9lib\u2019 M\u00e9tropole", "network:wikidata": "Q1120762", "network:wikipedia": "fr:V\u00e9lib' M\u00e9tropole", "operator": "Smovengo", "operator:wikidata": "Q47008427", "operator:wikipedia": "fr:Smovengo", "ref": "23009", "source": "Autolib Velib M\u00e9tropole - 04/2019", "wikidata": "Q86255898"}}, {"type": "node", "id": 7368440040, "lat": 48.8903405, "lon": 2.2920683, "tags": {"amenity": "bicycle_rental", "bicycle_rental": "docking_station", "brand": "V\u00e9lib\u2019 M\u00e9tropole", "brand:wikidata": "Q1120762", "brand:wikipedia": "fr:V\u00e9lib' M\u00e9tropole", "capacity": "27", "name": "Pr\u00e9sident Wilson - Jean Jaur\u00e8s", "network": "V\u00e9lib\u2019 M\u00e9tropole", "network:wikidata": "Q1120762", "network:wikipedia": "fr:V\u00e9lib' M\u00e9tropole", "operator": "Smovengo", "operator:wikidata": "Q47008427", "operator:wikipedia": "fr:Smovengo", "ref": "23007", "source": "Autolib Velib M\u00e9tropole - 04/2019", "wikidata": "Q86255910"}}, {"type": "node", "id": 7368469124, "lat": 48.8779106, "lon": 2.2789626, "tags": {"amenity": "bicycle_rental", "bicycle_rental": "docking_station", "brand": "V\u00e9lib\u2019 M\u00e9tropole", "brand:wikidata": "Q1120762", "brand:wikipedia": "fr:V\u00e9lib' M\u00e9tropole", "capacity": "29", "name": "Andr\u00e9 Maurois - Joseph et Marie Hackin", "network": "V\u00e9lib\u2019 M\u00e9tropole", "network:wikidata": "Q1120762", "network:wikipedia": "fr:V\u00e9lib' M\u00e9tropole", "operator": "Smovengo", "operator:wikidata": "Q47008427", "operator:wikipedia": "fr:Smovengo", "ref": "16003", "source": "Autolib Velib M\u00e9tropole - 04/2019", "wikidata": "Q86238747"}}, {"type": "node", "id": 7368469125, "lat": 48.8787727, "lon": 2.2707722, "tags": {"amenity": "bicycle_rental", "bicycle_rental": "docking_station", "brand": "V\u00e9lib\u2019 M\u00e9tropole", "brand:wikidata": "Q1120762", "brand:wikipedia": "fr:V\u00e9lib' M\u00e9tropole", "capacity": "33", "name": "Jardin d'Acclimatation", "network": "V\u00e9lib\u2019 M\u00e9tropole", "network:wikidata": "Q1120762", "network:wikipedia": "fr:V\u00e9lib' M\u00e9tropole", "operator": "Smovengo", "operator:wikidata": "Q47008427", "operator:wikipedia": "fr:Smovengo", "ref": "16121", "source": "Autolib Velib M\u00e9tropole - 2022-02", "wikidata": "Q86238550"}}, {"type": "node", "id": 7368469126, "lat": 48.8809223, "lon": 2.2715816, "tags": {"amenity": "bicycle_rental", "bicycle_rental": "docking_station", "brand": "V\u00e9lib\u2019 M\u00e9tropole", "brand:wikidata": "Q1120762", "brand:wikipedia": "fr:V\u00e9lib' M\u00e9tropole", "capacity": "26", "name": "Charles de Gaulle - Orl\u00e9ans", "network": "V\u00e9lib\u2019 M\u00e9tropole", "network:wikidata": "Q1120762", "network:wikipedia": "fr:V\u00e9lib' M\u00e9tropole", "operator": "Smovengo", "operator:wikidata": "Q47008427", "operator:wikipedia": "fr:Smovengo", "ref": "22009", "source": "Autolib Velib M\u00e9tropole - 04/2019", "wikidata": "Q86255890"}}, {"type": "node", "id": 7368469127, "lat": 48.8816223, "lon": 2.2712829, "tags": {"amenity": "bicycle_rental", "bicycle_rental": "docking_station", "brand": "V\u00e9lib\u2019 M\u00e9tropole", "brand:wikidata": "Q1120762", "brand:wikipedia": "fr:V\u00e9lib' M\u00e9tropole", "capacity": "28", "name": "Charles de Gaulle - Louis Philippe", "network": "V\u00e9lib\u2019 M\u00e9tropole", "network:wikidata": "Q1120762", "network:wikipedia": "fr:V\u00e9lib' M\u00e9tropole", "operator": "Smovengo", "operator:wikidata": "Q47008427", "operator:wikipedia": "fr:Smovengo", "ref": "22017", "source": "Autolib Velib M\u00e9tropole - 04/2019", "wikidata": "Q86255897"}}, {"type": "node", "id": 7368469128, "lat": 48.8799263, "lon": 2.2764127, "tags": {"amenity": "bicycle_rental", "bicycle_rental": "docking_station", "brand": "V\u00e9lib\u2019 M\u00e9tropole", "brand:wikidata": "Q1120762", "brand:wikipedia": "fr:V\u00e9lib' M\u00e9tropole", "capacity": "26", "name": "Charles de Gaulle - Sablonville", "network": "V\u00e9lib\u2019 M\u00e9tropole", "network:wikidata": "Q1120762", "network:wikipedia": "fr:V\u00e9lib' M\u00e9tropole", "operator": "Smovengo", "operator:wikidata": "Q47008427", "operator:wikipedia": "fr:Smovengo", "ref": "22016", "source": "Autolib Velib M\u00e9tropole - 04/2019", "wikidata": "Q86255887"}}, {"type": "node", "id": 7368469129, "lat": 48.8827721, "lon": 2.2774345, "tags": {"amenity": "bicycle_rental", "bicycle_rental": "docking_station", "brand": "V\u00e9lib\u2019 M\u00e9tropole", "brand:wikidata": "Q1120762", "brand:wikipedia": "fr:V\u00e9lib' M\u00e9tropole", "capacity": "25", "check_date": "2023-01-21", "name": "Madeleine Michelis - Roule", "network": "V\u00e9lib\u2019 M\u00e9tropole", "network:wikidata": "Q1120762", "network:wikipedia": "fr:V\u00e9lib' M\u00e9tropole", "operator": "Smovengo", "operator:wikidata": "Q47008427", "operator:wikipedia": "fr:Smovengo", "ref": "22012", "source": "Autolib Velib M\u00e9tropole - 04/2019", "wikidata": "Q86255895"}}, {"type": "node", "id": 7368469130, "lat": 48.8835059, "lon": 2.2820311, "tags": {"amenity": "bicycle_rental", "bicycle_rental": "docking_station", "brand": "V\u00e9lib\u2019 M\u00e9tropole", "brand:wikidata": "Q1120762", "brand:wikipedia": "fr:V\u00e9lib' M\u00e9tropole", "capacity": "42", "name": "Place Madeleine Dani\u00e9lou", "network": "V\u00e9lib\u2019 M\u00e9tropole", "network:wikidata": "Q1120762", "network:wikipedia": "fr:V\u00e9lib' M\u00e9tropole", "operator": "Smovengo", "operator:wikidata": "Q47008427", "operator:wikipedia": "fr:Smovengo", "ref": "17105", "source": "Autolib Velib M\u00e9tropole - 04/2019", "wikidata": "Q86237837"}}, {"type": "node", "id": 7368517555, "lat": 48.8713608, "lon": 2.2886846, "tags": {"amenity": "bicycle_rental", "bicycle_rental": "docking_station", "brand": "V\u00e9lib\u2019 M\u00e9tropole", "brand:wikidata": "Q1120762", "brand:wikipedia": "fr:V\u00e9lib' M\u00e9tropole", "capacity": "35", "name": "Paul Valery - Victor Hugo", "network": "V\u00e9lib\u2019 M\u00e9tropole", "network:wikidata": "Q1120762", "network:wikipedia": "fr:V\u00e9lib' M\u00e9tropole", "operator": "Smovengo", "operator:wikidata": "Q47008427", "operator:wikipedia": "fr:Smovengo", "ref": "16104", "source": "Autolib Velib M\u00e9tropole - 04/2019", "wikidata": "Q86238590"}}, {"type": "node", "id": 7368517556, "lat": 48.8752109, "lon": 2.2842782, "tags": {"amenity": "bicycle_rental", "bicycle_rental": "docking_station", "brand": "V\u00e9lib\u2019 M\u00e9tropole", "brand:wikidata": "Q1120762", "brand:wikipedia": "fr:V\u00e9lib' M\u00e9tropole", "capacity": "38", "name": "Pergol\u00e8se - Malakoff", "network": "V\u00e9lib\u2019 M\u00e9tropole", "network:wikidata": "Q1120762", "network:wikipedia": "fr:V\u00e9lib' M\u00e9tropole", "operator": "Smovengo", "operator:wikidata": "Q47008427", "operator:wikipedia": "fr:Smovengo", "ref": "16002", "source": "Autolib Velib M\u00e9tropole - 04/2020", "wikidata": "Q86238848"}}, {"type": "node", "id": 7368517557, "lat": 48.87673, "lon": 2.2834456, "tags": {"amenity": "bicycle_rental", "capacity": "31", "name": "Malakoff - Place de la Porte Maillot", "network": "V\u00e9lib\u2019", "operator": "Smovengo", "ref": "16101", "source": "Autolib Velib M\u00e9tropole - 2021-03", "wikidata": "Q86238721"}}, {"type": "node", "id": 7368517558, "lat": 48.8658118, "lon": 2.2829447, "tags": {"amenity": "bicycle_rental", "bicycle_rental": "docking_station", "brand": "V\u00e9lib\u2019 M\u00e9tropole", "brand:wikidata": "Q1120762", "brand:wikipedia": "fr:V\u00e9lib' M\u00e9tropole", "capacity": "23", "name": "Belles Feuilles - Place de Mexico", "network": "V\u00e9lib\u2019 M\u00e9tropole", "network:wikidata": "Q1120762", "network:wikipedia": "fr:V\u00e9lib' M\u00e9tropole", "operator": "Smovengo", "operator:wikidata": "Q47008427", "operator:wikipedia": "fr:Smovengo", "ref": "16010", "source": "Autolib Velib M\u00e9tropole - 04/2019", "wikidata": "Q86238540"}}, {"type": "node", "id": 7368517559, "lat": 48.865983, "lon": 2.275725, "tags": {"amenity": "bicycle_rental", "bicycle_rental": "docking_station", "brand": "V\u00e9lib\u2019 M\u00e9tropole", "brand:wikidata": "Q1120762", "brand:wikipedia": "fr:V\u00e9lib' M\u00e9tropole", "capacity": "35", "name": "Benjamin Godard - Victor Hugo", "network": "V\u00e9lib\u2019 M\u00e9tropole", "network:wikidata": "Q1120762", "network:wikipedia": "fr:V\u00e9lib' M\u00e9tropole", "operator": "Smovengo", "operator:wikidata": "Q47008427", "operator:wikipedia": "fr:Smovengo", "ref": "16107", "source": "Autolib Velib M\u00e9tropole - 04/2019", "wikidata": "Q86238732"}}, {"type": "node", "id": 7368517560, "lat": 48.8639374, "lon": 2.2765954, "tags": {"amenity": "bicycle_rental", "bicycle_rental": "docking_station", "brand": "V\u00e9lib\u2019 M\u00e9tropole", "brand:wikidata": "Q1120762", "brand:wikipedia": "fr:V\u00e9lib' M\u00e9tropole", "capacity": "35", "name": "Mairie du 16\u00e8me", "network": "V\u00e9lib\u2019 M\u00e9tropole", "network:wikidata": "Q1120762", "network:wikipedia": "fr:V\u00e9lib' M\u00e9tropole", "operator": "Smovengo", "operator:wikidata": "Q47008427", "operator:wikipedia": "fr:Smovengo", "ref": "16013", "source": "Autolib Velib M\u00e9tropole - 04/2019", "wikidata": "Q86238726"}}, {"type": "node", "id": 7368517561, "lat": 48.8630219, "lon": 2.2687187, "tags": {"amenity": "bicycle_rental", "bicycle_rental": "docking_station", "brand": "V\u00e9lib\u2019 M\u00e9tropole", "brand:wikidata": "Q1120762", "brand:wikipedia": "fr:V\u00e9lib' M\u00e9tropole", "capacity": "36", "name": "Porte de la Muette", "network": "V\u00e9lib\u2019 M\u00e9tropole", "network:wikidata": "Q1120762", "network:wikipedia": "fr:V\u00e9lib' M\u00e9tropole", "operator": "Smovengo", "operator:wikidata": "Q47008427", "operator:wikipedia": "fr:Smovengo", "ref": "16019", "source": "Autolib Velib M\u00e9tropole - 04/2019", "wikidata": "Q86238648"}}, {"type": "node", "id": 7368517562, "lat": 48.8601161, "lon": 2.2808405, "tags": {"amenity": "bicycle_rental", "bicycle_rental": "docking_station", "brand": "V\u00e9lib\u2019 M\u00e9tropole", "brand:wikidata": "Q1120762", "brand:wikipedia": "fr:V\u00e9lib' M\u00e9tropole", "capacity": "34", "name": "Paul Doumer - La Tour", "network": "V\u00e9lib\u2019 M\u00e9tropole", "network:wikidata": "Q1120762", "network:wikipedia": "fr:V\u00e9lib' M\u00e9tropole", "operator": "Smovengo", "operator:wikidata": "Q47008427", "operator:wikipedia": "fr:Smovengo", "ref": "16016", "source": "Autolib Velib M\u00e9tropole - 04/2019", "wikidata": "Q86238713"}}, {"type": "node", "id": 7368517563, "lat": 48.8617203, "lon": 2.2753466, "tags": {"amenity": "bicycle_rental", "bicycle_rental": "docking_station", "brand": "V\u00e9lib\u2019 M\u00e9tropole", "brand:wikidata": "Q1120762", "brand:wikipedia": "fr:V\u00e9lib' M\u00e9tropole", "capacity": "16", "name": "Siam - La Pompe", "network": "V\u00e9lib\u2019 M\u00e9tropole", "network:wikidata": "Q1120762", "network:wikipedia": "fr:V\u00e9lib' M\u00e9tropole", "operator": "Smovengo", "operator:wikidata": "Q47008427", "operator:wikipedia": "fr:Smovengo", "ref": "16017", "source": "Autolib Velib M\u00e9tropole - 04/2019", "wikidata": "Q86238789"}}, {"type": "node", "id": 7368517564, "lat": 48.861069, "lon": 2.2730283, "tags": {"amenity": "bicycle_rental", "bicycle_rental": "docking_station", "brand": "V\u00e9lib\u2019 M\u00e9tropole", "brand:wikidata": "Q1120762", "brand:wikipedia": "fr:V\u00e9lib' M\u00e9tropole", "capacity": "21", "name": "Octave Feuillet - Alb\u00e9ric Magnard", "network": "V\u00e9lib\u2019 M\u00e9tropole", "network:wikidata": "Q1120762", "network:wikipedia": "fr:V\u00e9lib' M\u00e9tropole", "operator": "Smovengo", "operator:wikidata": "Q47008427", "operator:wikipedia": "fr:Smovengo", "ref": "16110", "source": "Autolib Velib M\u00e9tropole - 04/2019", "wikidata": "Q86238615"}}, {"type": "node", "id": 7368517565, "lat": 48.859403, "lon": 2.276522, "tags": {"amenity": "bicycle_rental", "bicycle_rental": "docking_station", "brand": "V\u00e9lib\u2019 M\u00e9tropole", "brand:wikidata": "Q1120762", "brand:wikipedia": "fr:V\u00e9lib' M\u00e9tropole", "capacity": "33", "name": "Faustin H\u00e9lie - Desbordes-Valmore", "network": "V\u00e9lib\u2019 M\u00e9tropole", "network:wikidata": "Q1120762", "network:wikipedia": "fr:V\u00e9lib' M\u00e9tropole", "operator": "Smovengo", "operator:wikidata": "Q47008427", "operator:wikipedia": "fr:Smovengo", "ref": "16111", "source": "Autolib Velib M\u00e9tropole - 04/2019", "wikidata": "Q86238524"}}, {"type": "node", "id": 7368517566, "lat": 48.8583728, "lon": 2.2744019, "tags": {"amenity": "bicycle_rental", "bicycle_rental": "docking_station", "brand": "V\u00e9lib\u2019 M\u00e9tropole", "brand:wikidata": "Q1120762", "brand:wikipedia": "fr:V\u00e9lib' M\u00e9tropole", "capacity": "23", "name": "Fran\u00e7ois Ponsard - La Muette", "network": "V\u00e9lib\u2019 M\u00e9tropole", "network:wikidata": "Q1120762", "network:wikipedia": "fr:V\u00e9lib' M\u00e9tropole", "operator": "Smovengo", "operator:wikidata": "Q47008427", "operator:wikipedia": "fr:Smovengo", "ref": "16021", "source": "Autolib Velib M\u00e9tropole - 04/2019", "wikidata": "Q86238556"}}, {"type": "node", "id": 7368517567, "lat": 48.8578033, "lon": 2.2775004, "tags": {"amenity": "bicycle_rental", "bicycle_rental": "docking_station", "brand": "V\u00e9lib\u2019 M\u00e9tropole", "brand:wikidata": "Q1120762", "brand:wikipedia": "fr:V\u00e9lib' M\u00e9tropole", "capacity": "15", "name": "Place de Passy", "network": "V\u00e9lib\u2019 M\u00e9tropole", "network:wikidata": "Q1120762", "network:wikipedia": "fr:V\u00e9lib' M\u00e9tropole", "operator": "Smovengo", "operator:wikidata": "Q47008427", "operator:wikipedia": "fr:Smovengo", "ref": "16043", "source": "Autolib Velib M\u00e9tropole - 04/2019", "wikidata": "Q86238854"}}, {"type": "node", "id": 7368517568, "lat": 48.8575668, "lon": 2.2800274, "tags": {"amenity": "bicycle_rental", "bicycle_rental": "docking_station", "brand": "V\u00e9lib\u2019 M\u00e9tropole", "brand:wikidata": "Q1120762", "brand:wikipedia": "fr:V\u00e9lib' M\u00e9tropole", "capacity": "19", "name": "Jean Bologne - Passy", "network": "V\u00e9lib\u2019 M\u00e9tropole", "network:wikidata": "Q1120762", "network:wikipedia": "fr:V\u00e9lib' M\u00e9tropole", "operator": "Smovengo", "operator:wikidata": "Q47008427", "operator:wikipedia": "fr:Smovengo", "ref": "16022", "source": "Autolib Velib M\u00e9tropole - 04/2020", "wikidata": "Q86234639"}}, {"type": "node", "id": 7368517569, "lat": 48.8583622, "lon": 2.2840254, "tags": {"amenity": "bicycle_rental", "bicycle_rental": "docking_station", "brand": "V\u00e9lib\u2019 M\u00e9tropole", "brand:wikidata": "Q1120762", "brand:wikipedia": "fr:V\u00e9lib' M\u00e9tropole", "capacity": "33", "name": "Passy - Place du Costa Rica", "network": "V\u00e9lib\u2019 M\u00e9tropole", "network:wikidata": "Q1120762", "network:wikipedia": "fr:V\u00e9lib' M\u00e9tropole", "operator": "Smovengo", "operator:wikidata": "Q47008427", "operator:wikipedia": "fr:Smovengo", "ref": "16023", "source": "Autolib Velib M\u00e9tropole - 04/2019", "wikidata": "Q86238795"}}, {"type": "node", "id": 7368517570, "lat": 48.856987, "lon": 2.2821732, "tags": {"amenity": "bicycle_rental", "bicycle_rental": "docking_station", "brand": "V\u00e9lib\u2019 M\u00e9tropole", "brand:wikidata": "Q1120762", "brand:wikipedia": "fr:V\u00e9lib' M\u00e9tropole", "capacity": "37", "name": "Chernoviz - Raynouard", "network": "V\u00e9lib\u2019 M\u00e9tropole", "network:wikidata": "Q1120762", "network:wikipedia": "fr:V\u00e9lib' M\u00e9tropole", "operator": "Smovengo", "operator:wikidata": "Q47008427", "operator:wikipedia": "fr:Smovengo", "ref": "16112", "source": "Autolib Velib M\u00e9tropole - 04/2019", "wikidata": "Q86238576"}}, {"type": "node", "id": 7368681196, "lat": 48.8816986, "lon": 2.2836576, "tags": {"amenity": "bicycle_rental", "bicycle_rental": "docking_station", "brand": "V\u00e9lib\u2019 M\u00e9tropole", "brand:wikidata": "Q1120762", "brand:wikipedia": "fr:V\u00e9lib' M\u00e9tropole", "capacity": "22", "name": "Jardin Marguerite Long", "network": "V\u00e9lib\u2019 M\u00e9tropole", "network:wikidata": "Q1120762", "network:wikipedia": "fr:V\u00e9lib' M\u00e9tropole", "operator": "Smovengo", "operator:wikidata": "Q47008427", "operator:wikipedia": "fr:Smovengo", "ref": "17104", "source": "Autolib Velib M\u00e9tropole - 04/2019", "wikidata": "Q86238191"}}, {"type": "node", "id": 7368681197, "lat": 48.864921, "lon": 2.3025492, "tags": {"amenity": "bicycle_rental", "bicycle_rental": "docking_station", "brand": "V\u00e9lib\u2019 M\u00e9tropole", "brand:wikidata": "Q1120762", "brand:wikipedia": "fr:V\u00e9lib' M\u00e9tropole", "capacity": "58", "name": "Place de la Reine Astrid", "network": "V\u00e9lib\u2019 M\u00e9tropole", "network:wikidata": "Q1120762", "network:wikipedia": "fr:V\u00e9lib' M\u00e9tropole", "operator": "Smovengo", "operator:wikidata": "Q47008427", "operator:wikipedia": "fr:Smovengo", "ref": "8045", "source": "Autolib Velib M\u00e9tropole - 04/2019", "wikidata": "Q86255253"}}, {"type": "node", "id": 7368681198, "lat": 48.8667679, "lon": 2.3157654, "tags": {"amenity": "bicycle_rental", "bicycle_rental": "docking_station", "brand": "V\u00e9lib\u2019 M\u00e9tropole", "brand:wikidata": "Q1120762", "brand:wikipedia": "fr:V\u00e9lib' M\u00e9tropole", "capacity": "43", "name": "Petit Palais", "network": "V\u00e9lib\u2019 M\u00e9tropole", "network:wikidata": "Q1120762", "network:wikipedia": "fr:V\u00e9lib' M\u00e9tropole", "operator": "Smovengo", "operator:wikidata": "Q47008427", "operator:wikipedia": "fr:Smovengo", "ref": "8001", "source": "Autolib Velib M\u00e9tropole - 04/2019", "wikidata": "Q86255190"}}, {"type": "node", "id": 7368681199, "lat": 48.8694957, "lon": 2.3066138, "tags": {"amenity": "bicycle_rental", "bicycle_rental": "docking_station", "brand": "V\u00e9lib\u2019 M\u00e9tropole", "brand:wikidata": "Q1120762", "brand:wikipedia": "fr:V\u00e9lib' M\u00e9tropole", "capacity": "35", "name": "Marignan - Champs-Elys\u00e9es", "network": "V\u00e9lib\u2019 M\u00e9tropole", "network:wikidata": "Q1120762", "network:wikipedia": "fr:V\u00e9lib' M\u00e9tropole", "operator": "Smovengo", "operator:wikidata": "Q47008427", "operator:wikipedia": "fr:Smovengo", "ref": "8013", "source": "Autolib Velib M\u00e9tropole - 04/2020", "wikidata": "Q86255302"}}, {"type": "node", "id": 7368681200, "lat": 48.8701034, "lon": 2.3043501, "tags": {"amenity": "bicycle_rental", "bicycle_rental": "docking_station", "brand": "V\u00e9lib\u2019 M\u00e9tropole", "brand:wikidata": "Q1120762", "brand:wikipedia": "fr:V\u00e9lib' M\u00e9tropole", "capacity": "32", "name": "Pierre Charron - Champs-Elys\u00e9es", "network": "V\u00e9lib\u2019 M\u00e9tropole", "network:wikidata": "Q1120762", "network:wikipedia": "fr:V\u00e9lib' M\u00e9tropole", "operator": "Smovengo", "operator:wikidata": "Q47008427", "operator:wikipedia": "fr:Smovengo", "ref": "8040", "source": "Autolib Velib M\u00e9tropole - 04/2019", "wikidata": "Q86255320"}}, {"type": "node", "id": 7368681201, "lat": 48.8704338, "lon": 2.3011826, "tags": {"amenity": "bicycle_rental", "bicycle_rental": "docking_station", "brand": "V\u00e9lib\u2019 M\u00e9tropole", "brand:wikidata": "Q1120762", "brand:wikipedia": "fr:V\u00e9lib' M\u00e9tropole", "capacity": "24", "name": "George V - Christophe Colomb", "network": "V\u00e9lib\u2019 M\u00e9tropole", "network:wikidata": "Q1120762", "network:wikipedia": "fr:V\u00e9lib' M\u00e9tropole", "operator": "Smovengo", "operator:wikidata": "Q47008427", "operator:wikipedia": "fr:Smovengo", "ref": "8549", "source": "Autolib Velib M\u00e9tropole - 04/2019", "wikidata": "Q86255323"}}, {"type": "node", "id": 7368681202, "lat": 48.8704224, "lon": 2.3010697, "tags": {"amenity": "bicycle_rental", "bicycle_rental": "docking_station", "brand": "V\u00e9lib\u2019 M\u00e9tropole", "brand:wikidata": "Q1120762", "brand:wikipedia": "fr:V\u00e9lib' M\u00e9tropole", "capacity": "22", "name": "Georges V - Fran\u00e7ois 1er", "network": "V\u00e9lib\u2019 M\u00e9tropole", "network:wikidata": "Q1120762", "network:wikipedia": "fr:V\u00e9lib' M\u00e9tropole", "operator": "Smovengo", "operator:wikidata": "Q47008427", "operator:wikipedia": "fr:Smovengo", "ref": "8049", "source": "Autolib Velib M\u00e9tropole - 04/2019", "wikidata": "Q86255239"}}, {"type": "node", "id": 7368681203, "lat": 48.8718109, "lon": 2.3002391, "tags": {"amenity": "bicycle_rental", "bicycle_rental": "docking_station", "brand": "V\u00e9lib\u2019 M\u00e9tropole", "brand:wikidata": "Q1120762", "brand:wikipedia": "fr:V\u00e9lib' M\u00e9tropole", "capacity": "25", "name": "Champs-Elysees - Bassano", "network": "V\u00e9lib\u2019 M\u00e9tropole", "network:wikidata": "Q1120762", "network:wikipedia": "fr:V\u00e9lib' M\u00e9tropole", "operator": "Smovengo", "operator:wikidata": "Q47008427", "operator:wikipedia": "fr:Smovengo", "ref": "8116", "source": "Autolib Velib M\u00e9tropole - 04/2019", "wikidata": "Q86255225"}}, {"type": "node", "id": 7368681204, "lat": 48.8688339, "lon": 2.2989968, "tags": {"amenity": "bicycle_rental", "bicycle_rental": "docking_station", "brand": "V\u00e9lib\u2019 M\u00e9tropole", "brand:wikidata": "Q1120762", "brand:wikipedia": "fr:V\u00e9lib' M\u00e9tropole", "capacity": "21", "name": "Marceau - Chaillot", "network": "V\u00e9lib\u2019 M\u00e9tropole", "network:wikidata": "Q1120762", "network:wikipedia": "fr:V\u00e9lib' M\u00e9tropole", "operator": "Smovengo", "operator:wikidata": "Q47008427", "operator:wikipedia": "fr:Smovengo", "ref": "8048", "source": "Autolib Velib M\u00e9tropole - 04/2019", "wikidata": "Q86255213"}}, {"type": "node", "id": 7368681205, "lat": 48.8717156, "lon": 2.2985444, "tags": {"amenity": "bicycle_rental", "bicycle_rental": "docking_station", "brand": "V\u00e9lib\u2019 M\u00e9tropole", "brand:wikidata": "Q1120762", "brand:wikipedia": "fr:V\u00e9lib' M\u00e9tropole", "capacity": "17", "name": "Galil\u00e9e - Vernet", "network": "V\u00e9lib\u2019 M\u00e9tropole", "network:wikidata": "Q1120762", "network:wikipedia": "fr:V\u00e9lib' M\u00e9tropole", "operator": "Smovengo", "operator:wikidata": "Q47008427", "operator:wikipedia": "fr:Smovengo", "ref": "8003", "source": "Autolib Velib M\u00e9tropole - 04/2019", "wikidata": "Q86255179"}}, {"type": "node", "id": 7368681206, "lat": 48.8652244, "lon": 2.3002285, "tags": {"amenity": "bicycle_rental", "bicycle_rental": "docking_station", "brand": "V\u00e9lib\u2019 M\u00e9tropole", "brand:wikidata": "Q1120762", "brand:wikipedia": "fr:V\u00e9lib' M\u00e9tropole", "capacity": "32", "name": "Marceau - Pr\u00e9sident Wilson", "network": "V\u00e9lib\u2019 M\u00e9tropole", "network:wikidata": "Q1120762", "network:wikipedia": "fr:V\u00e9lib' M\u00e9tropole", "operator": "Smovengo", "operator:wikidata": "Q47008427", "operator:wikipedia": "fr:Smovengo", "ref": "8046", "source": "Autolib Velib M\u00e9tropole - 04/2019", "wikidata": "Q86255208"}}, {"type": "node", "id": 7368681207, "lat": 48.868145, "lon": 2.2961495, "tags": {"amenity": "bicycle_rental", "bicycle_rental": "docking_station", "brand": "V\u00e9lib\u2019 M\u00e9tropole", "brand:wikidata": "Q1120762", "brand:wikipedia": "fr:V\u00e9lib' M\u00e9tropole", "capacity": "15", "name": "Bassano - I\u00e9na", "network": "V\u00e9lib\u2019 M\u00e9tropole", "network:wikidata": "Q1120762", "network:wikipedia": "fr:V\u00e9lib' M\u00e9tropole", "operator": "Smovengo", "operator:wikidata": "Q47008427", "operator:wikipedia": "fr:Smovengo", "ref": "16015", "source": "Autolib Velib M\u00e9tropole - 04/2019", "wikidata": "Q86234158"}}, {"type": "node", "id": 7368681208, "lat": 48.8649178, "lon": 2.2926748, "tags": {"amenity": "bicycle_rental", "bicycle_rental": "docking_station", "brand": "V\u00e9lib\u2019 M\u00e9tropole", "brand:wikidata": "Q1120762", "brand:wikipedia": "fr:V\u00e9lib' M\u00e9tropole", "capacity": "40", "name": "Longchamp - Place d'I\u00e9na", "network": "V\u00e9lib\u2019 M\u00e9tropole", "network:wikidata": "Q1120762", "network:wikipedia": "fr:V\u00e9lib' M\u00e9tropole", "operator": "Smovengo", "operator:wikidata": "Q47008427", "operator:wikipedia": "fr:Smovengo", "ref": "16007", "source": "Autolib Velib M\u00e9tropole - 04/2019", "wikidata": "Q86238860"}}, {"type": "node", "id": 7368681209, "lat": 48.871221, "lon": 2.2937362, "tags": {"amenity": "bicycle_rental", "bicycle_rental": "docking_station", "brand": "V\u00e9lib\u2019 M\u00e9tropole", "brand:wikidata": "Q1120762", "brand:wikipedia": "fr:V\u00e9lib' M\u00e9tropole", "capacity": "26", "name": "Portugais - Kl\u00e9ber", "network": "V\u00e9lib\u2019 M\u00e9tropole", "network:wikidata": "Q1120762", "network:wikipedia": "fr:V\u00e9lib' M\u00e9tropole", "operator": "Smovengo", "operator:wikidata": "Q47008427", "operator:wikipedia": "fr:Smovengo", "ref": "16001", "source": "Autolib Velib M\u00e9tropole - 04/2019", "wikidata": "Q86238775"}}, {"type": "node", "id": 7368681210, "lat": 48.8674119, "lon": 2.2907814, "tags": {"amenity": "bicycle_rental", "bicycle_rental": "docking_station", "brand": "V\u00e9lib\u2019 M\u00e9tropole", "brand:wikidata": "Q1120762", "brand:wikipedia": "fr:V\u00e9lib' M\u00e9tropole", "capacity": "33", "name": "Galil\u00e9e - Kl\u00e9ber", "network": "V\u00e9lib\u2019 M\u00e9tropole", "network:wikidata": "Q1120762", "network:wikipedia": "fr:V\u00e9lib' M\u00e9tropole", "operator": "Smovengo", "operator:wikidata": "Q47008427", "operator:wikipedia": "fr:Smovengo", "ref": "16008", "source": "Autolib Velib M\u00e9tropole - 04/2019", "wikidata": "Q86238672"}}, {"type": "node", "id": 7368681211, "lat": 48.8692589, "lon": 2.2899179, "tags": {"amenity": "bicycle_rental", "bicycle_rental": "docking_station", "brand": "V\u00e9lib\u2019 M\u00e9tropole", "brand:wikidata": "Q1120762", "brand:wikipedia": "fr:V\u00e9lib' M\u00e9tropole", "capacity": "19", "name": "Lauriston - Copernic", "network": "V\u00e9lib\u2019 M\u00e9tropole", "network:wikidata": "Q1120762", "network:wikipedia": "fr:V\u00e9lib' M\u00e9tropole", "operator": "Smovengo", "operator:wikidata": "Q47008427", "operator:wikipedia": "fr:Smovengo", "ref": "16006", "source": "Autolib Velib M\u00e9tropole - 04/2019", "wikidata": "Q86238709"}}, {"type": "node", "id": 7368986180, "lat": 48.8704754, "lon": 2.3076191, "tags": {"amenity": "bicycle_rental", "bicycle_rental": "docking_station", "brand": "V\u00e9lib\u2019 M\u00e9tropole", "brand:wikidata": "Q1120762", "brand:wikipedia": "fr:V\u00e9lib' M\u00e9tropole", "capacity": "24", "name": "Colis\u00e9e - Champs-Elys\u00e9es", "network": "V\u00e9lib\u2019 M\u00e9tropole", "network:wikidata": "Q1120762", "network:wikipedia": "fr:V\u00e9lib' M\u00e9tropole", "operator": "Smovengo", "operator:wikidata": "Q47008427", "operator:wikipedia": "fr:Smovengo", "ref": "8039", "source": "Autolib Velib M\u00e9tropole - 04/2020", "wikidata": "Q86255273"}}, {"type": "node", "id": 7368986181, "lat": 48.8696899, "lon": 2.3107326, "tags": {"amenity": "bicycle_rental", "bicycle_rental": "docking_station", "brand": "V\u00e9lib\u2019 M\u00e9tropole", "brand:wikidata": "Q1120762", "brand:wikipedia": "fr:V\u00e9lib' M\u00e9tropole", "capacity": "33", "name": "Jean Mermoz - Champs-Elys\u00e9es", "network": "V\u00e9lib\u2019 M\u00e9tropole", "network:wikidata": "Q1120762", "network:wikipedia": "fr:V\u00e9lib' M\u00e9tropole", "operator": "Smovengo", "operator:wikidata": "Q47008427", "operator:wikipedia": "fr:Smovengo", "ref": "8031", "source": "Autolib Velib M\u00e9tropole - 04/2019", "wikidata": "Q86255337"}}, {"type": "node", "id": 7368986182, "lat": 48.8734512, "lon": 2.3204045, "tags": {"amenity": "bicycle_rental", "bicycle_rental": "docking_station", "brand": "V\u00e9lib\u2019 M\u00e9tropole", "brand:wikidata": "Q1120762", "brand:wikipedia": "fr:V\u00e9lib' M\u00e9tropole", "capacity": "37", "name": "Roqu\u00e9pine - Malesherbes", "network": "V\u00e9lib\u2019 M\u00e9tropole", "network:wikidata": "Q1120762", "network:wikipedia": "fr:V\u00e9lib' M\u00e9tropole", "operator": "Smovengo", "operator:wikidata": "Q47008427", "operator:wikipedia": "fr:Smovengo", "ref": "8015", "source": "Autolib Velib M\u00e9tropole - 04/2019", "wikidata": "Q86255192"}}, {"type": "node", "id": 7369015138, "lat": 48.8792008, "lon": 2.2914987, "tags": {"amenity": "bicycle_rental", "capacity": "28", "name": "Place Tristan Bernard", "network": "V\u00e9lib\u2019", "operator": "Smovengo", "ref": "17036", "source": "Autolib Velib M\u00e9tropole - 2021-03", "wikidata": "Q86238309"}}, {"type": "node", "id": 7369015139, "lat": 48.877533, "lon": 2.2945125, "tags": {"amenity": "bicycle_rental", "capacity": "25", "name": "Mac-Mahon - Brey", "network": "V\u00e9lib\u2019", "operator": "Smovengo", "ref": "17046", "source": "Autolib Velib M\u00e9tropole - 2021-03", "wikidata": "Q86238186"}}, {"type": "node", "id": 7369015140, "lat": 48.8784766, "lon": 2.2979592, "tags": {"amenity": "bicycle_rental", "bicycle_rental": "docking_station", "brand": "V\u00e9lib\u2019 M\u00e9tropole", "brand:wikidata": "Q1120762", "brand:wikipedia": "fr:V\u00e9lib' M\u00e9tropole", "capacity": "46", "name": "Place des Ternes", "network": "V\u00e9lib\u2019 M\u00e9tropole", "network:wikidata": "Q1120762", "network:wikipedia": "fr:V\u00e9lib' M\u00e9tropole", "operator": "Smovengo", "operator:wikidata": "Q47008427", "operator:wikipedia": "fr:Smovengo", "ref": "17045", "source": "Autolib Velib M\u00e9tropole - 2021-03", "wikidata": "Q86238416"}}, {"type": "node", "id": 7369015141, "lat": 48.8782061, "lon": 2.2992981, "tags": {"amenity": "bicycle_rental", "bicycle_rental": "docking_station", "brand": "V\u00e9lib\u2019 M\u00e9tropole", "brand:wikidata": "Q1120762", "brand:wikipedia": "fr:V\u00e9lib' M\u00e9tropole", "capacity": "31", "name": "Courcelles - Place des Ternes", "network": "V\u00e9lib\u2019 M\u00e9tropole", "network:wikidata": "Q1120762", "network:wikipedia": "fr:V\u00e9lib' M\u00e9tropole", "operator": "Smovengo", "operator:wikidata": "Q47008427", "operator:wikipedia": "fr:Smovengo", "ref": "8055", "source": "Autolib Velib M\u00e9tropole - 2021-03", "wikidata": "Q86255290"}}, {"type": "node", "id": 7369015142, "lat": 48.8783614, "lon": 2.3052544, "tags": {"amenity": "bicycle_rental", "bicycle_rental": "docking_station", "capacity": "33", "name": "Alfred de Vigny - Place du G\u00e9n\u00e9ral Brocard", "network": "V\u00e9lib\u2019", "operator": "Smovengo", "ref": "8044", "source": "Autolib Velib M\u00e9tropole - 2021-03", "wikidata": "Q86255204"}}, {"type": "node", "id": 7369015143, "lat": 48.879441, "lon": 2.3034996, "tags": {"amenity": "bicycle_rental", "bicycle_rental": "docking_station", "capacity": "35", "name": "Chazelles - Courcelles", "network": "V\u00e9lib\u2019", "operator": "Smovengo", "ref": "17025", "source": "Autolib Velib M\u00e9tropole - 2021-03", "wikidata": "Q86238385"}}, {"type": "node", "id": 7369015144, "lat": 48.8761253, "lon": 2.3012936, "tags": {"amenity": "bicycle_rental", "bicycle_rental": "docking_station", "brand": "V\u00e9lib\u2019 M\u00e9tropole", "brand:wikidata": "Q1120762", "brand:wikipedia": "fr:V\u00e9lib' M\u00e9tropole", "capacity": "32", "name": "Bertie Albrecht - Hoche", "network": "V\u00e9lib\u2019 M\u00e9tropole", "network:wikidata": "Q1120762", "network:wikipedia": "fr:V\u00e9lib' M\u00e9tropole", "operator": "Smovengo", "operator:wikidata": "Q47008427", "operator:wikipedia": "fr:Smovengo", "ref": "8054", "source": "Autolib Velib M\u00e9tropole - 04/2019", "wikidata": "Q86255256"}}, {"type": "node", "id": 7369015145, "lat": 48.8747444, "lon": 2.3082953, "tags": {"amenity": "bicycle_rental", "bicycle_rental": "docking_station", "brand": "V\u00e9lib\u2019 M\u00e9tropole", "brand:wikidata": "Q1120762", "brand:wikipedia": "fr:V\u00e9lib' M\u00e9tropole", "capacity": "35", "name": "Berri - Haussmann", "network": "V\u00e9lib\u2019 M\u00e9tropole", "network:wikidata": "Q1120762", "network:wikipedia": "fr:V\u00e9lib' M\u00e9tropole", "operator": "Smovengo", "operator:wikidata": "Q47008427", "operator:wikipedia": "fr:Smovengo", "ref": "8034", "source": "Autolib Velib M\u00e9tropole - 04/2019", "wikidata": "Q86255268"}}, {"type": "node", "id": 7369015146, "lat": 48.8747652, "lon": 2.3017473, "tags": {"amenity": "bicycle_rental", "bicycle_rental": "docking_station", "brand": "V\u00e9lib\u2019 M\u00e9tropole", "brand:wikidata": "Q1120762", "brand:wikipedia": "fr:V\u00e9lib' M\u00e9tropole", "capacity": "29", "name": "Place Georges Guillaumin", "network": "V\u00e9lib\u2019 M\u00e9tropole", "network:wikidata": "Q1120762", "network:wikipedia": "fr:V\u00e9lib' M\u00e9tropole", "operator": "Smovengo", "operator:wikidata": "Q47008427", "operator:wikipedia": "fr:Smovengo", "ref": "8053", "source": "Autolib Velib M\u00e9tropole - 04/2019", "wikidata": "Q86255185"}}, {"type": "node", "id": 7369015147, "lat": 48.8740158, "lon": 2.2999163, "tags": {"amenity": "bicycle_rental", "bicycle_rental": "docking_station", "brand": "V\u00e9lib\u2019 M\u00e9tropole", "brand:wikidata": "Q1120762", "brand:wikipedia": "fr:V\u00e9lib' M\u00e9tropole", "capacity": "31", "name": "Chateaubriand - Friedland", "network": "V\u00e9lib\u2019 M\u00e9tropole", "network:wikidata": "Q1120762", "network:wikipedia": "fr:V\u00e9lib' M\u00e9tropole", "operator": "Smovengo", "operator:wikidata": "Q47008427", "operator:wikipedia": "fr:Smovengo", "ref": "8104", "source": "Autolib Velib M\u00e9tropole - 04/2019", "wikidata": "Q86255333"}}, {"type": "node", "id": 7369015148, "lat": 48.8729553, "lon": 2.3000565, "tags": {"amenity": "bicycle_rental", "bicycle_rental": "docking_station", "brand": "V\u00e9lib\u2019 M\u00e9tropole", "brand:wikidata": "Q1120762", "brand:wikipedia": "fr:V\u00e9lib' M\u00e9tropole", "capacity": "30", "name": "Balzac - Champs Elys\u00e9es", "network": "V\u00e9lib\u2019 M\u00e9tropole", "network:wikidata": "Q1120762", "network:wikipedia": "fr:V\u00e9lib' M\u00e9tropole", "operator": "Smovengo", "operator:wikidata": "Q47008427", "operator:wikipedia": "fr:Smovengo", "ref": "8052", "source": "Autolib Velib M\u00e9tropole - 04/2019", "wikidata": "Q86255266"}}, {"type": "node", "id": 7369015149, "lat": 48.8735313, "lon": 2.3034449, "tags": {"amenity": "bicycle_rental", "bicycle_rental": "docking_station", "brand": "V\u00e9lib\u2019 M\u00e9tropole", "brand:wikidata": "Q1120762", "brand:wikipedia": "fr:V\u00e9lib' M\u00e9tropole", "capacity": "26", "name": "Lamennais - Washington", "network": "V\u00e9lib\u2019 M\u00e9tropole", "network:wikidata": "Q1120762", "network:wikipedia": "fr:V\u00e9lib' M\u00e9tropole", "operator": "Smovengo", "operator:wikidata": "Q47008427", "operator:wikipedia": "fr:Smovengo", "ref": "8102", "source": "Autolib Velib M\u00e9tropole - 04/2019", "wikidata": "Q86255325"}}, {"type": "node", "id": 7369015150, "lat": 48.8738632, "lon": 2.3063319, "tags": {"amenity": "bicycle_rental", "bicycle_rental": "docking_station", "brand": "V\u00e9lib\u2019 M\u00e9tropole", "brand:wikidata": "Q1120762", "brand:wikipedia": "fr:V\u00e9lib' M\u00e9tropole", "capacity": "23", "name": "Artois - Berri", "network": "V\u00e9lib\u2019 M\u00e9tropole", "network:wikidata": "Q1120762", "network:wikipedia": "fr:V\u00e9lib' M\u00e9tropole", "operator": "Smovengo", "operator:wikidata": "Q47008427", "operator:wikipedia": "fr:Smovengo", "ref": "8103", "source": "Autolib Velib M\u00e9tropole - 04/2019", "wikidata": "Q86255232"}}, {"type": "node", "id": 7369015151, "lat": 48.8727725, "lon": 2.3096853, "tags": {"amenity": "bicycle_rental", "bicycle_rental": "docking_station", "brand": "V\u00e9lib\u2019 M\u00e9tropole", "brand:wikidata": "Q1120762", "brand:wikipedia": "fr:V\u00e9lib' M\u00e9tropole", "capacity": "27", "name": "Commandant Rivi\u00e8re", "network": "V\u00e9lib\u2019 M\u00e9tropole", "network:wikidata": "Q1120762", "network:wikipedia": "fr:V\u00e9lib' M\u00e9tropole", "operator": "Smovengo", "operator:wikidata": "Q47008427", "operator:wikipedia": "fr:Smovengo", "ref": "8033", "source": "Autolib Velib M\u00e9tropole - 04/2019", "wikidata": "Q86255237"}}, {"type": "node", "id": 7369015152, "lat": 48.8715165, "lon": 2.3139015, "tags": {"amenity": "bicycle_rental", "bicycle_rental": "docking_station", "brand": "V\u00e9lib\u2019 M\u00e9tropole", "brand:wikidata": "Q1120762", "brand:wikipedia": "fr:V\u00e9lib' M\u00e9tropole", "capacity": "36", "name": "Matignon - Faubourg Saint-Honor\u00e9", "network": "V\u00e9lib\u2019 M\u00e9tropole", "network:wikidata": "Q1120762", "network:wikipedia": "fr:V\u00e9lib' M\u00e9tropole", "operator": "Smovengo", "operator:wikidata": "Q47008427", "operator:wikipedia": "fr:Smovengo", "ref": "8032", "source": "Autolib Velib M\u00e9tropole - 04/2019", "wikidata": "Q86255201"}}, {"type": "node", "id": 7369032805, "lat": 48.8870659, "lon": 2.3041017, "tags": {"amenity": "bicycle_rental", "bicycle_rental": "docking_station", "brand": "V\u00e9lib\u2019 M\u00e9tropole", "brand:wikidata": "Q1120762", "brand:wikipedia": "fr:V\u00e9lib' M\u00e9tropole", "capacity": "46", "name": "Pereire - Place de Wagram", "network": "V\u00e9lib\u2019 M\u00e9tropole", "network:wikidata": "Q1120762", "network:wikipedia": "fr:V\u00e9lib' M\u00e9tropole", "operator": "Smovengo", "operator:wikidata": "Q47008427", "operator:wikipedia": "fr:Smovengo", "ref": "17022", "source": "Autolib Velib M\u00e9tropole - 04/2019", "wikidata": "Q86238204"}}, {"type": "node", "id": 7369032806, "lat": 48.8824234, "lon": 2.3090453, "tags": {"amenity": "bicycle_rental", "bicycle_rental": "docking_station", "capacity": "20", "name": "Phalsbourg - Villiers", "network": "V\u00e9lib\u2019", "operator": "Smovengo", "ref": "17019", "source": "Autolib Velib M\u00e9tropole - 2021-03", "wikidata": "Q86238402"}}, {"type": "node", "id": 7369032807, "lat": 48.8811035, "lon": 2.3094809, "tags": {"amenity": "bicycle_rental", "capacity": "18", "name": "Parc Monceau", "network": "V\u00e9lib\u2019", "operator": "Smovengo", "ref": "17018", "source": "Autolib Velib M\u00e9tropole - 2021-03", "wikidata": "Q86238363"}}, {"type": "node", "id": 7369032808, "lat": 48.8795975, "lon": 2.3145171, "tags": {"amenity": "bicycle_rental", "bicycle_rental": "docking_station", "brand": "V\u00e9lib\u2019 M\u00e9tropole", "brand:wikidata": "Q1120762", "brand:wikipedia": "fr:V\u00e9lib' M\u00e9tropole", "capacity": "38", "name": "Monceau - Malesherbes", "network": "V\u00e9lib\u2019 M\u00e9tropole", "network:wikidata": "Q1120762", "network:wikipedia": "fr:V\u00e9lib' M\u00e9tropole", "operator": "Smovengo", "operator:wikidata": "Q47008427", "operator:wikipedia": "fr:Smovengo", "ref": "8037", "source": "Autolib Velib M\u00e9tropole - 04/2019", "wikidata": "Q86255196"}}, {"type": "node", "id": 7369032809, "lat": 48.8774557, "lon": 2.3096942, "tags": {"amenity": "bicycle_rental", "bicycle_rental": "docking_station", "brand": "V\u00e9lib\u2019 M\u00e9tropole", "brand:wikidata": "Q1120762", "brand:wikipedia": "fr:V\u00e9lib' M\u00e9tropole", "capacity": "33", "name": "Lisbonne - Monceau", "network": "V\u00e9lib\u2019 M\u00e9tropole", "network:wikidata": "Q1120762", "network:wikipedia": "fr:V\u00e9lib' M\u00e9tropole", "operator": "Smovengo", "operator:wikidata": "Q47008427", "operator:wikipedia": "fr:Smovengo", "ref": "8036", "source": "Autolib Velib M\u00e9tropole - 04/2019", "wikidata": "Q86255216"}}, {"type": "node", "id": 7369032810, "lat": 48.8766143, "lon": 2.3131677, "tags": {"amenity": "bicycle_rental", "bicycle_rental": "docking_station", "brand": "V\u00e9lib\u2019 M\u00e9tropole", "brand:wikidata": "Q1120762", "brand:wikipedia": "fr:V\u00e9lib' M\u00e9tropole", "capacity": "36", "name": "Bienfaisance - Place de Narvik", "network": "V\u00e9lib\u2019 M\u00e9tropole", "network:wikidata": "Q1120762", "network:wikipedia": "fr:V\u00e9lib' M\u00e9tropole", "operator": "Smovengo", "operator:wikidata": "Q47008427", "operator:wikipedia": "fr:Smovengo", "ref": "8035", "source": "Autolib Velib M\u00e9tropole - 04/2019", "wikidata": "Q86255260"}}, {"type": "node", "id": 7369032811, "lat": 48.875448, "lon": 2.315508, "tags": {"amenity": "bicycle_rental", "bicycle_rental": "docking_station", "brand": "V\u00e9lib\u2019 M\u00e9tropole", "brand:wikidata": "Q1120762", "brand:wikipedia": "fr:V\u00e9lib' M\u00e9tropole", "capacity": "12", "name": "Messine - Place Du P\u00e9rou", "network": "V\u00e9lib\u2019 M\u00e9tropole", "network:wikidata": "Q1120762", "network:wikipedia": "fr:V\u00e9lib' M\u00e9tropole", "operator": "Smovengo", "operator:wikidata": "Q47008427", "operator:wikipedia": "fr:Smovengo", "ref": "8026", "source": "Autolib Velib M\u00e9tropole - 04/2019", "wikidata": "Q86255219"}}, {"type": "node", "id": 7369032812, "lat": 48.8737259, "lon": 2.3158615, "tags": {"amenity": "bicycle_rental", "bicycle_rental": "docking_station", "brand": "V\u00e9lib\u2019 M\u00e9tropole", "brand:wikidata": "Q1120762", "brand:wikipedia": "fr:V\u00e9lib' M\u00e9tropole", "capacity": "35", "name": "Miromesnil - La Bo\u00e9tie", "network": "V\u00e9lib\u2019 M\u00e9tropole", "network:wikidata": "Q1120762", "network:wikipedia": "fr:V\u00e9lib' M\u00e9tropole", "operator": "Smovengo", "operator:wikidata": "Q47008427", "operator:wikipedia": "fr:Smovengo", "ref": "8025", "source": "Autolib Velib M\u00e9tropole - 04/2019", "wikidata": "Q86255297"}}, {"type": "node", "id": 7369032813, "lat": 48.8819733, "lon": 2.3011322, "tags": {"amenity": "bicycle_rental", "bicycle_rental": "docking_station", "brand": "V\u00e9lib\u2019 M\u00e9tropole", "brand:wikidata": "Q1120762", "brand:wikipedia": "fr:V\u00e9lib' M\u00e9tropole", "capacity": "40", "name": "Jouffroy d'Abbans - Wagram", "network": "V\u00e9lib\u2019 M\u00e9tropole", "network:wikidata": "Q1120762", "network:wikipedia": "fr:V\u00e9lib' M\u00e9tropole", "operator": "Smovengo", "operator:wikidata": "Q47008427", "operator:wikipedia": "fr:Smovengo", "ref": "17026", "source": "Autolib Velib M\u00e9tropole - 04/2019", "wikidata": "Q86238316"}}, {"type": "node", "id": 7369032814, "lat": 48.8852615, "lon": 2.298286, "tags": {"amenity": "bicycle_rental", "bicycle_rental": "docking_station", "brand": "V\u00e9lib\u2019 M\u00e9tropole", "brand:wikidata": "Q1120762", "brand:wikipedia": "fr:V\u00e9lib' M\u00e9tropole", "capacity": "46", "name": "Place du Mar\u00e9chal Juin - P\u00e9reire", "network": "V\u00e9lib\u2019 M\u00e9tropole", "network:wikidata": "Q1120762", "network:wikipedia": "fr:V\u00e9lib' M\u00e9tropole", "operator": "Smovengo", "operator:wikidata": "Q47008427", "operator:wikipedia": "fr:Smovengo", "ref": "17027", "source": "Autolib Velib M\u00e9tropole - 04/2019", "wikidata": "Q86238213"}}, {"type": "node", "id": 7369032815, "lat": 48.8859291, "lon": 2.293345, "tags": {"amenity": "bicycle_rental", "bicycle_rental": "docking_station", "brand": "V\u00e9lib\u2019 M\u00e9tropole", "brand:wikidata": "Q1120762", "brand:wikipedia": "fr:V\u00e9lib' M\u00e9tropole", "capacity": "37", "name": "Berthier - Place Stuart Merril", "network": "V\u00e9lib\u2019 M\u00e9tropole", "network:wikidata": "Q1120762", "network:wikipedia": "fr:V\u00e9lib' M\u00e9tropole", "operator": "Smovengo", "operator:wikidata": "Q47008427", "operator:wikipedia": "fr:Smovengo", "ref": "17107", "source": "Autolib Velib M\u00e9tropole - 04/2019", "wikidata": "Q86237850"}}, {"type": "node", "id": 7369032816, "lat": 48.8856174, "lon": 2.2907814, "tags": {"amenity": "bicycle_rental", "bicycle_rental": "docking_station", "brand": "V\u00e9lib\u2019 M\u00e9tropole", "brand:wikidata": "Q1120762", "brand:wikipedia": "fr:V\u00e9lib' M\u00e9tropole", "capacity": "28", "check_date": "2022-12-24", "name": "Place de la Porte de Champerret", "network": "V\u00e9lib\u2019 M\u00e9tropole", "network:wikidata": "Q1120762", "network:wikipedia": "fr:V\u00e9lib' M\u00e9tropole", "operator": "Smovengo", "operator:wikidata": "Q47008427", "operator:wikipedia": "fr:Smovengo", "ref": "17031", "source": "Autolib Velib M\u00e9tropole - 04/2019", "wikidata": "Q86237834"}}, {"type": "node", "id": 7369032817, "lat": 48.8837697, "lon": 2.2985847, "tags": {"amenity": "bicycle_rental", "bicycle_rental": "docking_station", "brand": "V\u00e9lib\u2019 M\u00e9tropole", "brand:wikidata": "Q1120762", "brand:wikipedia": "fr:V\u00e9lib' M\u00e9tropole", "capacity": "26", "name": "Courcelles - Pierre Demours", "network": "V\u00e9lib\u2019 M\u00e9tropole", "network:wikidata": "Q1120762", "network:wikipedia": "fr:V\u00e9lib' M\u00e9tropole", "operator": "Smovengo", "operator:wikidata": "Q47008427", "operator:wikipedia": "fr:Smovengo", "ref": "17047", "source": "Autolib Velib M\u00e9tropole - 04/2020", "wikidata": "Q86238217"}}, {"type": "node", "id": 7369032818, "lat": 48.8836478, "lon": 2.2952447, "tags": {"amenity": "bicycle_rental", "bicycle_rental": "docking_station", "brand": "V\u00e9lib\u2019 M\u00e9tropole", "brand:wikidata": "Q1120762", "brand:wikipedia": "fr:V\u00e9lib' M\u00e9tropole", "capacity": "23", "name": "Pereire - Rennequin", "network": "V\u00e9lib\u2019 M\u00e9tropole", "network:wikidata": "Q1120762", "network:wikipedia": "fr:V\u00e9lib' M\u00e9tropole", "operator": "Smovengo", "operator:wikidata": "Q47008427", "operator:wikipedia": "fr:Smovengo", "ref": "17030", "source": "Autolib Velib M\u00e9tropole - 04/2019", "wikidata": "Q86238405"}}, {"type": "node", "id": 7369032819, "lat": 48.8813381, "lon": 2.2948219, "tags": {"amenity": "bicycle_rental", "bicycle_rental": "docking_station", "brand": "V\u00e9lib\u2019 M\u00e9tropole", "brand:wikidata": "Q1120762", "brand:wikipedia": "fr:V\u00e9lib' M\u00e9tropole", "capacity": "37", "name": "Pierre Demours - Laugier", "network": "V\u00e9lib\u2019 M\u00e9tropole", "network:wikidata": "Q1120762", "network:wikipedia": "fr:V\u00e9lib' M\u00e9tropole", "operator": "Smovengo", "operator:wikidata": "Q47008427", "operator:wikipedia": "fr:Smovengo", "ref": "17029", "source": "Autolib Velib M\u00e9tropole - 04/2019", "wikidata": "Q86237863"}}, {"type": "node", "id": 7369032820, "lat": 48.8818335, "lon": 2.2921263, "tags": {"amenity": "bicycle_rental", "bicycle_rental": "docking_station", "brand": "V\u00e9lib\u2019 M\u00e9tropole", "brand:wikidata": "Q1120762", "brand:wikipedia": "fr:V\u00e9lib' M\u00e9tropole", "capacity": "22", "name": "Bayen - Pereire", "network": "V\u00e9lib\u2019 M\u00e9tropole", "network:wikidata": "Q1120762", "network:wikipedia": "fr:V\u00e9lib' M\u00e9tropole", "operator": "Smovengo", "operator:wikidata": "Q47008427", "operator:wikipedia": "fr:Smovengo", "ref": "17037", "source": "Autolib Velib M\u00e9tropole - 04/2019", "wikidata": "Q86252064"}}, {"type": "node", "id": 7369032821, "lat": 48.8828774, "lon": 2.2876675, "tags": {"amenity": "bicycle_rental", "bicycle_rental": "docking_station", "brand": "V\u00e9lib\u2019 M\u00e9tropole", "brand:wikidata": "Q1120762", "brand:wikipedia": "fr:V\u00e9lib' M\u00e9tropole", "capacity": "39", "name": "Guersant - Gouvion-Saint-Cyr", "network": "V\u00e9lib\u2019 M\u00e9tropole", "network:wikidata": "Q1120762", "network:wikipedia": "fr:V\u00e9lib' M\u00e9tropole", "operator": "Smovengo", "operator:wikidata": "Q47008427", "operator:wikipedia": "fr:Smovengo", "ref": "17041", "source": "Autolib Velib M\u00e9tropole - 04/2019", "wikidata": "Q86238360"}}, {"type": "node", "id": 7369032822, "lat": 48.8802376, "lon": 2.2854655, "tags": {"amenity": "bicycle_rental", "bicycle_rental": "docking_station", "brand": "V\u00e9lib\u2019 M\u00e9tropole", "brand:wikidata": "Q1120762", "brand:wikipedia": "fr:V\u00e9lib' M\u00e9tropole", "capacity": "40", "name": "B\u00e9lidor - Gouvion-Saint-Cyr", "network": "V\u00e9lib\u2019 M\u00e9tropole", "network:wikidata": "Q1120762", "network:wikipedia": "fr:V\u00e9lib' M\u00e9tropole", "operator": "Smovengo", "operator:wikidata": "Q47008427", "operator:wikipedia": "fr:Smovengo", "ref": "17043", "source": "Autolib Velib M\u00e9tropole - 04/2019", "wikidata": "Q86238414"}}, {"type": "node", "id": 7369032823, "lat": 48.8797395, "lon": 2.2880121, "tags": {"amenity": "bicycle_rental", "bicycle_rental": "docking_station", "brand": "V\u00e9lib\u2019 M\u00e9tropole", "brand:wikidata": "Q1120762", "brand:wikipedia": "fr:V\u00e9lib' M\u00e9tropole", "capacity": "48", "name": "Pereire - Ternes", "network": "V\u00e9lib\u2019 M\u00e9tropole", "network:wikidata": "Q1120762", "network:wikipedia": "fr:V\u00e9lib' M\u00e9tropole", "operator": "Smovengo", "operator:wikidata": "Q47008427", "operator:wikipedia": "fr:Smovengo", "ref": "17040", "source": "Autolib Velib M\u00e9tropole - 04/2020", "wikidata": "Q86238201"}}, {"type": "node", "id": 7369032824, "lat": 48.8781548, "lon": 2.288518, "tags": {"amenity": "bicycle_rental", "bicycle_rental": "docking_station", "brand": "V\u00e9lib\u2019 M\u00e9tropole", "brand:wikidata": "Q1120762", "brand:wikipedia": "fr:V\u00e9lib' M\u00e9tropole", "capacity": "38", "name": "Place Saint-Ferdinand", "network": "V\u00e9lib\u2019 M\u00e9tropole", "network:wikidata": "Q1120762", "network:wikipedia": "fr:V\u00e9lib' M\u00e9tropole", "operator": "Smovengo", "operator:wikidata": "Q47008427", "operator:wikipedia": "fr:Smovengo", "ref": "17039", "source": "Autolib Velib M\u00e9tropole - 04/2019", "wikidata": "Q86238388"}}, {"type": "node", "id": 7369032825, "lat": 48.876116, "lon": 2.288124, "tags": {"amenity": "bicycle_rental", "bicycle_rental": "docking_station", "capacity": "62", "name": "Grande Arm\u00e9e - Brunel", "network": "V\u00e9lib\u2019", "operator": "Smovengo", "ref": "17038", "source": "Autolib Velib M\u00e9tropole - 2021-03", "wikidata": "Q86238338"}}, {"type": "node", "id": 7369043455, "lat": 48.8882163, "lon": 2.3101323, "tags": {"amenity": "bicycle_rental", "bicycle_rental": "docking_station", "brand": "V\u00e9lib\u2019 M\u00e9tropole", "brand:wikidata": "Q1120762", "brand:wikipedia": "fr:V\u00e9lib' M\u00e9tropole", "capacity": "32", "name": "Pereire - Saussure", "network": "V\u00e9lib\u2019 M\u00e9tropole", "network:wikidata": "Q1120762", "network:wikipedia": "fr:V\u00e9lib' M\u00e9tropole", "operator": "Smovengo", "operator:wikidata": "Q47008427", "operator:wikipedia": "fr:Smovengo", "ref": "17117", "source": "Autolib Velib M\u00e9tropole - 04/2019", "wikidata": "Q86238330"}}, {"type": "node", "id": 7369043456, "lat": 48.8886367, "lon": 2.3111707, "tags": {"amenity": "bicycle_rental", "bicycle_rental": "docking_station", "brand": "V\u00e9lib\u2019 M\u00e9tropole", "brand:wikidata": "Q1120762", "brand:wikipedia": "fr:V\u00e9lib' M\u00e9tropole", "capacity": "32", "name": "Marie-Georges Picquart - Pereire", "network": "V\u00e9lib\u2019 M\u00e9tropole", "network:wikidata": "Q1120762", "network:wikipedia": "fr:V\u00e9lib' M\u00e9tropole", "operator": "Smovengo", "operator:wikidata": "Q47008427", "operator:wikipedia": "fr:Smovengo", "ref": "17125", "source": "Autolib Velib M\u00e9tropole - 04/2019", "wikidata": "Q86238270"}}, {"type": "node", "id": 7369043457, "lat": 48.8871384, "lon": 2.3144941, "tags": {"amenity": "bicycle_rental", "bicycle_rental": "docking_station", "brand": "V\u00e9lib\u2019 M\u00e9tropole", "brand:wikidata": "Q1120762", "brand:wikipedia": "fr:V\u00e9lib' M\u00e9tropole", "capacity": "34", "name": "Gare de Pont-Cardinet", "network": "V\u00e9lib\u2019 M\u00e9tropole", "network:wikidata": "Q1120762", "network:wikipedia": "fr:V\u00e9lib' M\u00e9tropole", "operator": "Smovengo", "operator:wikidata": "Q47008427", "operator:wikipedia": "fr:Smovengo", "ref": "17017", "source": "Autolib Velib M\u00e9tropole - 04/2019", "wikidata": "Q86238288"}}, {"type": "node", "id": 7369043458, "lat": 48.8853645, "lon": 2.3163829, "tags": {"amenity": "bicycle_rental", "bicycle_rental": "docking_station", "brand": "V\u00e9lib\u2019 M\u00e9tropole", "brand:wikidata": "Q1120762", "capacity": "23", "name": "Legendre - Dulong", "network": "V\u00e9lib\u2019 M\u00e9tropole", "network:wikidata": "Q1120762", "operator": "Smovengo", "operator:wikidata": "Q47008427", "ref": "17013", "source": "Autolib Velib M\u00e9tropole - 2021-03", "wikidata": "Q86238225"}}, {"type": "node", "id": 7369043459, "lat": 48.8835901, "lon": 2.3132296, "tags": {"amenity": "bicycle_rental", "bicycle_rental": "docking_station", "capacity": "48", "name": "Place de L\u00e9vis", "network": "V\u00e9lib\u2019", "operator": "Smovengo", "ref": "17015", "source": "Autolib Velib M\u00e9tropole - 2021-03", "wikidata": "Q86238410"}}, {"type": "node", "id": 7369043460, "lat": 48.8824272, "lon": 2.314002, "tags": {"amenity": "bicycle_rental", "bicycle_rental": "docking_station", "capacity": "30", "name": "De Toqueville - Terrasse", "network": "V\u00e9lib\u2019", "operator": "Smovengo", "ref": "17048", "source": "Autolib Velib M\u00e9tropole - 2021-03", "wikidata": "Q86238220"}}, {"type": "node", "id": 7369043461, "lat": 48.8821487, "lon": 2.3198547, "tags": {"amenity": "bicycle_rental", "bicycle_rental": "docking_station", "brand": "V\u00e9lib\u2019 M\u00e9tropole", "brand:wikidata": "Q1120762", "brand:wikipedia": "fr:V\u00e9lib' M\u00e9tropole", "capacity": "44", "name": "Batignolles - Beudant", "network": "V\u00e9lib\u2019 M\u00e9tropole", "network:wikidata": "Q1120762", "network:wikipedia": "fr:V\u00e9lib' M\u00e9tropole", "operator": "Smovengo", "operator:wikidata": "Q47008427", "operator:wikipedia": "fr:Smovengo", "ref": "8020", "source": "Autolib Velib M\u00e9tropole - 04/2019", "wheelchair": "limited", "wikidata": "Q86238299"}}, {"type": "node", "id": 7369043462, "lat": 48.881176, "lon": 2.316535, "tags": {"amenity": "bicycle_rental", "bicycle_rental": "docking_station", "capacity": "23", "name": "Villiers - Batignolles", "network": "V\u00e9lib\u2019", "operator": "Smovengo", "ref": "17024", "source": "Autolib Velib M\u00e9tropole - 2021-03", "wikidata": "Q86255248"}}, {"type": "node", "id": 7369043463, "lat": 48.8818798, "lon": 2.3202214, "tags": {"amenity": "bicycle_rental", "bicycle_rental": "docking_station", "brand": "V\u00e9lib\u2019 M\u00e9tropole", "brand:wikidata": "Q1120762", "brand:wikipedia": "fr:V\u00e9lib' M\u00e9tropole", "capacity": "15", "name": "Batignolles - Rome", "network": "V\u00e9lib\u2019 M\u00e9tropole", "network:wikidata": "Q1120762", "network:wikipedia": "fr:V\u00e9lib' M\u00e9tropole", "operator": "Smovengo", "operator:wikidata": "Q47008427", "operator:wikipedia": "fr:Smovengo", "ref": "8051", "source": "Autolib Velib M\u00e9tropole - 04/2019", "wheelchair": "yes", "wikidata": "Q86255210"}}, {"type": "node", "id": 7369043464, "lat": 48.8799553, "lon": 2.3213587, "tags": {"amenity": "bicycle_rental", "bicycle_rental": "docking_station", "brand": "V\u00e9lib\u2019 M\u00e9tropole", "brand:wikidata": "Q1120762", "brand:wikipedia": "fr:V\u00e9lib' M\u00e9tropole", "capacity": "26", "name": "Naples - Rome", "network": "V\u00e9lib\u2019 M\u00e9tropole", "network:wikidata": "Q1120762", "network:wikipedia": "fr:V\u00e9lib' M\u00e9tropole", "operator": "Smovengo", "operator:wikidata": "Q47008427", "operator:wikipedia": "fr:Smovengo", "ref": "8019", "source": "Autolib Velib M\u00e9tropole - 04/2019", "wikidata": "Q86255173"}}, {"type": "node", "id": 7369043465, "lat": 48.8779335, "lon": 2.318264, "tags": {"amenity": "bicycle_rental", "bicycle_rental": "docking_station", "brand": "V\u00e9lib\u2019 M\u00e9tropole", "brand:wikidata": "Q1120762", "brand:wikipedia": "fr:V\u00e9lib' M\u00e9tropole", "capacity": "14", "name": "Mairie du 8\u00e8me", "network": "V\u00e9lib\u2019 M\u00e9tropole", "network:wikidata": "Q1120762", "network:wikipedia": "fr:V\u00e9lib' M\u00e9tropole", "operator": "Smovengo", "operator:wikidata": "Q47008427", "operator:wikipedia": "fr:Smovengo", "ref": "8027", "source": "Autolib Velib M\u00e9tropole - 04/2019", "wikidata": "Q86255304"}}, {"type": "node", "id": 7369043469, "lat": 48.8905734, "lon": 2.3034851, "tags": {"amenity": "bicycle_rental", "bicycle_rental": "docking_station", "brand": "V\u00e9lib\u2019 M\u00e9tropole", "brand:wikidata": "Q1120762", "brand:wikipedia": "fr:V\u00e9lib' M\u00e9tropole", "capacity": "36", "name": "Porte d'Asni\u00e8res", "network": "V\u00e9lib\u2019 M\u00e9tropole", "network:wikidata": "Q1120762", "network:wikipedia": "fr:V\u00e9lib' M\u00e9tropole", "operator": "Smovengo", "operator:wikidata": "Q47008427", "operator:wikipedia": "fr:Smovengo", "ref": "17023", "source": "Autolib Velib M\u00e9tropole - 04/2020", "wikidata": "Q86238356"}}, {"type": "node", "id": 7369043470, "lat": 48.8878086, "lon": 2.3000953, "tags": {"amenity": "bicycle_rental", "bicycle_rental": "docking_station", "brand": "V\u00e9lib\u2019 M\u00e9tropole", "brand:wikidata": "Q1120762", "brand:wikipedia": "fr:V\u00e9lib' M\u00e9tropole", "capacity": "34", "name": "Alfred Roll - Berthier", "network": "V\u00e9lib\u2019 M\u00e9tropole", "network:wikidata": "Q1120762", "network:wikipedia": "fr:V\u00e9lib' M\u00e9tropole", "operator": "Smovengo", "operator:wikidata": "Q47008427", "operator:wikipedia": "fr:Smovengo", "ref": "17102", "source": "Autolib Velib M\u00e9tropole - 04/2020", "wikidata": "Q86238278"}}, {"type": "node", "id": 7371318702, "lat": 48.8900132, "lon": 2.3175738, "tags": {"amenity": "bicycle_rental", "bicycle_rental": "docking_station", "brand": "V\u00e9lib\u2019 M\u00e9tropole", "brand:wikidata": "Q1120762", "brand:wikipedia": "fr:V\u00e9lib' M\u00e9tropole", "capacity": "24", "name": "Lemercier - Cardinet", "network": "V\u00e9lib\u2019 M\u00e9tropole", "network:wikidata": "Q1120762", "network:wikipedia": "fr:V\u00e9lib' M\u00e9tropole", "operator": "Smovengo", "operator:wikidata": "Q47008427", "operator:wikipedia": "fr:Smovengo", "ref": "17111", "source": "Autolib Velib M\u00e9tropole - 04/2020", "wikidata": "Q86238196"}}, {"type": "node", "id": 7371318703, "lat": 48.8903236, "lon": 2.3197231, "tags": {"amenity": "bicycle_rental", "bicycle_rental": "docking_station", "brand": "V\u00e9lib\u2019 M\u00e9tropole", "brand:wikidata": "Q1120762", "brand:wikipedia": "fr:V\u00e9lib' M\u00e9tropole", "capacity": "53", "name": "Brochant - Clichy", "network": "V\u00e9lib\u2019 M\u00e9tropole", "network:wikidata": "Q1120762", "network:wikipedia": "fr:V\u00e9lib' M\u00e9tropole", "operator": "Smovengo", "operator:wikidata": "Q47008427", "operator:wikipedia": "fr:Smovengo", "ref": "17005", "source": "Autolib Velib M\u00e9tropole - 04/2020", "wikidata": "Q86238230"}}, {"type": "node", "id": 7371318704, "lat": 48.888187, "lon": 2.3168611, "tags": {"amenity": "bicycle_rental", "bicycle_rental": "docking_station", "brand": "V\u00e9lib\u2019 M\u00e9tropole", "brand:wikidata": "Q1120762", "brand:wikipedia": "fr:V\u00e9lib' M\u00e9tropole", "capacity": "31", "name": "Brochant - Square des Batignolles", "network": "V\u00e9lib\u2019 M\u00e9tropole", "network:wikidata": "Q1120762", "network:wikipedia": "fr:V\u00e9lib' M\u00e9tropole", "operator": "Smovengo", "operator:wikidata": "Q47008427", "operator:wikipedia": "fr:Smovengo", "ref": "17016", "source": "Autolib Velib M\u00e9tropole - 04/2020", "wikidata": "Q86238352"}}, {"type": "node", "id": 7371318705, "lat": 48.8861686, "lon": 2.3206239, "tags": {"amenity": "bicycle_rental", "capacity": "29", "name": "Bridaine - Lamand\u00e9", "network": "V\u00e9lib\u2019", "operator": "Smovengo", "ref": "17122", "source": "Autolib Velib M\u00e9tropole - 2021-03", "wikidata": "Q86238273"}}, {"type": "node", "id": 7371318706, "lat": 48.8844382, "lon": 2.32131, "tags": {"amenity": "bicycle_rental", "bicycle_rental": "docking_station", "brand": "V\u00e9lib\u2019 M\u00e9tropole", "brand:wikidata": "Q1120762", "capacity": "20", "name": "Mairie du 17\u00e8me", "network": "V\u00e9lib\u2019 M\u00e9tropole", "network:wikidata": "Q1120762", "operator": "Smovengo", "operator:wikidata": "Q47008427", "ref": "17012", "source": "Autolib Velib M\u00e9tropole - 2021-03", "wikidata": "Q86237831"}}, {"type": "node", "id": 7372863995, "lat": 48.8643275, "lon": 2.2724174, "tags": {"amenity": "bicycle_rental", "bicycle_rental": "docking_station", "brand": "V\u00e9lib\u2019 M\u00e9tropole", "brand:wikidata": "Q1120762", "brand:wikipedia": "fr:V\u00e9lib' M\u00e9tropole", "capacity": "18", "name": "Flandrin - Henri Martin", "network": "V\u00e9lib\u2019 M\u00e9tropole", "network:wikidata": "Q1120762", "network:wikipedia": "fr:V\u00e9lib' M\u00e9tropole", "operator": "Smovengo", "operator:wikidata": "Q47008427", "operator:wikipedia": "fr:Smovengo", "ref": "16018", "source": "Autolib Velib M\u00e9tropole - 04/2020", "wikidata": "Q86238604"}}, {"type": "node", "id": 7441899749, "lat": 48.8572435, "lon": 2.3152748, "tags": {"amenity": "bicycle_rental", "bicycle_rental": "docking_station", "brand": "V\u00e9lib\u2019 M\u00e9tropole", "brand:wikidata": "Q1120762", "brand:wikipedia": "fr:V\u00e9lib' M\u00e9tropole", "capacity": "47", "name": "Varenne", "network": "V\u00e9lib\u2019 M\u00e9tropole", "network:wikidata": "Q1120762", "network:wikipedia": "fr:V\u00e9lib' M\u00e9tropole", "operator": "Smovengo", "operator:wikidata": "Q47008427", "operator:wikipedia": "fr:Smovengo", "ref": "07015", "source": "Autolib Velib M\u00e9tropole - 04/2020", "wikidata": "Q86252345"}}, {"type": "node", "id": 9016775007, "lat": 48.8916309, "lon": 2.2999162}, {"type": "node", "id": 9016775008, "lat": 48.8916424, "lon": 2.2998975}, {"type": "node", "id": 9016775009, "lat": 48.8918088, "lon": 2.3001701}, {"type": "node", "id": 9016776400, "lat": 48.8918203, "lon": 2.3001514}, {"type": "node", "id": 9016776410, "lat": 48.8918015, "lon": 2.3001245}, {"type": "node", "id": 9016776413, "lat": 48.8917639, "lon": 2.3000709}, {"type": "node", "id": 9019780367, "lat": 48.888437, "lon": 2.2958591}, {"type": "node", "id": 9019780368, "lat": 48.8884496, "lon": 2.295841}, {"type": "node", "id": 9019780373, "lat": 48.8885473, "lon": 2.2959972}, {"type": "node", "id": 9019780374, "lat": 48.8885348, "lon": 2.2960154}, {"type": "node", "id": 9898240317, "lat": 48.8713772, "lon": 2.3139795, "tags": {"amenity": "bicycle_rental", "opening_hours": "24/7"}}, {"type": "node", "id": 9898240417, "lat": 48.856656, "lon": 2.3092175, "tags": {"amenity": "bicycle_rental", "bicycle_rental": "docking_station", "capacity": "21"}}, {"type": "node", "id": 9898240418, "lat": 48.8704024, "lon": 2.3012344, "tags": {"amenity": "bicycle_rental", "bicycle_rental": "docking_station", "capacity": "25"}}, {"type": "node", "id": 10002245617, "lat": 48.8736695, "lon": 2.2913535, "tags": {"amenity": "bicycle_rental", "contact:city": "Paris 16eme Arrondissement", "contact:housenumber": "8", "contact:phone": "+33 1 44 08 05 28", "contact:postcode": "75116", "contact:street": "Avenue Foch", "contact:website": "https://locations.hollandbikes.com/en/rent-a-bike-in-paris/", "level": "-1", "location": "underground", "name": "Holland Bikes Tours & Rentals - Paris 16", "opening_hours": "Mo-Su 09:00-18:00", "operator": "Holland Bikes", "reservation": "required", "self_service": "yes", "shop": "bicycle", "website": "https://locations.hollandbikes.com/location-de-velo-arc-de-triomphe/"}}, {"type": "node", "id": 10140477020, "lat": 48.8617203, "lon": 2.3195276, "tags": {"amenity": "bicycle_rental", "network": "V\u00e9lib", "survey:date": "2022-10-30"}}, {"type": "node", "id": 10671817997, "lat": 48.8745106, "lon": 2.2994717, "tags": {"amenity": "bicycle_rental", "bicycle_rental": "docking_station", "brand": "V\u00e9lib\u2019 M\u00e9tropole", "brand:wikidata": "Q1120762", "brand:wikipedia": "fr:V\u00e9lib' M\u00e9tropole", "capacity": "29", "name": "Ars\u00e8ne Houssaye - Friedland", "network": "V\u00e9lib\u2019 M\u00e9tropole", "network:wikidata": "Q1120762", "network:wikipedia": "fr:V\u00e9lib' M\u00e9tropole", "operator": "Smovengo", "operator:wikidata": "Q47008427", "operator:wikipedia": "fr:Smovengo", "ref": "8201", "wikidata": "Q116796006"}}, {"type": "node", "id": 10671861711, "lat": 48.8845717, "lon": 2.3214695, "tags": {"amenity": "bicycle_rental", "bicycle_rental": "docking_station", "brand": "V\u00e9lib\u2019 M\u00e9tropole", "brand:wikidata": "Q1120762", "brand:wikipedia": "fr:V\u00e9lib' M\u00e9tropole", "capacity": "20", "name": "Mariotte - Batignolles", "network": "V\u00e9lib\u2019 M\u00e9tropole", "network:wikidata": "Q1120762", "network:wikipedia": "fr:V\u00e9lib' M\u00e9tropole", "operator": "Smovengo", "operator:wikidata": "Q47008427", "operator:wikipedia": "fr:Smovengo", "ref": "17202", "wikidata": "Q116796022"}}, {"type": "way", "id": 974296862, "nodes": [9016775008, 9016776413, 9016776410, 9016776400, 9016775009, 9016775007, 9016775008], "tags": {"amenity": "bicycle_rental", "capacity": "26", "name": "Reims - Porte d'Asni\u00e8res", "network": "V\u00e9lib\u2019 M\u00e9tropole", "operator": "Smovengo", "ref": "17116", "wikidata": "Q86238208"}}, {"type": "way", "id": 974624250, "nodes": [9019780374, 9019780367, 9019780368, 9019780373, 9019780374], "tags": {"amenity": "bicycle_rental"}}]}