{"version": 0.6, "generator": "Overpass API 0.7.61.5 4133829e", "osm3s": {"timestamp_osm_base": "2023-12-09T23:49:30Z", "copyright": "The data included in this document is from www.openstreetmap.org. The data is made available under ODbL."}, "elements": [{"type": "node", "id": 26824135, "lat": 48.8448057, "lon": 2.3734794, "tags": {"SNCF:stop_name": "Paris-Gare-de-Lyon", "alt_name": "Paris - Gare de Lyon", "bench": "yes", "name": "Gare de Lyon", "name:ru": "\u041b\u0438\u043e\u043d\u0441\u043a\u0438\u0439 \u0432\u043e\u043a\u0437\u0430\u043b", "name:uk": "\u041b\u0456\u043e\u043d\u0441\u044c\u043a\u0438\u0439 \u0432\u043e\u043a\u0437\u0430\u043b", "note": "Please do not add the tag public_transport=station, it is already on the way that defines the footprint of the station", "opening_hours": "Mo-Su 04:45-01:30", "operator": "SNCF", "railway": "station", "railway:ref": "PLY", "railway:ref:DB": "XFPG", "ref:FR:STIF": "21958", "ref:FR:uic8": "87686006", "ref:SNCF": "PLY", "shelter": "yes", "source": "STIF - 12/2016", "train": "yes", "uic_ref": "8768600", "wheelchair": "yes", "wikidata": "Q747541", "wikipedia": "fr:Paris-Gare-de-Lyon"}}, {"type": "node", "id": 27371862, "lat": 48.8587782, "lon": 2.3474106, "tags": {"STIF:zone": "1", "name": "Ch\u00e2telet", "name:ru": "\u0428\u0430\u0442\u043b\u0435", "old_name": "Pont Notre-Dame;Pont Notre-Dame \u2013 Pont au Change", "operator": "RATP", "public_transport": "station", "railway": "station", "ref:FR:FANTOIR": "75101S090X;75104S090J", "ref:FR:RATP": "1964", "ref:FR:STIF": "21959", "source": "STIF - 12/2016", "station": "subway", "subway": "yes", "type:RATP": "metro", "wheelchair": "no", "wikidata": "Q601484", "wikipedia": "fr:Ch\u00e2telet (m\u00e9tro de Paris)"}}, {"type": "node", "id": 27371867, "lat": 48.8553907, "lon": 2.3604173, "tags": {"STIF:zone": "1", "addr:city": "Paris", "alt_name": "Saint-Paul (Le Marais)", "name": "Saint-Paul", "public_transport": "station", "railway": "station", "ref:FR:FANTOIR": "75104S523E", "ref:FR:RATP": "1695", "ref:FR:STIF": "22074", "source": "STIF - 12/2016", "station": "subway", "subway": "yes", "type:RATP": "metro", "wheelchair": "no", "wikidata": "Q1535005", "wikipedia": "fr:Saint-Paul (m\u00e9tro de Paris)"}}, {"type": "node", "id": 235374383, "lat": 48.8370444, "lon": 2.3728619, "tags": {"STIF:zone": "1", "name": "Quai de la Gare", "public_transport": "station", "railway": "station", "ref:FR:FANTOIR": "75113S471T", "ref:FR:RATP": "1742", "ref:FR:STIF": "22161", "source": "STIF - 12/2016", "station": "subway", "type:RATP": "metro", "wheelchair": "no", "wikidata": "Q1969659", "wikipedia": "fr:Quai de la Gare (m\u00e9tro de Paris)"}}, {"type": "node", "id": 241928557, "lat": 48.847611, "lon": 2.3955668, "tags": {"STIF:zone": "1", "check_date:wheelchair": "2021-10-06", "name": "Nation", "public_transport": "station", "railway": "station", "ref:FR:FANTOIR": "75112S361W", "ref:FR:RATP": "1758", "ref:FR:STIF": "22073", "source": "STIF - 12/2016", "station": "subway", "type:RATP": "metro", "wheelchair": "no", "wikidata": "Q1418711", "wikipedia": "fr:Nation (m\u00e9tro de Paris)"}}, {"type": "node", "id": 243490761, "lat": 48.8667079, "lon": 2.3833739, "tags": {"STIF:zone": "1", "name": "M\u00e9nilmontant", "public_transport": "stop_position", "railway": "station", "ref:FR:FANTOIR": "75111S328P", "ref:FR:RATP": "1754", "ref:FR:STIF": "22116", "source": "STIF - 12/2016", "station": "subway", "subway": "yes", "type:RATP": "metro", "wheelchair": "no", "wikidata": "Q119911", "wikipedia": "fr:M\u00e9nilmontant (m\u00e9tro de Paris)"}}, {"type": "node", "id": 243490762, "lat": 48.8629496, "lon": 2.3874348, "tags": {"STIF:zone": "1", "name": "P\u00e8re Lachaise", "name:ru": "\u041f\u0435\u0440-\u041b\u0430\u0448\u0435\u0437", "public_transport": "station", "railway": "station", "ref:FR:FANTOIR": "75120P017N;75111P018D;75111P017C", "ref:FR:RATP": "1741", "ref:FR:STIF": "22112", "source": "STIF - 12/2016", "station": "subway", "subway": "yes", "type:RATP": "metro", "wikidata": "Q176582", "wikipedia": "fr:P\u00e8re Lachaise (m\u00e9tro de Paris)"}}, {"type": "node", "id": 243490763, "lat": 48.8582563, "lon": 2.3901666, "tags": {"STIF:zone": "1", "name": "Philippe Auguste", "public_transport": "stop_position", "railway": "station", "ref:FR:FANTOIR": "75111S412F", "ref:FR:RATP": "1784", "ref:FR:STIF": "22113", "source": "STIF - 12/2016", "station": "subway", "subway": "yes", "type:RATP": "metro", "wheelchair": "no", "wikidata": "Q1785459", "wikipedia": "fr:Philippe Auguste (m\u00e9tro de Paris)"}}, {"type": "node", "id": 243490764, "lat": 48.8563062, "lon": 2.3944977, "tags": {"STIF:zone": "1", "name": "Alexandre Dumas", "old_name": "Bagnolet", "public_transport": "station", "railway": "station", "ref:FR:FANTOIR": "75111S003L", "ref:FR:RATP": "1978", "ref:FR:STIF": "22122", "source": "STIF - 12/2016", "station": "subway", "subway": "yes", "type:RATP": "metro", "wheelchair": "no", "wikidata": "Q1577219", "wikipedia": "fr:Alexandre Dumas (m\u00e9tro de Paris)"}}, {"type": "node", "id": 243493846, "lat": 48.869062, "lon": 2.3804698, "tags": {"STIF:zone": "1", "name": "Couronnes", "public_transport": "stop_position", "railway": "station", "ref:FR:FANTOIR": "75111S106Y", "ref:FR:RATP": "1893", "ref:FR:STIF": "22126", "source": "STIF - 12/2016", "station": "subway", "subway": "yes", "type:RATP": "metro", "wheelchair": "no", "wikidata": "Q1137705", "wikipedia": "fr:Couronnes (m\u00e9tro de Paris)"}}, {"type": "node", "id": 243507789, "lat": 48.8643338, "lon": 2.3794812, "tags": {"STIF:zone": "1", "name": "Rue Saint-Maur", "name:ru": "\u0420\u044e-\u0421\u0435\u043d-\u041c\u043e\u0440", "public_transport": "station", "railway": "station", "ref:FR:FANTOIR": "75111S520Y", "ref:FR:RATP": "1693", "ref:FR:STIF": "22025", "source": "STIF - 12/2016", "station": "subway", "subway": "yes", "type:RATP": "metro", "wheelchair": "no", "wikidata": "Q1315757", "wikipedia": "fr:Rue Saint-Maur (m\u00e9tro de Paris)"}}, {"type": "node", "id": 243507790, "lat": 48.8653786, "lon": 2.3739112, "tags": {"STIF:zone": "1", "name": "Parmentier", "name:ru": "\u041f\u0430\u0440\u043c\u0430\u043d\u0442\u044c\u0435", "public_transport": "station", "railway": "station", "ref:FR:FANTOIR": "75111S404X", "ref:FR:RATP": "1779", "ref:FR:STIF": "22019", "source": "STIF - 12/2016", "station": "subway", "subway": "yes", "type:RATP": "metro", "wheelchair": "no", "wikidata": "Q1970334", "wikipedia": "fr:Parmentier (m\u00e9tro de Paris)"}}, {"type": "node", "id": 243507792, "lat": 48.8664991, "lon": 2.3607114, "tags": {"STIF:zone": "1", "addr:city": "Paris", "name": "Temple", "name:fr": "Temple", "name:ru": "\u0422\u0430\u043c\u043f\u043b\u044c", "public_transport": "station", "railway": "station", "ref:FR:FANTOIR": "75103S562B", "ref:FR:RATP": "1634", "ref:FR:STIF": "22026", "source": "STIF - 12/2016", "station": "subway", "subway": "yes", "type:RATP": "metro", "wheelchair": "no", "wikidata": "Q1660212", "wikipedia": "fr:Temple (m\u00e9tro de Paris)"}}, {"type": "node", "id": 243507793, "lat": 48.8654414, "lon": 2.3561316, "tags": {"STIF:zone": "1", "addr:city": "Paris", "check_date:wheelchair": "2021-02-01", "name": "Arts et M\u00e9tiers", "name:ru": "\u0410\u0440-\u044d-\u041c\u0435\u0442\u044c\u0435", "operator": "RATP", "public_transport": "station", "railway": "station", "ref:FR:RATP": "1988", "ref:FR:STIF": "21994", "source": "STIF - 12/2016", "station": "subway", "subway": "yes", "type:RATP": "metro", "wheelchair": "no", "wikidata": "Q713944", "wikipedia": "fr:Arts et M\u00e9tiers (m\u00e9tro de Paris)"}}, {"type": "node", "id": 251387813, "lat": 48.8711191, "lon": 2.3607546, "tags": {"STIF:zone": "1", "name": "Jacques Bonsergent", "old_name": "Lancry", "public_transport": "stop_position", "railway": "station", "ref:FR:FANTOIR": "75110S251H", "ref:FR:RATP": "1859", "ref:FR:STIF": "22011", "source": "STIF - 12/2016", "station": "subway", "subway": "yes", "type:RATP": "metro", "wheelchair": "yes", "wikidata": "Q1677923", "wikipedia": "fr:Jacques Bonsergent (m\u00e9tro de Paris)"}}, {"type": "node", "id": 256443205, "lat": 48.8525808, "lon": 2.3887914, "tags": {"STIF:zone": "1", "name": "Rue des Boulets", "public_transport": "stop_position", "railway": "station", "ref:FR:FANTOIR": "75111S050M", "ref:FR:RATP": "1673", "ref:FR:STIF": "22442", "source": "STIF - 12/2016", "station": "subway", "subway": "yes", "type:RATP": "metro", "wheelchair": "no", "wikidata": "Q1969472", "wikipedia": "fr:Rue des Boulets (m\u00e9tro de Paris)"}}, {"type": "node", "id": 256443438, "lat": 48.8547441, "lon": 2.3853565, "tags": {"STIF:zone": "1", "alt_name": "Charonne (place du 6-F\u00e9vrier-1962)", "name": "Charonne", "public_transport": "station", "railway": "station", "ref:FR:FANTOIR": "75111S085A", "ref:FR:RATP": "1955", "ref:FR:STIF": "21934", "source": "STIF - 12/2016", "station": "subway", "subway": "yes", "type:RATP": "metro", "wheelchair": "no", "wikidata": "Q948012", "wikipedia": "fr:Charonne (m\u00e9tro de Paris)"}}, {"type": "node", "id": 256895321, "lat": 48.858158, "lon": 2.3798044, "tags": {"STIF:zone": "1", "alt_name": "Voltaire (L\u00e9on Blum)", "name": "Voltaire", "public_transport": "station", "railway": "station", "ref:FR:FANTOIR": "75111S591A", "ref:FR:RATP": "1657", "ref:FR:STIF": "21916", "source": "survey 2013", "station": "subway", "subway": "yes", "type:RATP": "metro", "wheelchair": "no", "wikidata": "Q1789126", "wikipedia": "fr:Voltaire (m\u00e9tro de Paris)"}}, {"type": "node", "id": 256895609, "lat": 48.8610516, "lon": 2.3747956, "tags": {"STIF:zone": "1", "name": "Saint-Ambroise", "public_transport": "station", "railway": "station", "ref:FR:FANTOIR": "75111S510M", "ref:FR:RATP": "1680", "ref:FR:STIF": "21910", "source": "STIF - 12/2016", "station": "subway", "subway": "yes", "type:RATP": "metro", "wheelchair": "no", "wikidata": "Q1450538", "wikipedia": "fr:Saint-Ambroise (m\u00e9tro de Paris)"}}, {"type": "node", "id": 256896059, "lat": 48.8640529, "lon": 2.3694165, "tags": {"STIF:zone": "1", "name": "Oberkampf", "public_transport": "station", "railway": "station", "ref:FR:FANTOIR": "75111S381X", "ref:FR:RATP": "1769", "ref:FR:STIF": "21925", "source": "STIF - 12/2016", "station": "subway", "subway": "yes", "type:RATP": "metro", "wheelchair": "no", "wikidata": "Q1578030", "wikipedia": "fr:Oberkampf (m\u00e9tro de Paris)"}}, {"type": "node", "id": 256897078, "lat": 48.8706233, "lon": 2.3487498, "tags": {"STIF:zone": "1", "name": "Bonne Nouvelle", "public_transport": "station", "railway": "station", "ref:FR:FANTOIR": "75102P003Z;75102P004A", "ref:FR:RATP": "2015", "ref:FR:STIF": "21933", "source": "STIF - 12/2016", "station": "subway", "subway": "yes", "type:RATP": "metro", "wheelchair": "no", "wikidata": "Q892720", "wikipedia": "fr:Bonne-Nouvelle (m\u00e9tro de Paris)"}}, {"type": "node", "id": 260078615, "lat": 48.8465067, "lon": 2.351764, "tags": {"STIF:zone": "1", "addr:city": "Paris", "name": "Cardinal Lemoine", "public_transport": "station", "railway": "station", "ref:FR:FANTOIR": "75105S074W", "ref:FR:RATP": "1942", "ref:FR:STIF": "21984", "source": "STIF - 12/2016", "station": "subway", "subway": "yes", "train": "yes", "type:RATP": "metro", "wheelchair": "no", "wikidata": "Q607342", "wikipedia": "fr:Cardinal Lemoine (m\u00e9tro de Paris)"}}, {"type": "node", "id": 260078619, "lat": 48.8501068, "lon": 2.3483706, "tags": {"STIF:zone": "1", "name": "Maubert - Mutualit\u00e9", "public_transport": "station", "railway": "station", "ref:FR:FANTOIR": "75105S327W", "ref:FR:RATP": "1834", "ref:FR:STIF": "21975", "source": "STIF - 12/2016", "station": "subway", "subway": "yes", "type:RATP": "metro", "wheelchair": "no", "wikidata": "Q1789145", "wikipedia": "fr:Maubert - Mutualit\u00e9 (m\u00e9tro de Paris)"}}, {"type": "node", "id": 260078622, "lat": 48.8511065, "lon": 2.3442097, "tags": {"STIF:zone": "1", "name": "Cluny-La Sorbonne", "old_name": "Cluny", "operator": "RATP Ile de France Mobilit\u00e9s", "public_transport": "station", "railway": "station", "ref:FR:FANTOIR": "75105S108H", "ref:FR:RATP": "54244", "ref:FR:STIF": "21983", "source": "STIF - 12/2016", "station": "subway", "subway": "yes", "type:RATP": "metro", "wheelchair": "limited", "wikidata": "Q1103432", "wikipedia": "fr:Cluny - La Sorbonne (m\u00e9tro de Paris)"}}, {"type": "node", "id": 260762378, "lat": 48.8390379, "lon": 2.3897217, "tags": {"STIF:zone": "1", "addr:city": "Paris", "name": "Dugommier", "old_name": "Charenton", "public_transport": "station", "railway": "station", "ref:FR:FANTOIR": "75112S125P", "ref:FR:RATP": "1906", "ref:FR:STIF": "22182", "source": "STIF - 12/2016", "station": "subway", "subway": "yes", "type:RATP": "metro", "wheelchair": "no", "wikidata": "Q602615", "wikipedia": "fr:Dugommier (m\u00e9tro de Paris)"}}, {"type": "node", "id": 260762540, "lat": 48.8401549, "lon": 2.3799474, "tags": {"STIF:zone": "1", "name": "Bercy", "operator": "RATP", "public_transport": "station", "railway": "station", "ref:FR:FANTOIR": "75112S040X", "ref:FR:RATP": "2005", "ref:FR:STIF": "22178", "station": "subway", "type:RATP": "metro", "wheelchair": "yes", "wikidata": "Q818853", "wikipedia": "fr:Bercy (m\u00e9tro de Paris)"}}, {"type": "node", "id": 264476971, "lat": 48.8633194, "lon": 2.3666323, "tags": {"STIF:zone": "1", "name": "Filles du Calvaire", "name:ru": "\u0424\u0438\u0439-\u0434\u044e-\u041a\u0430\u043b\u044c\u0432\u0435\u0440", "public_transport": "station", "railway": "station", "ref:FR:FANTOIR": "75111S164L", "ref:FR:RATP": "1919", "ref:FR:STIF": "22200", "source": "STIF - 12/2016", "station": "subway", "subway": "yes", "type:RATP": "metro", "wheelchair": "no", "wikidata": "Q1414178", "wikipedia": "fr:Filles du Calvaire (m\u00e9tro de Paris)"}}, {"type": "node", "id": 264479724, "lat": 48.8611816, "lon": 2.367234, "tags": {"STIF:zone": "1", "name": "Saint-S\u00e9bastien - Froissart", "name:ru": "\u0421\u0435\u043d-\u0421\u0435\u0431\u0430\u0441\u0442\u044c\u0435\u043d \u2014 \u0424\u0440\u0443\u0430\u0441\u0441\u0430\u0440", "operator": "RATP", "public_transport": "station", "railway": "station", "ref:FR:FANTOIR": "75111S527F", "ref:FR:RATP": "1699", "ref:FR:STIF": "22201", "source": "STIF - 12/2016", "station": "subway", "subway": "yes", "type:RATP": "metro", "wheelchair": "no", "wikidata": "Q550042", "wikipedia": "fr:Saint-S\u00e9bastien - Froissart (m\u00e9tro de Paris)"}}, {"type": "node", "id": 264479775, "lat": 48.8574434, "lon": 2.3681408, "tags": {"STIF:zone": "1", "name": "Chemin Vert", "name:ru": "\u0428\u0435\u043c\u0435\u043d-\u0412\u0435\u0440", "public_transport": "stop_position", "railway": "station", "ref:FR:FANTOIR": "75111S093J", "ref:FR:RATP": "1958", "ref:FR:STIF": "22202", "source": "STIF - 12/2016", "station": "subway", "subway": "yes", "toilets:wheelchair": "no", "type:RATP": "metro", "wheelchair": "no", "wikidata": "Q524191", "wikipedia": "fr:Chemin Vert (m\u00e9tro de Paris)"}}, {"type": "node", "id": 264480784, "lat": 48.8512945, "lon": 2.3760274, "tags": {"STIF:zone": "1", "name": "Ledru-Rollin", "name:ru": "\u041b\u0435\u0434\u0440\u044e-\u0420\u043e\u043b\u043b\u0435\u043d", "public_transport": "stop_position", "railway": "station", "ref:FR:FANTOIR": "75112S287R", "ref:FR:RATP": "1798", "ref:FR:STIF": "22203", "source": "STIF - 12/2016", "station": "subway", "subway": "yes", "type:RATP": "metro", "wheelchair": "no", "wikidata": "Q680787", "wikipedia": "fr:Ledru-Rollin (m\u00e9tro de Paris)"}}, {"type": "node", "id": 264481019, "lat": 48.8501609, "lon": 2.3842222, "tags": {"STIF:zone": "1", "check_date:wheelchair": "2021-11-19", "name": "Faidherbe \u2014 Chaligny", "name:ru": "\u0424\u0435\u0434\u0435\u0440\u0431 \u2014 \u0428\u0430\u043b\u0438\u043d\u044c\u0438", "public_transport": "station", "railway": "station", "ref:FR:FANTOIR": "75111S161H", "ref:FR:RATP": "1917", "ref:FR:STIF": "22204", "source": "STIF - 12/2016", "station": "subway", "subway": "yes", "type:RATP": "metro", "wheelchair": "no", "wikidata": "Q337855", "wikipedia": "fr:Faidherbe - Chaligny (m\u00e9tro de Paris)"}}, {"type": "node", "id": 264481854, "lat": 48.844304, "lon": 2.3901962, "tags": {"STIF:zone": "1", "name": "Montgallet", "name:ru": "\u041c\u043e\u043d\u0433\u0430\u043b\u0435", "public_transport": "station", "railway": "station", "ref:FR:FANTOIR": "75112S336U", "ref:FR:RATP": "1750", "ref:FR:STIF": "22205", "source": "STIF - 12/2016", "station": "subway", "subway": "yes", "type:RATP": "metro", "wheelchair": "no", "wikidata": "Q999159", "wikipedia": "fr:Montgallet (m\u00e9tro de Paris)"}}, {"type": "node", "id": 264514896, "lat": 48.8553245, "lon": 2.347542, "tags": {"STIF:zone": "1", "elevator": "yes", "level": "-2", "name": "Cit\u00e9", "name:ru": "\u0421\u0438\u0442\u044d", "network": "RATP", "operator": "RATP", "public_transport": "station", "railway": "station", "ref:FR:FANTOIR": "75104S095P", "ref:FR:RATP": "1969", "ref:FR:STIF": "22150", "source": "STIF - 12/2016", "station": "subway", "subway": "yes", "type:RATP": "metro", "wheelchair": "no", "wikidata": "Q1094294", "wikipedia": "fr:Cit\u00e9 (m\u00e9tro de Paris)"}}, {"type": "node", "id": 264515098, "lat": 48.8532864, "lon": 2.3435081, "tags": {"STIF:zone": "1", "heritage": "3", "heritage:operator": "mhs", "location": "underground", "mhs:inscription_date": "1978", "name": "Saint-Michel", "public_transport": "station", "railway": "station", "ref:FR:FANTOIR": "75106S522D", "ref:FR:RATP": "1694", "ref:FR:STIF": "412816", "ref:mhs": "PA00088479", "source": "STIF - 12/2016", "source:heritage": "data.gouv.fr:Minist\u00e8re de la Culture - 08/2011", "station": "subway", "subway": "yes", "type:RATP": "metro", "wheelchair": "yes", "wikidata": "Q1598555", "wikipedia": "fr:Saint-Michel (m\u00e9tro de Paris)"}}, {"type": "node", "id": 264591604, "lat": 48.8699854, "lon": 2.3710671, "tags": {"STIF:zone": "1", "alt_name": "Goncourt (H\u00f4pital Saint-Louis)", "name": "Goncourt", "public_transport": "stop_position", "railway": "station", "ref:FR:FANTOIR": "75111S195V", "ref:FR:RATP": "1849", "ref:FR:STIF": "21996", "source": "STIF - 12/2016", "station": "subway", "subway": "yes", "type:RATP": "metro", "wheelchair": "no", "wikidata": "Q1536969", "wikipedia": "fr:Goncourt (m\u00e9tro de Paris)"}}, {"type": "node", "id": 264769296, "lat": 48.8566333, "lon": 2.3704333, "tags": {"STIF:zone": "1", "name": "Br\u00e9guet-Sabin", "public_transport": "station", "railway": "station", "ref:FR:FANTOIR": "75111S053R", "ref:FR:RATP": "1933", "ref:FR:STIF": "22008", "source": "STIF - 12/2016", "station": "subway", "subway": "yes", "type:RATP": "metro", "wheelchair": "no", "wikidata": "Q777553", "wikipedia": "fr:Br\u00e9guet - Sabin (m\u00e9tro de Paris)"}}, {"type": "node", "id": 264769297, "lat": 48.8602134, "lon": 2.3720741, "tags": {"STIF:zone": "1", "name": "Richard Lenoir", "railway": "station", "ref:FR:FANTOIR": "75111S487M", "ref:FR:RATP": "1664", "ref:FR:STIF": "22002", "source": "STIF - 12/2016", "station": "subway", "type:RATP": "metro", "wheelchair": "no", "wikidata": "Q1789070", "wikipedia": "fr:Richard-Lenoir (m\u00e9tro de Paris)"}}, {"type": "node", "id": 264785951, "lat": 48.8513954, "lon": 2.3618174, "tags": {"STIF:zone": "1", "name": "Sully - Morland", "name:ru": "\u0421\u044e\u043b\u043b\u0438 \u2014 \u041c\u043e\u0440\u043b\u0430\u043d", "old_name": "Pont Sully", "public_transport": "stop_position", "railway": "station", "ref:FR:FANTOIR": "75104S539X", "ref:FR:RATP": "1630", "ref:FR:STIF": "22369", "source": "STIF - 12/2016", "station": "subway", "subway": "yes", "type:RATP": "metro", "wheelchair": "no", "wikidata": "Q257465", "wikipedia": "fr:Sully - Morland (m\u00e9tro de Paris)"}}, {"type": "node", "id": 264785952, "lat": 48.8537872, "lon": 2.3565905, "tags": {"STIF:zone": "1", "alt_name": "Pont Marie (Cit\u00e9 des Arts)", "name": "Pont Marie", "name:ru": "\u041f\u043e\u043d-\u041c\u0430\u0440\u0438", "public_transport": "stop_position", "railway": "station", "ref:FR:FANTOIR": "75104S425Y", "ref:FR:RATP": "1711", "station": "subway", "subway": "yes", "type:RATP": "metro", "wheelchair": "no", "wikidata": "Q282600", "wikipedia": "fr:Pont Marie (m\u00e9tro de Paris)"}}, {"type": "node", "id": 264786014, "lat": 48.8429053, "lon": 2.3522772, "tags": {"STIF:zone": "1", "alt_name": "Place Monge (Jardin des Plantes)", "name": "Place Monge", "name:ru": "\u041f\u043b\u044f\u0441-\u041c\u043e\u043d\u0436", "public_transport": "stop_position", "railway": "station", "ref:FR:FANTOIR": "75105S335E", "ref:FR:RATP": "1788", "ref:FR:STIF": "22366", "source": "STIF - 12/2016", "station": "subway", "subway": "yes", "type:RATP": "metro", "wheelchair": "no", "wikidata": "Q177476", "wikipedia": "fr:Place Monge (m\u00e9tro de Paris)"}}, {"type": "node", "id": 264789025, "lat": 48.8406473, "lon": 2.3519334, "tags": {"STIF:zone": "1", "name": "Censier - Daubenton", "name:ru": "\u0421\u0430\u043d\u0441\u044c\u0435 \u2014 \u0414\u043e\u0431\u0430\u043d\u0442\u043e\u043d", "public_transport": "stop_position", "railway": "station", "ref:FR:FANTOIR": "75105S076Y", "ref:FR:RATP": "1944", "ref:FR:STIF": "22391", "source": "STIF - 12/2016", "station": "subway", "subway": "yes", "type:RATP": "metro", "wheelchair": "no", "wikidata": "Q938430", "wikipedia": "fr:Censier - Daubenton (m\u00e9tro de Paris)"}}, {"type": "node", "id": 264790337, "lat": 48.8356304, "lon": 2.3526735, "tags": {"STIF:zone": "1", "name": "Les Gobelins", "name:ru": "\u0413\u043e\u0431\u0435\u043b\u0435\u043d", "public_transport": "stop_position", "railway": "station", "ref:FR:FANTOIR": "75113S856L;75113S194S", "ref:FR:RATP": "1800", "ref:FR:STIF": "22383", "source": "STIF - 12/2016", "station": "subway", "subway": "yes", "type:RATP": "metro", "wheelchair": "no", "wikidata": "Q1783617", "wikipedia": "fr:Les Gobelins (m\u00e9tro de Paris)"}}, {"type": "node", "id": 265055434, "lat": 48.8382761, "lon": 2.3608491, "tags": {"STIF:zone": "1", "check_date:wheelchair": "2022-04-17", "name": "Saint-Marcel", "public_transport": "station", "railway": "station", "ref:FR:FANTOIR": "75113S519V", "ref:FR:RATP": "1691", "ref:FR:STIF": "22000", "source": "STIF - 12/2016", "station": "subway", "subway": "yes", "type:RATP": "metro", "wheelchair": "no", "wikidata": "Q587093", "wikipedia": "fr:Saint-Marcel (m\u00e9tro de Paris)"}}, {"type": "node", "id": 1308998006, "lat": 48.8435522, "lon": 2.3743151, "tags": {"alt_name": "Gare de Lyon RER", "level": "-3", "name": "Gare de Lyon", "note": "Please do not add the tag public_transport=station, it is already on the way that defines the footprint of the station", "official_name": "PARIS GARE DE LYON", "operator": "SNCF", "railway": "station", "ref:FR:STIF": "41396", "ref:FR:uic8": "87686030", "route_ref:FR:RER_D": "SOVA;FUCA;UOVA;VIPE;LOVA;VUCA;FOVA;LUCA;VOVA;MIPE;UUCA;SUCA;VOPA;MOPA;MIPA;FOPA;LOPA", "start_date": "1995-09-24", "station": "train", "train": "yes", "type:RATP": "rer", "uic_ref": "8768603", "wheelchair": "no"}}, {"type": "node", "id": 1731763794, "lat": 48.8482705, "lon": 2.3958306, "tags": {"STIF:zone": "1", "addr:street": "Place de la Nation", "alt_name": "Nation", "internet_access:fee": "no", "name": "Nation", "name:ru": "\u041d\u0430\u0441\u044c\u043e\u043d", "public_transport": "station", "railway": "station", "ref:FR:RATP": "1759", "ref:FR:STIF": "412808", "source": "STIF - 12/2016;https://50ans.apur.org/data/b4s3_home/fiche/102/04_place_nation_3b1ea.pdf", "start_date": "1969-12-14", "type:RATP": "rer", "uic_ref": "8775810", "website": "https://www.ratp.fr/", "wheelchair": "yes", "wikidata": "Q801232", "wikipedia": "fr:Gare de Nation"}}, {"type": "node", "id": 1823210835, "lat": 48.8391964, "lon": 2.382849, "tags": {"STIF:zone": "1", "bench": "yes", "name": "Paris-Bercy - Bourgogne-Pays d'Auvergne", "old_name": "Paris-Bercy", "operator": "SNCF", "railway": "station", "railway:ref": "PBY", "ref": "BERCY", "shelter": "yes", "source": "SNCF - 06/2013", "train": "yes", "uic_ref": "8768666", "wheelchair": "yes", "wikidata": "Q261320", "wikipedia": "fr:Gare de Paris-Bercy-Bourgogne-Pays d'Auvergne"}}, {"type": "node", "id": 3190883103, "lat": 48.8616513, "lon": 2.3470129, "tags": {"STIF:zone": "1", "name": "Ch\u00e2telet - Les Halles", "network": "RER (RATP SNCF)", "note": "Please do not add the tag public_transport=station, it is already on the way that defines the footprint of the station", "official_name": "CHATELET LES HALLES", "operator": "RATP", "railway": "station", "ref:FR:RATP": "1967", "ref:FR:STIF": "412815", "ref:FR:uic8": "87758607", "route_ref:FR:RER_D": "SOVA;FUCA;UOVA;VIPE;LOVA;VUCA;FOVA;LUCA;VOVA;MIPE;UUCA;SUCA;VOPA;MOPA;MIPA;FOPA;LOPA", "source": "STIF - 12/2016", "start_date": "1977-12-09", "type:RATP": "rer", "uic_ref": "8775860", "wheelchair": "limited", "wikidata": "Q800627", "wikipedia": "fr:Gare de Ch\u00e2telet - Les Halles"}}, {"type": "node", "id": 3197007911, "lat": 48.8676215, "lon": 2.3637014, "tags": {"STIF:zone": "1", "location": "underground", "name": "R\u00e9publique", "name:de": "Republik", "name:fr": "R\u00e9publique", "name:ru": "\u0420\u0435\u043f\u044e\u0431\u043b\u0438\u043a", "network": "RATP", "operator": "RATP", "public_transport": "station", "railway": "station", "ref:FR:FANTOIR": "75111S485K", "ref:FR:RATP": "1679", "ref:FR:STIF": "21903", "source": "STIF - 12/2016", "station": "subway", "subway": "yes", "type:RATP": "metro", "wheelchair": "yes", "wikidata": "Q1341849"}}, {"type": "node", "id": 3419908160, "lat": 48.8412453, "lon": 2.3663585, "tags": {"STIF:zone": "1", "alt_name": "Austerlitz", "name": "Gare d'Austerlitz", "name:de": "Austerlitzer Bahnhof", "name:ru": "\u0413\u0430\u0440 \u0434'\u041e\u0441\u0442\u0435\u0440\u043b\u0438\u0446", "official_name": "Paris-Austerlitz", "old_name": "Gare d'Orl\u00e9ans", "operator": "SNCF", "railway": "station", "railway:ref": "PAZ", "railway:ref:DB": "XFPA", "ref": "RER C", "ref:FR:STIF": "41333", "ref:FR:uic8": "87547026;87547000", "ref:SNCF": "RER", "ref:SNCF:RER": "C", "uic_ref": "8754702;8754700", "wheelchair": "no", "wikidata": "Q734017", "wikipedia": "fr:Gare de Paris-Austerlitz"}}, {"type": "node", "id": 3419908164, "lat": 48.8464813, "lon": 2.3659024, "tags": {"STIF:zone": "1", "name": "Quai de la Rap\u00e9e", "old_name": "Place Mazas;Pont d\u2019Austerlitz", "public_transport": "station", "railway": "station", "ref:FR:FANTOIR": "75112S472S", "ref:FR:RATP": "1743", "ref:FR:STIF": "22004", "source": "STIF - 12/2016", "station": "subway", "subway": "yes", "type:RATP": "metro", "wheelchair": "no", "wikidata": "Q1969501", "wikipedia": "fr:Quai de la Rap\u00e9e (m\u00e9tro de Paris)"}}, {"type": "node", "id": 3430515272, "lat": 48.8677091, "lon": 2.3457466, "tags": {"STIF:zone": "1", "addr:city": "Paris", "name": "Sentier", "name:ru": "\u0421\u0430\u043d\u0442\u044c\u0435", "public_transport": "station", "railway": "station", "ref:FR:FANTOIR": "75102S531X", "ref:FR:RATP": "1702", "ref:FR:STIF": "22029", "source": "STIF - 12/2016", "station": "subway", "subway": "yes", "type:RATP": "metro", "wheelchair": "no", "wikidata": "Q1783889", "wikipedia": "fr:Sentier (m\u00e9tro de Paris)"}}, {"type": "node", "id": 3493828793, "lat": 48.8423727, "lon": 2.3656105, "tags": {"STIF:zone": "1", "name": "Gare d'Austerlitz", "old_name": "Gare d\u2019Orl\u00e9ans;Gare d\u2019Orl\u00e9ans \u2013 Austerlitz", "operator": "SNCF", "railway": "station", "ref:FR:RATP": "5605;1838;226221", "ref:FR:STIF": "41333", "source": "STIF - 12/2016", "station": "subway", "subway": "yes", "type:RATP": "metro;rer", "uic_ref": "8754700", "wheelchair": "no", "wikidata": "Q1494179", "wikipedia": "fr:Gare d'Austerlitz (m\u00e9tro de Paris)"}}, {"type": "node", "id": 3572156993, "lat": 48.8533538, "lon": 2.345784, "tags": {"STIF:zone": "1", "name": "Saint-Michel Notre-Dame", "note": "Please do not add the tag public_transport=station, it is already on the way that defines the footprint of the station", "official_name": "Saint-Michel Notre-Dame", "operator": "RATP Transilien SNCF Ile de France Mobilit\u00e9s", "railway": "station", "ref": "RER B, C", "ref:FR:RATP": "5604", "ref:FR:STIF": "22137", "ref:FR:uic8": "87547315", "ref:SNCF": "RER", "ref:SNCF:RER": "C", "source": "STIF - 12/2016", "type:RATP": "rer", "uic_ref": "8754731", "website": "https://www.vianavigo.com/", "wheelchair": "yes", "wikidata": "Q801394", "wikipedia": "fr:Gare Saint-Michel - Notre-Dame"}}, {"type": "node", "id": 4083286998, "lat": 48.8459626, "lon": 2.354801, "tags": {"STIF:zone": "1", "name": "Jussieu", "name:fr": "Jussieu", "name:ru": "\u0416\u044e\u0441\u0441\u044c\u0451", "operator": "RATP", "public_transport": "stop_position", "railway": "station", "ref:FR:FANTOIR": "75105S258W", "ref:FR:RATP": "1866", "ref:FR:STIF": "22386", "source": "STIF - 12/2016", "station": "subway", "subway": "yes", "train": "yes", "type:RATP": "metro", "wheelchair": "no", "wikidata": "Q1463644", "wikipedia": "fr:Jussieu (m\u00e9tro de Paris)"}}, {"type": "node", "id": 5226630382, "lat": 48.852987, "lon": 2.3688579, "tags": {"name": "Bastille", "public_transport": "station", "railway": "station", "ref:FR:RATP": "2000", "ref:FR:STIF": "22089", "source": "STIF - 12/2016", "station": "subway", "subway": "yes", "train": "yes", "type:RATP": "metro", "wheelchair": "no", "wikidata": "Q508256", "wikipedia": "fr:Bastille (m\u00e9tro de Paris)"}}, {"type": "node", "id": 5226630385, "lat": 48.8574911, "lon": 2.3515316, "tags": {"STIF:zone": "1", "addr:city": "Paris", "name": "H\u00f4tel de Ville", "public_transport": "station", "railway": "station", "ref": "01-15", "ref:FR:FANTOIR": "75104S225F", "ref:FR:RATP": "1855", "ref:FR:STIF": "21990", "source": "cadastre-dgi-fr source : Direction G\u00e9n\u00e9rale des Imp\u00f4ts - Cadastre. Mise \u00e0 jour : 2010", "station": "subway", "subway": "yes", "train": "yes", "type:RATP": "metro", "wheelchair": "no", "wikidata": "Q968939", "wikipedia": "fr:H\u00f4tel de Ville (m\u00e9tro de Paris)"}}, {"type": "node", "id": 5226630386, "lat": 48.8693002, "lon": 2.3542855, "tags": {"STIF:zone": "1", "check_date:opening_hours": "2021-10-26", "name": "Strasbourg - Saint-Denis", "old_name": "Boulevard Saint-Denis", "opening_hours": "Mo-Su 05:00-01:30", "operator": "RATP", "public_transport": "station", "railway": "station", "ref:FR:FANTOIR": "75102S537D", "ref:FR:RATP": "1628", "ref:FR:STIF": "22159", "source": "STIF - 12/2016", "station": "subway", "subway": "yes", "type:RATP": "metro", "wheelchair": "no", "wikidata": "Q1403165", "wikipedia": "fr:Strasbourg - Saint-Denis (m\u00e9tro de Paris)"}}, {"type": "node", "id": 5228032209, "lat": 48.8451709, "lon": 2.3725553, "tags": {"STIF:zone": "1", "name": "Gare de Lyon", "public_transport": "station", "railway": "station", "ref:FR:RATP": "1839", "ref:FR:STIF": "21958", "source": "STIF - 12/2016", "station": "subway", "subway": "yes", "type:RATP": "metro", "wheelchair": "no", "wikidata": "Q614049", "wikipedia": "fr:Gare de Lyon (m\u00e9tro de Paris)"}}, {"type": "node", "id": 5527816419, "lat": 48.8624659, "lon": 2.3460086, "tags": {"STIF:zone": "1", "name": "Les Halles", "network": "M\u00e9tro de Paris;RATP", "operator": "RATP", "public_transport": "station", "railway": "station", "ref:FR:FANTOIR": "75101S222R", "ref:FR:RATP": "1801", "ref:FR:STIF": "22146", "source": "STIF - 12/2016", "start_date": "1977-10-03", "station": "subway", "subway": "yes", "type:RATP": "metro", "wikidata": "Q1576810", "wikipedia": "fr:Les Halles (m\u00e9tro de Paris)"}}, {"type": "node", "id": 5527829149, "lat": 48.8662481, "lon": 2.3526084, "tags": {"STIF:zone": "1", "addr:city": "Paris", "name": "R\u00e9aumur - S\u00e9bastopol", "name:fr": "R\u00e9aumur - S\u00e9bastopol", "name:ru": "\u0420\u0435\u043e\u043c\u044e\u0440 \u2014 \u0421\u0435\u0431\u0430\u0441\u0442\u043e\u043f\u043e\u043b\u044c", "old_name": "Rue Saint-Denis", "operator": "RATP", "public_transport": "station", "railway": "station", "ref:FR:FANTOIR": "75102S484W", "ref:FR:RATP": "1676", "ref:FR:STIF": "22018", "station": "subway", "subway": "yes", "type:RATP": "metro", "wheelchair": "no", "wikidata": "Q669850", "wikipedia": "fr:R\u00e9aumur - S\u00e9bastopol (m\u00e9tro de Paris)"}}, {"type": "node", "id": 5527829165, "lat": 48.8638718, "lon": 2.3490301, "tags": {"STIF:zone": "1", "addr:city": "Paris", "name": "\u00c9tienne Marcel", "operator": "RATP", "public_transport": "station", "railway": "station", "ref:FR:FANTOIR": "75101S146H", "ref:FR:RATP": "1914", "ref:FR:STIF": "22147", "station": "subway", "subway": "yes", "type:RATP": "metro", "wheelchair": "no", "wikidata": "Q289916", "wikipedia": "fr:\u00c9tienne Marcel (m\u00e9tro de Paris)"}}, {"type": "node", "id": 9142503435, "lat": 48.8395922, "lon": 2.3962319, "tags": {"STIF:zone": "1", "alt_name": "Daumesnil (F\u00e9lix Ebou\u00e9)", "check_date:wheelchair": "2021-02-28", "name": "Daumesnil", "name:ru": "\u0414\u043e\u043c\u0435\u043d\u0438\u043b\u044c", "public_transport": "station", "railway": "station", "ref:FR:FANTOIR": "75112S122L", "ref:FR:RATP": "1901", "ref:FR:STIF": "22181", "source": "STIF - 12/2016", "station": "subway", "subway": "yes", "type:RATP": "metro", "wheelchair": "no", "wikidata": "Q1172977", "wikipedia": "fr:Daumesnil (m\u00e9tro de Paris)"}}, {"type": "node", "id": 9415542181, "lat": 48.8473574, "lon": 2.3867982, "tags": {"STIF:zone": "1", "addr:city": "Paris", "layer": "-2", "name": "Reuilly \u2014 Diderot", "name:ru": "\u0420\u0451\u0439\u0438 \u2014 \u0414\u0438\u0434\u0440\u043e", "public_transport": "station", "railway": "station", "ref:FR:FANTOIR": "75112S486G", "ref:FR:RATP": "1662", "ref:FR:STIF": "22098", "source": "STIF - 12/2016", "station": "subway", "subway": "yes", "type:RATP": "metro", "wheelchair": "no", "wikidata": "Q647271", "wikipedia": "fr:Reuilly - Diderot (m\u00e9tro de Paris)"}}, {"type": "node", "id": 10275184608, "lat": 48.8617648, "lon": 2.3537854, "tags": {"STIF:zone": "1", "name": "Rambuteau", "public_transport": "stop_position", "railway": "station", "ref:FR:FANTOIR": "75103S481N;75104S481J", "ref:FR:RATP": "1745", "ref:FR:STIF": "21992", "source": "STIF - 12/2016", "station": "subway", "subway": "yes", "type:RATP": "metro", "wheelchair": "no", "wikidata": "Q646376", "wikipedia": "fr:Rambuteau (m\u00e9tro de Paris)"}}]}