{"version": 0.6, "generator": "Overpass API 0.7.61.5 4133829e", "osm3s": {"timestamp_osm_base": "2023-12-09T22:50:21Z", "copyright": "The data included in this document is from www.openstreetmap.org. The data is made available under ODbL."}, "elements": [{"type": "node", "id": 998020842, "lat": 48.8667755, "lon": 2.3343748, "tags": {"amenity": "bicycle_rental", "bicycle_rental": "docking_station", "brand": "V\u00e9lib\u2019 M\u00e9tropole", "brand:wikidata": "Q1120762", "brand:wikipedia": "fr:V\u00e9lib' M\u00e9tropole", "capacity": "27", "name": "Ventadour - Op\u00e9ra", "network": "V\u00e9lib\u2019 M\u00e9tropole", "network:wikidata": "Q1120762", "network:wikipedia": "fr:V\u00e9lib' M\u00e9tropole", "operator": "Smovengo", "operator:wikidata": "Q47008427", "operator:wikipedia": "fr:Smovengo", "ref": "1116", "wikidata": "Q86255061"}}, {"type": "node", "id": 5363801429, "lat": 48.8781041, "lon": 2.3294724, "tags": {"amenity": "bicycle_rental", "bicycle_rental": "docking_station", "brand": "V\u00e9lib\u2019 M\u00e9tropole", "brand:wikidata": "Q1120762", "brand:wikipedia": "fr:V\u00e9lib' M\u00e9tropole", "capacity": "20", "name": "Ath\u00e8nes - Clichy", "network": "V\u00e9lib\u2019 M\u00e9tropole", "network:wikidata": "Q1120762", "network:wikipedia": "fr:V\u00e9lib' M\u00e9tropole", "operator": "Smovengo", "operator:wikidata": "Q47008427", "operator:wikipedia": "fr:Smovengo", "ref": "9036", "source": "Autolib Velib M\u00e9tropole - 04/2020", "wikidata": "Q86254706"}}, {"type": "node", "id": 5540287647, "lat": 48.8798271, "lon": 2.3454459}, {"type": "node", "id": 5540287648, "lat": 48.8798141, "lon": 2.3454382}, {"type": "node", "id": 5540287649, "lat": 48.8798674, "lon": 2.3452076}, {"type": "node", "id": 5540287650, "lat": 48.8798815, "lon": 2.3452153}, {"type": "node", "id": 5659056369, "lat": 48.8661047, "lon": 2.3454362, "tags": {"amenity": "bicycle_rental", "bicycle_rental": "docking_station", "brand": "V\u00e9lib\u2019 M\u00e9tropole", "brand:wikidata": "Q1120762", "brand:wikipedia": "fr:V\u00e9lib' M\u00e9tropole", "capacity": "33", "name": "Bachaumont - Montmartre", "network": "V\u00e9lib\u2019 M\u00e9tropole", "network:wikidata": "Q1120762", "network:wikipedia": "fr:V\u00e9lib' M\u00e9tropole", "note": "localisation aproximative dans open data paris (de 50m)", "operator": "Smovengo", "operator:wikidata": "Q47008427", "operator:wikipedia": "fr:Smovengo", "ref": "2101", "source": "Autolib Velib M\u00e9tropole - 04/2020", "wikidata": "Q86254761"}}, {"type": "node", "id": 5957673015, "lat": 48.8638545, "lon": 2.3425244}, {"type": "node", "id": 5957673016, "lat": 48.8638515, "lon": 2.3424921}, {"type": "node", "id": 6134818406, "lat": 48.8768665, "lon": 2.3327976, "tags": {"amenity": "bicycle_rental", "bicycle_rental": "docking_station", "brand": "V\u00e9lib\u2019 M\u00e9tropole", "brand:wikidata": "Q1120762", "brand:wikipedia": "fr:V\u00e9lib' M\u00e9tropole", "capacity": "39", "name": "Saint-Lazare - Place d'Estienne d'Orves", "network": "V\u00e9lib\u2019 M\u00e9tropole", "network:wikidata": "Q1120762", "network:wikipedia": "fr:V\u00e9lib' M\u00e9tropole", "operator": "Smovengo", "operator:wikidata": "Q47008427", "operator:wikipedia": "fr:Smovengo", "ref": "9029", "source": "Autolib Velib M\u00e9tropole - 04/2020", "wikidata": "Q86254588"}}, {"type": "node", "id": 6297078185, "lat": 48.8703804, "lon": 2.323324, "tags": {"amenity": "bicycle_rental", "bicycle_rental": "docking_station", "brand": "V\u00e9lib\u2019 M\u00e9tropole", "brand:wikidata": "Q1120762", "brand:wikipedia": "fr:V\u00e9lib' M\u00e9tropole", "capacity": "67", "name": "Malesherbes - Place de la Madeleine", "network": "V\u00e9lib\u2019 M\u00e9tropole", "network:wikidata": "Q1120762", "network:wikipedia": "fr:V\u00e9lib' M\u00e9tropole", "opening_hours": "24/7", "operator": "Smovengo", "operator:wikidata": "Q47008427", "operator:wikipedia": "fr:Smovengo", "ref": "8004", "source": "Autolib Velib M\u00e9tropole - 04/2020", "website": "https://www.velib-metropole.fr", "wikidata": "Q86255313"}}, {"type": "node", "id": 6418480208, "lat": 48.8712408, "lon": 2.3414049, "tags": {"amenity": "bicycle_rental", "bicycle_rental": "docking_station", "brand": "V\u00e9lib\u2019 M\u00e9tropole", "brand:wikidata": "Q1120762", "brand:wikipedia": "fr:V\u00e9lib' M\u00e9tropole", "capacity": "39", "name": "Vivienne - Montmartre", "network": "V\u00e9lib\u2019 M\u00e9tropole", "network:wikidata": "Q1120762", "network:wikipedia": "fr:V\u00e9lib' M\u00e9tropole", "operator": "Smovengo", "operator:wikidata": "Q47008427", "operator:wikipedia": "fr:Smovengo", "ref": "2108", "wikidata": "Q86254745"}}, {"type": "node", "id": 6423680104, "lat": 48.8756834, "lon": 2.3266255, "tags": {"amenity": "bicycle_rental", "bicycle_rental": "docking_station", "brand": "V\u00e9lib\u2019 M\u00e9tropole", "brand:wikidata": "Q1120762", "brand:wikipedia": "fr:V\u00e9lib' M\u00e9tropole", "capacity": "45", "level": "0", "name": "Gare Saint-Lazare - Cour du Havre", "network": "V\u00e9lib\u2019 M\u00e9tropole", "network:wikidata": "Q1120762", "network:wikipedia": "fr:V\u00e9lib' M\u00e9tropole", "operator": "Smovengo", "operator:wikidata": "Q47008427", "operator:wikipedia": "fr:Smovengo", "ref": "8002", "source": "Autolib Velib M\u00e9tropole - 04/2020", "wikidata": "Q86255300"}}, {"type": "node", "id": 6433028528, "lat": 48.8721989, "lon": 2.3294205, "tags": {"amenity": "bicycle_rental", "bicycle_rental": "docking_station", "brand": "V\u00e9lib\u2019 M\u00e9tropole", "brand:wikidata": "Q1120762", "brand:wikipedia": "fr:V\u00e9lib' M\u00e9tropole", "capacity": "14", "name": "Boudreau - Auber", "network": "V\u00e9lib\u2019 M\u00e9tropole", "network:wikidata": "Q1120762", "network:wikipedia": "fr:V\u00e9lib' M\u00e9tropole", "operator": "Smovengo", "operator:wikidata": "Q47008427", "operator:wikipedia": "fr:Smovengo", "ref": "9106", "source": "Autolib Velib M\u00e9tropole - 04/2020", "wikidata": "Q86254615"}}, {"type": "node", "id": 6433120265, "lat": 48.8729803, "lon": 2.3294795, "tags": {"amenity": "bicycle_rental", "bicycle_rental": "docking_station", "brand": "V\u00e9lib\u2019 M\u00e9tropole", "brand:wikidata": "Q1120762", "brand:wikipedia": "fr:V\u00e9lib' M\u00e9tropole", "capacity": "36", "name": "Mathurins - Auber", "network": "V\u00e9lib\u2019 M\u00e9tropole", "network:wikidata": "Q1120762", "network:wikipedia": "fr:V\u00e9lib' M\u00e9tropole", "operator": "Smovengo", "operator:wikidata": "Q47008427", "operator:wikipedia": "fr:Smovengo", "ref": "9032", "source": "Autolib Velib M\u00e9tropole - 04/2020", "wikidata": "Q86254650"}}, {"type": "node", "id": 6433803365, "lat": 48.8639458, "lon": 2.3356757, "tags": {"amenity": "bicycle_rental", "bicycle_rental": "docking_station", "brand": "V\u00e9lib\u2019 M\u00e9tropole", "brand:wikidata": "Q1120762", "brand:wikipedia": "fr:V\u00e9lib' M\u00e9tropole", "capacity": "19", "name": "Place Andr\u00e9 Malraux", "network": "V\u00e9lib\u2019 M\u00e9tropole", "network:wikidata": "Q1120762", "network:wikipedia": "fr:V\u00e9lib' M\u00e9tropole", "operator": "Smovengo", "operator:wikidata": "Q47008427", "operator:wikipedia": "fr:Smovengo", "ref": "1015", "source": "Autolib Velib M\u00e9tropole - 04/2020", "wikidata": "Q86255069"}}, {"type": "node", "id": 6549488949, "lat": 48.8762106, "lon": 2.3198369, "tags": {"amenity": "bicycle_rental", "bicycle_rental": "docking_station", "brand": "V\u00e9lib\u2019 M\u00e9tropole", "brand:wikidata": "Q1120762", "brand:wikipedia": "fr:V\u00e9lib' M\u00e9tropole", "capacity": "31", "fee": "yes", "name": "Saint-Augustin", "network": "V\u00e9lib\u2019 M\u00e9tropole", "network:wikidata": "Q1120762", "network:wikipedia": "fr:V\u00e9lib' M\u00e9tropole", "opening_hours": "24/7", "operator": "Smovengo", "operator:wikidata": "Q47008427", "operator:wikipedia": "fr:Smovengo", "payment:debit_cards": "yes", "ref": "8018", "source": "Autolib Velib M\u00e9tropole - 04/2020", "wikidata": "Q86255330"}}, {"type": "node", "id": 6596334443, "lat": 48.876741, "lon": 2.3304734, "tags": {"amenity": "bicycle_rental", "bicycle_rental": "docking_station", "brand": "V\u00e9lib\u2019 M\u00e9tropole", "brand:wikidata": "Q1120762", "brand:wikipedia": "fr:V\u00e9lib' M\u00e9tropole", "capacity": "25", "name": "Londres - Place d'Estienne d'Orves", "network": "V\u00e9lib\u2019 M\u00e9tropole", "network:wikidata": "Q1120762", "network:wikipedia": "fr:V\u00e9lib' M\u00e9tropole", "operator": "Smovengo", "operator:wikidata": "Q47008427", "operator:wikipedia": "fr:Smovengo", "ref": "9102", "source": "Autolib Velib M\u00e9tropole - 04/2020", "wikidata": "Q86254594"}}, {"type": "node", "id": 6596334444, "lat": 48.877754, "lon": 2.32735, "tags": {"amenity": "bicycle_rental", "bicycle_rental": "docking_station", "brand": "V\u00e9lib\u2019 M\u00e9tropole", "brand:wikidata": "Q1120762", "brand:wikipedia": "fr:V\u00e9lib' M\u00e9tropole", "capacity": "44", "name": "Gare Saint-Lazare - Place de Budapest", "network": "V\u00e9lib\u2019 M\u00e9tropole", "network:wikidata": "Q1120762", "network:wikipedia": "fr:V\u00e9lib' M\u00e9tropole", "operator": "Smovengo", "operator:wikidata": "Q47008427", "operator:wikipedia": "fr:Smovengo", "ref": "9035", "source": "Autolib Velib M\u00e9tropole - 04/2020", "wikidata": "Q86254622"}}, {"type": "node", "id": 6596334447, "lat": 48.8785057, "lon": 2.3250424, "tags": {"amenity": "bicycle_rental", "bicycle_rental": "docking_station", "brand": "V\u00e9lib\u2019 M\u00e9tropole", "brand:wikidata": "Q1120762", "brand:wikipedia": "fr:V\u00e9lib' M\u00e9tropole", "capacity": "27", "fee": "yes", "name": "Londres - Europe", "network": "V\u00e9lib\u2019 M\u00e9tropole", "network:wikidata": "Q1120762", "network:wikipedia": "fr:V\u00e9lib' M\u00e9tropole", "operator": "Smovengo", "operator:wikidata": "Q47008427", "operator:wikipedia": "fr:Smovengo", "ref": "8202", "source": "Autolib Velib M\u00e9tropole - 04/2020", "wikidata": "Q86255244"}}, {"type": "node", "id": 6755991828, "lat": 48.8779506, "lon": 2.3374655, "tags": {"amenity": "bicycle_rental", "bicycle_rental": "docking_station", "brand": "V\u00e9lib\u2019 M\u00e9tropole", "brand:wikidata": "Q1120762", "brand:wikipedia": "fr:V\u00e9lib' M\u00e9tropole", "capacity": "23", "name": "Saint-Georges - d'Aumale", "network": "V\u00e9lib\u2019 M\u00e9tropole", "network:wikidata": "Q1120762", "network:wikipedia": "fr:V\u00e9lib' M\u00e9tropole", "operator": "Smovengo", "operator:wikidata": "Q47008427", "operator:wikipedia": "fr:Smovengo", "payment:contactless": "yes", "payment:mastercard": "yes", "payment:visa": "yes", "ref": "9021", "source": "Autolib Velib M\u00e9tropole - 04/2020", "vending": "yes", "wikidata": "Q86254704"}}, {"type": "node", "id": 6763718003, "lat": 48.8638018, "lon": 2.3425753, "tags": {"amenity": "bicycle_rental", "bicycle_rental": "docking_station", "brand": "V\u00e9lib\u2019 M\u00e9tropole", "brand:wikidata": "Q1120762", "brand:wikipedia": "fr:V\u00e9lib' M\u00e9tropole", "capacity": "21", "name": "Coquilli\u00e8re - Louvre", "network": "V\u00e9lib\u2019 M\u00e9tropole", "network:wikidata": "Q1120762", "network:wikipedia": "fr:V\u00e9lib' M\u00e9tropole", "operator": "Smovengo", "operator:wikidata": "Q47008427", "operator:wikipedia": "fr:Smovengo", "ref": "1024", "source": "Autolib Velib M\u00e9tropole - 04/2020", "wikidata": "Q86255110"}}, {"type": "node", "id": 6795916694, "lat": 48.8636827, "lon": 2.3340472, "tags": {"amenity": "bicycle_rental", "bicycle_rental": "docking_station", "brand": "V\u00e9lib\u2019 M\u00e9tropole", "brand:wikidata": "Q1120762", "brand:wikipedia": "fr:V\u00e9lib' M\u00e9tropole", "capacity": "24", "name": "Rivoli - Mus\u00e9e du Louvre", "network": "V\u00e9lib\u2019 M\u00e9tropole", "network:wikidata": "Q1120762", "network:wikipedia": "fr:V\u00e9lib' M\u00e9tropole", "operator": "Smovengo", "operator:wikidata": "Q47008427", "operator:wikipedia": "fr:Smovengo", "ref": "1014", "source": "Autolib Velib M\u00e9tropole - 04/2020", "wikidata": "Q86255127"}}, {"type": "node", "id": 6795916698, "lat": 48.866462, "lon": 2.3344911, "tags": {"amenity": "bicycle_rental", "bicycle_rental": "docking_station", "brand": "V\u00e9lib\u2019 M\u00e9tropole", "brand:wikidata": "Q1120762", "brand:wikipedia": "fr:V\u00e9lib' M\u00e9tropole", "capacity": "25", "name": "Th\u00e9r\u00e8se - Op\u00e9ra", "network": "V\u00e9lib\u2019 M\u00e9tropole", "network:wikidata": "Q1120762", "network:wikipedia": "fr:V\u00e9lib' M\u00e9tropole", "operator": "Smovengo", "operator:wikidata": "Q47008427", "operator:wikipedia": "fr:Smovengo", "ref": "1016", "source": "Autolib Velib M\u00e9tropole - 04/2020", "wikidata": "Q86255098"}}, {"type": "node", "id": 6801503709, "lat": 48.8655676, "lon": 2.3306009, "tags": {"amenity": "bicycle_rental", "bicycle_rental": "docking_station", "brand": "V\u00e9lib\u2019 M\u00e9tropole", "brand:wikidata": "Q1120762", "brand:wikipedia": "fr:V\u00e9lib' M\u00e9tropole", "capacity": "20", "name": "Saint-Honor\u00e9 - 29 juillet", "network": "V\u00e9lib\u2019 M\u00e9tropole", "network:wikidata": "Q1120762", "network:wikipedia": "fr:V\u00e9lib' M\u00e9tropole", "operator": "Smovengo", "operator:wikidata": "Q47008427", "operator:wikipedia": "fr:Smovengo", "ref": "1017", "source": "Autolib Velib M\u00e9tropole - 04/2020", "wikidata": "Q86255058"}}, {"type": "node", "id": 6801503710, "lat": 48.8648016, "lon": 2.3294416, "tags": {"amenity": "bicycle_rental", "bicycle_rental": "docking_station", "brand": "V\u00e9lib\u2019 M\u00e9tropole", "brand:wikidata": "Q1120762", "brand:wikipedia": "fr:V\u00e9lib' M\u00e9tropole", "capacity": "21", "name": "Alger - Rivoli", "network": "V\u00e9lib\u2019 M\u00e9tropole", "network:wikidata": "Q1120762", "network:wikipedia": "fr:V\u00e9lib' M\u00e9tropole", "not:brand:wikidata": "Q1120762", "operator": "Smovengo", "operator:wikidata": "Q47008427", "operator:wikipedia": "fr:Smovengo", "ref": "1018", "source": "Autolib Velib M\u00e9tropole - 04/2020", "wikidata": "Q86255115"}}, {"type": "node", "id": 6801503711, "lat": 48.8661768, "lon": 2.3251794, "tags": {"amenity": "bicycle_rental", "bicycle_rental": "docking_station", "brand": "V\u00e9lib\u2019 M\u00e9tropole", "brand:wikidata": "Q1120762", "brand:wikipedia": "fr:V\u00e9lib' M\u00e9tropole", "capacity": "40", "name": "Cambon - Rivoli", "network": "V\u00e9lib\u2019 M\u00e9tropole", "network:wikidata": "Q1120762", "network:wikipedia": "fr:V\u00e9lib' M\u00e9tropole", "operator": "Smovengo", "operator:wikidata": "Q47008427", "operator:wikipedia": "fr:Smovengo", "ref": "1020", "source": "Autolib Velib M\u00e9tropole - 04/2020", "wheelchair": "no", "wikidata": "Q86255113"}}, {"type": "node", "id": 6801503712, "lat": 48.8682126, "lon": 2.3305029, "tags": {"amenity": "bicycle_rental", "bicycle_rental": "docking_station", "brand": "V\u00e9lib\u2019 M\u00e9tropole", "brand:wikidata": "Q1120762", "brand:wikipedia": "fr:V\u00e9lib' M\u00e9tropole", "capacity": "37", "name": "Danielle Casanova - Place Vend\u00f4me", "network": "V\u00e9lib\u2019 M\u00e9tropole", "network:wikidata": "Q1120762", "network:wikipedia": "fr:V\u00e9lib' M\u00e9tropole", "operator": "Smovengo", "operator:wikidata": "Q47008427", "operator:wikipedia": "fr:Smovengo", "ref": "1022", "source": "Autolib Velib M\u00e9tropole - 04/2020", "wikidata": "Q86254740"}}, {"type": "node", "id": 6801503713, "lat": 48.8634637, "lon": 2.3348827, "tags": {"amenity": "bicycle_rental", "bicycle_rental": "docking_station", "brand": "V\u00e9lib\u2019 M\u00e9tropole", "brand:wikidata": "Q1120762", "brand:wikipedia": "fr:V\u00e9lib' M\u00e9tropole", "capacity": "22", "name": "Saint-Honor\u00e9 - Mus\u00e9e du Louvre", "network": "V\u00e9lib\u2019 M\u00e9tropole", "network:wikidata": "Q1120762", "network:wikipedia": "fr:V\u00e9lib' M\u00e9tropole", "operator": "Smovengo", "operator:wikidata": "Q47008427", "operator:wikipedia": "fr:Smovengo", "ref": "1023", "source": "Autolib Velib M\u00e9tropole - 04/2020", "wikidata": "Q86255063"}}, {"type": "node", "id": 6801503714, "lat": 48.8635063, "lon": 2.3426393, "tags": {"amenity": "bicycle_rental", "bicycle_rental": "docking_station", "brand": "V\u00e9lib\u2019 M\u00e9tropole", "brand:wikidata": "Q1120762", "brand:wikipedia": "fr:V\u00e9lib' M\u00e9tropole", "capacity": "32", "name": "Les Halles - Saint-Eustache", "network": "V\u00e9lib\u2019 M\u00e9tropole", "network:wikidata": "Q1120762", "network:wikipedia": "fr:V\u00e9lib' M\u00e9tropole", "operator": "Smovengo", "operator:wikidata": "Q47008427", "operator:wikipedia": "fr:Smovengo", "ref": "1008", "source": "Autolib Velib M\u00e9tropole - 04/2020", "wikidata": "Q86255066"}}, {"type": "node", "id": 6801503716, "lat": 48.8634398, "lon": 2.3400532, "tags": {"amenity": "bicycle_rental", "bicycle_rental": "docking_station", "brand": "V\u00e9lib\u2019 M\u00e9tropole", "brand:wikidata": "Q1120762", "brand:wikipedia": "fr:V\u00e9lib' M\u00e9tropole", "capacity": "30", "name": "Place du Lieutenant Henri Karcher", "network": "V\u00e9lib\u2019 M\u00e9tropole", "network:wikidata": "Q1120762", "network:wikipedia": "fr:V\u00e9lib' M\u00e9tropole", "operator": "Smovengo", "operator:wikidata": "Q47008427", "operator:wikipedia": "fr:Smovengo", "ref": "1026", "source": "Autolib Velib M\u00e9tropole - 04/2020", "wikidata": "Q86255092"}}, {"type": "node", "id": 6910100841, "lat": 48.8650144, "lon": 2.3450705, "tags": {"amenity": "bicycle_rental", "bicycle_rental": "docking_station", "brand": "V\u00e9lib\u2019 M\u00e9tropole", "brand:wikidata": "Q1120762", "brand:wikipedia": "fr:V\u00e9lib' M\u00e9tropole", "capacity": "16", "name": "Montmartre - \u00c9tienne Marcel", "network": "V\u00e9lib\u2019 M\u00e9tropole", "network:wikidata": "Q1120762", "network:wikipedia": "fr:V\u00e9lib' M\u00e9tropole", "operator": "Smovengo", "operator:wikidata": "Q47008427", "operator:wikipedia": "fr:Smovengo", "ref": "2005", "source": "Autolib Velib M\u00e9tropole - 04/2020", "wikidata": "Q86254780"}}, {"type": "node", "id": 7075874105, "lat": 48.8760948, "lon": 2.3227115, "tags": {"amenity": "bicycle_rental", "bicycle_rental": "docking_station", "brand": "V\u00e9lib\u2019 M\u00e9tropole", "brand:wikidata": "Q1120762", "brand:wikipedia": "fr:V\u00e9lib' M\u00e9tropole", "capacity": "65", "name": "Rocher - Laborde", "network": "V\u00e9lib\u2019 M\u00e9tropole", "network:wikidata": "Q1120762", "network:wikipedia": "fr:V\u00e9lib' M\u00e9tropole", "operator": "Smovengo", "operator:wikidata": "Q47008427", "operator:wikipedia": "fr:Smovengo", "ref": "8017", "source": "Autolib Velib M\u00e9tropole - 04/2020", "unsigned_ref": "88140066", "wikidata": "Q86255282"}}, {"type": "node", "id": 7117966124, "lat": 48.8745619, "lon": 2.3284733, "tags": {"amenity": "bicycle_rental", "bicycle_rental": "docking_station", "brand": "V\u00e9lib\u2019 M\u00e9tropole", "brand:wikidata": "Q1120762", "brand:wikipedia": "fr:V\u00e9lib' M\u00e9tropole", "capacity": "22", "name": "Caumartin - Provence", "network": "V\u00e9lib\u2019 M\u00e9tropole", "network:wikidata": "Q1120762", "network:wikipedia": "fr:V\u00e9lib' M\u00e9tropole", "operator": "Smovengo", "operator:wikidata": "Q47008427", "operator:wikipedia": "fr:Smovengo", "ref": "9104", "source": "Autolib Velib M\u00e9tropole - 04/2020", "wikidata": "Q86254591"}}, {"type": "node", "id": 7117966125, "lat": 48.8718894, "lon": 2.3372173, "tags": {"amenity": "bicycle_rental", "bicycle_rental": "docking_station", "brand": "V\u00e9lib\u2019 M\u00e9tropole", "brand:wikidata": "Q1120762", "brand:wikipedia": "fr:V\u00e9lib' M\u00e9tropole", "capacity": "33", "name": "Laffitte - Italiens", "network": "V\u00e9lib\u2019 M\u00e9tropole", "network:wikidata": "Q1120762", "network:wikipedia": "fr:V\u00e9lib' M\u00e9tropole", "operator": "Smovengo", "operator:wikidata": "Q47008427", "operator:wikipedia": "fr:Smovengo", "ref": "9023", "source": "Autolib Velib M\u00e9tropole - 04/2020", "wikidata": "Q86254617"}}, {"type": "node", "id": 7117966126, "lat": 48.8733281, "lon": 2.3380856, "tags": {"amenity": "bicycle_rental", "bicycle_rental": "docking_station", "brand": "V\u00e9lib\u2019 M\u00e9tropole", "brand:wikidata": "Q1120762", "brand:wikipedia": "fr:V\u00e9lib' M\u00e9tropole", "capacity": "33", "name": "Rossini - Laffitte", "network": "V\u00e9lib\u2019 M\u00e9tropole", "network:wikidata": "Q1120762", "network:wikipedia": "fr:V\u00e9lib' M\u00e9tropole", "operator": "Smovengo", "operator:wikidata": "Q47008427", "operator:wikipedia": "fr:Smovengo", "ref": "9022", "source": "Autolib Velib M\u00e9tropole - 04/2020", "wikidata": "Q86254690"}}, {"type": "node", "id": 7117966127, "lat": 48.8751415, "lon": 2.3381176, "tags": {"amenity": "bicycle_rental", "bicycle_rental": "docking_station", "brand": "V\u00e9lib\u2019 M\u00e9tropole", "brand:wikidata": "Q1120762", "brand:wikipedia": "fr:V\u00e9lib' M\u00e9tropole", "capacity": "20", "name": "Victoire - Laffitte", "network": "V\u00e9lib\u2019 M\u00e9tropole", "network:wikidata": "Q1120762", "network:wikipedia": "fr:V\u00e9lib' M\u00e9tropole", "operator": "Smovengo", "operator:wikidata": "Q47008427", "operator:wikipedia": "fr:Smovengo", "ref": "9111", "source": "Autolib Velib M\u00e9tropole - 04/2020", "wikidata": "Q86254679"}}, {"type": "node", "id": 7117966128, "lat": 48.8733852, "lon": 2.3352971, "tags": {"amenity": "bicycle_rental", "bicycle_rental": "docking_station", "brand": "V\u00e9lib\u2019 M\u00e9tropole", "brand:wikidata": "Q1120762", "brand:wikipedia": "fr:V\u00e9lib' M\u00e9tropole", "capacity": "53", "name": "Taitbout - La Fayette", "network": "V\u00e9lib\u2019 M\u00e9tropole", "network:wikidata": "Q1120762", "network:wikipedia": "fr:V\u00e9lib' M\u00e9tropole", "operator": "Smovengo", "operator:wikidata": "Q47008427", "operator:wikipedia": "fr:Smovengo", "ref": "9024", "source": "Autolib Velib M\u00e9tropole - 04/2020", "wikidata": "Q86254612"}}, {"type": "node", "id": 7117966129, "lat": 48.876436, "lon": 2.3353612, "tags": {"amenity": "bicycle_rental", "bicycle_rental": "docking_station", "brand": "V\u00e9lib\u2019 M\u00e9tropole", "brand:wikidata": "Q1120762", "brand:wikipedia": "fr:V\u00e9lib' M\u00e9tropole", "capacity": "39", "name": "Taitbout - Ch\u00e2teaudun", "network": "V\u00e9lib\u2019 M\u00e9tropole", "network:wikidata": "Q1120762", "network:wikipedia": "fr:V\u00e9lib' M\u00e9tropole", "operator": "Smovengo", "operator:wikidata": "Q47008427", "operator:wikipedia": "fr:Smovengo", "ref": "9025", "source": "Autolib Velib M\u00e9tropole - 04/2020", "wikidata": "Q86254606"}}, {"type": "node", "id": 7117966130, "lat": 48.875053, "lon": 2.3316195, "tags": {"amenity": "bicycle_rental", "bicycle_rental": "docking_station", "brand": "V\u00e9lib\u2019 M\u00e9tropole", "brand:wikidata": "Q1120762", "brand:wikipedia": "fr:V\u00e9lib' M\u00e9tropole", "capacity": "24", "name": "Victoire - Chauss\u00e9e d'Antin", "network": "V\u00e9lib\u2019 M\u00e9tropole", "network:wikidata": "Q1120762", "network:wikipedia": "fr:V\u00e9lib' M\u00e9tropole", "operator": "Smovengo", "operator:wikidata": "Q47008427", "operator:wikipedia": "fr:Smovengo", "ref": "9116", "source": "Autolib Velib M\u00e9tropole - 04/2020", "wikidata": "Q86254698"}}, {"type": "node", "id": 7117966131, "lat": 48.872446, "lon": 2.3335802, "tags": {"amenity": "bicycle_rental", "bicycle_rental": "docking_station", "brand": "V\u00e9lib\u2019 M\u00e9tropole", "brand:wikidata": "Q1120762", "brand:wikipedia": "fr:V\u00e9lib' M\u00e9tropole", "capacity": "28", "name": "Chauss\u00e9e d'Antin - Haussmann", "network": "V\u00e9lib\u2019 M\u00e9tropole", "network:wikidata": "Q1120762", "network:wikipedia": "fr:V\u00e9lib' M\u00e9tropole", "operator": "Smovengo", "operator:wikidata": "Q47008427", "operator:wikipedia": "fr:Smovengo", "ref": "9039", "source": "Autolib Velib M\u00e9tropole - 04/2020", "wikidata": "Q86254692"}}, {"type": "node", "id": 7117966132, "lat": 48.8742783, "lon": 2.3331245, "tags": {"amenity": "bicycle_rental", "bicycle_rental": "docking_station", "brand": "V\u00e9lib\u2019 M\u00e9tropole", "brand:wikidata": "Q1120762", "brand:wikipedia": "fr:V\u00e9lib' M\u00e9tropole", "capacity": "25", "name": "Provence - Chauss\u00e9e d'Antin", "network": "V\u00e9lib\u2019 M\u00e9tropole", "network:wikidata": "Q1120762", "network:wikipedia": "fr:V\u00e9lib' M\u00e9tropole", "operator": "Smovengo", "operator:wikidata": "Q47008427", "operator:wikipedia": "fr:Smovengo", "ref": "9031", "source": "survey 01/2020", "wikidata": "Q86254661"}}, {"type": "node", "id": 7174435964, "lat": 48.8809357, "lon": 2.3245049, "tags": {"amenity": "bicycle_rental", "bicycle_rental": "docking_station", "brand": "V\u00e9lib\u2019 M\u00e9tropole", "brand:wikidata": "Q1120762", "brand:wikipedia": "fr:V\u00e9lib' M\u00e9tropole", "capacity": "15", "name": "Clapeyron - Moscou", "network": "V\u00e9lib\u2019 M\u00e9tropole", "network:wikidata": "Q1120762", "network:wikipedia": "fr:V\u00e9lib' M\u00e9tropole", "operator": "Smovengo", "operator:wikidata": "Q47008427", "operator:wikipedia": "fr:Smovengo", "ref": "8011", "source": "Autolib Velib M\u00e9tropole - 04/2020", "wikidata": "Q86255223"}}, {"type": "node", "id": 7368986182, "lat": 48.8734512, "lon": 2.3204045, "tags": {"amenity": "bicycle_rental", "bicycle_rental": "docking_station", "brand": "V\u00e9lib\u2019 M\u00e9tropole", "brand:wikidata": "Q1120762", "brand:wikipedia": "fr:V\u00e9lib' M\u00e9tropole", "capacity": "37", "name": "Roqu\u00e9pine - Malesherbes", "network": "V\u00e9lib\u2019 M\u00e9tropole", "network:wikidata": "Q1120762", "network:wikipedia": "fr:V\u00e9lib' M\u00e9tropole", "operator": "Smovengo", "operator:wikidata": "Q47008427", "operator:wikipedia": "fr:Smovengo", "ref": "8015", "source": "Autolib Velib M\u00e9tropole - 04/2019", "wikidata": "Q86255192"}}, {"type": "node", "id": 7368986183, "lat": 48.8732044, "lon": 2.3236622, "tags": {"amenity": "bicycle_rental", "bicycle_rental": "docking_station", "brand": "V\u00e9lib\u2019 M\u00e9tropole", "brand:wikidata": "Q1120762", "brand:wikipedia": "fr:V\u00e9lib' M\u00e9tropole", "capacity": "29", "name": "Square Louis XVI", "network": "V\u00e9lib\u2019 M\u00e9tropole", "network:wikidata": "Q1120762", "network:wikipedia": "fr:V\u00e9lib' M\u00e9tropole", "operator": "Smovengo", "operator:wikidata": "Q47008427", "operator:wikipedia": "fr:Smovengo", "ref": "8016", "source": "Autolib Velib M\u00e9tropole - 04/2019", "wikidata": "Q86255295"}}, {"type": "node", "id": 7368986184, "lat": 48.8697891, "lon": 2.3263471, "tags": {"amenity": "bicycle_rental", "bicycle_rental": "docking_station", "brand": "V\u00e9lib\u2019 M\u00e9tropole", "brand:wikidata": "Q1120762", "brand:wikipedia": "fr:V\u00e9lib' M\u00e9tropole", "capacity": "22", "name": "Godot de Mauroy - Madeleine", "network": "V\u00e9lib\u2019 M\u00e9tropole", "network:wikidata": "Q1120762", "network:wikipedia": "fr:V\u00e9lib' M\u00e9tropole", "operator": "Smovengo", "operator:wikidata": "Q47008427", "operator:wikipedia": "fr:Smovengo", "ref": "9034", "source": "Autolib Velib M\u00e9tropole - 04/2019", "wikidata": "Q86254675"}}, {"type": "node", "id": 7369001585, "lat": 48.8691022, "lon": 2.3244502, "tags": {"amenity": "bicycle_rental", "bicycle_rental": "docking_station", "brand": "V\u00e9lib\u2019 M\u00e9tropole", "brand:wikidata": "Q1120762", "brand:wikipedia": "fr:V\u00e9lib' M\u00e9tropole", "capacity": "26", "name": "Place de la Madeleine - Royale", "network": "V\u00e9lib\u2019 M\u00e9tropole", "network:wikidata": "Q1120762", "network:wikipedia": "fr:V\u00e9lib' M\u00e9tropole", "operator": "Smovengo", "operator:wikidata": "Q47008427", "operator:wikipedia": "fr:Smovengo", "ref": "8117", "source": "Autolib Velib M\u00e9tropole - 04/2019", "wikidata": "Q86255285"}}, {"type": "node", "id": 7369001586, "lat": 48.8732681, "lon": 2.3407533, "tags": {"amenity": "bicycle_rental", "bicycle_rental": "docking_station", "brand": "V\u00e9lib\u2019 M\u00e9tropole", "brand:wikidata": "Q1120762", "brand:wikipedia": "fr:V\u00e9lib' M\u00e9tropole", "capacity": "24", "name": "Mairie du 9\u00e8me", "network": "V\u00e9lib\u2019 M\u00e9tropole", "network:wikidata": "Q1120762", "network:wikipedia": "fr:V\u00e9lib' M\u00e9tropole", "operator": "Smovengo", "operator:wikidata": "Q47008427", "operator:wikipedia": "fr:Smovengo", "ref": "9013", "source": "Autolib Velib M\u00e9tropole - 04/2019", "wikidata": "Q86254644"}}, {"type": "node", "id": 7369001587, "lat": 48.8737831, "lon": 2.3445139, "tags": {"amenity": "bicycle_rental", "bicycle_rental": "docking_station", "brand": "V\u00e9lib\u2019 M\u00e9tropole", "brand:wikidata": "Q1120762", "brand:wikipedia": "fr:V\u00e9lib' M\u00e9tropole", "capacity": "20", "name": "Geoffroy - Marie", "network": "V\u00e9lib\u2019 M\u00e9tropole", "network:wikidata": "Q1120762", "network:wikipedia": "fr:V\u00e9lib' M\u00e9tropole", "operator": "Smovengo", "operator:wikidata": "Q47008427", "operator:wikipedia": "fr:Smovengo", "ref": "9011", "source": "Autolib Velib M\u00e9tropole - 04/2019", "wikidata": "Q86254687"}}, {"type": "node", "id": 7369001589, "lat": 48.870791, "lon": 2.343101, "tags": {"amenity": "bicycle_rental", "bicycle_rental": "docking_station", "brand": "V\u00e9lib\u2019 M\u00e9tropole", "brand:wikidata": "Q1120762", "brand:wikipedia": "fr:V\u00e9lib' M\u00e9tropole", "capacity": "29", "name": "Uz\u00e8s - Montmartre", "network": "V\u00e9lib\u2019 M\u00e9tropole", "network:wikidata": "Q1120762", "network:wikipedia": "fr:V\u00e9lib' M\u00e9tropole", "operator": "Smovengo", "operator:wikidata": "Q47008427", "operator:wikipedia": "fr:Smovengo", "ref": "2010", "source": "Autolib Velib M\u00e9tropole - 04/2019", "wikidata": "Q86254739"}}, {"type": "node", "id": 7369001591, "lat": 48.8682037, "lon": 2.3437952, "tags": {"amenity": "bicycle_rental", "bicycle_rental": "docking_station", "brand": "V\u00e9lib\u2019 M\u00e9tropole", "brand:wikidata": "Q1120762", "brand:wikipedia": "fr:V\u00e9lib' M\u00e9tropole", "capacity": "19", "name": "R\u00e9aumur - Montmartre", "network": "V\u00e9lib\u2019 M\u00e9tropole", "network:wikidata": "Q1120762", "network:wikipedia": "fr:V\u00e9lib' M\u00e9tropole", "operator": "Smovengo", "operator:wikidata": "Q47008427", "operator:wikipedia": "fr:Smovengo", "ref": "2109", "source": "Autolib Velib M\u00e9tropole - 04/2019", "wikidata": "Q86254750"}}, {"type": "node", "id": 7369001592, "lat": 48.8703107, "lon": 2.3419792, "tags": {"amenity": "bicycle_rental", "bicycle_rental": "docking_station", "brand": "V\u00e9lib\u2019 M\u00e9tropole", "brand:wikidata": "Q1120762", "brand:wikipedia": "fr:V\u00e9lib' M\u00e9tropole", "capacity": "37", "name": "Saint-Marc - Feydeau", "network": "V\u00e9lib\u2019 M\u00e9tropole", "network:wikidata": "Q1120762", "network:wikipedia": "fr:V\u00e9lib' M\u00e9tropole", "operator": "Smovengo", "operator:wikidata": "Q47008427", "operator:wikipedia": "fr:Smovengo", "ref": "2102", "source": "Autolib Velib M\u00e9tropole - 04/2019", "wikidata": "Q86254728"}}, {"type": "node", "id": 7369001593, "lat": 48.868866, "lon": 2.3397317, "tags": {"amenity": "bicycle_rental", "bicycle_rental": "docking_station", "brand": "V\u00e9lib\u2019 M\u00e9tropole", "brand:wikidata": "Q1120762", "brand:wikipedia": "fr:V\u00e9lib' M\u00e9tropole", "capacity": "58", "check_date": "2023-03-19", "name": "Filles Saint-Thomas - Place de la Bourse", "network": "V\u00e9lib\u2019 M\u00e9tropole", "network:wikidata": "Q1120762", "network:wikipedia": "fr:V\u00e9lib' M\u00e9tropole", "operator": "Smovengo", "operator:wikidata": "Q47008427", "operator:wikipedia": "fr:Smovengo", "ref": "2009", "source": "Autolib Velib M\u00e9tropole - 04/2019", "wikidata": "Q86254741"}}, {"type": "node", "id": 7369001594, "lat": 48.8699355, "lon": 2.3359975, "tags": {"amenity": "bicycle_rental", "bicycle_rental": "docking_station", "brand": "V\u00e9lib\u2019 M\u00e9tropole", "brand:wikidata": "Q1120762", "brand:wikipedia": "fr:V\u00e9lib' M\u00e9tropole", "capacity": "44", "name": "Choiseul - Quatre Septembre", "network": "V\u00e9lib\u2019 M\u00e9tropole", "network:wikidata": "Q1120762", "network:wikipedia": "fr:V\u00e9lib' M\u00e9tropole", "operator": "Smovengo", "operator:wikidata": "Q47008427", "operator:wikipedia": "fr:Smovengo", "ref": "2012", "source": "Autolib Velib M\u00e9tropole - 04/2019", "wikidata": "Q86254757"}}, {"type": "node", "id": 7369001595, "lat": 48.8705107, "lon": 2.3340478, "tags": {"amenity": "bicycle_rental", "bicycle_rental": "docking_station", "brand": "V\u00e9lib\u2019 M\u00e9tropole", "brand:wikidata": "Q1120762", "brand:wikipedia": "fr:V\u00e9lib' M\u00e9tropole", "capacity": "33", "name": "Louis le Grand - Italiens", "network": "V\u00e9lib\u2019 M\u00e9tropole", "network:wikidata": "Q1120762", "network:wikipedia": "fr:V\u00e9lib' M\u00e9tropole", "operator": "Smovengo", "operator:wikidata": "Q47008427", "operator:wikipedia": "fr:Smovengo", "ref": "2015", "source": "Autolib Velib M\u00e9tropole - 04/2019", "wikidata": "Q86254775"}}, {"type": "node", "id": 7369001596, "lat": 48.8691101, "lon": 2.3325069, "tags": {"amenity": "bicycle_rental", "bicycle_rental": "docking_station", "brand": "V\u00e9lib\u2019 M\u00e9tropole", "brand:wikidata": "Q1120762", "brand:wikipedia": "fr:V\u00e9lib' M\u00e9tropole", "capacity": "17", "name": "Daunou - Louis le Grand", "network": "V\u00e9lib\u2019 M\u00e9tropole", "network:wikidata": "Q1120762", "network:wikipedia": "fr:V\u00e9lib' M\u00e9tropole", "operator": "Smovengo", "operator:wikidata": "Q47008427", "operator:wikipedia": "fr:Smovengo", "ref": "2014", "source": "Autolib Velib M\u00e9tropole - 04/2019", "wikidata": "Q86254738"}}, {"type": "node", "id": 7369001597, "lat": 48.8676432, "lon": 2.3333894, "tags": {"amenity": "bicycle_rental", "bicycle_rental": "docking_station", "brand": "V\u00e9lib\u2019 M\u00e9tropole", "brand:wikidata": "Q1120762", "brand:wikipedia": "fr:V\u00e9lib' M\u00e9tropole", "capacity": "20", "name": "Danielle Casanova - Op\u00e9ra", "network": "V\u00e9lib\u2019 M\u00e9tropole", "network:wikidata": "Q1120762", "network:wikipedia": "fr:V\u00e9lib' M\u00e9tropole", "operator": "Smovengo", "operator:wikidata": "Q47008427", "operator:wikipedia": "fr:Smovengo", "ref": "2020", "source": "Autolib Velib M\u00e9tropole - 04/2019", "wikidata": "Q86254784"}}, {"type": "node", "id": 7369001598, "lat": 48.868289, "lon": 2.3380893, "tags": {"amenity": "bicycle_rental", "bicycle_rental": "docking_station", "brand": "V\u00e9lib\u2019 M\u00e9tropole", "brand:wikidata": "Q1120762", "brand:wikipedia": "fr:V\u00e9lib' M\u00e9tropole", "capacity": "17", "name": "Biblioth\u00e8que Nationale", "network": "V\u00e9lib\u2019 M\u00e9tropole", "network:wikidata": "Q1120762", "network:wikipedia": "fr:V\u00e9lib' M\u00e9tropole", "operator": "Smovengo", "operator:wikidata": "Q47008427", "operator:wikipedia": "fr:Smovengo", "ref": "2112", "source": "Autolib Velib M\u00e9tropole - 04/2020", "wikidata": "Q86254743"}}, {"type": "node", "id": 7369001599, "lat": 48.8672322, "lon": 2.3405014, "tags": {"amenity": "bicycle_rental", "bicycle_rental": "docking_station", "brand": "V\u00e9lib\u2019 M\u00e9tropole", "brand:wikidata": "Q1120762", "brand:wikipedia": "fr:V\u00e9lib' M\u00e9tropole", "capacity": "28", "name": "Mairie du 2\u00e8me", "network": "V\u00e9lib\u2019 M\u00e9tropole", "network:wikidata": "Q1120762", "network:wikipedia": "fr:V\u00e9lib' M\u00e9tropole", "operator": "Smovengo", "operator:wikidata": "Q47008427", "operator:wikipedia": "fr:Smovengo", "ref": "2008", "source": "Autolib Velib M\u00e9tropole - 04/2019", "wikidata": "Q86254735"}}, {"type": "node", "id": 7369001603, "lat": 48.867458, "lon": 2.3445211, "tags": {"amenity": "bicycle_rental", "bicycle_rental": "docking_station", "brand": "V\u00e9lib\u2019 M\u00e9tropole", "brand:wikidata": "Q1120762", "brand:wikipedia": "fr:V\u00e9lib' M\u00e9tropole", "capacity": "44", "name": "Cl\u00e9ry - Montmartre", "network": "V\u00e9lib\u2019 M\u00e9tropole", "network:wikidata": "Q1120762", "network:wikipedia": "fr:V\u00e9lib' M\u00e9tropole", "operator": "Smovengo", "operator:wikidata": "Q47008427", "operator:wikipedia": "fr:Smovengo", "ref": "2021", "source": "Autolib Velib M\u00e9tropole - 04/2019", "wikidata": "Q86254782"}}, {"type": "node", "id": 7369001604, "lat": 48.8660355, "lon": 2.3420334, "tags": {"amenity": "bicycle_rental", "bicycle_rental": "docking_station", "brand": "V\u00e9lib\u2019 M\u00e9tropole", "brand:wikidata": "Q1120762", "brand:wikipedia": "fr:V\u00e9lib' M\u00e9tropole", "capacity": "24", "name": "Place des Victoires", "network": "V\u00e9lib\u2019 M\u00e9tropole", "network:wikidata": "Q1120762", "network:wikipedia": "fr:V\u00e9lib' M\u00e9tropole", "operator": "Smovengo", "operator:wikidata": "Q47008427", "operator:wikipedia": "fr:Smovengo", "ref": "2006", "source": "Autolib Velib M\u00e9tropole - 04/2019", "wikidata": "Q86254737"}}, {"type": "node", "id": 7369043464, "lat": 48.8799553, "lon": 2.3213587, "tags": {"amenity": "bicycle_rental", "bicycle_rental": "docking_station", "brand": "V\u00e9lib\u2019 M\u00e9tropole", "brand:wikidata": "Q1120762", "brand:wikipedia": "fr:V\u00e9lib' M\u00e9tropole", "capacity": "26", "name": "Naples - Rome", "network": "V\u00e9lib\u2019 M\u00e9tropole", "network:wikidata": "Q1120762", "network:wikipedia": "fr:V\u00e9lib' M\u00e9tropole", "operator": "Smovengo", "operator:wikidata": "Q47008427", "operator:wikipedia": "fr:Smovengo", "ref": "8019", "source": "Autolib Velib M\u00e9tropole - 04/2019", "wikidata": "Q86255173"}}, {"type": "node", "id": 7369043465, "lat": 48.8779335, "lon": 2.318264, "tags": {"amenity": "bicycle_rental", "bicycle_rental": "docking_station", "brand": "V\u00e9lib\u2019 M\u00e9tropole", "brand:wikidata": "Q1120762", "brand:wikipedia": "fr:V\u00e9lib' M\u00e9tropole", "capacity": "14", "name": "Mairie du 8\u00e8me", "network": "V\u00e9lib\u2019 M\u00e9tropole", "network:wikidata": "Q1120762", "network:wikipedia": "fr:V\u00e9lib' M\u00e9tropole", "operator": "Smovengo", "operator:wikidata": "Q47008427", "operator:wikipedia": "fr:Smovengo", "ref": "8027", "source": "Autolib Velib M\u00e9tropole - 04/2019", "wikidata": "Q86255304"}}, {"type": "node", "id": 7369043466, "lat": 48.8771286, "lon": 2.3224173, "tags": {"amenity": "bicycle_rental", "bicycle_rental": "docking_station", "brand": "V\u00e9lib\u2019 M\u00e9tropole", "brand:wikidata": "Q1120762", "brand:wikipedia": "fr:V\u00e9lib' M\u00e9tropole", "capacity": "32", "name": "Gare Saint-Lazare - Stockholm", "network": "V\u00e9lib\u2019 M\u00e9tropole", "network:wikidata": "Q1120762", "network:wikipedia": "fr:V\u00e9lib' M\u00e9tropole", "operator": "Smovengo", "operator:wikidata": "Q47008427", "operator:wikipedia": "fr:Smovengo", "ref": "8110", "source": "Autolib Velib M\u00e9tropole - 04/2019", "wikidata": "Q86255306"}}, {"type": "node", "id": 7369043467, "lat": 48.8742294, "lon": 2.3255701, "tags": {"amenity": "bicycle_rental", "bicycle_rental": "docking_station", "brand": "V\u00e9lib\u2019 M\u00e9tropole", "brand:wikidata": "Q1120762", "brand:wikipedia": "fr:V\u00e9lib' M\u00e9tropole", "capacity": "30", "name": "Rome - Provence", "network": "V\u00e9lib\u2019 M\u00e9tropole", "network:wikidata": "Q1120762", "network:wikipedia": "fr:V\u00e9lib' M\u00e9tropole", "operator": "Smovengo", "operator:wikidata": "Q47008427", "operator:wikipedia": "fr:Smovengo", "ref": "8007", "source": "Autolib Velib M\u00e9tropole - 04/2019", "wikidata": "Q86255198"}}, {"type": "node", "id": 7369043468, "lat": 48.8747902, "lon": 2.3265264, "tags": {"amenity": "bicycle_rental", "bicycle_rental": "docking_station", "brand": "V\u00e9lib\u2019 M\u00e9tropole", "brand:wikidata": "Q1120762", "brand:wikipedia": "fr:V\u00e9lib' M\u00e9tropole", "capacity": "27", "name": "Gare Saint-Lazare - Isly", "network": "V\u00e9lib\u2019 M\u00e9tropole", "network:wikidata": "Q1120762", "network:wikipedia": "fr:V\u00e9lib' M\u00e9tropole", "operator": "Smovengo", "operator:wikidata": "Q47008427", "operator:wikipedia": "fr:Smovengo", "ref": "8009", "source": "Autolib Velib M\u00e9tropole - 04/2019", "wikidata": "Q86255188"}}, {"type": "node", "id": 7371231536, "lat": 48.880085, "lon": 2.3310797, "tags": {"amenity": "bicycle_rental", "bicycle_rental": "docking_station", "brand": "V\u00e9lib\u2019 M\u00e9tropole", "brand:wikidata": "Q1120762", "brand:wikipedia": "fr:V\u00e9lib' M\u00e9tropole", "capacity": "17", "name": "Moncey - Blanche", "network": "V\u00e9lib\u2019 M\u00e9tropole", "network:wikidata": "Q1120762", "network:wikipedia": "fr:V\u00e9lib' M\u00e9tropole", "operator": "Smovengo", "operator:wikidata": "Q47008427", "operator:wikipedia": "fr:Smovengo", "ref": "9028", "source": "Autolib Velib M\u00e9tropole - 04/2020", "wikidata": "Q86254683"}}, {"type": "node", "id": 7371231537, "lat": 48.8793983, "lon": 2.3337092, "tags": {"amenity": "bicycle_rental", "bicycle_rental": "docking_station", "brand": "V\u00e9lib\u2019 M\u00e9tropole", "brand:wikidata": "Q1120762", "brand:wikipedia": "fr:V\u00e9lib' M\u00e9tropole", "capacity": "17", "name": "Jean-Baptiste Pigalle - La Bruyere", "network": "V\u00e9lib\u2019 M\u00e9tropole", "network:wikidata": "Q1120762", "network:wikipedia": "fr:V\u00e9lib' M\u00e9tropole", "operator": "Smovengo", "operator:wikidata": "Q47008427", "operator:wikipedia": "fr:Smovengo", "ref": "9026", "source": "Autolib Velib M\u00e9tropole - 04/2020", "wikidata": "Q86254722"}}, {"type": "node", "id": 7371231538, "lat": 48.8795243, "lon": 2.3371209, "tags": {"amenity": "bicycle_rental", "bicycle_rental": "docking_station", "brand": "V\u00e9lib\u2019 M\u00e9tropole", "brand:wikidata": "Q1120762", "brand:wikipedia": "fr:V\u00e9lib' M\u00e9tropole", "capacity": "21", "name": "Toudouze - Clauzel", "network": "V\u00e9lib\u2019 M\u00e9tropole", "network:wikidata": "Q1120762", "network:wikipedia": "fr:V\u00e9lib' M\u00e9tropole", "operator": "Smovengo", "operator:wikidata": "Q47008427", "operator:wikipedia": "fr:Smovengo", "ref": "9020", "source": "Autolib Velib M\u00e9tropole - 04/2020", "wikidata": "Q86254572"}}, {"type": "node", "id": 7371231539, "lat": 48.879161, "lon": 2.343698, "tags": {"amenity": "bicycle_rental", "bicycle_rental": "docking_station", "brand": "V\u00e9lib\u2019 M\u00e9tropole", "brand:wikidata": "Q1120762", "brand:wikipedia": "fr:V\u00e9lib' M\u00e9tropole", "capacity": "17", "check_date": "2023-01-26", "name": "Tour d'Auvergne - Rodier", "network": "V\u00e9lib\u2019 M\u00e9tropole", "network:wikidata": "Q1120762", "network:wikipedia": "fr:V\u00e9lib' M\u00e9tropole", "operator": "Smovengo", "operator:wikidata": "Q47008427", "operator:wikipedia": "fr:Smovengo", "ref": "9008", "source": "Autolib Velib M\u00e9tropole - 04/2020", "wikidata": "Q86254603"}}, {"type": "node", "id": 7371231540, "lat": 48.8782554, "lon": 2.3452642, "tags": {"amenity": "bicycle_rental", "bicycle_rental": "docking_station", "brand": "V\u00e9lib\u2019 M\u00e9tropole", "brand:wikidata": "Q1120762", "brand:wikipedia": "fr:V\u00e9lib' M\u00e9tropole", "capacity": "31", "name": "Bellefond - Maubeuge", "network": "V\u00e9lib\u2019 M\u00e9tropole", "network:wikidata": "Q1120762", "network:wikipedia": "fr:V\u00e9lib' M\u00e9tropole", "operator": "Smovengo", "operator:wikidata": "Q47008427", "operator:wikipedia": "fr:Smovengo", "ref": "9117", "source": "Autolib Velib M\u00e9tropole - 04/2020", "wikidata": "Q86254609"}}, {"type": "node", "id": 7371231543, "lat": 48.8767199, "lon": 2.344393, "tags": {"amenity": "bicycle_rental", "bicycle_rental": "docking_station", "brand": "V\u00e9lib\u2019 M\u00e9tropole", "brand:wikidata": "Q1120762", "brand:wikipedia": "fr:V\u00e9lib' M\u00e9tropole", "capacity": "24", "name": "Rochechouart lamartine", "network": "V\u00e9lib\u2019 M\u00e9tropole", "network:wikidata": "Q1120762", "network:wikipedia": "fr:V\u00e9lib' M\u00e9tropole", "operator": "Smovengo", "operator:wikidata": "Q47008427", "operator:wikipedia": "fr:Smovengo", "ref": "9010", "source": "Autolib Velib M\u00e9tropole - 04/2020", "wikidata": "Q86254633"}}, {"type": "node", "id": 7371231544, "lat": 48.8782486, "lon": 2.3411569, "tags": {"amenity": "bicycle_rental", "bicycle_rental": "docking_station", "brand": "V\u00e9lib\u2019 M\u00e9tropole", "brand:wikidata": "Q1120762", "brand:wikipedia": "fr:V\u00e9lib' M\u00e9tropole", "capacity": "22", "name": "Milton - Manuel", "network": "V\u00e9lib\u2019 M\u00e9tropole", "network:wikidata": "Q1120762", "network:wikipedia": "fr:V\u00e9lib' M\u00e9tropole", "operator": "Smovengo", "operator:wikidata": "Q47008427", "operator:wikipedia": "fr:Smovengo", "ref": "9115", "source": "Autolib Velib M\u00e9tropole - 04/2020", "wikidata": "Q86254635"}}, {"type": "node", "id": 7371231545, "lat": 48.8777733, "lon": 2.3397465, "tags": {"amenity": "bicycle_rental", "bicycle_rental": "docking_station", "brand": "V\u00e9lib\u2019 M\u00e9tropole", "brand:wikidata": "Q1120762", "brand:wikipedia": "fr:V\u00e9lib' M\u00e9tropole", "capacity": "17", "name": "Choron - Martyrs", "network": "V\u00e9lib\u2019 M\u00e9tropole", "network:wikidata": "Q1120762", "network:wikipedia": "fr:V\u00e9lib' M\u00e9tropole", "operator": "Smovengo", "operator:wikidata": "Q47008427", "operator:wikipedia": "fr:Smovengo", "ref": "9016", "source": "Autolib Velib M\u00e9tropole - 04/2020", "wikidata": "Q86254586"}}, {"type": "node", "id": 7371231546, "lat": 48.876614, "lon": 2.3397657, "tags": {"amenity": "bicycle_rental", "bicycle_rental": "docking_station", "brand": "V\u00e9lib\u2019 M\u00e9tropole", "brand:wikidata": "Q1120762", "brand:wikipedia": "fr:V\u00e9lib' M\u00e9tropole", "capacity": "32", "name": "Lamartine - Faubourg Montmartre", "network": "V\u00e9lib\u2019 M\u00e9tropole", "network:wikidata": "Q1120762", "network:wikipedia": "fr:V\u00e9lib' M\u00e9tropole", "operator": "Smovengo", "operator:wikidata": "Q47008427", "operator:wikipedia": "fr:Smovengo", "ref": "9015", "source": "Autolib Velib M\u00e9tropole - 04/2020", "wikidata": "Q86254712"}}, {"type": "node", "id": 7371231547, "lat": 48.8752976, "lon": 2.3407941, "tags": {"amenity": "bicycle_rental", "bicycle_rental": "docking_station", "brand": "V\u00e9lib\u2019 M\u00e9tropole", "brand:wikidata": "Q1120762", "brand:wikipedia": "fr:V\u00e9lib' M\u00e9tropole", "capacity": "35", "name": "Faubourg Montmartre - La Fayette", "network": "V\u00e9lib\u2019 M\u00e9tropole", "network:wikidata": "Q1120762", "network:wikipedia": "fr:V\u00e9lib' M\u00e9tropole", "operator": "Smovengo", "operator:wikidata": "Q47008427", "operator:wikipedia": "fr:Smovengo", "ref": "9014", "source": "Autolib Velib M\u00e9tropole - 04/2020", "wikidata": "Q86254581"}}, {"type": "node", "id": 7426547569, "lat": 48.8714404, "lon": 2.3382935, "tags": {"amenity": "bicycle_rental", "bicycle_rental": "docking_station", "brand": "V\u00e9lib\u2019 M\u00e9tropole", "brand:wikidata": "Q1120762", "brand:wikipedia": "fr:V\u00e9lib' M\u00e9tropole", "capacity": "17", "name": "Favart - Italiens", "network": "V\u00e9lib\u2019 M\u00e9tropole", "network:wikidata": "Q1120762", "network:wikipedia": "fr:V\u00e9lib' M\u00e9tropole", "operator": "Smovengo", "operator:wikidata": "Q47008427", "operator:wikipedia": "fr:Smovengo", "ref": "2013", "wikidata": "Q86254759"}}, {"type": "node", "id": 7426558086, "lat": 48.8753507, "lon": 2.3228842, "tags": {"amenity": "bicycle_rental", "bicycle_rental": "docking_station", "brand": "V\u00e9lib\u2019 M\u00e9tropole", "brand:wikidata": "Q1120762", "brand:wikipedia": "fr:V\u00e9lib' M\u00e9tropole", "capacity": "18", "name": "Joseph Sansb\u0153uf - Saint-Lazare", "network": "V\u00e9lib\u2019 M\u00e9tropole", "network:wikidata": "Q1120762", "network:wikipedia": "fr:V\u00e9lib' M\u00e9tropole", "operator": "Smovengo", "operator:wikidata": "Q47008427", "operator:wikipedia": "fr:Smovengo", "ref": "8008", "wikidata": "Q86255175"}}, {"type": "node", "id": 9487023553, "lat": 48.8670374, "lon": 2.336716, "tags": {"amenity": "bicycle_rental", "bicycle_rental": "docking_station", "brand": "V\u00e9lib\u2019 M\u00e9tropole", "brand:wikidata": "Q1120762", "brand:wikipedia": "fr:V\u00e9lib' M\u00e9tropole", "capacity": "30", "name": "Chabanais - Petits Champs", "network": "V\u00e9lib\u2019 M\u00e9tropole", "network:wikidata": "Q1120762", "network:wikipedia": "fr:V\u00e9lib' M\u00e9tropole", "operator": "Smovengo", "operator:wikidata": "Q47008427", "operator:wikipedia": "fr:Smovengo", "ref": "2111", "source": "Autolib Velib M\u00e9tropole - 2022-01", "wikidata": "Q86254730"}}, {"type": "node", "id": 9617142288, "lat": 48.8637347, "lon": 2.3426487}, {"type": "node", "id": 9617142289, "lat": 48.8637555, "lon": 2.3426578}, {"type": "node", "id": 9898240318, "lat": 48.8691712, "lon": 2.3243816, "tags": {"amenity": "bicycle_rental", "bicycle_rental": "docking_station", "capacity": "26"}}, {"type": "node", "id": 10224617033, "lat": 48.8675301, "lon": 2.3447943}, {"type": "node", "id": 10224617034, "lat": 48.8675454, "lon": 2.3447841}, {"type": "node", "id": 10224617035, "lat": 48.8674257, "lon": 2.3443425}, {"type": "node", "id": 10224617036, "lat": 48.8674112, "lon": 2.3443523}, {"type": "node", "id": 10649422135, "lat": 48.8649889, "lon": 2.345063}, {"type": "node", "id": 10649422136, "lat": 48.8649947, "lon": 2.3450909}, {"type": "node", "id": 10649422137, "lat": 48.865054, "lon": 2.3450657}, {"type": "node", "id": 10649422138, "lat": 48.8650488, "lon": 2.3450377}, {"type": "node", "id": 10650894969, "lat": 48.8651263, "lon": 2.3450045}, {"type": "node", "id": 10650894970, "lat": 48.8651314, "lon": 2.3450323}, {"type": "node", "id": 10650894971, "lat": 48.8650717, "lon": 2.3450581}, {"type": "way", "id": 578111481, "nodes": [5540287650, 5540287649, 5540287648, 5540287647, 5540287650], "tags": {"amenity": "bicycle_rental", "brand": "V\u00e9lib\u2019 M\u00e9tropole", "brand:wikidata": "Q1120762", "capacity": "20", "name": "Condorcet - Turgot", "network": "V\u00e9lib\u2019 M\u00e9tropole", "network:wikidata": "Q1120762", "operator": "Smovengo", "operator:wikidata": "Q47008427", "ref": "9007", "source": "survey 2018; BDOrtho IGN", "wikidata": "Q86254724"}}, {"type": "way", "id": 1045530843, "nodes": [9617142288, 9617142289, 5957673015, 5957673016, 9617142288], "tags": {"amenity": "bicycle_rental", "bicycle_rental": "docking_station", "brand": "V\u00e9lib\u2019 M\u00e9tropole", "brand:wikidata": "Q1120762", "brand:wikipedia": "fr:V\u00e9lib' M\u00e9tropole", "capacity": "21", "name": "Coquilli\u00e8re - Louvre", "network": "V\u00e9lib\u2019 M\u00e9tropole", "network:wikidata": "Q1120762", "network:wikipedia": "fr:V\u00e9lib' M\u00e9tropole", "operator": "Smovengo", "operator:wikidata": "Q47008427", "operator:wikipedia": "fr:Smovengo"}}, {"type": "way", "id": 1117941577, "nodes": [10224617033, 10224617034, 10224617035, 10224617036, 10224617033], "tags": {"amenity": "bicycle_rental", "bicycle_rental": "docking_station", "brand": "V\u00e9lib\u2019 M\u00e9tropole", "brand:wikidata": "Q1120762", "capacity": "44", "name": "Cl\u00e9ry - Montmartre", "network": "V\u00e9lib\u2019 M\u00e9tropole", "network:wikidata": "Q1120762", "operator": "Smovengo", "operator:wikidata": "Q47008427"}}, {"type": "way", "id": 1144037197, "nodes": [10649422135, 10649422136, 10649422137, 10650894971, 10650894970, 10650894969, 10649422138, 10649422135], "tags": {"amenity": "bicycle_rental", "bicycle_rental": "docking_station", "brand": "V\u00e9lib\u2019 M\u00e9tropole", "brand:wikidata": "Q1120762", "capacity": "16", "name": "Montmartre - \u00c9tienne Marcel", "network": "V\u00e9lib\u2019 M\u00e9tropole", "network:wikidata": "Q1120762", "operator": "Smovengo", "operator:wikidata": "Q47008427"}}]}