{"version": 0.6, "generator": "Overpass API 0.7.61.5 4133829e", "osm3s": {"timestamp_osm_base": "2023-12-10T00:25:03Z", "copyright": "The data included in this document is from www.openstreetmap.org. The data is made available under ODbL."}, "elements": [{"type": "node", "id": 235371392, "lat": 48.8309446, "lon": 2.3558932, "tags": {"STIF:zone": "1", "name": "Place d'Italie", "name:es": "Plaza de Italia", "name:fr": "Place d'Italie", "name:ru": "\u041f\u043b\u044f\u0441 \u0434\u2019\u0418\u0442\u0430\u043b\u0438", "public_transport": "station", "railway": "station", "ref:FR:RATP": "1789", "ref:FR:STIF": "22168", "source": "STIF - 12/2016", "station": "subway", "subway": "yes", "type:RATP": "metro", "uic_ref": "8705548", "wheelchair": "no", "wikidata": "Q1537246", "wikipedia": "fr:Place d'Italie (m\u00e9tro de Paris)"}}, {"type": "node", "id": 235371394, "lat": 48.8331995, "lon": 2.3628272, "tags": {"STIF:zone": "1", "check_date:wheelchair": "2021-06-22", "name": "Nationale", "public_transport": "station", "railway": "station", "ref:FR:FANTOIR": "75113P016Z;75113P015Y", "ref:FR:RATP": "1761", "ref:FR:STIF": "22169", "source": "STIF - 12/2016", "station": "subway", "type:RATP": "metro", "wheelchair": "no", "wikidata": "Q661846", "wikipedia": "fr:Nationale (m\u00e9tro de Paris)"}}, {"type": "node", "id": 235371395, "lat": 48.83495, "lon": 2.3681023, "tags": {"STIF:zone": "1", "name": "Chevaleret", "public_transport": "station", "railway": "station", "ref:FR:FANTOIR": "75113S094H", "ref:FR:RATP": "1959", "ref:FR:STIF": "22174", "source": "STIF - 12/2016", "station": "subway", "subway": "yes", "type:RATP": "metro", "wheelchair": "no", "wikidata": "Q937680", "wikipedia": "fr:Chevaleret (m\u00e9tro de Paris)"}}, {"type": "node", "id": 268467197, "lat": 48.8260904, "lon": 2.3573505, "tags": {"STIF:zone": "1", "check_date:wheelchair": "2021-06-21", "name": "Tolbiac", "name:ru": "\u0422\u043e\u043b\u0431\u0438\u0430\u043a", "public_transport": "stop_position", "railway": "station", "ref:FR:FANTOIR": "75113S564U", "ref:FR:RATP": "1636", "ref:FR:STIF": "22370", "source": "STIF - 12/2016", "station": "subway", "subway": "yes", "type:RATP": "metro", "wheelchair": "no", "wikidata": "Q1576648", "wikipedia": "fr:Tolbiac (m\u00e9tro de Paris)"}}, {"type": "node", "id": 268467526, "lat": 48.8224745, "lon": 2.358504, "tags": {"STIF:zone": "1", "layer": "-3", "name": "Maison Blanche", "name:ru": "\u041c\u0435\u0437\u043e\u043d-\u0411\u043b\u0430\u043d\u0448", "public_transport": "stop_position", "railway": "station", "ref:FR:FANTOIR": "75113S318B", "ref:FR:RATP": "1820", "ref:FR:STIF": "22385", "source": "STIF - 12/2016", "station": "subway", "subway": "yes", "type:RATP": "metro", "wheelchair": "no", "wikidata": "Q1576642", "wikipedia": "fr:Maison Blanche (m\u00e9tro de Paris)"}}, {"type": "node", "id": 268467559, "lat": 48.8190866, "lon": 2.359533, "tags": {"STIF:zone": "1", "layer": "-2", "name": "Porte d'Italie", "name:ru": "\u041f\u043e\u0440\u0442-\u0434\u2019\u0418\u0442\u0430\u043b\u0438", "public_transport": "stop_position", "railway": "station", "ref:FR:FANTOIR": "75113S438G", "ref:FR:RATP": "1718", "ref:FR:STIF": "22380", "source": "STIF - 12/2016", "station": "subway", "subway": "yes", "type:RATP": "metro", "wheelchair": "no", "wikidata": "Q1783630", "wikipedia": "fr:Porte d'Italie (m\u00e9tro de Paris)"}}, {"type": "node", "id": 472985883, "lat": 48.8201241, "lon": 2.3647858, "tags": {"STIF:zone": "1", "name": "Porte de Choisy", "public_transport": "stop_position", "railway": "station", "ref:FR:FANTOIR": "75113S433B", "ref:FR:RATP": "1724", "ref:FR:STIF": "22373", "source": "STIF - 12/2016", "station": "subway", "subway": "yes", "type:RATP": "metro", "wheelchair": "no", "wikidata": "Q953454", "wikipedia": "fr:Porte de Choisy (m\u00e9tro de Paris)"}}, {"type": "node", "id": 1773094369, "lat": 48.8197321, "lon": 2.3641113, "tags": {"STIF:zone": "1", "name": "Porte de Choisy", "operator": "RATP", "public_transport": "stop_position", "railway": "tram_stop", "ref:FR:RATP": "136248", "ref:FR:STIF": "24120", "source": "survey", "tram": "yes", "type:RATP": "tram", "wheelchair": "yes", "wikidata": "Q28729740"}}, {"type": "node", "id": 1773094389, "lat": 48.8190455, "lon": 2.3601952, "tags": {"name": "Porte d'Italie", "operator": "RATP", "public_transport": "stop_position", "railway": "tram_stop", "tram": "yes", "type:RATP": "tram", "wikidata": "Q28729729"}}, {"type": "node", "id": 1773094392, "lat": 48.819075, "lon": 2.3601846, "tags": {"name": "Porte d'Italie", "operator": "RATP", "public_transport": "stop_position", "railway": "tram_stop", "tram": "yes", "type:RATP": "tram", "wikidata": "Q28729729"}}, {"type": "node", "id": 3325110405, "lat": 48.8297207, "lon": 2.3770491, "tags": {"STIF:zone": "1", "name": "Biblioth\u00e8que Fran\u00e7ois Mitterrand", "note": "Please do not add the tag public_transport=station, it is already on the way that defines the footprint of the station", "railway": "station", "ref:FR:FANTOIR": "75113S611V", "ref:FR:RATP": "51020", "ref:FR:STIF": "41128", "ref:FR:uic8": "87328328", "source": "RATP - 07/2012", "train": "yes", "type:RATP": "rer", "uic_ref": "8732832", "wheelchair": "yes", "wikidata": "Q2856214", "wikipedia": "fr:Gare de la Biblioth\u00e8que Fran\u00e7ois Mitterrand"}}, {"type": "node", "id": 5228032208, "lat": 48.8300059, "lon": 2.3768474, "tags": {"STIF:zone": "1", "name": "Biblioth\u00e8que Fran\u00e7ois Mitterrand", "railway": "station", "ref:FR:STIF": "21955", "station": "subway", "type:RATP": "metro", "wheelchair": "yes", "wikidata": "Q2856214", "wikipedia": "fr:Gare de la Biblioth\u00e8que Fran\u00e7ois Mitterrand"}}, {"type": "node", "id": 5726246818, "lat": 48.8216035, "lon": 2.3693411, "tags": {"STIF:zone": "1", "name": "Porte d'Ivry", "public_transport": "station", "railway": "station", "ref:FR:FANTOIR": "75113S439H", "ref:FR:RATP": "1719", "ref:FR:STIF": "22372", "source": "STIF - 12/2016", "station": "subway", "subway": "yes", "type:RATP": "metro", "wheelchair": "no", "wikidata": "Q1784015", "wikipedia": "fr:Porte d'Ivry (m\u00e9tro de Paris)"}}, {"type": "node", "id": 5747429906, "lat": 48.8218568, "lon": 2.3700816, "tags": {"STIF:zone": "1", "name": "Porte d'Ivry", "operator": "RATP", "public_transport": "stop_position", "railway": "tram_stop", "ref:FR:RATP": "136249", "tram": "yes", "type:RATP": "tram", "wheelchair": "yes"}}, {"type": "node", "id": 5747429907, "lat": 48.8218298, "lon": 2.3701033, "tags": {"STIF:zone": "1", "name": "Porte d'Ivry", "operator": "RATP", "public_transport": "stop_position", "railway": "tram_stop", "ref:FR:RATP": "136249", "tram": "yes", "type:RATP": "tram", "wheelchair": "yes"}}, {"type": "node", "id": 5897041297, "lat": 48.8194342, "lon": 2.365184, "tags": {"name": "Porte de Choisy", "operator": "Keolis", "public_transport": "stop_position", "railway": "tram_stop", "ref:FR:STIF": "478980", "source": "\u00cele-de-France Mobilit\u00e9s - 03/2022", "start_date": "2021-04-10", "tactile_paving": "yes", "tram": "yes"}}, {"type": "node", "id": 6501843808, "lat": 48.8243702, "lon": 2.3776455, "tags": {"name": "Maryse Basti\u00e9", "operator": "RATP", "public_transport": "stop_position", "railway": "tram_stop", "tram": "yes", "type:RATP": "tram", "wheelchair": "yes"}}, {"type": "node", "id": 6539675140, "lat": 48.8270448, "lon": 2.3664175, "tags": {"STIF:zone": "1", "name": "Olympiades", "network": "RATP", "public_transport": "station", "railway": "station", "ref:FR:RATP": "171507", "ref:FR:STIF": "21954", "source": "STIF - 12/2016", "station": "subway", "subway": "yes", "type:RATP": "metro", "wheelchair": "yes", "wikidata": "Q1673779", "wikipedia": "fr:Olympiades (m\u00e9tro de Paris)"}}, {"type": "node", "id": 6591900476, "lat": 48.8198294, "lon": 2.3640295, "tags": {"name": "Porte de Choisy", "operator": "RATP", "public_transport": "stop_position", "railway": "tram_stop", "ref:FR:STIF": "24126", "tram": "yes", "type:RATP": "tram", "wheelchair": "yes"}}, {"type": "node", "id": 6699554391, "lat": 48.824343, "lon": 2.3776648, "tags": {"name": "Maryse Basti\u00e9", "operator": "RATP", "public_transport": "stop_position", "railway": "tram_stop", "tram": "yes", "type:RATP": "tram", "wheelchair": "yes"}}, {"type": "node", "id": 7737448861, "lat": 48.8194484, "lon": 2.3652224, "tags": {"name": "Porte de Choisy", "operator": "Keolis", "public_transport": "stop_position", "railway": "tram_stop", "ref:FR:STIF": "478979", "source": "\u00cele-de-France Mobilit\u00e9s - 03/2022", "start_date": "2021-04-10", "tactile_paving": "yes", "tram": "yes"}}, {"type": "node", "id": 10169386217, "lat": 48.8351162, "lon": 2.3582026, "tags": {"STIF:zone": "1", "name": "Campo-Formio", "public_transport": "station", "railway": "station", "ref:FR:FANTOIR": "75113S073K", "ref:FR:RATP": "1941", "ref:FR:STIF": "22009", "source": "STIF - 12/2016", "station": "subway", "subway": "yes", "type:RATP": "metro", "wheelchair": "no", "wikidata": "Q683208", "wikipedia": "fr:Campo-Formio (m\u00e9tro de Paris)"}}, {"type": "node", "id": 11405200533, "lat": 48.8224798, "lon": 2.3584607, "tags": {"STIF:zone": "1", "layer": "-3", "name": "Maison Blanche", "name:ru": "\u041c\u0435\u0437\u043e\u043d-\u0411\u043b\u0430\u043d\u0448", "public_transport": "stop_position", "railway": "station", "ref:FR:FANTOIR": "75113S318B", "ref:FR:RATP": "1820", "ref:FR:STIF": "22385", "source": "STIF - 12/2016", "station": "subway", "subway": "yes", "type:RATP": "metro", "wheelchair": "no", "wikidata": "Q1576642", "wikipedia": "fr:Maison Blanche (m\u00e9tro de Paris)"}}, {"type": "node", "id": 11405200534, "lat": 48.8190862, "lon": 2.3594915, "tags": {"STIF:zone": "1", "layer": "-2", "name": "Porte d'Italie", "name:ru": "\u041f\u043e\u0440\u0442-\u0434\u2019\u0418\u0442\u0430\u043b\u0438", "public_transport": "stop_position", "railway": "station", "ref:FR:FANTOIR": "75113S438G", "ref:FR:RATP": "1718", "ref:FR:STIF": "22380", "source": "STIF - 12/2016", "station": "subway", "subway": "yes", "type:RATP": "metro", "wheelchair": "no", "wikidata": "Q1783630", "wikipedia": "fr:Porte d'Italie (m\u00e9tro de Paris)"}}]}