{"version": 0.6, "generator": "Overpass API 0.7.61.5 4133829e", "osm3s": {"timestamp_osm_base": "2023-12-09T23:49:30Z", "copyright": "The data included in this document is from www.openstreetmap.org. The data is made available under ODbL."}, "elements": [{"type": "node", "id": 428508903, "lat": 48.8803674, "lon": 2.3528307, "tags": {"amenity": "bicycle_rental", "bicycle_rental": "docking_station", "brand": "V\u00e9lib\u2019 M\u00e9tropole", "brand:wikidata": "Q1120762", "brand:wikipedia": "fr:V\u00e9lib' M\u00e9tropole", "capacity": "29", "name": "Gare du Nord - Dunkerque", "network": "V\u00e9lib\u2019 M\u00e9tropole", "network:wikidata": "Q1120762", "network:wikipedia": "fr:V\u00e9lib' M\u00e9tropole", "operator": "Smovengo", "operator:wikidata": "Q47008427", "operator:wikipedia": "fr:Smovengo", "ref": "10028", "source": "survey 10/2018", "wheelchair": "no", "wikidata": "Q86252960"}}, {"type": "node", "id": 2350539184, "lat": 48.8862282, "lon": 2.3688612, "tags": {"amenity": "bicycle_rental", "bicycle_rental": "docking_station", "brand": "V\u00e9lib\u2019 M\u00e9tropole", "brand:wikidata": "Q1120762", "brand:wikipedia": "fr:V\u00e9lib' M\u00e9tropole", "capacity": "19", "name": "Tanger - Place du Maroc", "network": "V\u00e9lib\u2019 M\u00e9tropole", "network:wikidata": "Q1120762", "network:wikipedia": "fr:V\u00e9lib' M\u00e9tropole", "operator": "Smovengo", "operator:wikidata": "Q47008427", "operator:wikipedia": "fr:Smovengo", "ref": "19109", "source": "Autolib Velib M\u00e9tropole - 04/2019", "wikidata": "Q86254929"}}, {"type": "node", "id": 5422046619, "lat": 48.8866841, "lon": 2.361445, "tags": {"amenity": "bicycle_rental", "bicycle_rental": "docking_station", "brand": "V\u00e9lib\u2019 M\u00e9tropole", "brand:wikidata": "Q1120762", "brand:wikipedia": "fr:V\u00e9lib' M\u00e9tropole", "capacity": "19", "name": "Departement - Pajol", "network": "V\u00e9lib\u2019 M\u00e9tropole", "network:wikidata": "Q1120762", "network:wikipedia": "fr:V\u00e9lib' M\u00e9tropole", "operator": "Smovengo", "operator:wikidata": "Q47008427", "operator:wikipedia": "fr:Smovengo", "ref": "18110", "source": "Autolib Velib M\u00e9tropole - 04/2019", "wikidata": "Q86254459"}}, {"type": "node", "id": 5422420400, "lat": 48.890199, "lon": 2.3603326, "tags": {"amenity": "bicycle_rental", "bicycle_rental": "dropoff_point", "brand": "V\u00e9lib'", "capacity": "29", "name": "Riquet - Marx Dormoy", "network": "V\u00e9lib\u2019", "operator": "Smovengo", "ref": "18010", "source": "Connaissance locale", "wikidata": "Q86254436"}}, {"type": "node", "id": 5470979535, "lat": 48.889479, "lon": 2.3627914, "tags": {"amenity": "bicycle_rental", "bicycle_rental": "docking_station", "brand": "V\u00e9lib\u2019 M\u00e9tropole", "brand:wikidata": "Q1120762", "brand:wikipedia": "fr:V\u00e9lib' M\u00e9tropole", "capacity": "47", "name": "Pajol - Riquet", "network": "V\u00e9lib\u2019 M\u00e9tropole", "network:wikidata": "Q1120762", "network:wikipedia": "fr:V\u00e9lib' M\u00e9tropole", "operator": "Smovengo", "operator:wikidata": "Q47008427", "operator:wikipedia": "fr:Smovengo", "payment:credit_cards": "yes", "ref": "18109", "source": "Autolib Velib M\u00e9tropole - 2021-03", "wikidata": "Q86254444"}}, {"type": "node", "id": 5540287647, "lat": 48.8798271, "lon": 2.3454459}, {"type": "node", "id": 5540287648, "lat": 48.8798141, "lon": 2.3454382}, {"type": "node", "id": 5540287649, "lat": 48.8798674, "lon": 2.3452076}, {"type": "node", "id": 5540287650, "lat": 48.8798815, "lon": 2.3452153}, {"type": "node", "id": 5569041170, "lat": 48.8935069, "lon": 2.3366674, "tags": {"amenity": "bicycle_rental", "bicycle_rental": "docking_station", "capacity": "30", "name": "Damr\u00e9mont - Ordener", "network": "V\u00e9lib\u2019", "operator": "Smovengo", "ref": "18027", "source": "Autolib Velib M\u00e9tropole - 2021-03", "wikidata": "Q86254466"}}, {"type": "node", "id": 5569041179, "lat": 48.8912197, "lon": 2.3512598, "tags": {"amenity": "bicycle_rental", "capacity": "35", "name": "Ordener - Poissonniers", "network": "V\u00e9lib\u2019", "operator": "Smovengo", "ref": "18023", "source": "Autolib Velib M\u00e9tropole - 2021-03", "wikidata": "Q86253526"}}, {"type": "node", "id": 5596256890, "lat": 48.8829038, "lon": 2.3463669, "tags": {"amenity": "bicycle_rental", "bicycle_rental": "docking_station", "brand": "V\u00e9lib\u2019 M\u00e9tropole", "brand:wikidata": "Q1120762", "brand:wikipedia": "fr:V\u00e9lib' M\u00e9tropole", "capacity": "21", "name": "G\u00e9rando - Rochechouart", "network": "V\u00e9lib\u2019 M\u00e9tropole", "network:wikidata": "Q1120762", "network:wikipedia": "fr:V\u00e9lib' M\u00e9tropole", "operator": "Smovengo", "operator:wikidata": "Q47008427", "operator:wikipedia": "fr:Smovengo", "ref": "9004", "source": "Autolib Velib M\u00e9tropole - 04/2019", "vending": "no", "wikidata": "Q86254667"}}, {"type": "node", "id": 5596257214, "lat": 48.8826283, "lon": 2.3449016, "tags": {"amenity": "bicycle_rental", "bicycle_rental": "docking_station", "brand": "V\u00e9lib\u2019 M\u00e9tropole", "brand:wikidata": "Q1120762", "brand:wikipedia": "fr:V\u00e9lib' M\u00e9tropole", "capacity": "33", "name": "Square d'Anvers", "network": "V\u00e9lib\u2019 M\u00e9tropole", "network:wikidata": "Q1120762", "network:wikipedia": "fr:V\u00e9lib' M\u00e9tropole", "operator": "Smovengo", "operator:wikidata": "Q47008427", "operator:wikipedia": "fr:Smovengo", "ref": "9005", "source": "Autolib Velib M\u00e9tropole - 04/2020", "vending": "no", "wikidata": "Q86254701"}}, {"type": "node", "id": 6121089376, "lat": 48.9068865, "lon": 2.3645986, "tags": {"amenity": "bicycle_rental", "bicycle_rental": "docking_station", "brand": "V\u00e9lib\u2019 M\u00e9tropole", "brand:wikidata": "Q1120762", "brand:wikipedia": "fr:V\u00e9lib' M\u00e9tropole", "capacity": "35", "name": "Place du Front Populaire - George Sand", "network": "V\u00e9lib\u2019 M\u00e9tropole", "network:wikidata": "Q1120762", "network:wikipedia": "fr:V\u00e9lib' M\u00e9tropole", "operator": "Smovengo", "operator:wikidata": "Q47008427", "operator:wikipedia": "fr:Smovengo", "ref": "32021", "source": "Autolib Velib M\u00e9tropole - 04/2020", "wikidata": "Q86255996"}}, {"type": "node", "id": 6126588905, "lat": 48.8961258, "lon": 2.3744823, "tags": {"amenity": "bicycle_rental", "bicycle_rental": "docking_station", "brand": "V\u00e9lib\u2019 M\u00e9tropole", "brand:wikidata": "Q1120762", "brand:wikipedia": "fr:V\u00e9lib' M\u00e9tropole", "capacity": "37", "name": "Gaston Tessier - Rosa Parks RER", "network": "V\u00e9lib\u2019 M\u00e9tropole", "network:wikidata": "Q1120762", "network:wikipedia": "fr:V\u00e9lib' M\u00e9tropole", "operator": "Smovengo", "operator:wikidata": "Q47008427", "operator:wikipedia": "fr:Smovengo", "ref": "19108", "source": "survey 2018-12", "wikidata": "Q86254810"}}, {"type": "node", "id": 6424068486, "lat": 48.8811578, "lon": 2.3366444, "tags": {"amenity": "bicycle_rental", "bicycle_rental": "docking_station", "brand": "V\u00e9lib\u2019 M\u00e9tropole", "brand:wikidata": "Q1120762", "brand:wikipedia": "fr:V\u00e9lib' M\u00e9tropole", "capacity": "18", "name": "Victor Mass\u00e9 - Jean-Baptiste Pigalle", "network": "V\u00e9lib\u2019 M\u00e9tropole", "network:wikidata": "Q1120762", "network:wikipedia": "fr:V\u00e9lib' M\u00e9tropole", "operator": "Smovengo", "operator:wikidata": "Q47008427", "operator:wikipedia": "fr:Smovengo", "ref": "9019", "wikidata": "Q86254719"}}, {"type": "node", "id": 6424080886, "lat": 48.9150167, "lon": 2.3577658, "tags": {"amenity": "bicycle_rental", "bicycle_rental": "docking_station", "brand": "V\u00e9lib\u2019 M\u00e9tropole", "brand:wikidata": "Q1120762", "brand:wikipedia": "fr:V\u00e9lib' M\u00e9tropole", "capacity": "40", "name": "Wilson - Landy", "network": "V\u00e9lib\u2019 M\u00e9tropole", "network:wikidata": "Q1120762", "network:wikipedia": "fr:V\u00e9lib' M\u00e9tropole", "operator": "Smovengo", "operator:wikidata": "Q47008427", "operator:wikipedia": "fr:Smovengo", "ref": "32004", "wikidata": "Q86255968"}}, {"type": "node", "id": 6424083985, "lat": 48.8819441, "lon": 2.3523463, "tags": {"amenity": "bicycle_rental", "bicycle_rental": "docking_station", "brand": "V\u00e9lib\u2019 M\u00e9tropole", "brand:wikidata": "Q1120762", "brand:wikipedia": "fr:V\u00e9lib' M\u00e9tropole", "capacity": "49", "name": "Gare du Nord - H\u00f4pital Lariboisi\u00e8re", "network": "V\u00e9lib\u2019 M\u00e9tropole", "network:wikidata": "Q1120762", "network:wikipedia": "fr:V\u00e9lib' M\u00e9tropole", "operator": "Smovengo", "operator:wikidata": "Q47008427", "operator:wikipedia": "fr:Smovengo", "ref": "10107", "wikidata": "Q86253005"}}, {"type": "node", "id": 6424085886, "lat": 48.9155494, "lon": 2.3814069, "tags": {"amenity": "bicycle_rental", "bicycle_rental": "docking_station", "brand": "V\u00e9lib\u2019 M\u00e9tropole", "brand:wikidata": "Q1120762", "brand:wikipedia": "fr:V\u00e9lib' M\u00e9tropole", "capacity": "29", "name": "Anatole France - Pr\u00e9sident Roosevelt", "network": "V\u00e9lib\u2019 M\u00e9tropole", "network:wikidata": "Q1120762", "network:wikipedia": "fr:V\u00e9lib' M\u00e9tropole", "operator": "Smovengo", "operator:wikidata": "Q47008427", "operator:wikipedia": "fr:Smovengo", "ref": "33017", "source": "Autolib Velib M\u00e9tropole - 04/2020", "wheelchair": "yes", "wikidata": "Q86255938"}}, {"type": "node", "id": 6424090385, "lat": 48.8809587, "lon": 2.3524469, "tags": {"amenity": "bicycle_rental", "bicycle_rental": "docking_station", "brand": "V\u00e9lib\u2019 M\u00e9tropole", "brand:wikidata": "Q1120762", "brand:wikipedia": "fr:V\u00e9lib' M\u00e9tropole", "capacity": "24", "name": "Gare du Nord - Saint-Vincent de Paul", "network": "V\u00e9lib\u2019 M\u00e9tropole", "network:wikidata": "Q1120762", "network:wikipedia": "fr:V\u00e9lib' M\u00e9tropole", "operator": "Smovengo", "operator:wikidata": "Q47008427", "operator:wikipedia": "fr:Smovengo", "ref": "10033", "source": "Autolib Velib M\u00e9tropole - 04/2020", "wikidata": "Q86252990"}}, {"type": "node", "id": 6433805360, "lat": 48.889501, "lon": 2.3333959, "tags": {"amenity": "bicycle_rental", "bicycle_rental": "docking_station", "capacity": "25", "name": "F\u00e9lix Ziem - Armand Gauthier", "network": "V\u00e9lib\u2019", "operator": "Smovengo", "ref": "18111", "source": "Autolib Velib M\u00e9tropole - 2021-03", "wikidata": "Q86253552"}}, {"type": "node", "id": 6466763535, "lat": 48.8811703, "lon": 2.3584076, "tags": {"amenity": "bicycle_rental", "bicycle_rental": "docking_station", "brand": "V\u00e9lib\u2019 M\u00e9tropole", "brand:wikidata": "Q1120762", "brand:wikipedia": "fr:V\u00e9lib' M\u00e9tropole", "capacity": "30", "name": "Gare du Nord - Demarquay", "network": "V\u00e9lib\u2019 M\u00e9tropole", "network:wikidata": "Q1120762", "network:wikipedia": "fr:V\u00e9lib' M\u00e9tropole", "operator": "Smovengo", "operator:wikidata": "Q47008427", "operator:wikipedia": "fr:Smovengo", "ref": "10163", "source": "Autolib Velib M\u00e9tropole - 04/2019;survey 2019-05", "wikidata": "Q86252941"}}, {"type": "node", "id": 6482326149, "lat": 48.8906822, "lon": 2.3761314, "tags": {"amenity": "bicycle_rental", "bicycle_rental": "docking_station", "brand": "V\u00e9lib\u2019 M\u00e9tropole", "brand:wikidata": "Q1120762", "brand:wikipedia": "fr:V\u00e9lib' M\u00e9tropole", "capacity": "55", "name": "Mathis - Flandre", "network": "V\u00e9lib\u2019 M\u00e9tropole", "network:wikidata": "Q1120762", "network:wikipedia": "fr:V\u00e9lib' M\u00e9tropole", "operator": "Smovengo", "operator:wikidata": "Q47008427", "operator:wikipedia": "fr:Smovengo", "ref": "19006", "source": "Autolib Velib M\u00e9tropole - 04/2019", "unsigned_ref": "78124875", "wikidata": "Q86254974"}}, {"type": "node", "id": 6482326150, "lat": 48.8880144, "lon": 2.3737587, "tags": {"amenity": "bicycle_rental", "bicycle_rental": "docking_station", "brand": "V\u00e9lib\u2019 M\u00e9tropole", "brand:wikidata": "Q1120762", "brand:wikipedia": "fr:V\u00e9lib' M\u00e9tropole", "capacity": "21", "name": "Flandre - Riquet", "network": "V\u00e9lib\u2019 M\u00e9tropole", "network:wikidata": "Q1120762", "network:wikipedia": "fr:V\u00e9lib' M\u00e9tropole", "operator": "Smovengo", "operator:wikidata": "Q47008427", "operator:wikipedia": "fr:Smovengo", "ref": "19005", "source": "Autolib Velib M\u00e9tropole - 04/2019", "unsigned_ref": "66491404", "wikidata": "Q86254926"}}, {"type": "node", "id": 6482326151, "lat": 48.8868062, "lon": 2.3747427, "tags": {"amenity": "bicycle_rental", "bicycle_rental": "docking_station", "brand": "V\u00e9lib\u2019 M\u00e9tropole", "brand:wikidata": "Q1120762", "brand:wikipedia": "fr:V\u00e9lib' M\u00e9tropole", "capacity": "19", "name": "Seine - Flandre", "network": "V\u00e9lib\u2019 M\u00e9tropole", "network:wikidata": "Q1120762", "network:wikipedia": "fr:V\u00e9lib' M\u00e9tropole", "operator": "Smovengo", "operator:wikidata": "Q47008427", "operator:wikipedia": "fr:Smovengo", "ref": "19029", "source": "Autolib Velib M\u00e9tropole - 04/2019", "unsigned_ref": "27363362", "wikidata": "Q86254916"}}, {"type": "node", "id": 6482326152, "lat": 48.8862961, "lon": 2.3773887, "tags": {"amenity": "bicycle_rental", "bicycle_rental": "docking_station", "brand": "V\u00e9lib\u2019 M\u00e9tropole", "brand:wikidata": "Q1120762", "brand:wikipedia": "fr:V\u00e9lib' M\u00e9tropole", "capacity": "30", "name": "Euryale Dehaynin - Loire", "network": "V\u00e9lib\u2019 M\u00e9tropole", "network:wikidata": "Q1120762", "network:wikipedia": "fr:V\u00e9lib' M\u00e9tropole", "operator": "Smovengo", "operator:wikidata": "Q47008427", "operator:wikipedia": "fr:Smovengo", "ref": "19117", "source": "Autolib Velib M\u00e9tropole - 04/2019", "unsigned_ref": "35080917", "wikidata": "Q86254893"}}, {"type": "node", "id": 6482326153, "lat": 48.889162, "lon": 2.3833824, "tags": {"amenity": "bicycle_rental", "bicycle_rental": "docking_station", "brand": "V\u00e9lib\u2019 M\u00e9tropole", "brand:wikidata": "Q1120762", "brand:wikipedia": "fr:V\u00e9lib' M\u00e9tropole", "capacity": "24", "name": "Thionville - Ourcq", "network": "V\u00e9lib\u2019 M\u00e9tropole", "network:wikidata": "Q1120762", "network:wikipedia": "fr:V\u00e9lib' M\u00e9tropole", "operator": "Smovengo", "operator:wikidata": "Q47008427", "operator:wikipedia": "fr:Smovengo", "ref": "19015", "source": "Autolib Velib M\u00e9tropole - 04/2019", "unsigned_ref": "50191171", "wikidata": "Q86254896"}}, {"type": "node", "id": 6482326154, "lat": 48.8863234, "lon": 2.382495, "tags": {"amenity": "bicycle_rental", "bicycle_rental": "docking_station", "brand": "V\u00e9lib\u2019 M\u00e9tropole", "brand:wikidata": "Q1120762", "brand:wikipedia": "fr:V\u00e9lib' M\u00e9tropole", "capacity": "19", "name": "Lorraine - Jean Jaur\u00e8s", "network": "V\u00e9lib\u2019 M\u00e9tropole", "network:wikidata": "Q1120762", "network:wikipedia": "fr:V\u00e9lib' M\u00e9tropole", "operator": "Smovengo", "operator:wikidata": "Q47008427", "operator:wikipedia": "fr:Smovengo", "ref": "19014", "source": "Autolib Velib M\u00e9tropole - 04/2019", "unsigned_ref": "80077998", "wikidata": "Q86254940"}}, {"type": "node", "id": 6482326155, "lat": 48.8888166, "lon": 2.3785548, "tags": {"amenity": "bicycle_rental", "bicycle_rental": "docking_station", "brand": "V\u00e9lib\u2019 M\u00e9tropole", "brand:wikidata": "Q1120762", "brand:wikipedia": "fr:V\u00e9lib' M\u00e9tropole", "capacity": "30", "name": "Place de l'\u00c9dit de Nantes", "network": "V\u00e9lib\u2019 M\u00e9tropole", "network:wikidata": "Q1120762", "network:wikipedia": "fr:V\u00e9lib' M\u00e9tropole", "operator": "Smovengo", "operator:wikidata": "Q47008427", "operator:wikipedia": "fr:Smovengo", "ref": "19125", "source": "Autolib Velib M\u00e9tropole - 04/2019", "unsigned_ref": "213699913", "wikidata": "Q86254899"}}, {"type": "node", "id": 6482373795, "lat": 48.8927464, "lon": 2.3792247, "tags": {"amenity": "bicycle_rental", "bicycle_rental": "docking_station", "brand": "V\u00e9lib\u2019 M\u00e9tropole", "brand:wikidata": "Q1120762", "brand:wikipedia": "fr:V\u00e9lib' M\u00e9tropole", "capacity": "30", "name": "Flandre - Ourcq", "network": "V\u00e9lib\u2019 M\u00e9tropole", "network:wikidata": "Q1120762", "network:wikipedia": "fr:V\u00e9lib' M\u00e9tropole", "operator": "Smovengo", "operator:wikidata": "Q47008427", "operator:wikipedia": "fr:Smovengo", "ref": "19007", "source": "Autolib Velib M\u00e9tropole - 04/2019", "unsigned_ref": "35471668", "wikidata": "Q86254945"}}, {"type": "node", "id": 6487689671, "lat": 48.8974811, "lon": 2.3439945, "tags": {"amenity": "bicycle_rental", "bicycle_rental": "docking_station", "brand": "V\u00e9lib\u2019 M\u00e9tropole", "brand:wikidata": "Q1120762", "brand:wikipedia": "fr:V\u00e9lib' M\u00e9tropole", "capacity": "56", "name": "Porte de Clignancourt", "network": "V\u00e9lib\u2019 M\u00e9tropole", "network:wikidata": "Q1120762", "network:wikipedia": "fr:V\u00e9lib' M\u00e9tropole", "operator": "Smovengo", "operator:wikidata": "Q47008427", "operator:wikipedia": "fr:Smovengo", "ref": "18032", "source": "Autolib Velib M\u00e9tropole - 04/2020", "wikidata": "Q86254465"}}, {"type": "node", "id": 6763717996, "lat": 48.8807212, "lon": 2.3514536, "tags": {"amenity": "bicycle_rental", "bicycle_rental": "docking_station", "brand": "V\u00e9lib\u2019 M\u00e9tropole", "brand:wikidata": "Q1120762", "brand:wikipedia": "fr:V\u00e9lib' M\u00e9tropole", "capacity": "24", "name": "Dunkerque - Rocroy", "network": "V\u00e9lib\u2019 M\u00e9tropole", "network:wikidata": "Q1120762", "network:wikipedia": "fr:V\u00e9lib' M\u00e9tropole", "operator": "Smovengo", "operator:wikidata": "Q47008427", "operator:wikipedia": "fr:Smovengo", "ref": "10029", "source": "Autolib Velib M\u00e9tropole - 04/2020", "wikidata": "Q86252893"}}, {"type": "node", "id": 6763717997, "lat": 48.8819673, "lon": 2.363676, "tags": {"amenity": "bicycle_rental", "bicycle_rental": "docking_station", "brand": "V\u00e9lib\u2019 M\u00e9tropole", "brand:wikidata": "Q1120762", "brand:wikipedia": "fr:V\u00e9lib' M\u00e9tropole", "capacity": "37", "name": "Louis Blanc - Aqueduc", "network": "V\u00e9lib\u2019 M\u00e9tropole", "network:wikidata": "Q1120762", "network:wikipedia": "fr:V\u00e9lib' M\u00e9tropole", "operator": "Smovengo", "operator:wikidata": "Q47008427", "operator:wikipedia": "fr:Smovengo", "ref": "10031", "source": "Autolib Velib M\u00e9tropole - 04/2019", "wikidata": "Q86252936"}}, {"type": "node", "id": 6763717999, "lat": 48.8839076, "lon": 2.3600648, "tags": {"amenity": "bicycle_rental", "bicycle_rental": "docking_station", "brand": "V\u00e9lib\u2019 M\u00e9tropole", "brand:wikidata": "Q1120762", "brand:wikipedia": "fr:V\u00e9lib' M\u00e9tropole", "capacity": "21", "name": "Louis Blanc - La Chapelle", "network": "V\u00e9lib\u2019 M\u00e9tropole", "network:wikidata": "Q1120762", "network:wikipedia": "fr:V\u00e9lib' M\u00e9tropole", "operator": "Smovengo", "operator:wikidata": "Q47008427", "operator:wikipedia": "fr:Smovengo", "ref": "10034", "source": "Autolib Velib M\u00e9tropole - 2021-03", "wikidata": "Q86252945"}}, {"type": "node", "id": 6763718000, "lat": 48.8838446, "lon": 2.3671108, "tags": {"amenity": "bicycle_rental", "bicycle_rental": "docking_station", "brand": "V\u00e9lib\u2019 M\u00e9tropole", "brand:wikidata": "Q1120762", "brand:wikipedia": "fr:V\u00e9lib' M\u00e9tropole", "capacity": "28", "name": "Aqueduc - Villette", "network": "V\u00e9lib\u2019 M\u00e9tropole", "network:wikidata": "Q1120762", "network:wikipedia": "fr:V\u00e9lib' M\u00e9tropole", "operator": "Smovengo", "operator:wikidata": "Q47008427", "operator:wikipedia": "fr:Smovengo", "ref": "10036", "source": "Autolib Velib M\u00e9tropole - 04/2019", "wikidata": "Q86252993"}}, {"type": "node", "id": 6763718001, "lat": 48.8812617, "lon": 2.368116, "tags": {"amenity": "bicycle_rental", "bicycle_rental": "docking_station", "brand": "V\u00e9lib\u2019 M\u00e9tropole", "brand:wikidata": "Q1120762", "brand:wikipedia": "fr:V\u00e9lib' M\u00e9tropole", "capacity": "26", "name": "Quai de Valmy", "network": "V\u00e9lib\u2019 M\u00e9tropole", "network:wikidata": "Q1120762", "network:wikipedia": "fr:V\u00e9lib' M\u00e9tropole", "operator": "Smovengo", "operator:wikidata": "Q47008427", "operator:wikipedia": "fr:Smovengo", "ref": "10037", "source": "Autolib Velib M\u00e9tropole - 04/2019", "wikidata": "Q86252964"}}, {"type": "node", "id": 6929771899, "lat": 48.882706, "lon": 2.3746958, "tags": {"amenity": "bicycle_rental", "bicycle_rental": "docking_station", "brand": "V\u00e9lib\u2019 M\u00e9tropole", "brand:wikidata": "Q1120762", "brand:wikipedia": "fr:V\u00e9lib' M\u00e9tropole", "capacity": "28", "name": "Lally-Tollendal - Armand Carrel", "network": "V\u00e9lib\u2019 M\u00e9tropole", "network:wikidata": "Q1120762", "network:wikipedia": "fr:V\u00e9lib' M\u00e9tropole", "operator": "Smovengo", "operator:wikidata": "Q47008427", "operator:wikipedia": "fr:Smovengo", "ref": "19012", "source": "Autolib Velib M\u00e9tropole - 04/2020", "wikidata": "Q86254792"}}, {"type": "node", "id": 7075760808, "lat": 48.892501, "lon": 2.3522178, "tags": {"amenity": "bicycle_rental", "bicycle_rental": "docking_station", "brand": "V\u00e9lib\u2019 M\u00e9tropole", "brand:wikidata": "Q1120762", "brand:wikipedia": "fr:V\u00e9lib' M\u00e9tropole", "capacity": "28", "name": "Poissonniers - Nord", "network": "V\u00e9lib\u2019 M\u00e9tropole", "network:wikidata": "Q1120762", "network:wikipedia": "fr:V\u00e9lib' M\u00e9tropole", "operator": "Smovengo", "operator:wikidata": "Q47008427", "operator:wikipedia": "fr:Smovengo", "ref": "18137", "source": "Autolib Velib M\u00e9tropole - 04/2019", "wikidata": "Q86253572"}}, {"type": "node", "id": 7075760809, "lat": 48.8954506, "lon": 2.3529971, "tags": {"amenity": "bicycle_rental", "bicycle_rental": "docking_station", "brand": "V\u00e9lib\u2019 M\u00e9tropole", "brand:wikidata": "Q1120762", "brand:wikipedia": "fr:V\u00e9lib' M\u00e9tropole", "capacity": "28", "name": "Poissonniers - Championnet", "network": "V\u00e9lib\u2019 M\u00e9tropole", "network:wikidata": "Q1120762", "network:wikipedia": "fr:V\u00e9lib' M\u00e9tropole", "operator": "Smovengo", "operator:wikidata": "Q47008427", "operator:wikipedia": "fr:Smovengo", "ref": "18139", "source": "Autolib Velib M\u00e9tropole - 04/2019", "wikidata": "Q86254414"}}, {"type": "node", "id": 7075896234, "lat": 48.8954673, "lon": 2.3498792, "tags": {"amenity": "bicycle_rental", "bicycle_rental": "docking_station", "brand": "V\u00e9lib\u2019 M\u00e9tropole", "brand:wikidata": "Q1120762", "brand:wikipedia": "fr:V\u00e9lib' M\u00e9tropole", "capacity": "22", "name": "Championnet", "network": "V\u00e9lib\u2019 M\u00e9tropole", "network:wikidata": "Q1120762", "network:wikipedia": "fr:V\u00e9lib' M\u00e9tropole", "operator": "Smovengo", "operator:wikidata": "Q47008427", "operator:wikipedia": "fr:Smovengo", "ref": "18101", "source": "Autolib Velib M\u00e9tropole - 04/2019", "wikidata": "Q86254447"}}, {"type": "node", "id": 7075965462, "lat": 48.8957977, "lon": 2.3455801, "tags": {"amenity": "bicycle_rental", "capacity": "46", "name": "Place Albert Kahn", "network": "V\u00e9lib\u2019", "operator": "Smovengo", "ref": "18031", "source": "Autolib Velib M\u00e9tropole - 2021-03", "wikidata": "Q86253605"}}, {"type": "node", "id": 7076001695, "lat": 48.8937071, "lon": 2.3476008, "tags": {"amenity": "bicycle_rental", "bicycle_rental": "docking_station", "capacity": "37", "name": "Joseph Dijon - Ornano", "network": "V\u00e9lib\u2019", "operator": "Smovengo", "ref": "18030", "source": "Autolib Velib M\u00e9tropole - 2021-03", "wikidata": "Q86254423"}}, {"type": "node", "id": 7079900516, "lat": 48.8979289, "lon": 2.3456827, "tags": {"amenity": "bicycle_rental", "capacity": "25", "name": "Ney - Porte de Clignancourt", "network": "V\u00e9lib\u2019", "operator": "Smovengo", "ref": "18134", "source": "Autolib Velib M\u00e9tropole - 2021-03", "wikidata": "Q86254470"}}, {"type": "node", "id": 7079919198, "lat": 48.8996945, "lon": 2.3443429, "tags": {"amenity": "bicycle_rental", "bicycle_rental": "docking_station", "brand": "V\u00e9lib\u2019 M\u00e9tropole", "brand:wikidata": "Q1120762", "brand:wikipedia": "fr:V\u00e9lib' M\u00e9tropole", "capacity": "40", "name": "Porte de Clignancourt - Ney", "network": "V\u00e9lib\u2019 M\u00e9tropole", "network:wikidata": "Q1120762", "network:wikipedia": "fr:V\u00e9lib' M\u00e9tropole", "operator": "Smovengo", "operator:wikidata": "Q47008427", "operator:wikipedia": "fr:Smovengo", "ref": "18140", "source": "Autolib Velib M\u00e9tropole - 04/2019", "wikidata": "Q86254432"}}, {"type": "node", "id": 7104646166, "lat": 48.8888491, "lon": 2.3559626, "tags": {"amenity": "bicycle_rental", "bicycle_rental": "docking_station", "capacity": "36", "name": "Stephenson - Doudeauville", "network": "V\u00e9lib\u2019", "operator": "Smovengo", "payment:credit_cards": "yes", "ref": "18012", "source": "Autolib Velib M\u00e9tropole - 2021-03", "wikidata": "Q86253523"}}, {"type": "node", "id": 7104646167, "lat": 48.8861262, "lon": 2.3568086, "tags": {"amenity": "bicycle_rental", "bicycle_rental": "docking_station", "brand": "V\u00e9lib\u2019 M\u00e9tropole", "brand:wikidata": "Q1120762", "brand:wikipedia": "fr:V\u00e9lib' M\u00e9tropole", "capacity": "22", "name": "Jean-Fran\u00e7ois L\u00e9pine - Stephenson", "network": "V\u00e9lib\u2019 M\u00e9tropole", "network:wikidata": "Q1120762", "network:wikipedia": "fr:V\u00e9lib' M\u00e9tropole", "operator": "Smovengo", "operator:wikidata": "Q47008427", "operator:wikipedia": "fr:Smovengo", "payment:credit_cards": "yes", "ref": "18009", "source": "Autolib Velib M\u00e9tropole - 04/2020", "wikidata": "Q86254471"}}, {"type": "node", "id": 7104646168, "lat": 48.8866532, "lon": 2.3531454, "tags": {"amenity": "bicycle_rental", "bicycle_rental": "docking_station", "brand": "V\u00e9lib\u2019 M\u00e9tropole", "brand:wikidata": "Q1120762", "brand:wikipedia": "fr:V\u00e9lib' M\u00e9tropole", "capacity": "33", "name": "Square L\u00e9on", "network": "V\u00e9lib\u2019 M\u00e9tropole", "network:wikidata": "Q1120762", "network:wikipedia": "fr:V\u00e9lib' M\u00e9tropole", "operator": "Smovengo", "operator:wikidata": "Q47008427", "operator:wikipedia": "fr:Smovengo", "payment:credit_cards": "no", "ref": "18008", "source": "Autolib Velib M\u00e9tropole - 04/2020", "wikidata": "Q86254476"}}, {"type": "node", "id": 7104646169, "lat": 48.8883276, "lon": 2.3535768, "tags": {"amenity": "bicycle_rental", "bicycle_rental": "docking_station", "capacity": "13", "name": "L\u00e9on - Doudeauville", "network": "V\u00e9lib\u2019", "operator": "Smovengo", "payment:credit_cards": "no", "ref": "18014", "source": "Autolib Velib M\u00e9tropole - 2021-03", "wikidata": "Q86254418"}}, {"type": "node", "id": 7149870071, "lat": 48.8841668, "lon": 2.3560692, "tags": {"amenity": "bicycle_rental", "bicycle_rental": "dropoff_point", "capacity": "18", "name": "Gare du Nord - La Chapelle", "network": "V\u00e9lib\u2019", "operator": "Smovengo", "ref": "10041", "source": "survey 01/2020", "unsigned_ref": "549876068", "wikidata": "Q86252977"}}, {"type": "node", "id": 7168850254, "lat": 48.8951187, "lon": 2.360038, "tags": {"amenity": "bicycle_rental", "bicycle_rental": "docking_station", "brand": "V\u00e9lib\u2019 M\u00e9tropole", "brand:wikidata": "Q1120762", "brand:wikipedia": "fr:V\u00e9lib' M\u00e9tropole", "capacity": "49", "name": "Rond-Point de la Chapelle", "network": "V\u00e9lib\u2019 M\u00e9tropole", "network:wikidata": "Q1120762", "network:wikipedia": "fr:V\u00e9lib' M\u00e9tropole", "operator": "Smovengo", "operator:wikidata": "Q47008427", "operator:wikipedia": "fr:Smovengo", "ref": "18038", "source": "Autolib Velib M\u00e9tropole - 04/2020", "wikidata": "Q86253582"}}, {"type": "node", "id": 7368384959, "lat": 48.9103988, "lon": 2.3851356, "tags": {"amenity": "bicycle_rental", "bicycle_rental": "docking_station", "brand": "V\u00e9lib\u2019 M\u00e9tropole", "brand:wikidata": "Q1120762", "brand:wikipedia": "fr:V\u00e9lib' M\u00e9tropole", "capacity": "31", "name": "Andr\u00e9 Karman - R\u00e9publique", "network": "V\u00e9lib\u2019 M\u00e9tropole", "network:wikidata": "Q1120762", "network:wikipedia": "fr:V\u00e9lib' M\u00e9tropole", "operator": "Smovengo", "operator:wikidata": "Q47008427", "operator:wikipedia": "fr:Smovengo", "ref": "33006", "source": "Autolib Velib M\u00e9tropole - 04/2020", "wikidata": "Q86255936"}}, {"type": "node", "id": 7368384960, "lat": 48.9081493, "lon": 2.3786232, "tags": {"amenity": "bicycle_rental", "bicycle_rental": "docking_station", "brand": "V\u00e9lib\u2019 M\u00e9tropole", "brand:wikidata": "Q1120762", "brand:wikipedia": "fr:V\u00e9lib' M\u00e9tropole", "capacity": "33", "name": "F\u00e9lix Faure - Sadi Carnot", "network": "V\u00e9lib\u2019 M\u00e9tropole", "network:wikidata": "Q1120762", "network:wikipedia": "fr:V\u00e9lib' M\u00e9tropole", "operator": "Smovengo", "operator:wikidata": "Q47008427", "operator:wikipedia": "fr:Smovengo", "ref": "33009", "source": "Autolib Velib M\u00e9tropole - 04/2019", "wikidata": "Q86255962"}}, {"type": "node", "id": 7368384961, "lat": 48.9112131, "lon": 2.3797941, "tags": {"amenity": "bicycle_rental", "bicycle_rental": "docking_station", "brand": "V\u00e9lib\u2019 M\u00e9tropole", "brand:wikidata": "Q1120762", "brand:wikipedia": "fr:V\u00e9lib' M\u00e9tropole", "capacity": "30", "name": "\u00c9douard Poisson - Victor Hugo", "network": "V\u00e9lib\u2019 M\u00e9tropole", "network:wikidata": "Q1120762", "network:wikipedia": "fr:V\u00e9lib' M\u00e9tropole", "operator": "Smovengo", "operator:wikidata": "Q47008427", "operator:wikipedia": "fr:Smovengo", "ref": "33018", "source": "Autolib Velib M\u00e9tropole - 04/2020", "wikidata": "Q86255946"}}, {"type": "node", "id": 7368384962, "lat": 48.9151573, "lon": 2.3759487, "tags": {"amenity": "bicycle_rental", "bicycle_rental": "docking_station", "brand": "V\u00e9lib\u2019 M\u00e9tropole", "brand:wikidata": "Q1120762", "brand:wikipedia": "fr:V\u00e9lib' M\u00e9tropole", "capacity": "30", "name": "Landy - Heurtault", "network": "V\u00e9lib\u2019 M\u00e9tropole", "network:wikidata": "Q1120762", "network:wikipedia": "fr:V\u00e9lib' M\u00e9tropole", "operator": "Smovengo", "operator:wikidata": "Q47008427", "operator:wikipedia": "fr:Smovengo", "ref": "33012", "source": "Autolib Velib M\u00e9tropole - 04/2020", "wikidata": "Q86255940"}}, {"type": "node", "id": 7368384963, "lat": 48.9032822, "lon": 2.3680725, "tags": {"amenity": "bicycle_rental", "bicycle_rental": "docking_station", "brand": "V\u00e9lib\u2019 M\u00e9tropole", "brand:wikidata": "Q1120762", "brand:wikipedia": "fr:V\u00e9lib' M\u00e9tropole", "capacity": "34", "name": "Victor Hugo - Magasins G\u00e9n\u00e9raux", "network": "V\u00e9lib\u2019 M\u00e9tropole", "network:wikidata": "Q1120762", "network:wikipedia": "fr:V\u00e9lib' M\u00e9tropole", "operator": "Smovengo", "operator:wikidata": "Q47008427", "operator:wikipedia": "fr:Smovengo", "ref": "33001", "source": "Autolib Velib M\u00e9tropole - 04/2019", "wikidata": "Q86255949"}}, {"type": "node", "id": 7368384964, "lat": 48.9110603, "lon": 2.3676302, "tags": {"amenity": "bicycle_rental", "bicycle_rental": "docking_station", "brand": "V\u00e9lib\u2019 M\u00e9tropole", "brand:wikidata": "Q1120762", "brand:wikipedia": "fr:V\u00e9lib' M\u00e9tropole", "capacity": "31", "name": "Waldeck Rochet - Germaine Tillon", "network": "V\u00e9lib\u2019 M\u00e9tropole", "network:wikidata": "Q1120762", "network:wikipedia": "fr:V\u00e9lib' M\u00e9tropole", "operator": "Smovengo", "operator:wikidata": "Q47008427", "operator:wikipedia": "fr:Smovengo", "ref": "33020", "source": "Autolib Velib M\u00e9tropole - 04/2019", "wikidata": "Q86255957"}}, {"type": "node", "id": 7368384965, "lat": 48.9064428, "lon": 2.3584905, "tags": {"amenity": "bicycle_rental", "bicycle_rental": "docking_station", "brand": "V\u00e9lib\u2019 M\u00e9tropole", "brand:wikidata": "Q1120762", "brand:wikipedia": "fr:V\u00e9lib' M\u00e9tropole", "capacity": "30", "name": "Proudhon - Pr\u00e9sident Wilson", "network": "V\u00e9lib\u2019 M\u00e9tropole", "network:wikidata": "Q1120762", "network:wikipedia": "fr:V\u00e9lib' M\u00e9tropole", "operator": "Smovengo", "operator:wikidata": "Q47008427", "operator:wikipedia": "fr:Smovengo", "ref": "32001", "source": "Autolib Velib M\u00e9tropole - 04/2019", "wikidata": "Q86256007"}}, {"type": "node", "id": 7368384966, "lat": 48.909423, "lon": 2.3584436, "tags": {"amenity": "bicycle_rental", "bicycle_rental": "docking_station", "brand": "V\u00e9lib\u2019 M\u00e9tropole", "brand:wikidata": "Q1120762", "brand:wikipedia": "fr:V\u00e9lib' M\u00e9tropole", "capacity": "28", "name": "Wilson - M\u00e9tallurgie", "network": "V\u00e9lib\u2019 M\u00e9tropole", "network:wikidata": "Q1120762", "network:wikipedia": "fr:V\u00e9lib' M\u00e9tropole", "operator": "Smovengo", "operator:wikidata": "Q47008427", "operator:wikipedia": "fr:Smovengo", "ref": "32003", "source": "Autolib Velib M\u00e9tropole - 04/2019", "wikidata": "Q86255978"}}, {"type": "node", "id": 7368440045, "lat": 48.9039684, "lon": 2.3829974, "tags": {"amenity": "bicycle_rental", "bicycle_rental": "docking_station", "brand": "V\u00e9lib\u2019 M\u00e9tropole", "brand:wikidata": "Q1120762", "brand:wikipedia": "fr:V\u00e9lib' M\u00e9tropole", "capacity": "48", "name": "Bordier - F\u00e9lix Faure", "network": "V\u00e9lib\u2019 M\u00e9tropole", "network:wikidata": "Q1120762", "network:wikipedia": "fr:V\u00e9lib' M\u00e9tropole", "operator": "Smovengo", "operator:wikidata": "Q47008427", "operator:wikipedia": "fr:Smovengo", "ref": "33003", "source": "Autolib Velib M\u00e9tropole - 04/2019", "wikidata": "Q86255959"}}, {"type": "node", "id": 7368652151, "lat": 48.8893547, "lon": 2.3707988, "tags": {"amenity": "bicycle_rental", "bicycle_rental": "docking_station", "brand": "V\u00e9lib\u2019 M\u00e9tropole", "brand:wikidata": "Q1120762", "brand:wikipedia": "fr:V\u00e9lib' M\u00e9tropole", "capacity": "41", "name": "Centquatre", "network": "V\u00e9lib\u2019 M\u00e9tropole", "network:wikidata": "Q1120762", "network:wikipedia": "fr:V\u00e9lib' M\u00e9tropole", "operator": "Smovengo", "operator:wikidata": "Q47008427", "operator:wikipedia": "fr:Smovengo", "ref": "19002", "source": "Autolib Velib M\u00e9tropole - 04/2019", "wikidata": "Q86254822"}}, {"type": "node", "id": 7368652152, "lat": 48.8908831, "lon": 2.3688579, "tags": {"amenity": "bicycle_rental", "bicycle_rental": "docking_station", "brand": "V\u00e9lib\u2019 M\u00e9tropole", "brand:wikidata": "Q1120762", "brand:wikipedia": "fr:V\u00e9lib' M\u00e9tropole", "capacity": "23", "name": "Aubervilliers - Curial", "network": "V\u00e9lib\u2019 M\u00e9tropole", "network:wikidata": "Q1120762", "network:wikipedia": "fr:V\u00e9lib' M\u00e9tropole", "operator": "Smovengo", "operator:wikidata": "Q47008427", "operator:wikipedia": "fr:Smovengo", "ref": "19127", "source": "Autolib Velib M\u00e9tropole - 04/2020", "wikidata": "Q86254885"}}, {"type": "node", "id": 7368652153, "lat": 48.8941015, "lon": 2.37293, "tags": {"amenity": "bicycle_rental", "bicycle_rental": "docking_station", "brand": "V\u00e9lib\u2019 M\u00e9tropole", "brand:wikidata": "Q1120762", "brand:wikipedia": "fr:V\u00e9lib' M\u00e9tropole", "capacity": "56", "name": "Crim\u00e9e - Ourcq", "network": "V\u00e9lib\u2019 M\u00e9tropole", "network:wikidata": "Q1120762", "network:wikipedia": "fr:V\u00e9lib' M\u00e9tropole", "operator": "Smovengo", "operator:wikidata": "Q47008427", "operator:wikipedia": "fr:Smovengo", "ref": "19001", "source": "Autolib Velib M\u00e9tropole - 04/2020", "wikidata": "Q86254905"}}, {"type": "node", "id": 7368652154, "lat": 48.8906249, "lon": 2.3832762, "tags": {"amenity": "bicycle_rental", "bicycle_rental": "docking_station", "brand": "V\u00e9lib\u2019 M\u00e9tropole", "brand:wikidata": "Q1120762", "brand:wikipedia": "fr:V\u00e9lib' M\u00e9tropole", "capacity": "30", "name": "Quai de l'Oise - Aisne", "network": "V\u00e9lib\u2019 M\u00e9tropole", "network:wikidata": "Q1120762", "network:wikipedia": "fr:V\u00e9lib' M\u00e9tropole", "operator": "Smovengo", "operator:wikidata": "Q47008427", "operator:wikipedia": "fr:Smovengo", "ref": "19128", "source": "Autolib Velib M\u00e9tropole - 04/2019", "wikidata": "Q86254959"}}, {"type": "node", "id": 7368652155, "lat": 48.892025, "lon": 2.3851595, "tags": {"amenity": "bicycle_rental", "bicycle_rental": "docking_station", "brand": "V\u00e9lib\u2019 M\u00e9tropole", "brand:wikidata": "Q1120762", "brand:wikipedia": "fr:V\u00e9lib' M\u00e9tropole", "capacity": "26", "name": "Place Paul Delouvrier", "network": "V\u00e9lib\u2019 M\u00e9tropole", "network:wikidata": "Q1120762", "network:wikipedia": "fr:V\u00e9lib' M\u00e9tropole", "operator": "Smovengo", "operator:wikidata": "Q47008427", "operator:wikipedia": "fr:Smovengo", "ref": "19130", "source": "Autolib Velib M\u00e9tropole - 04/2019", "wikidata": "Q86254803"}}, {"type": "node", "id": 7368652156, "lat": 48.891163, "lon": 2.3865705, "tags": {"amenity": "bicycle_rental", "bicycle_rental": "docking_station", "brand": "V\u00e9lib\u2019 M\u00e9tropole", "brand:wikidata": "Q1120762", "brand:wikipedia": "fr:V\u00e9lib' M\u00e9tropole", "capacity": "33", "name": "Metz - Marne", "network": "V\u00e9lib\u2019 M\u00e9tropole", "network:wikidata": "Q1120762", "network:wikipedia": "fr:V\u00e9lib' M\u00e9tropole", "operator": "Smovengo", "operator:wikidata": "Q47008427", "operator:wikipedia": "fr:Smovengo", "ref": "19123", "source": "Autolib Velib M\u00e9tropole - 04/2019", "wikidata": "Q86254816"}}, {"type": "node", "id": 7368652160, "lat": 48.8928693, "lon": 2.3634273, "tags": {"amenity": "bicycle_rental", "bicycle_rental": "docking_station", "capacity": "39", "name": "Pajol - Place Herbert", "network": "V\u00e9lib'", "operator": "Smovengo", "ref": "18011", "source": "Autolib Velib M\u00e9tropole - 2022-09", "wikidata": "Q86254425"}}, {"type": "node", "id": 7368652161, "lat": 48.8950395, "lon": 2.3687969, "tags": {"amenity": "bicycle_rental", "bicycle_rental": "docking_station", "brand": "V\u00e9lib\u2019 M\u00e9tropole", "brand:wikidata": "Q1120762", "brand:wikipedia": "fr:V\u00e9lib' M\u00e9tropole", "capacity": "21", "name": "Evangile - Aubervilliers", "network": "V\u00e9lib\u2019 M\u00e9tropole", "network:wikidata": "Q1120762", "network:wikipedia": "fr:V\u00e9lib' M\u00e9tropole", "operator": "Smovengo", "operator:wikidata": "Q47008427", "operator:wikipedia": "fr:Smovengo", "ref": "18108", "source": "Autolib Velib M\u00e9tropole - 04/2019", "wikidata": "Q86254463"}}, {"type": "node", "id": 7368652162, "lat": 48.8971307, "lon": 2.3745254, "tags": {"amenity": "bicycle_rental", "bicycle_rental": "docking_station", "brand": "V\u00e9lib\u2019 M\u00e9tropole", "brand:wikidata": "Q1120762", "brand:wikipedia": "fr:V\u00e9lib' M\u00e9tropole", "capacity": "40", "name": "Cesaria Evora - Rosa Parks", "network": "V\u00e9lib\u2019 M\u00e9tropole", "network:wikidata": "Q1120762", "network:wikipedia": "fr:V\u00e9lib' M\u00e9tropole", "operator": "Smovengo", "operator:wikidata": "Q47008427", "operator:wikipedia": "fr:Smovengo", "ref": "19111", "source": "Autolib Velib M\u00e9tropole - 04/2019", "wikidata": "Q86254850"}}, {"type": "node", "id": 7368652163, "lat": 48.8946419, "lon": 2.3818464, "tags": {"amenity": "bicycle_rental", "bicycle_rental": "docking_station", "brand": "V\u00e9lib\u2019 M\u00e9tropole", "brand:wikidata": "Q1120762", "brand:wikipedia": "fr:V\u00e9lib' M\u00e9tropole", "capacity": "26", "name": "Flandre - Alphonse Karr", "network": "V\u00e9lib\u2019 M\u00e9tropole", "network:wikidata": "Q1120762", "network:wikipedia": "fr:V\u00e9lib' M\u00e9tropole", "operator": "Smovengo", "operator:wikidata": "Q47008427", "operator:wikipedia": "fr:Smovengo", "ref": "19008", "source": "Autolib Velib M\u00e9tropole - 04/2019", "wikidata": "Q86254839"}}, {"type": "node", "id": 7368652164, "lat": 48.8959465, "lon": 2.3811338, "tags": {"amenity": "bicycle_rental", "bicycle_rental": "docking_station", "brand": "V\u00e9lib\u2019 M\u00e9tropole", "brand:wikidata": "Q1120762", "brand:wikipedia": "fr:V\u00e9lib' M\u00e9tropole", "capacity": "43", "name": "Cambrai - Benjamin Constant", "network": "V\u00e9lib\u2019 M\u00e9tropole", "network:wikidata": "Q1120762", "network:wikipedia": "fr:V\u00e9lib' M\u00e9tropole", "operator": "Smovengo", "operator:wikidata": "Q47008427", "operator:wikipedia": "fr:Smovengo", "ref": "19033", "source": "Autolib Velib M\u00e9tropole - 04/2019", "wikidata": "Q86254794"}}, {"type": "node", "id": 7368652165, "lat": 48.8965569, "lon": 2.3846622, "tags": {"amenity": "bicycle_rental", "bicycle_rental": "docking_station", "brand": "V\u00e9lib\u2019 M\u00e9tropole", "brand:wikidata": "Q1120762", "brand:wikipedia": "fr:V\u00e9lib' M\u00e9tropole", "capacity": "30", "name": "Cit\u00e9 des Sciences et de l'Industrie", "network": "V\u00e9lib\u2019 M\u00e9tropole", "network:wikidata": "Q1120762", "network:wikipedia": "fr:V\u00e9lib' M\u00e9tropole", "operator": "Smovengo", "operator:wikidata": "Q47008427", "operator:wikipedia": "fr:Smovengo", "ref": "19009", "source": "Autolib Velib M\u00e9tropole - 04/2019", "wikidata": "Q86254873"}}, {"type": "node", "id": 7368652166, "lat": 48.8985001, "lon": 2.3862225, "tags": {"amenity": "bicycle_rental", "bicycle_rental": "docking_station", "brand": "V\u00e9lib\u2019 M\u00e9tropole", "brand:wikidata": "Q1120762", "brand:wikipedia": "fr:V\u00e9lib' M\u00e9tropole", "capacity": "27", "name": "Porte de la Villette", "network": "V\u00e9lib\u2019 M\u00e9tropole", "network:wikidata": "Q1120762", "network:wikipedia": "fr:V\u00e9lib' M\u00e9tropole", "operator": "Smovengo", "operator:wikidata": "Q47008427", "operator:wikipedia": "fr:Smovengo", "ref": "19115", "source": "Autolib Velib M\u00e9tropole - 04/2019", "wikidata": "Q86254922"}}, {"type": "node", "id": 7368652168, "lat": 48.8988581, "lon": 2.3753639, "tags": {"amenity": "bicycle_rental", "bicycle_rental": "docking_station", "capacity": "30", "name": "Square Claude Bernard", "network": "V\u00e9lib\u2019", "operator": "Smovengo", "ref": "19110", "source": "Autolib Velib M\u00e9tropole - 2022-05", "wikidata": "Q86254847"}}, {"type": "node", "id": 7368652169, "lat": 48.898445, "lon": 2.368975, "tags": {"amenity": "bicycle_rental", "bicycle_rental": "docking_station", "brand": "V\u00e9lib\u2019 M\u00e9tropole", "brand:wikidata": "Q1120762", "brand:wikipedia": "fr:V\u00e9lib' M\u00e9tropole", "capacity": "55", "name": "Porte d'Aubervilliers", "network": "V\u00e9lib\u2019 M\u00e9tropole", "network:wikidata": "Q1120762", "network:wikipedia": "fr:V\u00e9lib' M\u00e9tropole", "operator": "Smovengo", "operator:wikidata": "Q47008427", "operator:wikipedia": "fr:Smovengo", "ref": "18049", "source": "Autolib Velib M\u00e9tropole - 04/2020", "wikidata": "Q86254431"}}, {"type": "node", "id": 7368652170, "lat": 48.8987613, "lon": 2.3646371, "tags": {"amenity": "bicycle_rental", "bicycle_rental": "docking_station", "brand": "V\u00e9lib\u2019 M\u00e9tropole", "brand:wikidata": "Q1120762", "brand:wikipedia": "fr:V\u00e9lib' M\u00e9tropole", "capacity": "20", "name": "Ney - Charles Hermite", "network": "V\u00e9lib\u2019 M\u00e9tropole", "network:wikidata": "Q1120762", "network:wikipedia": "fr:V\u00e9lib' M\u00e9tropole", "operator": "Smovengo", "operator:wikidata": "Q47008427", "operator:wikipedia": "fr:Smovengo", "ref": "18138", "source": "Autolib Velib M\u00e9tropole - 04/2019", "wikidata": "Q86253598"}}, {"type": "node", "id": 7368681556, "lat": 48.8847466, "lon": 2.3534589, "tags": {"amenity": "bicycle_rental", "capacity": "34", "name": "Chartres - La Charbonni\u00e8re", "network": "V\u00e9lib\u2019", "operator": "Smovengo", "ref": "18107", "source": "Autolib Velib M\u00e9tropole - 2021-03", "wikidata": "Q86254457"}}, {"type": "node", "id": 7368681557, "lat": 48.8848454, "lon": 2.3589304, "tags": {"amenity": "bicycle_rental", "capacity": "30", "name": "JesSaint-- Marx Dormoy", "network": "V\u00e9lib\u2019", "operator": "Smovengo", "ref": "18142", "source": "Autolib Velib M\u00e9tropole - 2021-03", "wikidata": "Q86253541"}}, {"type": "node", "id": 7368681560, "lat": 48.8797913, "lon": 2.3748541, "tags": {"amenity": "bicycle_rental", "bicycle_rental": "docking_station", "brand": "V\u00e9lib\u2019 M\u00e9tropole", "brand:wikidata": "Q1120762", "brand:wikipedia": "fr:V\u00e9lib' M\u00e9tropole", "capacity": "24", "name": "\u00c9douard Pailleron - Simon Bolivar", "network": "V\u00e9lib\u2019 M\u00e9tropole", "network:wikidata": "Q1120762", "network:wikipedia": "fr:V\u00e9lib' M\u00e9tropole", "operator": "Smovengo", "operator:wikidata": "Q47008427", "operator:wikipedia": "fr:Smovengo", "ref": "19039", "source": "Autolib Velib M\u00e9tropole - 04/2019", "wikidata": "Q86254800"}}, {"type": "node", "id": 7368681561, "lat": 48.8814252, "lon": 2.3733761, "tags": {"amenity": "bicycle_rental", "bicycle_rental": "docking_station", "brand": "V\u00e9lib\u2019 M\u00e9tropole", "brand:wikidata": "Q1120762", "brand:wikipedia": "fr:V\u00e9lib' M\u00e9tropole", "capacity": "26", "check_date": "2023-03-09", "name": "March\u00e9 Secr\u00e9tan", "network": "V\u00e9lib\u2019 M\u00e9tropole", "network:wikidata": "Q1120762", "network:wikipedia": "fr:V\u00e9lib' M\u00e9tropole", "operator": "Smovengo", "operator:wikidata": "Q47008427", "operator:wikipedia": "fr:Smovengo", "ref": "19022", "source": "Autolib Velib M\u00e9tropole - 04/2019", "wikidata": "Q86254943"}}, {"type": "node", "id": 7368681562, "lat": 48.8805977, "lon": 2.3769495, "tags": {"amenity": "bicycle_rental", "bicycle_rental": "docking_station", "brand": "V\u00e9lib\u2019 M\u00e9tropole", "brand:wikidata": "Q1120762", "brand:wikipedia": "fr:V\u00e9lib' M\u00e9tropole", "capacity": "27", "name": "\u00c9douard Pailleron - Bouret", "network": "V\u00e9lib\u2019 M\u00e9tropole", "network:wikidata": "Q1120762", "network:wikipedia": "fr:V\u00e9lib' M\u00e9tropole", "operator": "Smovengo", "operator:wikidata": "Q47008427", "operator:wikipedia": "fr:Smovengo", "ref": "19119", "source": "Autolib Velib M\u00e9tropole - 04/2019", "wikidata": "Q86254863"}}, {"type": "node", "id": 7368681564, "lat": 48.8863937, "lon": 2.3865415, "tags": {"amenity": "bicycle_rental", "bicycle_rental": "docking_station", "brand": "V\u00e9lib\u2019 M\u00e9tropole", "brand:wikidata": "Q1120762", "brand:wikipedia": "fr:V\u00e9lib' M\u00e9tropole", "capacity": "32", "name": "Hautpoul - Jean Jaur\u00e8s", "network": "V\u00e9lib\u2019 M\u00e9tropole", "network:wikidata": "Q1120762", "network:wikipedia": "fr:V\u00e9lib' M\u00e9tropole", "operator": "Smovengo", "operator:wikidata": "Q47008427", "operator:wikipedia": "fr:Smovengo", "ref": "19016", "source": "Autolib Velib M\u00e9tropole - 04/2019", "wikidata": "Q86254955"}}, {"type": "node", "id": 7368681565, "lat": 48.8830404, "lon": 2.3863176, "tags": {"amenity": "bicycle_rental", "bicycle_rental": "docking_station", "brand": "V\u00e9lib\u2019 M\u00e9tropole", "brand:wikidata": "Q1120762", "brand:wikipedia": "fr:V\u00e9lib' M\u00e9tropole", "capacity": "23", "name": "Manin - Crim\u00e9e", "network": "V\u00e9lib\u2019 M\u00e9tropole", "network:wikidata": "Q1120762", "network:wikipedia": "fr:V\u00e9lib' M\u00e9tropole", "operator": "Smovengo", "operator:wikidata": "Q47008427", "operator:wikipedia": "fr:Smovengo", "ref": "19031", "source": "Autolib Velib M\u00e9tropole - 04/2019", "wikidata": "Q86254814"}}, {"type": "node", "id": 7368681566, "lat": 48.8825798, "lon": 2.3812692, "tags": {"amenity": "bicycle_rental", "bicycle_rental": "docking_station", "brand": "V\u00e9lib\u2019 M\u00e9tropole", "brand:wikidata": "Q1120762", "brand:wikipedia": "fr:V\u00e9lib' M\u00e9tropole", "capacity": "27", "name": "Mairie du 19\u00e8me", "network": "V\u00e9lib\u2019 M\u00e9tropole", "network:wikidata": "Q1120762", "network:wikipedia": "fr:V\u00e9lib' M\u00e9tropole", "operator": "Smovengo", "operator:wikidata": "Q47008427", "operator:wikipedia": "fr:Smovengo", "ref": "19021", "source": "Autolib Velib M\u00e9tropole - 04/2020", "wikidata": "Q86254934"}}, {"type": "node", "id": 7368681567, "lat": 48.8846588, "lon": 2.380043, "tags": {"amenity": "bicycle_rental", "bicycle_rental": "docking_station", "brand": "V\u00e9lib\u2019 M\u00e9tropole", "brand:wikidata": "Q1120762", "brand:wikipedia": "fr:V\u00e9lib' M\u00e9tropole", "capacity": "34", "name": "Laumi\u00e8re - Petit", "network": "V\u00e9lib\u2019 M\u00e9tropole", "network:wikidata": "Q1120762", "network:wikipedia": "fr:V\u00e9lib' M\u00e9tropole", "operator": "Smovengo", "operator:wikidata": "Q47008427", "operator:wikipedia": "fr:Smovengo", "ref": "19013", "source": "Autolib Velib M\u00e9tropole - 04/2019", "wikidata": "Q86254812"}}, {"type": "node", "id": 7368681568, "lat": 48.8837686, "lon": 2.3765432, "tags": {"amenity": "bicycle_rental", "bicycle_rental": "docking_station", "brand": "V\u00e9lib\u2019 M\u00e9tropole", "brand:wikidata": "Q1120762", "brand:wikipedia": "fr:V\u00e9lib' M\u00e9tropole", "capacity": "28", "name": "Melun - Jean Jaur\u00e8s", "network": "V\u00e9lib\u2019 M\u00e9tropole", "network:wikidata": "Q1120762", "network:wikipedia": "fr:V\u00e9lib' M\u00e9tropole", "operator": "Smovengo", "operator:wikidata": "Q47008427", "operator:wikipedia": "fr:Smovengo", "ref": "19030", "source": "Autolib Velib M\u00e9tropole - 04/2019", "wikidata": "Q86254786"}}, {"type": "node", "id": 7368681569, "lat": 48.8833973, "lon": 2.3710745, "tags": {"amenity": "bicycle_rental", "bicycle_rental": "docking_station", "brand": "V\u00e9lib\u2019 M\u00e9tropole", "brand:wikidata": "Q1120762", "brand:wikipedia": "fr:V\u00e9lib' M\u00e9tropole", "capacity": "16", "name": "Quai de la Loire - Jean Jaur\u00e8s", "network": "V\u00e9lib\u2019 M\u00e9tropole", "network:wikidata": "Q1120762", "network:wikipedia": "fr:V\u00e9lib' M\u00e9tropole", "operator": "Smovengo", "operator:wikidata": "Q47008427", "operator:wikipedia": "fr:Smovengo", "ref": "19004", "source": "Autolib Velib M\u00e9tropole - 04/2019", "wikidata": "Q86254805"}}, {"type": "node", "id": 7368681570, "lat": 48.8844922, "lon": 2.3703942, "tags": {"amenity": "bicycle_rental", "bicycle_rental": "docking_station", "brand": "V\u00e9lib\u2019 M\u00e9tropole", "brand:wikidata": "Q1120762", "brand:wikipedia": "fr:V\u00e9lib' M\u00e9tropole", "capacity": "24", "name": "Quai de la Seine", "network": "V\u00e9lib\u2019 M\u00e9tropole", "network:wikidata": "Q1120762", "network:wikipedia": "fr:V\u00e9lib' M\u00e9tropole", "operator": "Smovengo", "operator:wikidata": "Q47008427", "operator:wikipedia": "fr:Smovengo", "ref": "19003", "source": "Autolib Velib M\u00e9tropole - 04/2019", "wikidata": "Q86254908"}}, {"type": "node", "id": 7368681571, "lat": 48.8870325, "lon": 2.3668972, "tags": {"amenity": "bicycle_rental", "bicycle_rental": "docking_station", "brand": "V\u00e9lib\u2019 M\u00e9tropole", "brand:wikidata": "Q1120762", "brand:wikipedia": "fr:V\u00e9lib' M\u00e9tropole", "capacity": "20", "name": "Jardins d'Eole", "network": "V\u00e9lib\u2019 M\u00e9tropole", "network:wikidata": "Q1120762", "network:wikipedia": "fr:V\u00e9lib' M\u00e9tropole", "operator": "Smovengo", "operator:wikidata": "Q47008427", "operator:wikipedia": "fr:Smovengo", "ref": "18039", "source": "Autolib Velib M\u00e9tropole - 04/2019", "wikidata": "Q86254468"}}, {"type": "node", "id": 7371231530, "lat": 48.882343, "lon": 2.3332645, "tags": {"amenity": "bicycle_rental", "bicycle_rental": "docking_station", "brand": "V\u00e9lib\u2019 M\u00e9tropole", "brand:wikidata": "Q1120762", "brand:wikipedia": "fr:V\u00e9lib' M\u00e9tropole", "capacity": "25", "name": "Douai - Pierre Fontaine", "network": "V\u00e9lib\u2019 M\u00e9tropole", "network:wikidata": "Q1120762", "network:wikipedia": "fr:V\u00e9lib' M\u00e9tropole", "operator": "Smovengo", "operator:wikidata": "Q47008427", "operator:wikipedia": "fr:Smovengo", "ref": "9027", "source": "Autolib Velib M\u00e9tropole - 04/2020", "wikidata": "Q86254655"}}, {"type": "node", "id": 7371231531, "lat": 48.8825569, "lon": 2.3497293, "tags": {"amenity": "bicycle_rental", "bicycle_rental": "docking_station", "capacity": "36", "name": "Faubourg Poissonniere - Delta", "network": "V\u00e9lib\u2019", "operator": "Smovengo", "ref": "9118", "source": "Autolib Velib M\u00e9tropole - 2021-03", "wikidata": "Q86253008"}}, {"type": "node", "id": 7371231532, "lat": 48.8808834, "lon": 2.3499182, "tags": {"amenity": "bicycle_rental", "bicycle_rental": "docking_station", "brand": "V\u00e9lib\u2019 M\u00e9tropole", "brand:wikidata": "Q1120762", "brand:wikipedia": "fr:V\u00e9lib' M\u00e9tropole", "capacity": "30", "name": "Faubourg Poissonni\u00e8re - Dunkerque", "network": "V\u00e9lib\u2019 M\u00e9tropole", "network:wikidata": "Q1120762", "network:wikipedia": "fr:V\u00e9lib' M\u00e9tropole", "operator": "Smovengo", "operator:wikidata": "Q47008427", "operator:wikipedia": "fr:Smovengo", "ref": "9114", "source": "Autolib Velib M\u00e9tropole - 04/2020", "wikidata": "Q86252922"}}, {"type": "node", "id": 7371231533, "lat": 48.8810969, "lon": 2.3408171, "tags": {"amenity": "bicycle_rental", "bicycle_rental": "docking_station", "brand": "V\u00e9lib\u2019 M\u00e9tropole", "brand:wikidata": "Q1120762", "brand:wikipedia": "fr:V\u00e9lib' M\u00e9tropole", "capacity": "29", "name": "Lallier - Trudaine", "network": "V\u00e9lib\u2019 M\u00e9tropole", "network:wikidata": "Q1120762", "network:wikipedia": "fr:V\u00e9lib' M\u00e9tropole", "operator": "Smovengo", "operator:wikidata": "Q47008427", "operator:wikipedia": "fr:Smovengo", "ref": "9017", "source": "Autolib Velib M\u00e9tropole - 04/2020", "wikidata": "Q86254639"}}, {"type": "node", "id": 7371263875, "lat": 48.8910294, "lon": 2.3399918, "tags": {"amenity": "bicycle_rental", "bicycle_rental": "docking_station", "brand": "V\u00e9lib\u2019 M\u00e9tropole", "brand:wikidata": "Q1120762", "brand:wikipedia": "fr:V\u00e9lib' M\u00e9tropole", "capacity": "20", "name": "Franc\u0153ur - Marcadet", "network": "V\u00e9lib\u2019 M\u00e9tropole", "network:wikidata": "Q1120762", "network:wikipedia": "fr:V\u00e9lib' M\u00e9tropole", "operator": "Smovengo", "operator:wikidata": "Q47008427", "operator:wikipedia": "fr:Smovengo", "ref": "18020", "source": "Autolib Velib M\u00e9tropole - 04/2020", "wikidata": "Q86254416"}}, {"type": "node", "id": 7371263876, "lat": 48.8918469, "lon": 2.3354181, "tags": {"amenity": "bicycle_rental", "bicycle_rental": "docking_station", "capacity": "52", "name": "Square Raymond Souplex", "network": "V\u00e9lib\u2019", "operator": "Smovengo", "ref": "18019", "source": "Autolib Velib M\u00e9tropole - 2021-03", "wikidata": "Q86254454"}}, {"type": "node", "id": 7371263877, "lat": 48.8875351, "lon": 2.3343077, "tags": {"amenity": "bicycle_rental", "bicycle_rental": "docking_station", "brand": "V\u00e9lib\u2019 M\u00e9tropole", "brand:wikidata": "Q1120762", "brand:wikipedia": "fr:V\u00e9lib' M\u00e9tropole", "capacity": "24", "name": "Lepic - Arm\u00e9e d'Orient", "network": "V\u00e9lib\u2019 M\u00e9tropole", "network:wikidata": "Q1120762", "network:wikipedia": "fr:V\u00e9lib' M\u00e9tropole", "operator": "Smovengo", "operator:wikidata": "Q47008427", "operator:wikipedia": "fr:Smovengo", "ref": "18113", "source": "Autolib Velib M\u00e9tropole - 04/2020", "wikidata": "Q86253594"}}, {"type": "node", "id": 7371263878, "lat": 48.8896779, "lon": 2.3381787, "tags": {"amenity": "bicycle_rental", "bicycle_rental": "docking_station", "brand": "V\u00e9lib\u2019 M\u00e9tropole", "brand:wikidata": "Q1120762", "brand:wikipedia": "fr:V\u00e9lib' M\u00e9tropole", "capacity": "44", "name": "Caulaincourt - Place Constantin Pecqueur", "network": "V\u00e9lib\u2019 M\u00e9tropole", "network:wikidata": "Q1120762", "network:wikipedia": "fr:V\u00e9lib' M\u00e9tropole", "operator": "Smovengo", "operator:wikidata": "Q47008427", "operator:wikipedia": "fr:Smovengo", "ref": "18017", "source": "Autolib Velib M\u00e9tropole - 04/2020", "wikidata": "Q86254405"}}, {"type": "node", "id": 7371263879, "lat": 48.8899847, "lon": 2.3425217, "tags": {"amenity": "bicycle_rental", "bicycle_rental": "docking_station", "brand": "V\u00e9lib\u2019 M\u00e9tropole", "brand:wikidata": "Q1120762", "brand:wikipedia": "fr:V\u00e9lib' M\u00e9tropole", "capacity": "34", "name": "Franc\u0153ur - Caulaincourt", "network": "V\u00e9lib\u2019 M\u00e9tropole", "network:wikidata": "Q1120762", "network:wikipedia": "fr:V\u00e9lib' M\u00e9tropole", "operator": "Smovengo", "operator:wikidata": "Q47008427", "operator:wikipedia": "fr:Smovengo", "ref": "18016", "source": "Autolib Velib M\u00e9tropole - 04/2020", "wikidata": "Q86254461"}}, {"type": "node", "id": 7371263880, "lat": 48.8886381, "lon": 2.3468967, "tags": {"amenity": "bicycle_rental", "bicycle_rental": "docking_station", "brand": "V\u00e9lib\u2019 M\u00e9tropole", "brand:wikidata": "Q1120762", "brand:wikipedia": "fr:V\u00e9lib' M\u00e9tropole", "capacity": "41", "name": "Custine - Ramey", "network": "V\u00e9lib\u2019 M\u00e9tropole", "network:wikidata": "Q1120762", "network:wikipedia": "fr:V\u00e9lib' M\u00e9tropole", "operator": "Smovengo", "operator:wikidata": "Q47008427", "operator:wikipedia": "fr:Smovengo", "ref": "18015", "source": "Autolib Velib M\u00e9tropole - 04/2020", "wikidata": "Q86253591"}}, {"type": "node", "id": 7371263881, "lat": 48.8871269, "lon": 2.349076, "tags": {"amenity": "bicycle_rental", "capacity": "20", "name": "Poulet - Barb\u00e8s", "network": "V\u00e9lib\u2019", "operator": "Smovengo", "ref": "18136", "source": "Autolib Velib M\u00e9tropole - 2021-03", "wikidata": "Q86253531"}}, {"type": "node", "id": 7371263882, "lat": 48.8851287, "lon": 2.3496882, "tags": {"amenity": "bicycle_rental", "bicycle_rental": "docking_station", "brand": "V\u00e9lib\u2019 M\u00e9tropole", "brand:wikidata": "Q1120762", "brand:wikipedia": "fr:V\u00e9lib' M\u00e9tropole", "capacity": "20", "name": "Goutte d'or - Barb\u00e8s", "network": "V\u00e9lib\u2019 M\u00e9tropole", "network:wikidata": "Q1120762", "network:wikipedia": "fr:V\u00e9lib' M\u00e9tropole", "operator": "Smovengo", "operator:wikidata": "Q47008427", "operator:wikipedia": "fr:Smovengo", "ref": "18007", "source": "Autolib Velib M\u00e9tropole - 2021-03", "wikidata": "Q86253580"}}, {"type": "node", "id": 7371263883, "lat": 48.8851199, "lon": 2.3471949, "tags": {"amenity": "bicycle_rental", "bicycle_rental": "docking_station", "brand": "V\u00e9lib\u2019 M\u00e9tropole", "brand:wikidata": "Q1120762", "brand:wikipedia": "fr:V\u00e9lib' M\u00e9tropole", "capacity": "19", "name": "Clignancourt - Sofia", "network": "V\u00e9lib\u2019 M\u00e9tropole", "network:wikidata": "Q1120762", "network:wikipedia": "fr:V\u00e9lib' M\u00e9tropole", "operator": "Smovengo", "operator:wikidata": "Q47008427", "operator:wikipedia": "fr:Smovengo", "ref": "18141", "source": "Autolib Velib M\u00e9tropole - 04/2020", "wikidata": "Q86253563"}}, {"type": "node", "id": 7371263884, "lat": 48.8846855, "lon": 2.3441293, "tags": {"amenity": "bicycle_rental", "bicycle_rental": "docking_station", "brand": "V\u00e9lib\u2019 M\u00e9tropole", "brand:wikidata": "Q1120762", "brand:wikipedia": "fr:V\u00e9lib' M\u00e9tropole", "capacity": "36", "name": "Square Louise Michel", "network": "V\u00e9lib\u2019 M\u00e9tropole", "network:wikidata": "Q1120762", "network:wikipedia": "fr:V\u00e9lib' M\u00e9tropole", "operator": "Smovengo", "operator:wikidata": "Q47008427", "operator:wikipedia": "fr:Smovengo", "ref": "18006", "source": "Autolib Velib M\u00e9tropole - 04/2020", "wikidata": "Q86254421"}}, {"type": "node", "id": 7371318685, "lat": 48.8841515, "lon": 2.3418427, "tags": {"amenity": "bicycle_rental", "bicycle_rental": "docking_station", "brand": "V\u00e9lib\u2019 M\u00e9tropole", "brand:wikidata": "Q1120762", "brand:wikipedia": "fr:V\u00e9lib' M\u00e9tropole", "capacity": "18", "name": "Tardieu - Chappe", "network": "V\u00e9lib\u2019 M\u00e9tropole", "network:wikidata": "Q1120762", "network:wikipedia": "fr:V\u00e9lib' M\u00e9tropole", "operator": "Smovengo", "operator:wikidata": "Q47008427", "operator:wikipedia": "fr:Smovengo", "ref": "18005", "source": "Autolib Velib M\u00e9tropole - 04/2020", "wikidata": "Q86254449"}}, {"type": "node", "id": 7371318686, "lat": 48.8845135, "lon": 2.3388287, "tags": {"amenity": "bicycle_rental", "bicycle_rental": "docking_station", "brand": "V\u00e9lib\u2019 M\u00e9tropole", "brand:wikidata": "Q1120762", "brand:wikipedia": "fr:V\u00e9lib' M\u00e9tropole", "capacity": "12", "name": "Place des Abbesses", "network": "V\u00e9lib\u2019 M\u00e9tropole", "network:wikidata": "Q1120762", "network:wikipedia": "fr:V\u00e9lib' M\u00e9tropole", "operator": "Smovengo", "operator:wikidata": "Q47008427", "operator:wikipedia": "fr:Smovengo", "ref": "18004", "source": "Autolib Velib M\u00e9tropole - 04/2020", "wikidata": "Q86254424"}}, {"type": "node", "id": 7371318687, "lat": 48.8852692, "lon": 2.3345721, "tags": {"amenity": "bicycle_rental", "capacity": "23", "name": "V\u00e9ron - Lepic", "network": "V\u00e9lib\u2019", "operator": "Smovengo", "ref": "18114", "source": "Autolib Velib M\u00e9tropole - 2021-03", "wikidata": "Q86253587"}}, {"type": "node", "id": 7371318688, "lat": 48.8864725, "lon": 2.3328902, "tags": {"amenity": "bicycle_rental", "bicycle_rental": "docking_station", "capacity": "43", "name": "Cimeti\u00e8re de Montmartre", "network": "V\u00e9lib\u2019", "operator": "Smovengo", "ref": "18003", "source": "Autolib Velib M\u00e9tropole - 2021-03", "wikidata": "Q86253555"}}, {"type": "node", "id": 7371318689, "lat": 48.8871422, "lon": 2.3326149, "tags": {"amenity": "bicycle_rental", "bicycle_rental": "docking_station", "brand": "V\u00e9lib\u2019 M\u00e9tropole", "brand:wikidata": "Q1120762", "brand:wikipedia": "fr:V\u00e9lib' M\u00e9tropole", "capacity": "18", "name": "Damr\u00e9mont - Caulaincourt", "network": "V\u00e9lib\u2019 M\u00e9tropole", "network:wikidata": "Q1120762", "network:wikipedia": "fr:V\u00e9lib' M\u00e9tropole", "operator": "Smovengo", "operator:wikidata": "Q47008427", "operator:wikipedia": "fr:Smovengo", "ref": "18001", "source": "Autolib Velib M\u00e9tropole - 04/2020", "wikidata": "Q86253539"}}, {"type": "node", "id": 7371318708, "lat": 48.8836011, "lon": 2.3332238, "tags": {"amenity": "bicycle_rental", "bicycle_rental": "docking_station", "capacity": "20", "name": "Clichy - Place Blanche", "network": "V\u00e9lib\u2019", "operator": "Smovengo", "ref": "18043", "source": "Autolib Velib M\u00e9tropole - 2021-03", "wikidata": "Q86254685"}}, {"type": "node", "id": 7371318709, "lat": 48.8827555, "lon": 2.3361566, "tags": {"amenity": "bicycle_rental", "bicycle_rental": "docking_station", "brand": "V\u00e9lib\u2019 M\u00e9tropole", "brand:wikidata": "Q1120762", "brand:wikipedia": "fr:V\u00e9lib' M\u00e9tropole", "capacity": "21", "name": "Place Pigalle", "network": "V\u00e9lib\u2019 M\u00e9tropole", "network:wikidata": "Q1120762", "network:wikipedia": "fr:V\u00e9lib' M\u00e9tropole", "operator": "Smovengo", "operator:wikidata": "Q47008427", "operator:wikipedia": "fr:Smovengo", "ref": "18042", "source": "Autolib Velib M\u00e9tropole - 04/2020", "wikidata": "Q86253535"}}, {"type": "node", "id": 7371318710, "lat": 48.8821938, "lon": 2.3405496, "tags": {"amenity": "bicycle_rental", "bicycle_rental": "docking_station", "brand": "V\u00e9lib\u2019 M\u00e9tropole", "brand:wikidata": "Q1120762", "brand:wikipedia": "fr:V\u00e9lib' M\u00e9tropole", "capacity": "20", "name": "Rochechouart - Martyrs", "network": "V\u00e9lib\u2019 M\u00e9tropole", "network:wikidata": "Q1120762", "network:wikipedia": "fr:V\u00e9lib' M\u00e9tropole", "operator": "Smovengo", "operator:wikidata": "Q47008427", "operator:wikipedia": "fr:Smovengo", "ref": "18041", "source": "Autolib Velib M\u00e9tropole - 04/2020", "wikidata": "Q86254413"}}, {"type": "node", "id": 7371329386, "lat": 48.8990511, "lon": 2.3365534, "tags": {"amenity": "bicycle_rental", "bicycle_rental": "docking_station", "brand": "V\u00e9lib\u2019 M\u00e9tropole", "brand:wikidata": "Q1120762", "brand:wikipedia": "fr:V\u00e9lib' M\u00e9tropole", "capacity": "37", "name": "Ren\u00e9 Binet - Porte de Montmartre", "network": "V\u00e9lib\u2019 M\u00e9tropole", "network:wikidata": "Q1120762", "network:wikipedia": "fr:V\u00e9lib' M\u00e9tropole", "operator": "Smovengo", "operator:wikidata": "Q47008427", "operator:wikipedia": "fr:Smovengo", "ref": "18035", "source": "Autolib Velib M\u00e9tropole - 04/2020", "wikidata": "Q86254434"}}, {"type": "node", "id": 7371329387, "lat": 48.8979187, "lon": 2.3364873, "tags": {"amenity": "bicycle_rental", "bicycle_rental": "docking_station", "brand": "V\u00e9lib\u2019 M\u00e9tropole", "brand:wikidata": "Q1120762", "brand:wikipedia": "fr:V\u00e9lib' M\u00e9tropole", "capacity": "25", "name": "Ney - Porte de Montmartre", "network": "V\u00e9lib\u2019 M\u00e9tropole", "network:wikidata": "Q1120762", "network:wikipedia": "fr:V\u00e9lib' M\u00e9tropole", "operator": "Smovengo", "operator:wikidata": "Q47008427", "operator:wikipedia": "fr:Smovengo", "ref": "18135", "source": "Autolib Velib M\u00e9tropole - 2021-03", "wikidata": "Q86254446"}}, {"type": "node", "id": 7371329388, "lat": 48.8980018, "lon": 2.3336492, "tags": {"amenity": "bicycle_rental", "bicycle_rental": "docking_station", "brand": "V\u00e9lib\u2019 M\u00e9tropole", "brand:wikidata": "Q1120762", "brand:wikipedia": "fr:V\u00e9lib' M\u00e9tropole", "capacity": "26", "name": "Arthur Ranc - H\u00f4pital Bichat", "network": "V\u00e9lib\u2019 M\u00e9tropole", "network:wikidata": "Q1120762", "network:wikipedia": "fr:V\u00e9lib' M\u00e9tropole", "operator": "Smovengo", "operator:wikidata": "Q47008427", "operator:wikipedia": "fr:Smovengo", "ref": "18112", "source": "Autolib Velib M\u00e9tropole - 2021-03", "wikidata": "Q86253549"}}, {"type": "node", "id": 7371329389, "lat": 48.8966924, "lon": 2.3380235, "tags": {"amenity": "bicycle_rental", "capacity": "34", "name": "Belliard - Damr\u00e9mont", "network": "V\u00e9lib\u2019", "operator": "Smovengo", "ref": "18033", "source": "Autolib Velib M\u00e9tropole - 2021-03", "wikidata": "Q86253611"}}, {"type": "node", "id": 7371329390, "lat": 48.8963283, "lon": 2.3333904, "tags": {"amenity": "bicycle_rental", "bicycle_rental": "docking_station", "capacity": "32", "name": "Leibniz - Jean Dollfus", "network": "V\u00e9lib\u2019", "operator": "Smovengo", "ref": "18034", "source": "Autolib Velib M\u00e9tropole - 2021-03", "wikidata": "Q86254460"}}, {"type": "node", "id": 7371329392, "lat": 48.8943954, "lon": 2.3414726, "tags": {"amenity": "bicycle_rental", "capacity": "39", "name": "Emile Blemont - Poteau", "network": "V\u00e9lib\u2019", "operator": "Smovengo", "ref": "18029", "source": "Autolib Velib M\u00e9tropole - 2021-03", "wikidata": "Q86253607"}}, {"type": "node", "id": 7371329393, "lat": 48.8929946, "lon": 2.3401449, "tags": {"amenity": "bicycle_rental", "bicycle_rental": "docking_station", "capacity": "35", "name": "Ruisseau - Ordener", "network": "V\u00e9lib\u2019", "operator": "Smovengo", "ref": "18026", "source": "Autolib Velib M\u00e9tropole - 2021-03", "wikidata": "Q86253544"}}, {"type": "node", "id": 7371329394, "lat": 48.892949, "lon": 2.344531, "tags": {"amenity": "bicycle_rental", "bicycle_rental": "docking_station", "capacity": "40", "name": "Mairie du 18\u00e8me", "network": "V\u00e9lib\u2019", "operator": "Smovengo", "ref": "18025", "source": "Autolib Velib M\u00e9tropole - 2021-03", "wikidata": "Q86253558"}}, {"type": "node", "id": 7371329395, "lat": 48.8908882, "lon": 2.3449099, "tags": {"amenity": "bicycle_rental", "bicycle_rental": "docking_station", "brand": "V\u00e9lib\u2019 M\u00e9tropole", "brand:wikidata": "Q1120762", "brand:wikipedia": "fr:V\u00e9lib' M\u00e9tropole", "capacity": "21", "name": "Marcadet - Ramey", "network": "V\u00e9lib\u2019 M\u00e9tropole", "network:wikidata": "Q1120762", "network:wikipedia": "fr:V\u00e9lib' M\u00e9tropole", "operator": "Smovengo", "operator:wikidata": "Q47008427", "operator:wikipedia": "fr:Smovengo", "ref": "18021", "source": "Autolib Velib M\u00e9tropole - 04/2020", "wikidata": "Q86254456"}}, {"type": "node", "id": 7371329396, "lat": 48.8914577, "lon": 2.3486365, "tags": {"amenity": "bicycle_rental", "bicycle_rental": "docking_station", "capacity": "35", "name": "Clignancourt - Ordener", "network": "V\u00e9lib\u2019", "operator": "Smovengo", "ref": "18024", "source": "Autolib Velib M\u00e9tropole - 2021-03", "wikidata": "Q86254464"}}, {"type": "node", "id": 7371329397, "lat": 48.8904495, "lon": 2.3490574, "tags": {"amenity": "bicycle_rental", "capacity": "37", "name": "Marcadet - Barb\u00e8s", "network": "V\u00e9lib\u2019", "operator": "Smovengo", "ref": "18022", "source": "Autolib Velib M\u00e9tropole - 2021-03", "wikidata": "Q86254427"}}, {"type": "node", "id": 7426505264, "lat": 48.8821526, "lon": 2.3463187, "tags": {"amenity": "bicycle_rental", "bicycle_rental": "docking_station", "brand": "V\u00e9lib\u2019 M\u00e9tropole", "brand:wikidata": "Q1120762", "brand:wikipedia": "fr:V\u00e9lib' M\u00e9tropole", "capacity": "16", "name": "Dunkerque - Trudaine", "network": "V\u00e9lib\u2019 M\u00e9tropole", "network:wikidata": "Q1120762", "network:wikipedia": "fr:V\u00e9lib' M\u00e9tropole", "operator": "Smovengo", "operator:wikidata": "Q47008427", "operator:wikipedia": "fr:Smovengo", "ref": "9006", "wikidata": "Q86254597"}}, {"type": "node", "id": 7531612752, "lat": 48.9025061, "lon": 2.3739262, "tags": {"amenity": "bicycle_rental", "bicycle_rental": "docking_station", "brand": "V\u00e9lib\u2019 M\u00e9tropole", "brand:wikidata": "Q1120762", "brand:wikipedia": "fr:V\u00e9lib' M\u00e9tropole", "capacity": "34", "name": "Madeleine Vionnet", "network": "V\u00e9lib\u2019 M\u00e9tropole", "network:wikidata": "Q1120762", "network:wikipedia": "fr:V\u00e9lib' M\u00e9tropole", "operator": "Smovengo", "operator:wikidata": "Q47008427", "operator:wikipedia": "fr:Smovengo", "ref": "33019", "source": "Autolib Velib M\u00e9tropole - 04/2020", "survey:date": "2020-06-05", "wikidata": "Q86255952"}}, {"type": "node", "id": 7981641086, "lat": 48.8949713, "lon": 2.3647617, "tags": {"amenity": "bicycle_rental", "bicycle_rental": "docking_station", "brand": "V\u00e9lib\u2019 M\u00e9tropole", "brand:wikidata": "Q1120762", "brand:wikipedia": "fr:V\u00e9lib' M\u00e9tropole", "capacity": "33", "name": "Tzara", "network": "V\u00e9lib\u2019 M\u00e9tropole", "network:wikidata": "Q1120762", "network:wikipedia": "fr:V\u00e9lib' M\u00e9tropole", "operator": "Smovengo", "operator:wikidata": "Q47008427", "operator:wikipedia": "fr:Smovengo", "ref": "18201", "source": "Autolib Velib M\u00e9tropole - 04/2020", "survey:date": "2020-10-06", "wikidata": "Q100587045"}}, {"type": "node", "id": 8680460680, "lat": 48.8987072, "lon": 2.3524106, "tags": {"amenity": "bicycle_rental", "bicycle_rental": "docking_station", "brand": "V\u00e9lib\u2019 M\u00e9tropole", "brand:wikidata": "Q1120762", "brand:wikipedia": "fr:V\u00e9lib' M\u00e9tropole", "capacity": "38", "name": "Diane Arbus", "network": "V\u00e9lib\u2019 M\u00e9tropole", "network:wikidata": "Q1120762", "network:wikipedia": "fr:V\u00e9lib' M\u00e9tropole", "operator": "Smovengo", "operator:wikidata": "Q47008427", "operator:wikipedia": "fr:Smovengo", "ref": "18202", "wikidata": "Q110496306"}}, {"type": "node", "id": 9023657513, "lat": 48.9026387, "lon": 2.3482481, "tags": {"amenity": "bicycle_rental", "bicycle_rental": "docking_station", "brand": "V\u00e9lib\u2019 M\u00e9tropole", "brand:wikidata": "Q1120762", "brand:wikipedia": "fr:V\u00e9lib' M\u00e9tropole", "capacity": "30", "fixme": "V\u00e9rifier emplacement", "name": "Adrien Lesesne - Docteur Bauer", "network": "V\u00e9lib\u2019 M\u00e9tropole", "network:wikidata": "Q1120762", "network:wikipedia": "fr:V\u00e9lib' M\u00e9tropole", "operator": "Smovengo", "operator:wikidata": "Q47008427", "operator:wikipedia": "fr:Smovengo", "ref": "34005", "wikidata": "Q110496277"}}, {"type": "node", "id": 9023657514, "lat": 48.9074316, "lon": 2.3403142, "tags": {"amenity": "bicycle_rental", "bicycle_rental": "docking_station", "brand": "V\u00e9lib\u2019 M\u00e9tropole", "brand:wikidata": "Q1120762", "brand:wikipedia": "fr:V\u00e9lib' M\u00e9tropole", "capacity": "28", "name": "Blanqui - Docteur Bauer", "network": "V\u00e9lib\u2019 M\u00e9tropole", "network:wikidata": "Q1120762", "network:wikipedia": "fr:V\u00e9lib' M\u00e9tropole", "operator": "Smovengo", "operator:wikidata": "Q47008427", "operator:wikipedia": "fr:Smovengo", "ref": "34013", "wikidata": "Q110496279"}}, {"type": "node", "id": 9023678918, "lat": 48.9113802, "lon": 2.3340077, "tags": {"amenity": "bicycle_rental", "bicycle_rental": "docking_station", "brand": "V\u00e9lib\u2019 M\u00e9tropole", "brand:wikidata": "Q1120762", "brand:wikipedia": "fr:V\u00e9lib' M\u00e9tropole", "capacity": "48", "fixme": "V\u00e9rifier emplacement", "name": "H\u00f4tel de Ville de Saint-Ouen", "network": "V\u00e9lib\u2019 M\u00e9tropole", "network:wikidata": "Q1120762", "network:wikipedia": "fr:V\u00e9lib' M\u00e9tropole", "operator": "Smovengo", "operator:wikidata": "Q47008427", "operator:wikipedia": "fr:Smovengo", "ref": "34010", "wikidata": "Q110496281"}}, {"type": "way", "id": 578111481, "nodes": [5540287650, 5540287649, 5540287648, 5540287647, 5540287650], "tags": {"amenity": "bicycle_rental", "brand": "V\u00e9lib\u2019 M\u00e9tropole", "brand:wikidata": "Q1120762", "capacity": "20", "name": "Condorcet - Turgot", "network": "V\u00e9lib\u2019 M\u00e9tropole", "network:wikidata": "Q1120762", "operator": "Smovengo", "operator:wikidata": "Q47008427", "ref": "9007", "source": "survey 2018; BDOrtho IGN", "wikidata": "Q86254724"}}]}