{"version": 0.6, "generator": "Overpass API 0.7.61.5 4133829e", "osm3s": {"timestamp_osm_base": "2023-12-09T22:50:21Z", "copyright": "The data included in this document is from www.openstreetmap.org. The data is made available under ODbL."}, "elements": [{"type": "node", "id": 260743043, "lat": 48.8477077, "lon": 2.3659262, "tags": {"amenity": "bicycle_rental", "bicycle_rental": "docking_station", "brand": "V\u00e9lib\u2019 M\u00e9tropole", "brand:wikidata": "Q1120762", "brand:wikipedia": "fr:V\u00e9lib' M\u00e9tropole", "capacity": "52", "name": "Bourdon - Pont Morland", "network": "V\u00e9lib\u2019 M\u00e9tropole", "network:wikidata": "Q1120762", "network:wikipedia": "fr:V\u00e9lib' M\u00e9tropole", "operator": "Smovengo", "operator:wikidata": "Q47008427", "operator:wikipedia": "fr:Smovengo", "ref": "4006", "source": "Survey", "wikidata": "Q86255004"}}, {"type": "node", "id": 496128416, "lat": 48.8507819, "lon": 2.3758987, "tags": {"amenity": "bicycle_rental", "bicycle_rental": "docking_station", "brand": "V\u00e9lib\u2019 M\u00e9tropole", "brand:wikidata": "Q1120762", "brand:wikipedia": "fr:V\u00e9lib' M\u00e9tropole", "capacity": "34", "name": "Traversi\u00e8re - Ledru-Rollin", "network": "V\u00e9lib\u2019 M\u00e9tropole", "network:wikidata": "Q1120762", "network:wikipedia": "fr:V\u00e9lib' M\u00e9tropole", "operator": "Smovengo", "operator:wikidata": "Q47008427", "operator:wikipedia": "fr:Smovengo", "ref": "12004", "source": "Autolib Velib M\u00e9tropole - 04/2020", "wikidata": "Q86252743"}}, {"type": "node", "id": 2914625160, "lat": 48.8550968, "lon": 2.373443, "tags": {"amenity": "bicycle_rental", "bicycle_rental": "docking_station", "brand": "V\u00e9lib\u2019 M\u00e9tropole", "brand:wikidata": "Q1120762", "brand:wikipedia": "fr:V\u00e9lib' M\u00e9tropole", "capacity": "23", "name": "Roquette - Thi\u00e9r\u00e9", "network": "V\u00e9lib\u2019 M\u00e9tropole", "network:wikidata": "Q1120762", "network:wikipedia": "fr:V\u00e9lib' M\u00e9tropole", "operator": "Smovengo", "operator:wikidata": "Q47008427", "operator:wikipedia": "fr:Smovengo", "ref": "11002", "source": "Autolib Velib M\u00e9tropole - 04/2020", "unsigned_ref": "129043651", "wikidata": "Q86254481"}}, {"type": "node", "id": 5516872699, "lat": 48.855531, "lon": 2.3752267, "tags": {"amenity": "bicycle_rental", "bicycle_rental": "docking_station", "brand": "V\u00e9lib\u2019 M\u00e9tropole", "brand:wikidata": "Q1120762", "brand:wikipedia": "fr:V\u00e9lib' M\u00e9tropole", "capacity": "34", "name": "Keller - La Roquette", "network": "V\u00e9lib\u2019 M\u00e9tropole", "network:wikidata": "Q1120762", "network:wikipedia": "fr:V\u00e9lib' M\u00e9tropole", "operator": "Smovengo", "operator:wikidata": "Q47008427", "operator:wikipedia": "fr:Smovengo", "ref": "11003", "source": "Autolib Velib M\u00e9tropole - 04/2020", "unsigned_ref": "13283986", "wikidata": "Q86254567"}}, {"type": "node", "id": 5879359748, "lat": 48.8588888, "lon": 2.3789873, "tags": {"amenity": "bicycle_rental", "bicycle_rental": "docking_station", "brand": "V\u00e9lib\u2019 M\u00e9tropole", "brand:wikidata": "Q1120762", "brand:wikipedia": "fr:V\u00e9lib' M\u00e9tropole", "capacity": "51", "name": "Mairie du 11\u00e8me", "network": "V\u00e9lib\u2019 M\u00e9tropole", "network:wikidata": "Q1120762", "network:wikipedia": "fr:V\u00e9lib' M\u00e9tropole", "operator": "Smovengo", "operator:wikidata": "Q47008427", "operator:wikipedia": "fr:Smovengo", "ref": "11024", "source": "Autolib Velib M\u00e9tropole - 04/2020", "unsigned_ref": "39254792", "wikidata": "Q86254537"}}, {"type": "node", "id": 5959879034, "lat": 48.8439515, "lon": 2.379015, "tags": {"amenity": "bicycle_rental", "bicycle_rental": "docking_station", "brand": "V\u00e9lib\u2019 M\u00e9tropole", "brand:wikidata": "Q1120762", "brand:wikipedia": "fr:V\u00e9lib' M\u00e9tropole", "capacity": "68", "name": "Gare de Lyon - Roland Barthes", "network": "V\u00e9lib\u2019 M\u00e9tropole", "network:wikidata": "Q1120762", "network:wikipedia": "fr:V\u00e9lib' M\u00e9tropole", "operator": "Smovengo", "operator:wikidata": "Q47008427", "operator:wikipedia": "fr:Smovengo", "ref": "12106", "source": "survey 10/2018", "wikidata": "Q86252679"}}, {"type": "node", "id": 6320368373, "lat": 48.8559636, "lon": 2.3563873, "tags": {"amenity": "bicycle_rental", "bicycle_rental": "docking_station", "brand": "V\u00e9lib\u2019 M\u00e9tropole", "brand:wikidata": "Q1120762", "brand:wikipedia": "fr:V\u00e9lib' M\u00e9tropole", "capacity": "44", "contact:city": "Paris", "contact:email": "info@velib-metropole.fr", "contact:housenumber": "25", "contact:phone": "+33 1 76 49 12 34", "contact:postcode": "75004", "contact:street": "Rue du Pont Louis-Philippe", "contact:website": "https://www.velib-metropole.fr", "covered": "no", "fee": "yes", "name": "Mairie du 4\u00e8me", "network": "V\u00e9lib\u2019 M\u00e9tropole", "network:wikidata": "Q1120762", "network:wikipedia": "fr:V\u00e9lib' M\u00e9tropole", "opening_hours": "24/7", "operator": "Smovengo", "operator:wikidata": "Q47008427", "operator:wikipedia": "fr:Smovengo", "ref": "4015", "source": "Autolib Velib M\u00e9tropole - 2021-03", "unsigned_ref": "100767550", "wheelchair": "yes", "wikidata": "Q86255040"}}, {"type": "node", "id": 6378406945, "lat": 48.8497384, "lon": 2.3647749, "tags": {"amenity": "bicycle_rental", "bicycle_rental": "docking_station", "brand": "V\u00e9lib\u2019 M\u00e9tropole", "brand:wikidata": "Q1120762", "brand:wikipedia": "fr:V\u00e9lib' M\u00e9tropole", "capacity": "15", "name": "Mornay - Sully", "network": "V\u00e9lib\u2019 M\u00e9tropole", "network:wikidata": "Q1120762", "network:wikipedia": "fr:V\u00e9lib' M\u00e9tropole", "operator": "Smovengo", "operator:wikidata": "Q47008427", "operator:wikipedia": "fr:Smovengo", "ref": "4109", "source": "Survey", "wikidata": "Q86254988"}}, {"type": "node", "id": 6378406946, "lat": 48.8512799, "lon": 2.3624287, "tags": {"amenity": "bicycle_rental", "bicycle_rental": "docking_station", "brand": "V\u00e9lib\u2019 M\u00e9tropole", "brand:wikidata": "Q1120762", "brand:wikipedia": "fr:V\u00e9lib' M\u00e9tropole", "capacity": "14", "name": "Quai des C\u00e9lestins - Henri IV", "network": "V\u00e9lib\u2019 M\u00e9tropole", "network:wikidata": "Q1120762", "network:wikipedia": "fr:V\u00e9lib' M\u00e9tropole", "operator": "Smovengo", "operator:wikidata": "Q47008427", "operator:wikipedia": "fr:Smovengo", "ref": "4005", "source": "Survey", "unsigned_ref": "516395829", "wikidata": "Q86254995"}}, {"type": "node", "id": 6424025687, "lat": 48.8538577, "lon": 2.3697102, "tags": {"amenity": "bicycle_rental", "bicycle_rental": "docking_station", "brand": "V\u00e9lib\u2019 M\u00e9tropole", "brand:wikidata": "Q1120762", "brand:wikipedia": "fr:V\u00e9lib' M\u00e9tropole", "capacity": "53", "name": "Richard Lenoir - Place de la Bastille", "network": "V\u00e9lib\u2019 M\u00e9tropole", "network:wikidata": "Q1120762", "network:wikipedia": "fr:V\u00e9lib' M\u00e9tropole", "operator": "Smovengo", "operator:wikidata": "Q47008427", "operator:wikipedia": "fr:Smovengo", "ref": "11001", "source": "Autolib Velib M\u00e9tropole - 04/2020", "unsigned_ref": "39149651", "wikidata": "Q86254485"}}, {"type": "node", "id": 6424035187, "lat": 48.8512488, "lon": 2.3691771, "tags": {"amenity": "bicycle_rental", "bicycle_rental": "docking_station", "brand": "V\u00e9lib\u2019 M\u00e9tropole", "brand:wikidata": "Q1120762", "capacity": "62", "name": "Bastille - Biscornet", "network": "V\u00e9lib\u2019 M\u00e9tropole", "network:wikidata": "Q1120762", "operator": "Smovengo", "operator:wikidata": "Q47008427", "ref": "12001", "source": "Autolib Velib M\u00e9tropole - 2021-03", "unsigned_ref": "84986959", "wikidata": "Q86252719"}}, {"type": "node", "id": 6433039470, "lat": 48.8455394, "lon": 2.3726753, "tags": {"amenity": "bicycle_rental", "bicycle_rental": "docking_station", "capacity": "60", "name": "Gare de Lyon - Place Louis Armand", "network": "V\u00e9lib\u2019", "operator": "Smovengo", "ref": "12151", "source": "Autolib Velib M\u00e9tropole - 2021-03", "wikidata": "Q86252674"}}, {"type": "node", "id": 6433149877, "lat": 48.8456906, "lon": 2.3742067, "tags": {"amenity": "bicycle_rental", "bicycle_rental": "docking_station", "brand": "V\u00e9lib\u2019 M\u00e9tropole", "brand:wikidata": "Q1120762", "brand:wikipedia": "fr:V\u00e9lib' M\u00e9tropole", "capacity": "50", "name": "Gare de Lyon - Chalon", "network": "V\u00e9lib\u2019 M\u00e9tropole", "network:wikidata": "Q1120762", "network:wikipedia": "fr:V\u00e9lib' M\u00e9tropole", "operator": "Smovengo", "operator:wikidata": "Q47008427", "operator:wikipedia": "fr:Smovengo", "ref": "12007", "source": "Autolib Velib M\u00e9tropole - 04/2020", "wikidata": "Q86252710"}}, {"type": "node", "id": 6433154798, "lat": 48.8438961, "lon": 2.370511, "tags": {"amenity": "bicycle_rental", "bicycle_rental": "docking_station", "brand": "V\u00e9lib\u2019 M\u00e9tropole", "brand:wikidata": "Q1120762", "brand:wikipedia": "fr:V\u00e9lib' M\u00e9tropole", "capacity": "51", "name": "Gare de Lyon - Van Gogh", "network": "V\u00e9lib\u2019 M\u00e9tropole", "network:wikidata": "Q1120762", "network:wikipedia": "fr:V\u00e9lib' M\u00e9tropole", "operator": "Smovengo", "operator:wikidata": "Q47008427", "operator:wikipedia": "fr:Smovengo", "ref": "12006", "source": "Autolib Velib M\u00e9tropole - 04/2020", "wikidata": "Q86252682"}}, {"type": "node", "id": 6437112096, "lat": 48.86118, "lon": 2.3813258, "tags": {"amenity": "bicycle_rental", "bicycle_rental": "docking_station", "brand": "V\u00e9lib\u2019 M\u00e9tropole", "brand:wikidata": "Q1120762", "brand:wikipedia": "fr:V\u00e9lib' M\u00e9tropole", "capacity": "45", "check_date": "2023-04-02", "name": "Chemin Vert - Saint-Maur", "network": "V\u00e9lib\u2019 M\u00e9tropole", "network:wikidata": "Q1120762", "network:wikipedia": "fr:V\u00e9lib' M\u00e9tropole", "operator": "Smovengo", "operator:wikidata": "Q47008427", "operator:wikipedia": "fr:Smovengo", "ref": "11026", "source": "Autolib Velib M\u00e9tropole - 04/2020", "unsigned_ref": "210744286", "wikidata": "Q86254487"}}, {"type": "node", "id": 6437112103, "lat": 48.8538423, "lon": 2.3570103, "tags": {"amenity": "bicycle_rental", "bicycle_rental": "docking_station", "brand": "V\u00e9lib\u2019 M\u00e9tropole", "brand:wikidata": "Q1120762", "capacity": "36", "name": "H\u00f4tel de Ville - Pont-Marie", "network": "V\u00e9lib\u2019 M\u00e9tropole", "network:wikidata": "Q1120762", "operator": "Smovengo", "operator:wikidata": "Q47008427", "ref": "4011", "source": "Autolib Velib M\u00e9tropole - 2021-03", "unsigned_ref": "54000539", "wikidata": "Q86255014"}}, {"type": "node", "id": 6437112104, "lat": 48.8550106, "lon": 2.3612606, "tags": {"amenity": "bicycle_rental", "bicycle_rental": "docking_station", "brand": "V\u00e9lib\u2019 M\u00e9tropole", "brand:wikidata": "Q1120762", "brand:wikipedia": "fr:V\u00e9lib' M\u00e9tropole", "capacity": "26", "name": "Saint-Antoine S\u00e9vign\u00e9", "network": "V\u00e9lib\u2019 M\u00e9tropole", "network:wikidata": "Q1120762", "network:wikipedia": "fr:V\u00e9lib' M\u00e9tropole", "operator": "Smovengo", "operator:wikidata": "Q47008427", "operator:wikipedia": "fr:Smovengo", "ref": "4010", "source": "Autolib Velib M\u00e9tropole - 04/2020", "unsigned_ref": "476155906", "wikidata": "Q86254976"}}, {"type": "node", "id": 6437112105, "lat": 48.85816, "lon": 2.3647129, "tags": {"amenity": "bicycle_rental", "bicycle_rental": "docking_station", "brand": "V\u00e9lib\u2019 M\u00e9tropole", "brand:wikidata": "Q1120762", "brand:wikipedia": "fr:V\u00e9lib' M\u00e9tropole", "capacity": "18", "name": "Saint-Gilles - Turenne", "network": "V\u00e9lib\u2019 M\u00e9tropole", "network:wikidata": "Q1120762", "network:wikipedia": "fr:V\u00e9lib' M\u00e9tropole", "operator": "Smovengo", "operator:wikidata": "Q47008427", "operator:wikipedia": "fr:Smovengo", "ref": "3002", "source": "Autolib Velib M\u00e9tropole - 04/2020", "survey:date": "2019-04-30", "unsigned_ref": "54000537", "wikidata": "Q86255170"}}, {"type": "node", "id": 6438006191, "lat": 48.8598693, "lon": 2.3610017, "tags": {"amenity": "bicycle_rental", "bicycle_rental": "docking_station", "brand": "V\u00e9lib\u2019 M\u00e9tropole", "brand:wikidata": "Q1120762", "brand:wikipedia": "fr:V\u00e9lib' M\u00e9tropole", "capacity": "36", "name": "Perle - Vieille du Temple", "network": "V\u00e9lib\u2019 M\u00e9tropole", "network:wikidata": "Q1120762", "network:wikipedia": "fr:V\u00e9lib' M\u00e9tropole", "operator": "Smovengo", "operator:wikidata": "Q47008427", "operator:wikipedia": "fr:Smovengo", "ref": "3008", "source": "Autolib Velib M\u00e9tropole - 2021-03", "unsigned_ref": "443153677", "wikidata": "Q86255152"}}, {"type": "node", "id": 6438519105, "lat": 48.8491357, "lon": 2.3560598, "tags": {"amenity": "bicycle_rental", "bicycle_rental": "docking_station", "brand": "V\u00e9lib\u2019 M\u00e9tropole", "brand:wikidata": "Q1120762", "brand:wikipedia": "fr:V\u00e9lib' M\u00e9tropole", "capacity": "40", "name": "Institut du Monde Arabe - Saint-Germain", "network": "V\u00e9lib\u2019 M\u00e9tropole", "network:wikidata": "Q1120762", "network:wikipedia": "fr:V\u00e9lib' M\u00e9tropole", "operator": "Smovengo", "operator:wikidata": "Q47008427", "operator:wikipedia": "fr:Smovengo", "ref": "5020", "source": "Autolib Velib M\u00e9tropole - 2021-03", "unsigned_ref": "128882438", "wikidata": "Q86255372"}}, {"type": "node", "id": 6438519109, "lat": 48.8527132, "lon": 2.360881, "tags": {"amenity": "bicycle_rental", "bicycle_rental": "docking_station", "brand": "V\u00e9lib\u2019 M\u00e9tropole", "brand:wikidata": "Q1120762", "brand:wikipedia": "fr:V\u00e9lib' M\u00e9tropole", "capacity": "28", "name": "Village Saint-Paul", "network": "V\u00e9lib\u2019 M\u00e9tropole", "network:wikidata": "Q1120762", "network:wikipedia": "fr:V\u00e9lib' M\u00e9tropole", "operator": "Smovengo", "operator:wikidata": "Q47008427", "operator:wikipedia": "fr:Smovengo", "ref": "4009", "source": "Autolib Velib M\u00e9tropole - 04/2020", "unsigned_ref": "128878135", "wikidata": "Q86255046"}}, {"type": "node", "id": 6438519110, "lat": 48.8557759, "lon": 2.3578968, "tags": {"amenity": "bicycle_rental", "bicycle_rental": "docking_station", "capacity": "28", "name": "Tiron - Rivoli", "network": "V\u00e9lib\u2019", "operator": "Smovengo", "ref": "4012", "source": "Autolib Velib M\u00e9tropole - 2021-03", "unsigned_ref": "58391194", "wikidata": "Q86255033"}}, {"type": "node", "id": 6439759682, "lat": 48.850872, "lon": 2.3565874, "tags": {"amenity": "bicycle_rental", "bicycle_rental": "docking_station", "brand": "V\u00e9lib\u2019 M\u00e9tropole", "brand:wikidata": "Q1120762", "brand:wikipedia": "fr:V\u00e9lib' M\u00e9tropole", "capacity": "25", "name": "Quai de B\u00e9thune - Pont de la Tournelle", "network": "V\u00e9lib\u2019 M\u00e9tropole", "network:wikidata": "Q1120762", "network:wikipedia": "fr:V\u00e9lib' M\u00e9tropole", "operator": "Smovengo", "operator:wikidata": "Q47008427", "operator:wikipedia": "fr:Smovengo", "ref": "4108", "source": "Autolib Velib M\u00e9tropole - 04/2020", "survey:date": "2019-04-30", "unsigned_ref": "653042678", "wikidata": "Q86255028"}}, {"type": "node", "id": 6439760286, "lat": 48.8457297, "lon": 2.3557752, "tags": {"amenity": "bicycle_rental", "bicycle_rental": "docking_station", "brand": "V\u00e9lib\u2019 M\u00e9tropole", "brand:wikidata": "Q1120762", "brand:wikipedia": "fr:V\u00e9lib' M\u00e9tropole", "capacity": "40", "covered": "no", "fee": "yes", "name": "Jussieu - Guy de la Brosse", "network": "V\u00e9lib\u2019 M\u00e9tropole", "network:wikidata": "Q1120762", "network:wikipedia": "fr:V\u00e9lib' M\u00e9tropole", "operator": "Smovengo", "operator:type": "private", "operator:wikidata": "Q47008427", "operator:wikipedia": "fr:Smovengo", "ref": "5119", "source": "Autolib Velib M\u00e9tropole - 04/2020", "unsigned_ref": "653048150", "wikidata": "Q86255436"}}, {"type": "node", "id": 6439760288, "lat": 48.846673, "lon": 2.366963, "tags": {"amenity": "bicycle_rental", "bicycle_rental": "docking_station", "brand": "V\u00e9lib\u2019 M\u00e9tropole", "brand:wikidata": "Q1120762", "brand:wikipedia": "fr:V\u00e9lib' M\u00e9tropole", "capacity": "27", "name": "Bastille - Quai de la Rap\u00e9e", "network": "V\u00e9lib\u2019 M\u00e9tropole", "network:wikidata": "Q1120762", "network:wikipedia": "fr:V\u00e9lib' M\u00e9tropole", "operator": "Smovengo", "operator:wikidata": "Q47008427", "operator:wikipedia": "fr:Smovengo", "payment:credit_cards": "no", "ref": "12150", "source": "Autolib Velib M\u00e9tropole - 04/2020", "unsigned_ref": "1056979685", "wikidata": "Q86252632"}}, {"type": "node", "id": 6439760289, "lat": 48.84423, "lon": 2.3641238, "tags": {"amenity": "bicycle_rental", "bicycle_rental": "docking_station", "brand": "V\u00e9lib\u2019 M\u00e9tropole", "brand:wikidata": "Q1120762", "brand:wikipedia": "fr:V\u00e9lib' M\u00e9tropole", "capacity": "37", "name": "Place Valhubert", "network": "V\u00e9lib\u2019 M\u00e9tropole", "network:wikidata": "Q1120762", "network:wikipedia": "fr:V\u00e9lib' M\u00e9tropole", "operator": "Smovengo", "operator:wikidata": "Q47008427", "operator:wikipedia": "fr:Smovengo", "payment:credit_cards": "yes", "ref": "5116", "source": "Autolib Velib M\u00e9tropole - 04/2020", "unsigned_ref": "653046029", "wikidata": "Q86255356"}}, {"type": "node", "id": 6440839674, "lat": 48.857041, "lon": 2.3728963, "tags": {"addr:postcode": "75011", "amenity": "bicycle_rental", "bicycle_rental": "docking_station", "brand": "V\u00e9lib\u2019 M\u00e9tropole", "brand:wikidata": "Q1120762", "brand:wikipedia": "fr:V\u00e9lib' M\u00e9tropole", "capacity": "43", "name": "Froment - Br\u00e9guet", "network": "V\u00e9lib\u2019 M\u00e9tropole", "network:wikidata": "Q1120762", "network:wikipedia": "fr:V\u00e9lib' M\u00e9tropole", "opening_hours": "24/7", "operator": "Smovengo", "operator:wikidata": "Q47008427", "operator:wikipedia": "fr:Smovengo", "ref": "11025", "source": "Autolib Velib M\u00e9tropole - 04/2020", "unsigned_ref": "82405965", "wikidata": "Q86254536"}}, {"type": "node", "id": 6440839675, "lat": 48.8569404, "lon": 2.3705913, "tags": {"amenity": "bicycle_rental", "capacity": "33", "name": "Br\u00e9guet - Sabin", "network": "V\u00e9lib\u2019", "operator": "Smovengo", "ref": "11033", "source": "Autolib Velib M\u00e9tropole - 2021-03", "unsigned_ref": "27363337", "wikidata": "Q86254513"}}, {"type": "node", "id": 6440839676, "lat": 48.8601003, "lon": 2.3712213, "tags": {"amenity": "bicycle_rental", "bicycle_rental": "docking_station", "brand": "V\u00e9lib\u2019 M\u00e9tropole", "brand:wikidata": "Q1120762", "brand:wikipedia": "fr:V\u00e9lib' M\u00e9tropole", "capacity": "38", "name": "Pel\u00e9e - Alphonse Baudin", "network": "V\u00e9lib\u2019 M\u00e9tropole", "network:wikidata": "Q1120762", "network:wikipedia": "fr:V\u00e9lib' M\u00e9tropole", "operator": "Smovengo", "operator:wikidata": "Q47008427", "operator:wikipedia": "fr:Smovengo", "ref": "11103", "source": "Autolib Velib M\u00e9tropole - 04/2020", "unsigned_ref": "124622630", "wikidata": "Q86254522"}}, {"type": "node", "id": 6454083895, "lat": 48.8610366, "lon": 2.3678085, "tags": {"amenity": "bicycle_rental", "bicycle_rental": "docking_station", "brand": "V\u00e9lib\u2019 M\u00e9tropole", "brand:wikidata": "Q1120762", "capacity": "30", "name": "Amelot - Saint-S\u00e9bastien", "network": "V\u00e9lib\u2019 M\u00e9tropole", "network:wikidata": "Q1120762", "operator": "Smovengo", "operator:wikidata": "Q47008427", "ref": "11047", "source": "Autolib Velib M\u00e9tropole - 2021-03", "unsigned_ref": "813544903", "wikidata": "Q86254486"}}, {"type": "node", "id": 6454083896, "lat": 48.8580345, "lon": 2.3678092, "tags": {"amenity": "bicycle_rental", "bicycle_rental": "docking_station", "capacity": "51", "name": "Beaumarchais - Saint-Gilles", "network": "V\u00e9lib\u2019", "operator": "Smovengo", "ref": "3001", "source": "Autolib Velib M\u00e9tropole - 2021-03", "unsigned_ref": "266963426", "wikidata": "Q86255154"}}, {"type": "node", "id": 6454083897, "lat": 48.8555502, "lon": 2.3684087, "tags": {"amenity": "bicycle_rental", "bicycle_rental": "docking_station", "brand": "V\u00e9lib\u2019 M\u00e9tropole", "brand:wikidata": "Q1120762", "brand:wikipedia": "fr:V\u00e9lib' M\u00e9tropole", "capacity": "18", "name": "Beaumarchais - Pas de la Mule", "network": "V\u00e9lib\u2019 M\u00e9tropole", "network:wikidata": "Q1120762", "network:wikipedia": "fr:V\u00e9lib' M\u00e9tropole", "operator": "Smovengo", "operator:wikidata": "Q47008427", "operator:wikipedia": "fr:Smovengo", "ref": "4107", "source": "Autolib Velib M\u00e9tropole - 2021-03", "unsigned_ref": "284711589", "wikidata": "Q86254986"}}, {"type": "node", "id": 6454083898, "lat": 48.8538017, "lon": 2.3683993, "tags": {"amenity": "bicycle_rental", "bicycle_rental": "docking_station", "brand": "V\u00e9lib\u2019 M\u00e9tropole", "brand:wikidata": "Q1120762", "brand:wikipedia": "fr:V\u00e9lib' M\u00e9tropole", "capacity": "23", "name": "Bastille - Beaumarchais", "network": "V\u00e9lib\u2019 M\u00e9tropole", "network:wikidata": "Q1120762", "network:wikipedia": "fr:V\u00e9lib' M\u00e9tropole", "operator": "Smovengo", "operator:wikidata": "Q47008427", "operator:wikipedia": "fr:Smovengo", "ref": "4101", "source": "Autolib Velib M\u00e9tropole - 2021-03", "wheelchair": "yes", "wikidata": "Q86255019"}}, {"type": "node", "id": 6454083899, "lat": 48.852229, "lon": 2.3740155, "tags": {"amenity": "bicycle_rental", "bicycle_rental": "docking_station", "brand": "V\u00e9lib\u2019 M\u00e9tropole", "brand:wikidata": "Q1120762", "brand:wikipedia": "fr:V\u00e9lib' M\u00e9tropole", "capacity": "34", "name": "Charonne - Faubourg Saint-Antoine", "network": "V\u00e9lib\u2019 M\u00e9tropole", "network:wikidata": "Q1120762", "network:wikipedia": "fr:V\u00e9lib' M\u00e9tropole", "operator": "Smovengo", "operator:wikidata": "Q47008427", "operator:wikipedia": "fr:Smovengo", "ref": "11004", "source": "Autolib Velib M\u00e9tropole - 04/2020", "unsigned_ref": "55664548", "wikidata": "Q86254530"}}, {"type": "node", "id": 6454083900, "lat": 48.8438554, "lon": 2.365595, "tags": {"amenity": "bicycle_rental", "bicycle_rental": "docking_station", "brand": "V\u00e9lib\u2019 M\u00e9tropole", "brand:wikidata": "Q1120762", "brand:wikipedia": "fr:V\u00e9lib' M\u00e9tropole", "capacity": "27", "name": "Gare d'Austerlitz - Quai Saint-Bernard", "network": "V\u00e9lib\u2019 M\u00e9tropole", "network:wikidata": "Q1120762", "network:wikipedia": "fr:V\u00e9lib' M\u00e9tropole", "operator": "Smovengo", "operator:wikidata": "Q47008427", "operator:wikipedia": "fr:Smovengo", "payment:credit_cards": "yes", "ref": "13104", "source": "Autolib Velib M\u00e9tropole - 04/2020", "unsigned_ref": "35196898", "wikidata": "Q86253354"}}, {"type": "node", "id": 6457697386, "lat": 48.8608328, "lon": 2.3756422, "tags": {"amenity": "bicycle_rental", "bicycle_rental": "docking_station", "brand": "V\u00e9lib\u2019 M\u00e9tropole", "brand:wikidata": "Q1120762", "brand:wikipedia": "fr:V\u00e9lib' M\u00e9tropole", "capacity": "43", "check_date": "2022-07-28", "name": "Square Saint-Ambroise", "network": "V\u00e9lib\u2019 M\u00e9tropole", "network:wikidata": "Q1120762", "network:wikipedia": "fr:V\u00e9lib' M\u00e9tropole", "operator": "Smovengo", "operator:wikidata": "Q47008427", "operator:wikipedia": "fr:Smovengo", "ref": "11041", "unsigned_ref": "66491394", "wikidata": "Q86254508"}}, {"type": "node", "id": 6457966877, "lat": 48.8492227, "lon": 2.3704958, "tags": {"amenity": "bicycle_rental", "bicycle_rental": "docking_station", "capacity": "16", "name": "Lacu\u00e9e - Lyon", "network": "V\u00e9lib\u2019", "operator": "Smovengo", "ref": "12002", "source": "Autolib Velib M\u00e9tropole - 2021-03", "unsigned_ref": "39626277", "wikidata": "Q86252648"}}, {"type": "node", "id": 6486388510, "lat": 48.8594004, "lon": 2.3559334, "tags": {"amenity": "bicycle_rental", "bicycle_rental": "docking_station", "brand": "V\u00e9lib\u2019 M\u00e9tropole", "brand:wikidata": "Q1120762", "brand:wikipedia": "fr:V\u00e9lib' M\u00e9tropole", "capacity": "29", "name": "Blancs-Manteaux - Archives", "network": "V\u00e9lib\u2019 M\u00e9tropole", "network:wikidata": "Q1120762", "network:wikipedia": "fr:V\u00e9lib' M\u00e9tropole", "operator": "Smovengo", "operator:wikidata": "Q47008427", "operator:wikipedia": "fr:Smovengo", "ref": "4014", "source": "Autolib Velib M\u00e9tropole - 2021-03", "unsigned_ref": "54000542", "wikidata": "Q86254984"}}, {"type": "node", "id": 6486388511, "lat": 48.8585606, "lon": 2.358674, "tags": {"amenity": "bicycle_rental", "capacity": "29", "name": "Vieille du Temple - Francs Bourgeois", "network": "V\u00e9lib\u2019", "operator": "Smovengo", "ref": "4013", "source": "Autolib Velib M\u00e9tropole - 2021-03", "survey:date": "2021-02-16", "unsigned_ref": "54000541", "wikidata": "Q86254978"}}, {"type": "node", "id": 6486520734, "lat": 48.8461896, "lon": 2.3704052, "tags": {"amenity": "bicycle_rental", "bicycle_rental": "docking_station", "brand": "V\u00e9lib\u2019 M\u00e9tropole", "brand:wikidata": "Q1120762", "brand:wikipedia": "fr:V\u00e9lib' M\u00e9tropole", "capacity": "30", "name": "Bercy - Traversi\u00e9re", "network": "V\u00e9lib\u2019 M\u00e9tropole", "network:wikidata": "Q1120762", "network:wikipedia": "fr:V\u00e9lib' M\u00e9tropole", "operator": "Smovengo", "operator:wikidata": "Q47008427", "operator:wikipedia": "fr:Smovengo", "ref": "12102", "source": "Autolib Velib M\u00e9tropole - 2021-03", "wikidata": "Q86252646"}}, {"type": "node", "id": 6487410156, "lat": 48.8535546, "lon": 2.3639153, "tags": {"amenity": "bicycle_rental", "bicycle_rental": "docking_station", "brand": "V\u00e9lib\u2019 M\u00e9tropole", "brand:wikidata": "Q1120762", "brand:wikipedia": "fr:V\u00e9lib' M\u00e9tropole", "capacity": "20", "name": "Neuve Saint-Pierre - Beautreillis", "network": "V\u00e9lib\u2019 M\u00e9tropole", "network:wikidata": "Q1120762", "network:wikipedia": "fr:V\u00e9lib' M\u00e9tropole", "operator": "Smovengo", "operator:wikidata": "Q47008427", "operator:wikipedia": "fr:Smovengo", "ref": "4110", "source": "Autolib Velib M\u00e9tropole - 04/2020", "unsigned_ref": "1020700136", "wikidata": "Q86255035"}}, {"type": "node", "id": 6496145379, "lat": 48.8525325, "lon": 2.380551, "tags": {"amenity": "bicycle_rental", "bicycle_rental": "docking_station", "brand": "V\u00e9lib\u2019 M\u00e9tropole", "brand:wikidata": "Q1120762", "brand:wikipedia": "fr:V\u00e9lib' M\u00e9tropole", "capacity": "49", "name": "Charles Delescluze", "network": "V\u00e9lib\u2019 M\u00e9tropole", "network:wikidata": "Q1120762", "network:wikipedia": "fr:V\u00e9lib' M\u00e9tropole", "operator": "Smovengo", "operator:wikidata": "Q47008427", "operator:wikipedia": "fr:Smovengo", "ref": "11101", "unsigned_ref": "15299574", "wikidata": "Q86254484"}}, {"type": "node", "id": 6496145381, "lat": 48.8563699, "lon": 2.3790071, "tags": {"amenity": "bicycle_rental", "bicycle_rental": "docking_station", "brand": "V\u00e9lib\u2019 M\u00e9tropole", "brand:wikidata": "Q1120762", "brand:wikipedia": "fr:V\u00e9lib' M\u00e9tropole", "capacity": "37", "name": "Ledru-Rollin - Place du P\u00e8re Chaillet", "network": "V\u00e9lib\u2019 M\u00e9tropole", "network:wikidata": "Q1120762", "network:wikipedia": "fr:V\u00e9lib' M\u00e9tropole", "operator": "Smovengo", "operator:wikidata": "Q47008427", "operator:wikipedia": "fr:Smovengo", "ref": "11006", "source": "Autolib Velib M\u00e9tropole - 04/2020", "unsigned_ref": "82404497", "wikidata": "Q86254552"}}, {"type": "node", "id": 6913843962, "lat": 48.848183, "lon": 2.3763473, "tags": {"amenity": "bicycle_rental", "capacity": "26", "name": "Charenton - Prague", "network": "V\u00e9lib\u2019", "operator": "Smovengo", "ref": "12101", "source": "Autolib Velib M\u00e9tropole - 2021-03", "wikidata": "Q86252727"}}, {"type": "node", "id": 6913843963, "lat": 48.8468877, "lon": 2.3770544, "tags": {"amenity": "bicycle_rental", "capacity": "54", "name": "Hector Malot - Daumesnil", "network": "V\u00e9lib\u2019", "operator": "Smovengo", "ref": "12008", "source": "survey", "wikidata": "Q86252671"}}, {"type": "node", "id": 6913843964, "lat": 48.8462822, "lon": 2.3792585, "tags": {"amenity": "bicycle_rental", "bicycle_rental": "docking_station", "brand": "V\u00e9lib\u2019 M\u00e9tropole", "brand:wikidata": "Q1120762", "brand:wikipedia": "fr:V\u00e9lib' M\u00e9tropole", "capacity": "18", "name": "Charenton - Diderot", "network": "V\u00e9lib\u2019 M\u00e9tropole", "network:wikidata": "Q1120762", "network:wikipedia": "fr:V\u00e9lib' M\u00e9tropole", "operator": "Smovengo", "operator:wikidata": "Q47008427", "operator:wikipedia": "fr:Smovengo", "ref": "12009", "source": "Autolib Velib M\u00e9tropole - 2021-03", "wikidata": "Q86252739"}}, {"type": "node", "id": 7368681186, "lat": 48.8536375, "lon": 2.3774181, "tags": {"amenity": "bicycle_rental", "bicycle_rental": "docking_station", "brand": "V\u00e9lib\u2019 M\u00e9tropole", "brand:wikidata": "Q1120762", "brand:wikipedia": "fr:V\u00e9lib' M\u00e9tropole", "capacity": "32", "name": "Ledru-Rollin - Charonne", "network": "V\u00e9lib\u2019 M\u00e9tropole", "network:wikidata": "Q1120762", "network:wikipedia": "fr:V\u00e9lib' M\u00e9tropole", "operator": "Smovengo", "operator:wikidata": "Q47008427", "operator:wikipedia": "fr:Smovengo", "ref": "11114", "source": "Autolib Velib M\u00e9tropole - 04/2019", "wikidata": "Q86254540"}}, {"type": "node", "id": 9406340523, "lat": 48.8523659, "lon": 2.3680979, "tags": {"amenity": "bicycle_rental", "bicycle_rental": "docking_station", "brand": "V\u00e9lib\u2019 M\u00e9tropole", "brand:wikidata": "Q1120762", "brand:wikipedia": "fr:V\u00e9lib' M\u00e9tropole", "capacity": "35", "name": "Place de la Bastille - Bourdon", "network": "V\u00e9lib\u2019 M\u00e9tropole", "network:wikidata": "Q1120762", "network:wikipedia": "fr:V\u00e9lib' M\u00e9tropole", "operator": "Smovengo", "operator:wikidata": "Q47008427", "operator:wikipedia": "fr:Smovengo", "ref": "4007", "source": "Autolib Velib M\u00e9tropole - 2021-03", "wikidata": "Q110496310"}}, {"type": "node", "id": 9898240319, "lat": 48.8594308, "lon": 2.3560075, "tags": {"amenity": "bicycle_rental"}}, {"type": "node", "id": 10113367785, "lat": 48.8436471, "lon": 2.3722465, "tags": {"address": "193 rue de Bercy, 75012 Paris", "amenity": "bicycle_rental", "fee": "yes", "name": "Weelo Gare de Lyon", "network": "Weelo", "not:brand:wikidata": "Q1120762", "opening_hours": "Mo-Su 07:30-21:00", "operator": "Smovengo", "operator:type": "private", "payment:app": "yes", "url": "https://weelo.fr/stations"}}, {"type": "node", "id": 10572778809, "lat": 48.8503674, "lon": 2.3792215, "tags": {"amenity": "bicycle_rental", "bicycle_rental": "docking_station", "survey:date": "2023-01-21"}}, {"type": "node", "id": 10671861712, "lat": 48.8578329, "lon": 2.3622643, "tags": {"amenity": "bicycle_rental", "bicycle_rental": "docking_station", "brand": "V\u00e9lib\u2019 M\u00e9tropole", "brand:wikidata": "Q1120762", "brand:wikipedia": "fr:V\u00e9lib' M\u00e9tropole", "capacity": "24", "name": "Payenne - Square George Ca\u00efn", "network": "V\u00e9lib\u2019 M\u00e9tropole", "network:wikidata": "Q1120762", "network:wikipedia": "fr:V\u00e9lib' M\u00e9tropole", "operator": "Smovengo", "operator:wikidata": "Q47008427", "operator:wikipedia": "fr:Smovengo", "ref": "3201", "wikidata": "Q116796023"}}, {"type": "node", "id": 10696561622, "lat": 48.843355, "lon": 2.3542893}, {"type": "node", "id": 10696561623, "lat": 48.8433571, "lon": 2.3543116}, {"type": "node", "id": 10696561624, "lat": 48.843565, "lon": 2.3542617}, {"type": "node", "id": 10696561625, "lat": 48.8435628, "lon": 2.3542379}, {"type": "node", "id": 10696561626, "lat": 48.8436788, "lon": 2.3547254}, {"type": "node", "id": 10696561627, "lat": 48.8436647, "lon": 2.3547245}, {"type": "node", "id": 10696561628, "lat": 48.843671, "lon": 2.3544546}, {"type": "node", "id": 10696561629, "lat": 48.8436854, "lon": 2.3544557}, {"type": "way", "id": 1149835035, "nodes": [10696561625, 10696561624, 10696561623, 10696561622, 10696561625]}, {"type": "way", "id": 1149835036, "nodes": [10696561629, 10696561628, 10696561627, 10696561626, 10696561629]}, {"type": "relation", "id": 15538165, "members": [{"type": "way", "ref": 1149835035, "role": "outer"}, {"type": "way", "ref": 1149835036, "role": "outer"}], "tags": {"amenity": "bicycle_rental", "name": "Lac\u00e9p\u00e8de - Linn\u00e9", "network": "V\u00e9lib\u2019 M\u00e9tropole", "operator": "Smovengo", "ref": "5031", "source": "Autolib Velib M\u00e9tropole - 04/2020", "type": "multipolygon", "unsigned_ref": "84961467", "wikidata": "Q86255430"}}]}