{"version": 0.6, "generator": "Overpass API 0.7.61.5 4133829e", "osm3s": {"timestamp_osm_base": "2023-12-09T23:49:30Z", "copyright": "The data included in this document is from www.openstreetmap.org. The data is made available under ODbL."}, "elements": [{"type": "node", "id": 27362251, "lat": 48.8690339, "lon": 2.3099266, "tags": {"STIF:zone": "1", "name": "Franklin D. Roosevelt", "name:ru": "\u0424\u0440\u0430\u043d\u043a\u043b\u0438\u043d \u0414. \u0420\u0443\u0437\u0432\u0435\u043b\u044c\u0442", "old_name": "Marbeuf Rond Point des Champs-\u00c9lys\u00e9es", "public_transport": "station", "railway": "station", "ref:FR:FANTOIR": "75108S169G", "ref:FR:RATP": "1924", "ref:FR:STIF": "21931", "source": "survey", "station": "subway", "subway": "yes", "type:RATP": "metro", "wheelchair": "no", "wikidata": "Q1445234", "wikipedia": "fr:Franklin D. Roosevelt (m\u00e9tro de Paris)"}}, {"type": "node", "id": 27362258, "lat": 48.8645025, "lon": 2.3296589, "tags": {"STIF:zone": "1", "name": "Tuileries", "name:de": "Tuilerien", "name:ru": "\u0422\u044e\u0438\u043b\u044c\u0440\u0438", "public_transport": "station", "railway": "station", "ref:FR:FANTOIR": "75101S567R", "ref:FR:RATP": "1640", "ref:FR:STIF": "22075", "source": "STIF - 12/2016", "station": "subway", "subway": "yes", "type:RATP": "metro", "wheelchair": "no", "wikidata": "Q666009", "wikipedia": "fr:Tuileries (m\u00e9tro de Paris)"}}, {"type": "node", "id": 27371862, "lat": 48.8587782, "lon": 2.3474106, "tags": {"STIF:zone": "1", "name": "Ch\u00e2telet", "name:ru": "\u0428\u0430\u0442\u043b\u0435", "old_name": "Pont Notre-Dame;Pont Notre-Dame \u2013 Pont au Change", "operator": "RATP", "public_transport": "station", "railway": "station", "ref:FR:FANTOIR": "75101S090X;75104S090J", "ref:FR:RATP": "1964", "ref:FR:STIF": "21959", "source": "STIF - 12/2016", "station": "subway", "subway": "yes", "type:RATP": "metro", "wheelchair": "no", "wikidata": "Q601484", "wikipedia": "fr:Ch\u00e2telet (m\u00e9tro de Paris)"}}, {"type": "node", "id": 243496025, "lat": 48.8834886, "lon": 2.3336343, "tags": {"STIF:zone": "1", "name": "Blanche", "public_transport": "station", "railway": "station", "ref:FR:FANTOIR": "75118S043B", "ref:FR:RATP": "2009", "ref:FR:STIF": "22125", "source": "STIF - 12/2016", "station": "subway", "subway": "yes", "type:RATP": "metro", "wheelchair": "no", "wikidata": "Q881406", "wikipedia": "fr:Blanche (m\u00e9tro de Paris)"}}, {"type": "node", "id": 243496027, "lat": 48.8834466, "lon": 2.3272634, "tags": {"STIF:zone": "1", "name": "Place de Clichy", "name:ru": "\u041f\u043b\u044f\u0441-\u0434\u0435-\u041a\u043b\u0438\u0448\u0438", "public_transport": "station", "railway": "station", "ref:FR:FANTOIR": "75117S416L;75109S416S", "ref:FR:RATP": "1790", "ref:FR:STIF": "22115", "source": "STIF - 12/2016", "station": "subway", "subway": "yes", "type:RATP": "metro", "wheelchair": "no", "wikidata": "Q610012", "wikipedia": "fr:Place de Clichy (m\u00e9tro de Paris)"}}, {"type": "node", "id": 243496028, "lat": 48.8822428, "lon": 2.3213306, "tags": {"STIF:zone": "1", "name": "Rome", "public_transport": "station", "railway": "station", "ref:FR:FANTOIR": "75117S492U", "ref:FR:RATP": "1670", "ref:FR:STIF": "22110", "source": "STIF - 12/2016", "station": "subway", "subway": "yes", "survey:date": "2017-09-20", "type:RATP": "metro", "wheelchair": "no", "wikidata": "Q567806", "wikipedia": "fr:Rome (m\u00e9tro de Paris)"}}, {"type": "node", "id": 243496029, "lat": 48.8811181, "lon": 2.3149118, "tags": {"STIF:zone": "1", "name": "Villiers", "name:ru": "\u0412\u0438\u043b\u044c\u0435", "public_transport": "station", "railway": "station", "ref:FR:FANTOIR": "75117S589Z", "ref:FR:RATP": "1654", "ref:FR:STIF": "22027", "source": "STIF - 12/2016", "station": "subway", "subway": "yes", "type:RATP": "metro", "wheelchair": "no", "wikidata": "Q1511335", "wikipedia": "fr:Villiers (m\u00e9tro de Paris)"}}, {"type": "node", "id": 243496030, "lat": 48.8802919, "lon": 2.3085925, "tags": {"STIF:zone": "1", "check_date:wheelchair": "2023-09-02", "name": "Monceau", "public_transport": "station", "railway": "station", "ref:FR:FANTOIR": "75108S334L", "ref:FR:RATP": "1749", "ref:FR:STIF": "22117", "source": "STIF - 12/2016", "station": "subway", "type:RATP": "metro", "wheelchair": "no", "wikidata": "Q1717241", "wikipedia": "fr:Monceau (m\u00e9tro de Paris)"}}, {"type": "node", "id": 243507793, "lat": 48.8654414, "lon": 2.3561316, "tags": {"STIF:zone": "1", "addr:city": "Paris", "check_date:wheelchair": "2021-02-01", "name": "Arts et M\u00e9tiers", "name:ru": "\u0410\u0440-\u044d-\u041c\u0435\u0442\u044c\u0435", "operator": "RATP", "public_transport": "station", "railway": "station", "ref:FR:RATP": "1988", "ref:FR:STIF": "21994", "source": "STIF - 12/2016", "station": "subway", "subway": "yes", "type:RATP": "metro", "wheelchair": "no", "wikidata": "Q713944", "wikipedia": "fr:Arts et M\u00e9tiers (m\u00e9tro de Paris)"}}, {"type": "node", "id": 243510334, "lat": 48.8686333, "lon": 2.3414766, "tags": {"STIF:zone": "1", "name": "Bourse", "name:ru": "\u0411\u0443\u0440\u0441", "public_transport": "station", "railway": "station", "ref:FR:FANTOIR": "75102S052B", "ref:FR:RATP": "1930", "ref:FR:STIF": "22033", "source": "STIF - 12/2016", "station": "subway", "type:RATP": "metro", "wheelchair": "no", "wikidata": "Q895259", "wikipedia": "fr:Bourse (m\u00e9tro de Paris)"}}, {"type": "node", "id": 243510335, "lat": 48.8695954, "lon": 2.3359026, "tags": {"STIF:zone": "1", "name": "Quatre Septembre", "name:fr": "Quatre Septembre", "name:ru": "\u041a\u0430\u0442\u0440-\u0421\u0435\u043f\u0442\u0430\u043c\u0431\u0440", "public_transport": "station", "railway": "station", "ref:FR:FANTOIR": "75102S473J", "ref:FR:RATP": "1744", "ref:FR:STIF": "22024", "source": "STIF - 12/2016", "station": "subway", "subway": "yes", "type:RATP": "metro", "wheelchair": "no", "wikidata": "Q945229", "wikipedia": "fr:Quatre-Septembre (m\u00e9tro de Paris)"}}, {"type": "node", "id": 243510337, "lat": 48.8736792, "lon": 2.3273189, "tags": {"STIF:zone": "1", "name": "Havre - Caumartin", "name:fr": "Havre - Caumartin", "name:ru": "\u0413\u0430\u0432\u0440 \u2014 \u041a\u043e\u043c\u0430\u0440\u0442\u0435\u043d", "old_name": "Caumartin", "public_transport": "station", "railway": "station", "ref:FR:FANTOIR": "75109S223G", "ref:FR:RATP": "1852", "ref:FR:STIF": "21906;21926", "station": "subway", "subway": "yes", "type:RATP": "metro", "wheelchair": "no", "wikidata": "Q1511406", "wikipedia": "fr:Havre - Caumartin (m\u00e9tro de Paris)"}}, {"type": "node", "id": 243510678, "lat": 48.8828567, "lon": 2.3092267, "tags": {"STIF:zone": "1", "name": "Malesherbes", "name:ru": "\u041c\u0430\u043b\u044c\u0437\u0435\u0440\u0431", "public_transport": "station", "railway": "station", "ref:FR:FANTOIR": "75117S319F", "ref:FR:RATP": "1826", "ref:FR:STIF": "22031", "source": "STIF - 12/2016", "station": "subway", "subway": "yes", "type:RATP": "metro", "wheelchair": "no", "wikidata": "Q1784153", "wikipedia": "fr:Malesherbes (m\u00e9tro de Paris)"}}, {"type": "node", "id": 256897078, "lat": 48.8706233, "lon": 2.3487498, "tags": {"STIF:zone": "1", "name": "Bonne Nouvelle", "public_transport": "station", "railway": "station", "ref:FR:FANTOIR": "75102P003Z;75102P004A", "ref:FR:RATP": "2015", "ref:FR:STIF": "21933", "source": "STIF - 12/2016", "station": "subway", "subway": "yes", "type:RATP": "metro", "wheelchair": "no", "wikidata": "Q892720", "wikipedia": "fr:Bonne-Nouvelle (m\u00e9tro de Paris)"}}, {"type": "node", "id": 256897079, "lat": 48.8714412, "lon": 2.3434953, "tags": {"STIF:zone": "1", "name": "Grands Boulevards", "old_name": "Montmartre; rue Montmartre", "public_transport": "station", "railway": "station", "ref:FR:RATP": "1671", "ref:FR:STIF": "21909", "source": "STIF - 12/2016", "station": "subway", "subway": "yes", "type:RATP": "metro", "wheelchair": "no", "wikidata": "Q1543053", "wikipedia": "fr:Grands Boulevards (m\u00e9tro de Paris)"}}, {"type": "node", "id": 257512478, "lat": 48.8513956, "lon": 2.3435268, "tags": {"name": "Boulevard Saint-Michel", "railway": "subway_entrance", "ref": "1", "wheelchair": "no"}}, {"type": "node", "id": 257628954, "lat": 48.8532876, "lon": 2.3436351, "tags": {"heritage": "3", "heritage:operator": "mhs", "level": "-1", "mhs:inscription_date": "1978", "name": "Fontaine Saint-Michel", "railway": "subway_entrance", "ref": "3", "ref:mhs": "PA00088648", "source:heritage": "data.gouv.fr:Minist\u00e8re de la Culture - 08/2011", "wheelchair": "no", "wikidata": "Q22924604", "wikipedia": "fr:Saint-Michel (m\u00e9tro de Paris)"}}, {"type": "node", "id": 260769652, "lat": 48.873719, "lon": 2.3145029, "tags": {"STIF:zone": "1", "name": "Miromesnil", "name:fr": "Miromesnil", "name:ru": "\u041c\u0438\u0440\u043e\u043c\u0435\u043d\u0438\u043b\u044c", "public_transport": "station", "railway": "station", "ref:FR:FANTOIR": "75108P013N;75108P014P", "ref:FR:RATP": "1747", "ref:FR:STIF": "21924", "source": "STIF - 12/2016", "station": "subway", "type:RATP": "metro", "wheelchair": "yes", "wikidata": "Q1578045", "wikipedia": "fr:Miromesnil (m\u00e9tro de Paris)"}}, {"type": "node", "id": 261612240, "lat": 48.886971, "lon": 2.3258228, "tags": {"STIF:zone": "1", "addr:city": "Paris", "addr:postcode": "75017", "name": "La Fourche", "name:fr": "La Fourche", "name:ru": "\u041b\u044f-\u0424\u0443\u0440\u0448", "network": "M\u00e9tro de Paris;RATP", "operator": "RATP", "public_transport": "station", "railway": "station", "ref:FR:RATP": "1872", "ref:FR:STIF": "22227", "source": "STIF - 12/2016", "station": "subway", "subway": "yes", "type:RATP": "metro", "wheelchair": "no", "wikidata": "Q780625", "wikipedia": "fr:La Fourche (m\u00e9tro de Paris)"}}, {"type": "node", "id": 263497272, "lat": 48.858657, "lon": 2.3229936, "tags": {"STIF:zone": "1", "name": "Solf\u00e9rino", "name:ru": "\u0421\u043e\u043b\u044c\u0444\u0435\u0440\u0438\u043d\u043e", "network": "M\u00e9tro de Paris", "operator": "RATP", "public_transport": "station", "railway": "station", "ref:FR:FANTOIR": "75107S535L", "ref:FR:RATP": "1622", "ref:FR:STIF": "22045", "source": "STIF - 12/2016", "station": "subway", "subway": "yes", "train": "yes", "type:RATP": "metro", "wheelchair": "no", "wikidata": "Q1368640", "wikipedia": "fr:Solf\u00e9rino (m\u00e9tro de Paris)"}}, {"type": "node", "id": 264469541, "lat": 48.8546647, "lon": 2.3060728, "tags": {"STIF:zone": "1", "name": "\u00c9cole Militaire", "name:fr": "\u00c9cole Militaire", "name:ru": "\u042d\u043a\u043e\u043b\u044c \u041c\u0438\u043b\u0438\u0442\u0435\u0440", "public_transport": "station", "railway": "station", "ref:FR:FANTOIR": "75107S141H", "ref:FR:RATP": "1909;1007", "ref:FR:STIF": "22191", "source": "STIF - 12/2016", "station": "subway", "subway": "yes", "type:RATP": "metro", "wheelchair": "no", "wikidata": "Q273476", "wikipedia": "fr:\u00c9cole Militaire (m\u00e9tro de Paris)"}}, {"type": "node", "id": 264473011, "lat": 48.8575602, "lon": 2.3103234, "tags": {"STIF:zone": "1", "addr:city": "Paris", "name": "La Tour Maubourg", "name:ru": "\u041b\u044f\u0442\u0443\u0440-\u041c\u043e\u0431\u0443\u0440", "public_transport": "station", "railway": "station", "ref:FR:FANTOIR": "75107S285P", "ref:FR:RATP": "1008;54166", "station": "subway", "subway": "yes", "type:RATP": "metro", "wheelchair": "no", "wikidata": "Q1514082", "wikipedia": "fr:La Tour-Maubourg (m\u00e9tro de Paris)"}}, {"type": "node", "id": 264504832, "lat": 48.8784469, "lon": 2.337458, "tags": {"STIF:zone": "1", "name": "Saint-Georges", "name:ru": "\u0421\u0435\u043d-\u0416\u043e\u0440\u0436", "public_transport": "station", "railway": "station", "ref:FR:FANTOIR": "75109S514Y", "ref:FR:RATP": "3110;1686", "ref:FR:STIF": "22044", "source": "STIF - 12/2016", "station": "subway", "subway": "yes", "type:RATP": "metro", "wheelchair": "no", "wikidata": "Q1937499", "wikipedia": "fr:Saint-Georges (m\u00e9tro de Paris)"}}, {"type": "node", "id": 264505115, "lat": 48.8845677, "lon": 2.3379294, "tags": {"STIF:zone": "1", "name": "Abbesses", "name:ru": "\u0410\u0431\u0431\u0435\u0441", "public_transport": "station", "railway": "station", "ref:FR:FANTOIR": "75118S001F", "ref:FR:RATP": "1975", "ref:FR:STIF": "22059", "source": "STIF - 12/2016", "station": "subway", "subway": "yes", "type:RATP": "metro", "wheelchair": "no", "wikidata": "Q306256", "wikipedia": "fr:Abbesses (m\u00e9tro de Paris)"}}, {"type": "node", "id": 264505153, "lat": 48.8897543, "lon": 2.3388254, "tags": {"STIF:zone": "1", "name": "Lamarck - Caulaincourt", "name:ru": "\u041b\u0430\u043c\u0430\u0440\u043a \u2014 \u041a\u043e\u043b\u0435\u043d\u043a\u0443\u0440", "public_transport": "station", "railway": "station", "ref:FR:FANTOIR": "75118S282L", "ref:FR:RATP": "1879", "ref:FR:STIF": "22055", "source": "STIF - 12/2016", "station": "subway", "subway": "yes", "type:RATP": "metro", "wheelchair": "no", "wikidata": "Q980380", "wikipedia": "fr:Lamarck - Caulaincourt (m\u00e9tro de Paris)"}}, {"type": "node", "id": 264508548, "lat": 48.8762027, "lon": 2.3579127, "tags": {"STIF:zone": "1", "addr:city": "Paris", "addr:postcode": "75010", "alt_name": "Gare de l'Est (Verdun)", "name": "Gare de l'Est", "network": "M\u00e9tro de Paris;RATP", "operator": "RATP", "public_transport": "station", "railway": "station", "ref:FR:FANTOIR": "75110S184K", "ref:FR:RATP": "1841", "ref:FR:STIF": "41010", "source": "STIF - 12/2016", "station": "subway", "subway": "yes", "type:RATP": "metro", "wikidata": "Q1494172", "wikipedia": "fr:Gare de l'Est (m\u00e9tro de Paris)"}}, {"type": "node", "id": 264514896, "lat": 48.8553245, "lon": 2.347542, "tags": {"STIF:zone": "1", "elevator": "yes", "level": "-2", "name": "Cit\u00e9", "name:ru": "\u0421\u0438\u0442\u044d", "network": "RATP", "operator": "RATP", "public_transport": "station", "railway": "station", "ref:FR:FANTOIR": "75104S095P", "ref:FR:RATP": "1969", "ref:FR:STIF": "22150", "source": "STIF - 12/2016", "station": "subway", "subway": "yes", "type:RATP": "metro", "wheelchair": "no", "wikidata": "Q1094294", "wikipedia": "fr:Cit\u00e9 (m\u00e9tro de Paris)"}}, {"type": "node", "id": 282635141, "lat": 48.8678551, "lon": 2.3138686, "tags": {"STIF:zone": "1", "name": "Champs-\u00c9lys\u00e9es - Clemenceau", "name:ru": "\u0428\u0430\u043d\u0437-\u042d\u043b\u0438\u0437\u0435 \u2014 \u041a\u043b\u0435\u043c\u0430\u043d\u0441\u043e", "public_transport": "station", "railway": "station", "ref:FR:FANTOIR": "75108S080K", "ref:FR:RATP": "1949", "ref:FR:STIF": "22090", "source": "STIF - 12/2016", "station": "subway", "subway": "yes", "type:RATP": "metro", "wheelchair": "no", "wikidata": "Q1061527", "wikipedia": "fr:Champs-\u00c9lys\u00e9es - Clemenceau (m\u00e9tro de Paris)"}}, {"type": "node", "id": 354969611, "lat": 48.8722245, "lon": 2.3297877, "tags": {"STIF:zone": "1", "addr:city": "Paris", "addr:postcode": "75009", "name": "Auber", "name:ru": "\u041e\u0431\u0435\u0440", "operator": "RATP", "public_transport": "station", "railway": "station", "ref:FR:FANTOIR": "75109S015F", "ref:FR:RATP": "1990", "ref:FR:STIF": "412806", "source": "STIF - 12/2016", "start_date": "1971-11-23", "type:RATP": "rer", "uic_ref": "8775859", "wheelchair": "yes", "wikidata": "Q800416", "wikipedia": "fr:Gare Auber"}}, {"type": "node", "id": 425042035, "lat": 48.8784982, "lon": 2.3247114}, {"type": "node", "id": 434307684, "lat": 48.8781081, "lon": 2.3259054, "tags": {"entrance": "main", "level": "2", "name": "Gare Saint-Lazare - Rue de Londres", "railway": "train_station_entrance", "wheelchair": "yes"}}, {"type": "node", "id": 784356967, "lat": 48.8821583, "lon": 2.3546389}, {"type": "node", "id": 784505551, "lat": 48.8821327, "lon": 2.3547491}, {"type": "node", "id": 790027804, "lat": 48.8756298, "lon": 2.3241317, "tags": {"elevator": "yes", "name": "1. Cour de Rome", "railway": "subway_entrance", "ref": "1", "source": "survey", "wheelchair": "yes"}}, {"type": "node", "id": 790027892, "lat": 48.8757122, "lon": 2.3240851}, {"type": "node", "id": 790027896, "lat": 48.8756182, "lon": 2.3241816}, {"type": "node", "id": 790027932, "lat": 48.8756693, "lon": 2.3240846}, {"type": "node", "id": 790027975, "lat": 48.8756249, "lon": 2.3242364}, {"type": "node", "id": 817243485, "lat": 48.8747601, "lon": 2.3266535}, {"type": "node", "id": 817244499, "lat": 48.8746409, "lon": 2.3266846}, {"type": "node", "id": 818880271, "lat": 48.8774515, "lon": 2.3230886}, {"type": "node", "id": 818880300, "lat": 48.8780324, "lon": 2.3258886}, {"type": "node", "id": 818880325, "lat": 48.8771244, "lon": 2.3266232}, {"type": "node", "id": 818880405, "lat": 48.8771371, "lon": 2.3266237}, {"type": "node", "id": 818880431, "lat": 48.8761121, "lon": 2.3258721}, {"type": "node", "id": 818880458, "lat": 48.8779988, "lon": 2.3259971}, {"type": "node", "id": 841988595, "lat": 48.8746995, "lon": 2.3266695, "tags": {"addr:housenumber": "7", "addr:street": "Rue du Havre", "entrance": "yes", "level": "0", "name": "Rue du Havre", "railway": "train_station_entrance", "source": "cadastre-dgi-fr source : Direction G\u00e9n\u00e9rale des Imp\u00f4ts - Cadastre. Mise \u00e0 jour : 2010", "wheelchair": "no"}}, {"type": "node", "id": 895871336, "lat": 48.8601681, "lon": 2.3248892, "tags": {"entrance": "yes", "level": "-1", "name": "Mus\u00e9e d'Orsay / Rue Bellechasse", "railway": "train_station_entrance", "source": "SNCF Transilien - Plans d'architecte et plan de communication - Prestation de saisie r\u00e9alis\u00e9e par Arx IT en hiver 2016", "wheelchair": "yes"}}, {"type": "node", "id": 980491629, "lat": 48.888463, "lon": 2.3134823}, {"type": "node", "id": 1000517983, "lat": 48.878559, "lon": 2.3616949}, {"type": "node", "id": 1000519274, "lat": 48.8810442, "lon": 2.3608661}, {"type": "node", "id": 1000519285, "lat": 48.8810501, "lon": 2.3608419}, {"type": "node", "id": 1000785936, "lat": 48.8792643, "lon": 2.3587477}, {"type": "node", "id": 1000785946, "lat": 48.8796949, "lon": 2.3596289}, {"type": "node", "id": 1000785948, "lat": 48.8792555, "lon": 2.3588472}, {"type": "node", "id": 1000785953, "lat": 48.8802539, "lon": 2.3602383}, {"type": "node", "id": 1000785965, "lat": 48.8797867, "lon": 2.3597277}, {"type": "node", "id": 1000785967, "lat": 48.8802683, "lon": 2.3602932}, {"type": "node", "id": 1000785969, "lat": 48.8778509, "lon": 2.3584778}, {"type": "node", "id": 1000785978, "lat": 48.8787026, "lon": 2.3586408}, {"type": "node", "id": 1000785983, "lat": 48.8795776, "lon": 2.3590334}, {"type": "node", "id": 1000785984, "lat": 48.8798217, "lon": 2.3597681}, {"type": "node", "id": 1000785996, "lat": 48.8778958, "lon": 2.3583565}, {"type": "node", "id": 1000785999, "lat": 48.8775938, "lon": 2.3583248}, {"type": "node", "id": 1000786002, "lat": 48.8797021, "lon": 2.3595254}, {"type": "node", "id": 1000786003, "lat": 48.8778628, "lon": 2.3584383}, {"type": "node", "id": 1000786005, "lat": 48.8778752, "lon": 2.3583994}, {"type": "node", "id": 1000786011, "lat": 48.8783775, "lon": 2.3585242}, {"type": "node", "id": 1000786017, "lat": 48.8778933, "lon": 2.3583673}, {"type": "node", "id": 1000786019, "lat": 48.8797379, "lon": 2.3596744}, {"type": "node", "id": 1000786020, "lat": 48.8799058, "lon": 2.359869}, {"type": "node", "id": 1000795813, "lat": 48.8808694, "lon": 2.3614185}, {"type": "node", "id": 1000795814, "lat": 48.8808696, "lon": 2.3614541}, {"type": "node", "id": 1000803856, "lat": 48.8807194, "lon": 2.3615773}, {"type": "node", "id": 1000803883, "lat": 48.880879, "lon": 2.3615715}, {"type": "node", "id": 1000803893, "lat": 48.8808778, "lon": 2.3615431}, {"type": "node", "id": 1108259366, "lat": 48.8532652, "lon": 2.3442296, "tags": {"level": "-1", "name": "Place Saint-Michel", "railway": "subway_entrance", "ref": "4", "source": "cadastre-dgi-fr source : Direction G\u00e9n\u00e9rale des Imp\u00f4ts - Cadastre. Mise \u00e0 jour : 2011", "wheelchair": "no"}}, {"type": "node", "id": 1281989808, "lat": 48.8810084, "lon": 2.3608168}, {"type": "node", "id": 1281989831, "lat": 48.8802985, "lon": 2.3604077}, {"type": "node", "id": 1281989840, "lat": 48.8807969, "lon": 2.3606947}, {"type": "node", "id": 1282180290, "lat": 48.8780772, "lon": 2.3584169, "tags": {"addr:housenumber": "32", "source": "cadastre-dgi-fr source : Direction G\u00e9n\u00e9rale des Imp\u00f4ts - Cadastre. Mise \u00e0 jour : 2011"}}, {"type": "node", "id": 1282180303, "lat": 48.8785829, "lon": 2.3585979, "tags": {"addr:housenumber": "38", "source": "cadastre-dgi-fr source : Direction G\u00e9n\u00e9rale des Imp\u00f4ts - Cadastre. Mise \u00e0 jour : 2011"}}, {"type": "node", "id": 1282180331, "lat": 48.8784456, "lon": 2.3585486, "tags": {"addr:housenumber": "36", "source": "cadastre-dgi-fr source : Direction G\u00e9n\u00e9rale des Imp\u00f4ts - Cadastre. Mise \u00e0 jour : 2011"}}, {"type": "node", "id": 1282180373, "lat": 48.878244, "lon": 2.3584765, "tags": {"addr:housenumber": "34", "source": "cadastre-dgi-fr source : Direction G\u00e9n\u00e9rale des Imp\u00f4ts - Cadastre. Mise \u00e0 jour : 2011"}}, {"type": "node", "id": 1342771349, "lat": 48.8756473, "lon": 2.3241014}, {"type": "node", "id": 1342771353, "lat": 48.8785134, "lon": 2.3246647}, {"type": "node", "id": 1342771407, "lat": 48.8787592, "lon": 2.3239006}, {"type": "node", "id": 1342771422, "lat": 48.8756184, "lon": 2.324202}, {"type": "node", "id": 1342771425, "lat": 48.8786971, "lon": 2.3241027}, {"type": "node", "id": 1342771431, "lat": 48.875632, "lon": 2.3242544}, {"type": "node", "id": 1342771437, "lat": 48.8786019, "lon": 2.3243733}, {"type": "node", "id": 1342771438, "lat": 48.8786704, "lon": 2.3241841}, {"type": "node", "id": 1342771440, "lat": 48.8783966, "lon": 2.3238276}, {"type": "node", "id": 1342771453, "lat": 48.878567, "lon": 2.32448}, {"type": "node", "id": 1342771461, "lat": 48.8756979, "lon": 2.3240805}, {"type": "node", "id": 1342771463, "lat": 48.8788223, "lon": 2.3236566}, {"type": "node", "id": 1342771475, "lat": 48.8787221, "lon": 2.3240081}, {"type": "node", "id": 1342771491, "lat": 48.8785926, "lon": 2.3237977}, {"type": "node", "id": 1342771503, "lat": 48.8788141, "lon": 2.3236167}, {"type": "node", "id": 1381642412, "lat": 48.8540819, "lon": 2.3477945, "tags": {"entrance": "yes", "level": "0", "name": "H\u00f4tel-Dieu - Parvis de Notre-Dame", "railway": "train_station_entrance", "ref": "5", "wheelchair": "no"}}, {"type": "node", "id": 1713195678, "lat": 48.8616231, "lon": 2.3477768, "tags": {"entrance": "main", "level": "0", "name": "Porte Lescot", "railway": "subway_entrance", "ref": "3", "wheelchair": "no", "wikidata": "Q3398924"}}, {"type": "node", "id": 1737905436, "lat": 48.8877643, "lon": 2.3139813}, {"type": "node", "id": 1737905448, "lat": 48.8890545, "lon": 2.3118635}, {"type": "node", "id": 1737905450, "lat": 48.8890924, "lon": 2.312031}, {"type": "node", "id": 1737905451, "lat": 48.889074, "lon": 2.3119183}, {"type": "node", "id": 1737905457, "lat": 48.8891643, "lon": 2.312136}, {"type": "node", "id": 1737905459, "lat": 48.8891959, "lon": 2.312173}, {"type": "node", "id": 1931878048, "lat": 48.8638883, "lon": 2.3051127}, {"type": "node", "id": 1931878049, "lat": 48.8639204, "lon": 2.3065471}, {"type": "node", "id": 1931878050, "lat": 48.8640364, "lon": 2.305105}, {"type": "node", "id": 1931878051, "lat": 48.8640676, "lon": 2.3065395}, {"type": "node", "id": 1931882861, "lat": 48.8639044, "lon": 2.3058313}, {"type": "node", "id": 1981222779, "lat": 48.8787676, "lon": 2.3222643, "tags": {"STIF:zone": "1", "name": "Europe", "note": "\"Simone-Veil\" est un sous-titre, le nom de la station reste \"Europe\"", "public_transport": "station", "railway": "station", "ref:FR:FANTOIR": "75108S148J", "ref:FR:RATP": "1915", "ref:FR:STIF": "22032", "source": "cadastre-dgi-fr source : Direction G\u00e9n\u00e9rale des Imp\u00f4ts - Cadastre. Mise \u00e0 jour : 2012", "station": "subway", "subway": "yes", "type:RATP": "metro", "wheelchair": "no", "wikidata": "Q766618"}}, {"type": "node", "id": 2213724098, "lat": 48.8772258, "lon": 2.323209}, {"type": "node", "id": 2331231093, "lat": 48.8798794, "lon": 2.3617342}, {"type": "node", "id": 2331231095, "lat": 48.8801737, "lon": 2.3616596}, {"type": "node", "id": 2331239201, "lat": 48.8788553, "lon": 2.361858}, {"type": "node", "id": 2331239205, "lat": 48.8789527, "lon": 2.3618978}, {"type": "node", "id": 2331239209, "lat": 48.8790516, "lon": 2.3619303}, {"type": "node", "id": 2331239211, "lat": 48.8791527, "lon": 2.3619439}, {"type": "node", "id": 2331239216, "lat": 48.8794035, "lon": 2.3619446}, {"type": "node", "id": 2331239218, "lat": 48.8795675, "lon": 2.3619126}, {"type": "node", "id": 2411479930, "lat": 48.8630339, "lon": 2.3138871, "tags": {"alt_name": "Berges de Seine", "entrance": "main", "level": "-1", "name": "Pont Alexandre III", "opening_hours": "Mo-Su 06:00-22:00", "railway": "train_station_entrance", "source": "SNCF Transilien - Plans d'architecte et plan de communication - Prestation de saisie r\u00e9alis\u00e9e par Arx IT en hiver 2016", "wheelchair": "no"}}, {"type": "node", "id": 2506668806, "lat": 48.8760357, "lon": 2.3596963, "tags": {"barrier": "gate", "bicycle": "yes", "foot": "yes"}}, {"type": "node", "id": 2506668855, "lat": 48.8765747, "lon": 2.3605565}, {"type": "node", "id": 2884062203, "lat": 48.8759326, "lon": 2.3289419, "tags": {"conveying": "yes", "entrance": "yes", "level": "0", "name": "Rue Saint-Lazare", "railway": "train_station_entrance", "wheelchair": "no"}}, {"type": "node", "id": 3270644600, "lat": 48.8762183, "lon": 2.32679}, {"type": "node", "id": 3335200917, "lat": 48.8513805, "lon": 2.3435213}, {"type": "node", "id": 3335200922, "lat": 48.8514089, "lon": 2.3435371}, {"type": "node", "id": 3335202020, "lat": 48.8532572, "lon": 2.3442476}, {"type": "node", "id": 3335202036, "lat": 48.8532731, "lon": 2.3442117}, {"type": "node", "id": 3405457394, "lat": 48.8761378, "lon": 2.3261508}, {"type": "node", "id": 3406089863, "lat": 48.8759998, "lon": 2.3257655}, {"type": "node", "id": 3406089868, "lat": 48.8761518, "lon": 2.3262412}, {"type": "node", "id": 3406091295, "lat": 48.8761896, "lon": 2.3265488}, {"type": "node", "id": 3417692493, "lat": 48.8828803, "lon": 2.3442565, "tags": {"STIF:zone": "1", "name": "Anvers", "public_transport": "station", "railway": "station", "ref:FR:FANTOIR": "75118S009P", "ref:FR:RATP": "1984", "ref:FR:STIF": "22123", "source": "STIF - 12/2016", "station": "subway", "subway": "yes", "type:RATP": "metro", "wheelchair": "no", "wikidata": "Q612971", "wikipedia": "fr:Anvers (m\u00e9tro de Paris)"}}, {"type": "node", "id": 3417692497, "lat": 48.8846923, "lon": 2.3426644, "tags": {"STIF:zone": "1", "alt_name": "Funiculaire Gare basse", "name": "Funiculaire Montmartre - Station Inf\u00e9rieure", "operator": "RATP", "public_transport": "station", "railway": "station", "ref:FR:RATP": "2021", "ref:FR:STIF": "463175", "source": "Bing", "station": "funicular", "wheelchair": "yes"}}, {"type": "node", "id": 3417692499, "lat": 48.8856581, "lon": 2.3425549, "tags": {"STIF:zone": "1", "alt_name": "Funiculaire Gare haute", "name": "Funiculaire Montmartre - Station Sup\u00e9rieure", "operator": "RATP", "public_transport": "station", "railway": "station", "ref:FR:RATP": "2022", "ref:FR:STIF": "412355", "source": "Bing", "station": "funicular", "wheelchair": "yes"}}, {"type": "node", "id": 3430515272, "lat": 48.8677091, "lon": 2.3457466, "tags": {"STIF:zone": "1", "addr:city": "Paris", "name": "Sentier", "name:ru": "\u0421\u0430\u043d\u0442\u044c\u0435", "public_transport": "station", "railway": "station", "ref:FR:FANTOIR": "75102S531X", "ref:FR:RATP": "1702", "ref:FR:STIF": "22029", "source": "STIF - 12/2016", "station": "subway", "subway": "yes", "type:RATP": "metro", "wheelchair": "no", "wikidata": "Q1783889", "wikipedia": "fr:Sentier (m\u00e9tro de Paris)"}}, {"type": "node", "id": 3542631493, "lat": 48.8754153, "lon": 2.3253531, "tags": {"STIF:zone": "1", "addr:city": "Paris", "addr:postcode": "75009", "layer": "-2", "name": "Saint-Lazare", "name:ru": "\u0421\u0435\u043d-\u041b\u0430\u0437\u0430\u0440", "network": "M\u00e9tro de Paris;RATP", "operator": "RATP", "public_transport": "station", "railway": "station", "ref:FR:FANTOIR": "75108S188C", "ref:FR:RATP": "1689", "ref:FR:STIF": "21963", "source": "STIF - 12/2016", "start_date": "1903-10-19", "station": "subway", "subway": "yes", "type:RATP": "metro", "wheelchair": "limited", "wikidata": "Q1519529", "wikipedia": "fr:Saint-Lazare (m\u00e9tro de Paris)"}}, {"type": "node", "id": 3560632808, "lat": 48.8758022, "lon": 2.326735}, {"type": "node", "id": 3560737802, "lat": 48.875773, "lon": 2.3267447}, {"type": "node", "id": 3763562357, "lat": 48.8662052, "lon": 2.3223767, "tags": {"STIF:zone": "1", "name": "Concorde", "name:de": "Concorde", "name:es": "Concorde", "name:it": "Concorde", "name:ko": "\ucf69\ucf54\ub974\ub4dc \uad11\uc7a5", "name:pt": "Concorde", "name:ro": "Concorde", "name:ru": "\u041a\u043e\u043d\u043a\u043e\u0440\u0434", "operator": "RATP", "public_transport": "station", "railway": "station", "ref:FR:FANTOIR": "75108S099F;75101S099G", "ref:FR:RATP": "1885", "ref:FR:STIF": "22085", "source": "STIF - 12/2016", "station": "subway", "type:RATP": "metro", "wheelchair": "no", "wikidata": "Q970075", "wikipedia": "fr:Concorde (m\u00e9tro de Paris)"}}, {"type": "node", "id": 3931967758, "lat": 48.8608923, "lon": 2.3144984, "tags": {"STIF:zone": "1", "name": "Invalides", "name:ru": "\u042d\u043d\u0432\u0430\u043b\u0438\u0434", "public_transport": "station", "railway": "station", "ref:FR:FANTOIR": "75107S242T", "ref:FR:RATP": "1857", "ref:FR:STIF": "22185", "source": "STIF - 12/2016", "station": "subway", "subway": "yes", "type:RATP": "metro", "wheelchair": "no", "wikidata": "Q1528456", "wikipedia": "fr:Invalides (m\u00e9tro de Paris)"}}, {"type": "node", "id": 4036210455, "lat": 48.8803086, "lon": 2.3538974}, {"type": "node", "id": 4036210467, "lat": 48.8806026, "lon": 2.3574882}, {"type": "node", "id": 4036295996, "lat": 48.8839209, "lon": 2.3572917}, {"type": "node", "id": 4036295998, "lat": 48.8839416, "lon": 2.3571898}, {"type": "node", "id": 4036295999, "lat": 48.8839592, "lon": 2.3570915}, {"type": "node", "id": 4036296000, "lat": 48.8839629, "lon": 2.3570654}, {"type": "node", "id": 4036296001, "lat": 48.8839824, "lon": 2.3569761}, {"type": "node", "id": 4036296003, "lat": 48.8839858, "lon": 2.3569558}, {"type": "node", "id": 4036296004, "lat": 48.8839967, "lon": 2.3568543}, {"type": "node", "id": 4036296005, "lat": 48.884004, "lon": 2.3568057}, {"type": "node", "id": 4036440691, "lat": 48.8821882, "lon": 2.3548311}, {"type": "node", "id": 4036440696, "lat": 48.8822721, "lon": 2.3548834}, {"type": "node", "id": 4036440697, "lat": 48.8823573, "lon": 2.3549294}, {"type": "node", "id": 4036440698, "lat": 48.8824481, "lon": 2.3549817}, {"type": "node", "id": 4036440703, "lat": 48.8825833, "lon": 2.3550531}, {"type": "node", "id": 4036440707, "lat": 48.8827757, "lon": 2.3551563}, {"type": "node", "id": 4036440711, "lat": 48.882878, "lon": 2.3553142}, {"type": "node", "id": 4036440712, "lat": 48.8828899, "lon": 2.3552606}, {"type": "node", "id": 4036440719, "lat": 48.8832511, "lon": 2.3556298}, {"type": "node", "id": 4036440723, "lat": 48.883506, "lon": 2.3560074}, {"type": "node", "id": 4036440729, "lat": 48.8836991, "lon": 2.3561997}, {"type": "node", "id": 4036440744, "lat": 48.8840355, "lon": 2.3565873}, {"type": "node", "id": 4036440745, "lat": 48.8840399, "lon": 2.3565701}, {"type": "node", "id": 4036493854, "lat": 48.883887, "lon": 2.3574822}, {"type": "node", "id": 4036493855, "lat": 48.8838875, "lon": 2.3574614}, {"type": "node", "id": 4036824607, "lat": 48.8840139, "lon": 2.3567039}, {"type": "node", "id": 4036824608, "lat": 48.8840168, "lon": 2.3566856}, {"type": "node", "id": 4036939675, "lat": 48.8808053, "lon": 2.3575451}, {"type": "node", "id": 4036939684, "lat": 48.8813704, "lon": 2.3578035}, {"type": "node", "id": 4036939686, "lat": 48.8817948, "lon": 2.3580379}, {"type": "node", "id": 4036939688, "lat": 48.8818655, "lon": 2.3580782}, {"type": "node", "id": 4036939707, "lat": 48.8833539, "lon": 2.3583558}, {"type": "node", "id": 4036939711, "lat": 48.8834769, "lon": 2.358354}, {"type": "node", "id": 4036939713, "lat": 48.883588, "lon": 2.3583532}, {"type": "node", "id": 4036939714, "lat": 48.8835877, "lon": 2.3584732}, {"type": "node", "id": 4036939718, "lat": 48.8837378, "lon": 2.3584006}, {"type": "node", "id": 4036939723, "lat": 48.8838464, "lon": 2.358346}, {"type": "node", "id": 4036939726, "lat": 48.8839636, "lon": 2.3582982}, {"type": "node", "id": 4036939727, "lat": 48.8839728, "lon": 2.3581623}, {"type": "node", "id": 4036939729, "lat": 48.8839717, "lon": 2.3580639}, {"type": "node", "id": 4036939732, "lat": 48.8841279, "lon": 2.3582751}, {"type": "node", "id": 4036939735, "lat": 48.8841373, "lon": 2.3582586}, {"type": "node", "id": 4039150864, "lat": 48.8762145, "lon": 2.3602326}, {"type": "node", "id": 4039150870, "lat": 48.8762405, "lon": 2.3602481}, {"type": "node", "id": 4039150878, "lat": 48.8762487, "lon": 2.360253}, {"type": "node", "id": 4039150882, "lat": 48.8762747, "lon": 2.3602684}, {"type": "node", "id": 4039150887, "lat": 48.876283, "lon": 2.3602734}, {"type": "node", "id": 4039151013, "lat": 48.8763086, "lon": 2.3602886}, {"type": "node", "id": 4039151016, "lat": 48.876317, "lon": 2.3602936}, {"type": "node", "id": 4039151026, "lat": 48.8763428, "lon": 2.360309}, {"type": "node", "id": 4039973244, "lat": 48.8761051, "lon": 2.3259951}, {"type": "node", "id": 4039973245, "lat": 48.8761275, "lon": 2.3259885}, {"type": "node", "id": 4040325802, "lat": 48.8771392, "lon": 2.3265468}, {"type": "node", "id": 4040401916, "lat": 48.8775001, "lon": 2.3231524}, {"type": "node", "id": 4040401918, "lat": 48.8775966, "lon": 2.3231062}, {"type": "node", "id": 4040401921, "lat": 48.877717, "lon": 2.323072}, {"type": "node", "id": 4040401923, "lat": 48.8778511, "lon": 2.3230465}, {"type": "node", "id": 4040401924, "lat": 48.87796, "lon": 2.3230317}, {"type": "node", "id": 4040401925, "lat": 48.8781612, "lon": 2.3230522}, {"type": "node", "id": 4040554850, "lat": 48.8760956, "lon": 2.3257371}, {"type": "node", "id": 4045845810, "lat": 48.876125, "lon": 2.3261542}, {"type": "node", "id": 4046523949, "lat": 48.8763981, "lon": 2.3603427}, {"type": "node", "id": 4046523950, "lat": 48.8764221, "lon": 2.3603569}, {"type": "node", "id": 4046523955, "lat": 48.8764308, "lon": 2.360362}, {"type": "node", "id": 4046523960, "lat": 48.8764553, "lon": 2.3603766}, {"type": "node", "id": 4047893090, "lat": 48.875844, "lon": 2.323944}, {"type": "node", "id": 4047893091, "lat": 48.875865, "lon": 2.324112}, {"type": "node", "id": 4047893115, "lat": 48.8762, "lon": 2.326796}, {"type": "node", "id": 4047893116, "lat": 48.876207, "lon": 2.32375}, {"type": "node", "id": 4047893118, "lat": 48.876243, "lon": 2.323728}, {"type": "node", "id": 4047893121, "lat": 48.876295, "lon": 2.323701}, {"type": "node", "id": 4047893125, "lat": 48.876331, "lon": 2.323684}, {"type": "node", "id": 4047893129, "lat": 48.876594, "lon": 2.323543}, {"type": "node", "id": 4047893135, "lat": 48.876697, "lon": 2.323488}, {"type": "node", "id": 4047893144, "lat": 48.877185, "lon": 2.323228}, {"type": "node", "id": 4047923337, "lat": 48.8780484, "lon": 2.3252692}, {"type": "node", "id": 4047923338, "lat": 48.8781812, "lon": 2.325105}, {"type": "node", "id": 4047923339, "lat": 48.8783357, "lon": 2.3249126}, {"type": "node", "id": 4050884125, "lat": 48.8761344, "lon": 2.3591016}, {"type": "node", "id": 4050884128, "lat": 48.8761672, "lon": 2.3589749}, {"type": "node", "id": 4050884140, "lat": 48.8764658, "lon": 2.3591531}, {"type": "node", "id": 4050884167, "lat": 48.87656, "lon": 2.3587922}, {"type": "node", "id": 4050897564, "lat": 48.876176, "lon": 2.3237683, "tags": {"amenity": "parking_entrance", "maxheight": "1.9", "name": "Gare Saint-Lazare", "operator": "SNCF", "parking": "underground"}}, {"type": "node", "id": 4050897570, "lat": 48.8762698, "lon": 2.3237141, "tags": {"amenity": "parking_entrance", "parking": "underground"}}, {"type": "node", "id": 4051151987, "lat": 48.8759406, "lon": 2.3257998}, {"type": "node", "id": 4051151988, "lat": 48.8759776, "lon": 2.3260924}, {"type": "node", "id": 4051163189, "lat": 48.8759965, "lon": 2.3262536}, {"type": "node", "id": 4051163190, "lat": 48.8760019, "lon": 2.3257824}, {"type": "node", "id": 4051218210, "lat": 48.8759808, "lon": 2.3261186, "tags": {"access:RATP": "yes", "direction": "S", "door": "no", "entrance": "main", "level": "-1", "line:RATP": "3;12;13;14", "railway": "subway_entrance", "wheelchair": "no"}}, {"type": "node", "id": 4051218211, "lat": 48.8759693, "lon": 2.3262027, "tags": {"door": "no", "level": "-1"}}, {"type": "node", "id": 4051218212, "lat": 48.875972, "lon": 2.3262253, "tags": {"door": "no", "level": "-1"}}, {"type": "node", "id": 4051270649, "lat": 48.876137, "lon": 2.3590914}, {"type": "node", "id": 4051270688, "lat": 48.876164, "lon": 2.3589871}, {"type": "node", "id": 4058668549, "lat": 48.8760049, "lon": 2.359882}, {"type": "node", "id": 4058668550, "lat": 48.8759976, "lon": 2.3599296}, {"type": "node", "id": 4058668551, "lat": 48.8759963, "lon": 2.3599537}, {"type": "node", "id": 4058668552, "lat": 48.8759975, "lon": 2.3599769}, {"type": "node", "id": 4058668553, "lat": 48.8760013, "lon": 2.3600044}, {"type": "node", "id": 4058668554, "lat": 48.8760091, "lon": 2.3600325}, {"type": "node", "id": 4058668555, "lat": 48.8760201, "lon": 2.360058}, {"type": "node", "id": 4058668566, "lat": 48.8760324, "lon": 2.3600788}, {"type": "node", "id": 4058668567, "lat": 48.8760458, "lon": 2.3596357}, {"type": "node", "id": 4058668586, "lat": 48.8760464, "lon": 2.3600959}, {"type": "node", "id": 4058670700, "lat": 48.8760595, "lon": 2.3601078}, {"type": "node", "id": 4058670701, "lat": 48.8760873, "lon": 2.3593841}, {"type": "node", "id": 4058670704, "lat": 48.8760797, "lon": 2.3594285}, {"type": "node", "id": 4058670716, "lat": 48.8760888, "lon": 2.3601251}, {"type": "node", "id": 4058670717, "lat": 48.8760871, "lon": 2.360167}, {"type": "node", "id": 4058670718, "lat": 48.8760784, "lon": 2.3601652}, {"type": "node", "id": 4058670719, "lat": 48.8760863, "lon": 2.36017}, {"type": "node", "id": 4058670747, "lat": 48.8761408, "lon": 2.3591751}, {"type": "node", "id": 4058670759, "lat": 48.8761307, "lon": 2.360193}, {"type": "node", "id": 4058670938, "lat": 48.8762045, "lon": 2.3601931}, {"type": "node", "id": 4058670939, "lat": 48.8761953, "lon": 2.3602356}, {"type": "node", "id": 4058670940, "lat": 48.8761981, "lon": 2.3602373}, {"type": "node", "id": 4058671319, "lat": 48.876554, "lon": 2.3606077}, {"type": "node", "id": 4058671320, "lat": 48.876546, "lon": 2.3606389}, {"type": "node", "id": 4058671321, "lat": 48.8765605, "lon": 2.3606116}, {"type": "node", "id": 4058671323, "lat": 48.8765854, "lon": 2.3604541}, {"type": "node", "id": 4058671325, "lat": 48.8765831, "lon": 2.3604632}, {"type": "node", "id": 4058671326, "lat": 48.8765964, "lon": 2.3604715}, {"type": "node", "id": 4058671769, "lat": 48.8774036, "lon": 2.3581358}, {"type": "node", "id": 4058672453, "lat": 48.8771921, "lon": 2.3610218}, {"type": "node", "id": 4058672454, "lat": 48.8772181, "lon": 2.358041}, {"type": "node", "id": 4058672479, "lat": 48.8772123, "lon": 2.3609434}, {"type": "node", "id": 4058672481, "lat": 48.8772306, "lon": 2.3580485}, {"type": "node", "id": 4058672533, "lat": 48.8772684, "lon": 2.3580709}, {"type": "node", "id": 4058672554, "lat": 48.8772871, "lon": 2.3580819}, {"type": "node", "id": 4058672576, "lat": 48.8772996, "lon": 2.3580893}, {"type": "node", "id": 4058672609, "lat": 48.8773215, "lon": 2.3581023}, {"type": "node", "id": 4058672640, "lat": 48.8773341, "lon": 2.3581098}, {"type": "node", "id": 4058672792, "lat": 48.8774011, "lon": 2.3610559}, {"type": "node", "id": 4058672826, "lat": 48.8774576, "lon": 2.3581677}, {"type": "node", "id": 4058672885, "lat": 48.8775027, "lon": 2.3579918}, {"type": "node", "id": 4058672932, "lat": 48.8775289, "lon": 2.3582294}, {"type": "node", "id": 4058672933, "lat": 48.8775322, "lon": 2.3582892}, {"type": "node", "id": 4058672950, "lat": 48.8775572, "lon": 2.3581741}, {"type": "node", "id": 4058672951, "lat": 48.8775449, "lon": 2.3581668}, {"type": "node", "id": 4058672952, "lat": 48.8775451, "lon": 2.358239}, {"type": "node", "id": 4058672964, "lat": 48.877565, "lon": 2.3580885}, {"type": "node", "id": 4058672976, "lat": 48.8775783, "lon": 2.3580366}, {"type": "node", "id": 4058672977, "lat": 48.8775773, "lon": 2.3580958}, {"type": "node", "id": 4060075366, "lat": 48.8746325, "lon": 2.3265845}, {"type": "node", "id": 4060075367, "lat": 48.8746367, "lon": 2.3266351}, {"type": "node", "id": 4060075370, "lat": 48.8746739, "lon": 2.3265233}, {"type": "node", "id": 4060075400, "lat": 48.8749684, "lon": 2.3261301}, {"type": "node", "id": 4060075406, "lat": 48.8750451, "lon": 2.3261352}, {"type": "node", "id": 4060075420, "lat": 48.8750898, "lon": 2.3261382}, {"type": "node", "id": 4060075432, "lat": 48.8751664, "lon": 2.3261433}, {"type": "node", "id": 4060075435, "lat": 48.8759946, "lon": 2.3262423, "tags": {"door": "no", "level": "-1"}}, {"type": "node", "id": 4061841068, "lat": 48.8808819, "lon": 2.3575779}, {"type": "node", "id": 4061841199, "lat": 48.8818453, "lon": 2.3580658}, {"type": "node", "id": 4061841235, "lat": 48.8832861, "lon": 2.3583572}, {"type": "node", "id": 4061841238, "lat": 48.8835344, "lon": 2.3583534}, {"type": "node", "id": 4061841240, "lat": 48.8838475, "lon": 2.358341}, {"type": "node", "id": 4061841241, "lat": 48.8840394, "lon": 2.3582871}, {"type": "node", "id": 4061841242, "lat": 48.8841013, "lon": 2.3582781}, {"type": "node", "id": 4061910126, "lat": 48.8796961, "lon": 2.3568741}, {"type": "node", "id": 4061910127, "lat": 48.8797214, "lon": 2.356899}, {"type": "node", "id": 4061910129, "lat": 48.8797248, "lon": 2.3566972}, {"type": "node", "id": 4061910130, "lat": 48.879723, "lon": 2.3580521}, {"type": "node", "id": 4061910132, "lat": 48.8797315, "lon": 2.3564426}, {"type": "node", "id": 4061910140, "lat": 48.8797576, "lon": 2.3581272}, {"type": "node", "id": 4061910144, "lat": 48.8797687, "lon": 2.3570694}, {"type": "node", "id": 4061910185, "lat": 48.8798583, "lon": 2.3571117}, {"type": "node", "id": 4061910797, "lat": 48.8798834, "lon": 2.3570548}, {"type": "node", "id": 4061910801, "lat": 48.8798869, "lon": 2.3551974}, {"type": "node", "id": 4061910807, "lat": 48.8798939, "lon": 2.3579485}, {"type": "node", "id": 4061910811, "lat": 48.8799065, "lon": 2.3579079}, {"type": "node", "id": 4061910832, "lat": 48.8799563, "lon": 2.3576367}, {"type": "node", "id": 4061910839, "lat": 48.8799702, "lon": 2.3575533}, {"type": "node", "id": 4061910846, "lat": 48.8799928, "lon": 2.3550898}, {"type": "node", "id": 4061910859, "lat": 48.8800401, "lon": 2.3575888}, {"type": "node", "id": 4061910864, "lat": 48.8800561, "lon": 2.3571339}, {"type": "node", "id": 4061910872, "lat": 48.8800834, "lon": 2.3571413}, {"type": "node", "id": 4061910883, "lat": 48.8801208, "lon": 2.3578321}, {"type": "node", "id": 4061910886, "lat": 48.8801267, "lon": 2.3571616}, {"type": "node", "id": 4061910906, "lat": 48.8802158, "lon": 2.3572028}, {"type": "node", "id": 4061910908, "lat": 48.8802113, "lon": 2.3573747}, {"type": "node", "id": 4061910924, "lat": 48.8802507, "lon": 2.357218}, {"type": "node", "id": 4061910939, "lat": 48.8803256, "lon": 2.3572619}, {"type": "node", "id": 4061910947, "lat": 48.8803579, "lon": 2.3572776}, {"type": "node", "id": 4061910964, "lat": 48.8804814, "lon": 2.357377}, {"type": "node", "id": 4061910966, "lat": 48.8804847, "lon": 2.3574458}, {"type": "node", "id": 4061910979, "lat": 48.8805554, "lon": 2.3574802}, {"type": "node", "id": 4061911024, "lat": 48.8811289, "lon": 2.3580467}, {"type": "node", "id": 4061911030, "lat": 48.8812047, "lon": 2.3577065}, {"type": "node", "id": 4061911062, "lat": 48.8813246, "lon": 2.3580427}, {"type": "node", "id": 4061911064, "lat": 48.8813646, "lon": 2.3578763}, {"type": "node", "id": 4061911176, "lat": 48.8821303, "lon": 2.3581836}, {"type": "node", "id": 4061911178, "lat": 48.8821889, "lon": 2.3582116}, {"type": "node", "id": 4061911190, "lat": 48.8825081, "lon": 2.3583262}, {"type": "node", "id": 4061911198, "lat": 48.8831095, "lon": 2.3584085}, {"type": "node", "id": 4061911203, "lat": 48.8832688, "lon": 2.3584186}, {"type": "node", "id": 4063011005, "lat": 48.874923, "lon": 2.3261578}, {"type": "node", "id": 4063011023, "lat": 48.8759887, "lon": 2.3261844}, {"type": "node", "id": 4063573726, "lat": 48.8805656, "lon": 2.3537674}, {"type": "node", "id": 4063573731, "lat": 48.880639, "lon": 2.3537419}, {"type": "node", "id": 4063573740, "lat": 48.8814938, "lon": 2.3541443}, {"type": "node", "id": 4063573761, "lat": 48.8818508, "lon": 2.3543682}, {"type": "node", "id": 4067925155, "lat": 48.8822982, "lon": 2.3380899, "tags": {"STIF:zone": "1", "name": "Pigalle", "name:ru": "\u041f\u0438\u0433\u0430\u043b\u044c", "public_transport": "station", "railway": "station", "ref:FR:FANTOIR": "75109S415R", "ref:FR:RATP": "1787", "ref:FR:STIF": "22114", "source": "STIF - 12/2016", "station": "subway", "subway": "yes", "type:RATP": "metro", "wheelchair": "no", "wikidata": "Q338898", "wikipedia": "fr:Pigalle (m\u00e9tro de Paris)"}}, {"type": "node", "id": 4069004026, "lat": 48.8743347, "lon": 2.3314375}, {"type": "node", "id": 4069004027, "lat": 48.8743547, "lon": 2.3315096}, {"type": "node", "id": 4069004031, "lat": 48.8745892, "lon": 2.3315237}, {"type": "node", "id": 4069004032, "lat": 48.8745894, "lon": 2.3315115}, {"type": "node", "id": 4069004033, "lat": 48.8745916, "lon": 2.3314394}, {"type": "node", "id": 4069004034, "lat": 48.8746348, "lon": 2.3298744}, {"type": "node", "id": 4069004036, "lat": 48.8746468, "lon": 2.3294273}, {"type": "node", "id": 4069004037, "lat": 48.8746538, "lon": 2.3315278}, {"type": "node", "id": 4069004038, "lat": 48.8746396, "lon": 2.3297078}, {"type": "node", "id": 4070354292, "lat": 48.8747143, "lon": 2.3302066}, {"type": "node", "id": 4070354294, "lat": 48.8747658, "lon": 2.3302091}, {"type": "node", "id": 4070354297, "lat": 48.8747988, "lon": 2.3271365}, {"type": "node", "id": 4070354312, "lat": 48.8749245, "lon": 2.3302178}, {"type": "node", "id": 4070354322, "lat": 48.8749858, "lon": 2.3302218}, {"type": "node", "id": 4070354332, "lat": 48.8751772, "lon": 2.3302349}, {"type": "node", "id": 4070354333, "lat": 48.8752138, "lon": 2.3302381}, {"type": "node", "id": 4072092932, "lat": 48.8811525, "lon": 2.3582383}, {"type": "node", "id": 4072092948, "lat": 48.8812411, "lon": 2.3584932}, {"type": "node", "id": 4072092949, "lat": 48.8813246, "lon": 2.3581806}, {"type": "node", "id": 4075421186, "lat": 48.8872884, "lon": 2.3495532, "tags": {"STIF:zone": "1", "check_date:wheelchair": "2023-04-11", "name": "Ch\u00e2teau Rouge", "operator": "RATP", "public_transport": "station", "railway": "station", "ref:FR:FANTOIR": "75118S088A", "ref:FR:RATP": "1960", "ref:FR:STIF": "22152", "source": "STIF - 12/2016", "station": "subway", "subway": "yes", "type:RATP": "metro", "wheelchair": "no", "wikidata": "Q957172", "wikipedia": "fr:Ch\u00e2teau Rouge (m\u00e9tro de Paris)"}}, {"type": "node", "id": 4086620870, "lat": 48.880715, "lon": 2.3575064}, {"type": "node", "id": 4087904984, "lat": 48.8802246, "lon": 2.3573162}, {"type": "node", "id": 4088645331, "lat": 48.8801048, "lon": 2.3571513, "tags": {"access:RATP": "yes", "direction": "ESE", "level": "-2", "line:RATP": "5", "railway": "subway_entrance"}}, {"type": "node", "id": 4089841834, "lat": 48.8811055, "lon": 2.3584096}, {"type": "node", "id": 4089841844, "lat": 48.8811432, "lon": 2.3582739}, {"type": "node", "id": 4089886530, "lat": 48.8813358, "lon": 2.3580026}, {"type": "node", "id": 4089932270, "lat": 48.8812966, "lon": 2.3581513}, {"type": "node", "id": 4089932272, "lat": 48.8813019, "lon": 2.3581658}, {"type": "node", "id": 4090072668, "lat": 48.8797594, "lon": 2.3583781}, {"type": "node", "id": 4090072670, "lat": 48.8816126, "lon": 2.3596847}, {"type": "node", "id": 4090072671, "lat": 48.8818154, "lon": 2.3590274}, {"type": "node", "id": 4097313863, "lat": 48.8771196, "lon": 2.3267862, "tags": {"entrance": "main", "level": "1", "name": "Rue d'Amsterdam", "railway": "train_station_entrance", "wheelchair": "yes"}}, {"type": "node", "id": 4097550493, "lat": 48.8759838, "lon": 2.3261438}, {"type": "node", "id": 4097653982, "lat": 48.8746387, "lon": 2.326659}, {"type": "node", "id": 4097653987, "lat": 48.874862, "lon": 2.3262473}, {"type": "node", "id": 4099372348, "lat": 48.8802025, "lon": 2.3574141}, {"type": "node", "id": 4099595667, "lat": 48.8808711, "lon": 2.3577493}, {"type": "node", "id": 4099595672, "lat": 48.8810416, "lon": 2.3578394}, {"type": "node", "id": 4099946154, "lat": 48.8748005, "lon": 2.3270335}, {"type": "node", "id": 4099946155, "lat": 48.874806, "lon": 2.3268538}, {"type": "node", "id": 4099981890, "lat": 48.8746457, "lon": 2.3294709}, {"type": "node", "id": 4100056152, "lat": 48.8747137, "lon": 2.3286822}, {"type": "node", "id": 4100056153, "lat": 48.8747365, "lon": 2.3286525, "tags": {"access:RATP": "yes", "direction": "SW", "level": "-5", "line:RATP": "9;A", "railway": "subway_entrance", "wheelchair": "yes"}}, {"type": "node", "id": 4100056161, "lat": 48.8747596, "lon": 2.3286223}, {"type": "node", "id": 4100056162, "lat": 48.8747605, "lon": 2.3285898}, {"type": "node", "id": 4100121790, "lat": 48.875304, "lon": 2.3292358}, {"type": "node", "id": 4100121800, "lat": 48.8755772, "lon": 2.32876}, {"type": "node", "id": 4100121805, "lat": 48.8755905, "lon": 2.3287771}, {"type": "node", "id": 4100121815, "lat": 48.8756244, "lon": 2.3288212}, {"type": "node", "id": 4100121823, "lat": 48.8757201, "lon": 2.3286542}, {"type": "node", "id": 4100121825, "lat": 48.8758306, "lon": 2.3286163}, {"type": "node", "id": 4100121829, "lat": 48.875876, "lon": 2.3280636}, {"type": "node", "id": 4100121830, "lat": 48.8758888, "lon": 2.3281689}, {"type": "node", "id": 4100121832, "lat": 48.8759193, "lon": 2.3286324}, {"type": "node", "id": 4100121833, "lat": 48.8759307, "lon": 2.3287196}, {"type": "node", "id": 4100121834, "lat": 48.8759355, "lon": 2.3289035}, {"type": "node", "id": 4100121836, "lat": 48.8759477, "lon": 2.329}, {"type": "node", "id": 4100121841, "lat": 48.8759612, "lon": 2.3285744}, {"type": "node", "id": 4100121843, "lat": 48.875964, "lon": 2.3291357}, {"type": "node", "id": 4100121847, "lat": 48.8759775, "lon": 2.3287045}, {"type": "node", "id": 4100121865, "lat": 48.8760243, "lon": 2.3291186}, {"type": "node", "id": 4100121866, "lat": 48.8760268, "lon": 2.3288778}, {"type": "node", "id": 4100121867, "lat": 48.8760334, "lon": 2.3289312}, {"type": "node", "id": 4100172605, "lat": 48.8740924, "lon": 2.3314274}, {"type": "node", "id": 4100172606, "lat": 48.8740933, "lon": 2.3315351}, {"type": "node", "id": 4100172607, "lat": 48.874121, "lon": 2.3314268}, {"type": "node", "id": 4100172608, "lat": 48.8741219, "lon": 2.3315345}, {"type": "node", "id": 4101996523, "lat": 48.8779751, "lon": 2.325722}, {"type": "node", "id": 4104584498, "lat": 48.8809972, "lon": 2.3578159, "tags": {"entrance": "main", "level": "1", "name": "Rue du Faubourg Saint-Denis", "railway": "train_station_entrance", "wheelchair": "yes"}}, {"type": "node", "id": 4107924563, "lat": 48.8802098, "lon": 2.3572002}, {"type": "node", "id": 4161541447, "lat": 48.8601337, "lon": 2.3248851}, {"type": "node", "id": 4161541448, "lat": 48.8601332, "lon": 2.3249088}, {"type": "node", "id": 4161541449, "lat": 48.8601382, "lon": 2.324869}, {"type": "node", "id": 4161541450, "lat": 48.8601503, "lon": 2.3249535}, {"type": "node", "id": 4161541451, "lat": 48.8602968, "lon": 2.3253049}, {"type": "node", "id": 4161541455, "lat": 48.8603612, "lon": 2.3250937}, {"type": "node", "id": 4161541462, "lat": 48.8599214, "lon": 2.3279441}, {"type": "node", "id": 4161541469, "lat": 48.8599793, "lon": 2.3279832}, {"type": "node", "id": 4161541473, "lat": 48.860032, "lon": 2.3280203}, {"type": "node", "id": 4161543913, "lat": 48.8605628, "lon": 2.325488}, {"type": "node", "id": 4161543940, "lat": 48.8606705, "lon": 2.3253575}, {"type": "node", "id": 4161543945, "lat": 48.8606838, "lon": 2.3253671}, {"type": "node", "id": 4161543957, "lat": 48.8605714, "lon": 2.3252365}, {"type": "node", "id": 4161543959, "lat": 48.8607124, "lon": 2.3259966}, {"type": "node", "id": 4161543965, "lat": 48.8607478, "lon": 2.3254116}, {"type": "node", "id": 4161543966, "lat": 48.8607653, "lon": 2.3258892}, {"type": "node", "id": 4161543968, "lat": 48.860751, "lon": 2.325437}, {"type": "node", "id": 4161543969, "lat": 48.8607209, "lon": 2.3260021, "tags": {"entrance": "main", "level": "0", "name": "Quai Anatole France", "railway": "train_station_entrance", "source": "SNCF Transilien - Plans d'architecte et plan de communication - Prestation de saisie r\u00e9alis\u00e9e par Arx IT en hiver 2016", "wheelchair": "no"}}, {"type": "node", "id": 4161543970, "lat": 48.8607568, "lon": 2.3254179}, {"type": "node", "id": 4161543972, "lat": 48.8607601, "lon": 2.325443}, {"type": "node", "id": 4161543983, "lat": 48.8608007, "lon": 2.3254705}, {"type": "node", "id": 4161544091, "lat": 48.860917, "lon": 2.3253206, "tags": {"entrance": "main", "level": "0", "name": "Quai Anatole France", "railway": "train_station_entrance", "source": "SNCF Transilien - Plans d'architecte et plan de communication - Prestation de saisie r\u00e9alis\u00e9e par Arx IT en hiver 2016", "wheelchair": "no"}}, {"type": "node", "id": 4161544092, "lat": 48.8609059, "lon": 2.3253126, "tags": {"entrance": "main", "level": "0", "name": "Quai Anatole France", "railway": "train_station_entrance", "source": "SNCF Transilien - Plans d'architecte et plan de communication - Prestation de saisie r\u00e9alis\u00e9e par Arx IT en hiver 2016", "wheelchair": "no"}}, {"type": "node", "id": 4161544093, "lat": 48.8608446, "lon": 2.3254989}, {"type": "node", "id": 4215359507, "lat": 48.8875319, "lon": 2.3140612, "tags": {"entrance": "main", "level": "0", "name": "Boulevard Pereire - Rue Jouffroy d'Abbans", "railway": "train_station_entrance", "ref": "2", "source": "SNCF Transilien - Plans d'architecte et plan de communication - Prestation de saisie r\u00e9alis\u00e9e par Arx IT en hiver 2016", "wheelchair": "yes"}}, {"type": "node", "id": 4215359510, "lat": 48.8876, "lon": 2.3143192, "tags": {"entrance": "main", "level": "0", "name": "Rue Cardinet - Rue de Rome", "railway": "train_station_entrance", "ref": "1", "source": "SNCF Transilien - Plans d'architecte et plan de communication - Prestation de saisie r\u00e9alis\u00e9e par Arx IT en hiver 2016", "wheelchair": "yes"}}, {"type": "node", "id": 4215359511, "lat": 48.8874808, "lon": 2.3141409}, {"type": "node", "id": 4215359516, "lat": 48.8875667, "lon": 2.3138816}, {"type": "node", "id": 4215359519, "lat": 48.8876181, "lon": 2.3136917}, {"type": "node", "id": 4215359530, "lat": 48.8876085, "lon": 2.3139428}, {"type": "node", "id": 4215359532, "lat": 48.8876067, "lon": 2.3136838}, {"type": "node", "id": 4215359537, "lat": 48.8876479, "lon": 2.3143906}, {"type": "node", "id": 4215359544, "lat": 48.8876573, "lon": 2.3134945}, {"type": "node", "id": 4215359547, "lat": 48.8876321, "lon": 2.3137862}, {"type": "node", "id": 4215359557, "lat": 48.8877487, "lon": 2.3142261}, {"type": "node", "id": 4215359560, "lat": 48.8877704, "lon": 2.3143177}, {"type": "node", "id": 4215359564, "lat": 48.8877851, "lon": 2.3143397}, {"type": "node", "id": 4215359565, "lat": 48.887789, "lon": 2.314289}, {"type": "node", "id": 4215359567, "lat": 48.8878046, "lon": 2.3143096}, {"type": "node", "id": 4215359570, "lat": 48.887808, "lon": 2.3139148}, {"type": "node", "id": 4215359572, "lat": 48.8878193, "lon": 2.3143317}, {"type": "node", "id": 4215359575, "lat": 48.8878369, "lon": 2.3143046}, {"type": "node", "id": 4215359581, "lat": 48.8878471, "lon": 2.3131952}, {"type": "node", "id": 4215359583, "lat": 48.8879035, "lon": 2.314386}, {"type": "node", "id": 4215359791, "lat": 48.8879489, "lon": 2.3130981}, {"type": "node", "id": 4215359798, "lat": 48.8880083, "lon": 2.3142204}, {"type": "node", "id": 4215359800, "lat": 48.8880725, "lon": 2.3128446}, {"type": "node", "id": 4215359803, "lat": 48.8882214, "lon": 2.3125665}, {"type": "node", "id": 4215359806, "lat": 48.8885004, "lon": 2.3120727}, {"type": "node", "id": 4215360489, "lat": 48.8887379, "lon": 2.3115801}, {"type": "node", "id": 4215360490, "lat": 48.8887627, "lon": 2.3116127}, {"type": "node", "id": 4215736524, "lat": 48.8532234, "lon": 2.3465942, "tags": {"entrance": "main", "level": "-1", "name": "Petit Pont Notre-Dame", "railway": "train_station_entrance", "ref": "3", "source": "SNCF Transilien - Plans d'architecte et plan de communication - Prestation de saisie r\u00e9alis\u00e9e par Arx IT en hiver 2016", "wheelchair": "no"}}, {"type": "node", "id": 4215736525, "lat": 48.8532324, "lon": 2.3465612, "tags": {"entrance": "main", "level": "-1", "name": "Petit Pont Notre-Dame", "railway": "train_station_entrance", "ref": "3", "source": "SNCF Transilien - Plans d'architecte et plan de communication - Prestation de saisie r\u00e9alis\u00e9e par Arx IT en hiver 2016", "wheelchair": "no"}}, {"type": "node", "id": 4215736529, "lat": 48.8530817, "lon": 2.3464842}, {"type": "node", "id": 4215736530, "lat": 48.8530882, "lon": 2.3465141}, {"type": "node", "id": 4215736531, "lat": 48.8530943, "lon": 2.3464925}, {"type": "node", "id": 4215736532, "lat": 48.853096, "lon": 2.3464335}, {"type": "node", "id": 4215736533, "lat": 48.8531052, "lon": 2.346401}, {"type": "node", "id": 4215736535, "lat": 48.8531189, "lon": 2.3465342}, {"type": "node", "id": 4215736537, "lat": 48.8531371, "lon": 2.3462881}, {"type": "node", "id": 4215736544, "lat": 48.8531808, "lon": 2.3465746}, {"type": "node", "id": 4215736545, "lat": 48.8531828, "lon": 2.3465676}, {"type": "node", "id": 4215736550, "lat": 48.8532107, "lon": 2.3460096}, {"type": "node", "id": 4215736553, "lat": 48.8532181, "lon": 2.3465519}, {"type": "node", "id": 4215736556, "lat": 48.8532313, "lon": 2.3465993}, {"type": "node", "id": 4215736557, "lat": 48.8532377, "lon": 2.3464862}, {"type": "node", "id": 4215736558, "lat": 48.8532405, "lon": 2.3465665}, {"type": "node", "id": 4215736571, "lat": 48.853426, "lon": 2.34447}, {"type": "node", "id": 4215736572, "lat": 48.8534325, "lon": 2.3449934}, {"type": "node", "id": 4215736573, "lat": 48.8534307, "lon": 2.3445234}, {"type": "node", "id": 4215736576, "lat": 48.8534459, "lon": 2.3449454}, {"type": "node", "id": 4215736578, "lat": 48.8534477, "lon": 2.3445466}, {"type": "node", "id": 4215736583, "lat": 48.853471, "lon": 2.3448555}, {"type": "node", "id": 4215736586, "lat": 48.8534724, "lon": 2.3448332}, {"type": "node", "id": 4215736587, "lat": 48.8534715, "lon": 2.3456701}, {"type": "node", "id": 4215736588, "lat": 48.8534773, "lon": 2.3450237}, {"type": "node", "id": 4215736694, "lat": 48.8534816, "lon": 2.3448059}, {"type": "node", "id": 4215736708, "lat": 48.8535316, "lon": 2.3446575}, {"type": "node", "id": 4215736717, "lat": 48.8535666, "lon": 2.344431}, {"type": "node", "id": 4215736731, "lat": 48.853576, "lon": 2.3444398}, {"type": "node", "id": 4215736737, "lat": 48.8535874, "lon": 2.3444021}, {"type": "node", "id": 4215736748, "lat": 48.8536236, "lon": 2.3444705}, {"type": "node", "id": 4215736751, "lat": 48.8536361, "lon": 2.344461}, {"type": "node", "id": 4215736753, "lat": 48.8536344, "lon": 2.3444331}, {"type": "node", "id": 4215736774, "lat": 48.8537269, "lon": 2.3447459}, {"type": "node", "id": 4215736786, "lat": 48.8537011, "lon": 2.3443104}, {"type": "node", "id": 4215736798, "lat": 48.8537646, "lon": 2.3446255}, {"type": "node", "id": 4215736809, "lat": 48.8538286, "lon": 2.3440658}, {"type": "node", "id": 4215736812, "lat": 48.8538864, "lon": 2.3439973}, {"type": "node", "id": 4215736820, "lat": 48.853918, "lon": 2.3441788}, {"type": "node", "id": 4215736830, "lat": 48.8539636, "lon": 2.3440835}, {"type": "node", "id": 4217749626, "lat": 48.8625348, "lon": 2.3147687, "tags": {"door": "sliding", "entrance": "main", "level": "0", "name": "Quai d'Orsay", "railway": "train_station_entrance", "wheelchair": "yes"}}, {"type": "node", "id": 4217749628, "lat": 48.862229, "lon": 2.3148719, "tags": {"entrance": "main", "level": "-1", "name": "Rue Esnaut Pelterie", "railway": "train_station_entrance", "source": "SNCF Transilien - Plans d'architecte et plan de communication - Prestation de saisie r\u00e9alis\u00e9e par Arx IT en hiver 2016", "wheelchair": "yes"}}, {"type": "node", "id": 4217749631, "lat": 48.8621618, "lon": 2.314863}, {"type": "node", "id": 4217749632, "lat": 48.8621742, "lon": 2.3145619}, {"type": "node", "id": 4217749633, "lat": 48.8621829, "lon": 2.3145362}, {"type": "node", "id": 4217749634, "lat": 48.8621968, "lon": 2.3145228}, {"type": "node", "id": 4217749635, "lat": 48.862211, "lon": 2.3148695}, {"type": "node", "id": 4217749637, "lat": 48.8622145, "lon": 2.3145226}, {"type": "node", "id": 4217749640, "lat": 48.862224, "lon": 2.314113}, {"type": "node", "id": 4217749643, "lat": 48.8622337, "lon": 2.3141142}, {"type": "node", "id": 4217749644, "lat": 48.8622422, "lon": 2.3138039}, {"type": "node", "id": 4217749646, "lat": 48.8622514, "lon": 2.3148749}, {"type": "node", "id": 4217749655, "lat": 48.8622972, "lon": 2.314881}, {"type": "node", "id": 4217749656, "lat": 48.8622973, "lon": 2.3148967}, {"type": "node", "id": 4217750492, "lat": 48.8624185, "lon": 2.3149128}, {"type": "node", "id": 4217750493, "lat": 48.8624191, "lon": 2.3149}, {"type": "node", "id": 4217750506, "lat": 48.8624826, "lon": 2.314907}, {"type": "node", "id": 4217750516, "lat": 48.8624998, "lon": 2.3145218}, {"type": "node", "id": 4217750521, "lat": 48.8625081, "lon": 2.3143118}, {"type": "node", "id": 4217750689, "lat": 48.8625048, "lon": 2.3147659, "tags": {"entrance": "main", "level": "0", "name": "Quai d'Orsay", "railway": "train_station_entrance", "source": "SNCF Transilien - Plans d'architecte et plan de communication - Prestation de saisie r\u00e9alis\u00e9e par Arx IT en hiver 2016", "wheelchair": "no"}}, {"type": "node", "id": 4217750698, "lat": 48.8625588, "lon": 2.3146435}, {"type": "node", "id": 4217750699, "lat": 48.8625619, "lon": 2.3138413}, {"type": "node", "id": 4217750701, "lat": 48.8625646, "lon": 2.3145302}, {"type": "node", "id": 4217750704, "lat": 48.8625738, "lon": 2.3138523}, {"type": "node", "id": 4217750705, "lat": 48.8625742, "lon": 2.3139094}, {"type": "node", "id": 4217750708, "lat": 48.8625846, "lon": 2.3127262}, {"type": "node", "id": 4217750710, "lat": 48.8625909, "lon": 2.3139092}, {"type": "node", "id": 4217750711, "lat": 48.862598, "lon": 2.313895}, {"type": "node", "id": 4217750712, "lat": 48.8626097, "lon": 2.3140993}, {"type": "node", "id": 4217750713, "lat": 48.8626105, "lon": 2.3142447}, {"type": "node", "id": 4217750714, "lat": 48.8626114, "lon": 2.3143213}, {"type": "node", "id": 4217750727, "lat": 48.8625504, "lon": 2.3109995}, {"type": "node", "id": 4217750735, "lat": 48.8625801, "lon": 2.3122257}, {"type": "node", "id": 4217750736, "lat": 48.8626349, "lon": 2.310999}, {"type": "node", "id": 4217750757, "lat": 48.8627419, "lon": 2.3109925}, {"type": "node", "id": 4217750769, "lat": 48.8628161, "lon": 2.3109919}, {"type": "node", "id": 4217750771, "lat": 48.8628512, "lon": 2.3139717}, {"type": "node", "id": 4217750772, "lat": 48.8628517, "lon": 2.3140182}, {"type": "node", "id": 4217750774, "lat": 48.8628585, "lon": 2.3138979}, {"type": "node", "id": 4217750775, "lat": 48.8628593, "lon": 2.3139632}, {"type": "node", "id": 4217750777, "lat": 48.8628706, "lon": 2.3139005}, {"type": "node", "id": 4217750779, "lat": 48.8628706, "lon": 2.3139557}, {"type": "node", "id": 4217750780, "lat": 48.8628318, "lon": 2.312227}, {"type": "node", "id": 4217750781, "lat": 48.862893, "lon": 2.3140168}, {"type": "node", "id": 4217750782, "lat": 48.8628935, "lon": 2.314096}, {"type": "node", "id": 4217814765, "lat": 48.8629341, "lon": 2.3139556}, {"type": "node", "id": 4217814767, "lat": 48.8629307, "lon": 2.3138995}, {"type": "node", "id": 4217814771, "lat": 48.8629661, "lon": 2.3138657}, {"type": "node", "id": 4217814772, "lat": 48.8629663, "lon": 2.3139066}, {"type": "node", "id": 4217814778, "lat": 48.8630032, "lon": 2.3139031}, {"type": "node", "id": 4254659394, "lat": 48.8879395, "lon": 2.3129989}, {"type": "node", "id": 4254659397, "lat": 48.8884746, "lon": 2.3120446}, {"type": "node", "id": 4323295097, "lat": 48.8786827, "lon": 2.3241263}, {"type": "node", "id": 4507116424, "lat": 48.8797415, "lon": 2.3617532}, {"type": "node", "id": 4532598851, "lat": 48.8641996, "lon": 2.3153815, "tags": {"addr:city": "Paris", "amenity": "ferry_terminal", "cargo": "passengers", "ferry": "yes", "harbour": "yes", "harbour:operator": "Batobus", "name": "Place de la Concorde", "operator": "Batobus", "port_of_entry": "no", "public_transport": "station", "website": "https://www.batobus.com/fr/station/place-de-la-concorde", "wheelchair": "no"}}, {"type": "node", "id": 4532598858, "lat": 48.8608357, "lon": 2.3264125, "tags": {"amenity": "ferry_terminal", "cargo": "passengers", "ferry": "yes", "harbour": "yes", "harbour:operator": "Batobus", "name": "Mus\u00e9e d'Orsay", "name:fa": "\u0645\u0648\u0632\u0647 \u0627\u0648\u0631\u0633\u064a", "operator": "Batobus", "passenger_information_display": "yes", "port_of_entry": "no", "public_transport": "station", "shelter": "no", "source": "survey 2017", "website": "https://www.batobus.com/fr/station/musee-d-orsay", "wheelchair": "no"}}, {"type": "node", "id": 4532598859, "lat": 48.8600998, "lon": 2.3316205, "tags": {"amenity": "ferry_terminal", "ferry": "yes", "harbour": "yes", "harbour:operator": "Batobus", "name": "Louvre", "operator": "Batobus", "port_of_entry": "no", "public_transport": "station", "tourism": "yes", "website": "https://www.batobus.com/fr/station/louvre", "wikidata": "Q2891586", "wikipedia": "fr:Batobus"}}, {"type": "node", "id": 4532598860, "lat": 48.85457, "lon": 2.3534647, "tags": {"addr:city": "Paris", "amenity": "ferry_terminal", "cargo": "passengers", "ferry": "yes", "harbour": "yes", "harbour:operator": "Batobus", "name": "H\u00f4tel-de-Ville", "operator": "Batobus", "port_of_entry": "no", "public_transport": "station", "website": "https://www.batobus.com/fr/station/hotel-de-ville"}}, {"type": "node", "id": 4752435971, "lat": 48.8879311, "lon": 2.3143399}, {"type": "node", "id": 4752435979, "lat": 48.8875723, "lon": 2.313861}, {"type": "node", "id": 4764062115, "lat": 48.8665599, "lon": 2.3508502}, {"type": "node", "id": 4764069425, "lat": 48.8665718, "lon": 2.350856}, {"type": "node", "id": 4764069428, "lat": 48.8665666, "lon": 2.3508535}, {"type": "node", "id": 4764069429, "lat": 48.8665536, "lon": 2.3508471}, {"type": "node", "id": 4764069437, "lat": 48.8666292, "lon": 2.3508844}, {"type": "node", "id": 4764069438, "lat": 48.8666386, "lon": 2.3509009}, {"type": "node", "id": 4764069455, "lat": 48.8666086, "lon": 2.3508742}, {"type": "node", "id": 4764069456, "lat": 48.8665873, "lon": 2.3508637}, {"type": "node", "id": 4764069457, "lat": 48.8663785, "lon": 2.3518419}, {"type": "node", "id": 4764069458, "lat": 48.8663998, "lon": 2.3518524}, {"type": "node", "id": 4764069459, "lat": 48.8666226, "lon": 2.3508811}, {"type": "node", "id": 4764069460, "lat": 48.8664137, "lon": 2.3518593}, {"type": "node", "id": 4764069461, "lat": 48.8663629, "lon": 2.3518342}, {"type": "node", "id": 4764069462, "lat": 48.8663448, "lon": 2.3518253}, {"type": "node", "id": 4764069463, "lat": 48.8664321, "lon": 2.3518683}, {"type": "node", "id": 4764069464, "lat": 48.8666409, "lon": 2.3508901}, {"type": "node", "id": 4766482081, "lat": 48.8891214, "lon": 2.3120672}, {"type": "node", "id": 4766482086, "lat": 48.8890712, "lon": 2.3119146}, {"type": "node", "id": 4766482087, "lat": 48.8890811, "lon": 2.3118975}, {"type": "node", "id": 4766482102, "lat": 48.8880095, "lon": 2.3129708}, {"type": "node", "id": 4766482103, "lat": 48.8881966, "lon": 2.3125339}, {"type": "node", "id": 4766661215, "lat": 48.8882538, "lon": 2.3131824}, {"type": "node", "id": 4766661217, "lat": 48.8879162, "lon": 2.3137641}, {"type": "node", "id": 4912934413, "lat": 48.8756183, "lon": 2.3241924}, {"type": "node", "id": 4912934417, "lat": 48.8758129, "lon": 2.324179}, {"type": "node", "id": 4912939300, "lat": 48.8759129, "lon": 2.3248866}, {"type": "node", "id": 4912939301, "lat": 48.875868, "lon": 2.3245577}, {"type": "node", "id": 4916681774, "lat": 48.8757074, "lon": 2.3246059}, {"type": "node", "id": 4916681775, "lat": 48.8755735, "lon": 2.3243548}, {"type": "node", "id": 4916681777, "lat": 48.8756332, "lon": 2.3244358}, {"type": "node", "id": 4916681778, "lat": 48.8756377, "lon": 2.3244686}, {"type": "node", "id": 4916681783, "lat": 48.8756416, "lon": 2.324497}, {"type": "node", "id": 4918718511, "lat": 48.8755525, "lon": 2.3258554}, {"type": "node", "id": 4918718512, "lat": 48.8755395, "lon": 2.3258598}, {"type": "node", "id": 4918718515, "lat": 48.8755637, "lon": 2.3258517}, {"type": "node", "id": 4918718519, "lat": 48.875532, "lon": 2.3258623}, {"type": "node", "id": 4918723237, "lat": 48.8753294, "lon": 2.3259373}, {"type": "node", "id": 4918723238, "lat": 48.8753146, "lon": 2.3259421}, {"type": "node", "id": 4918723241, "lat": 48.8753435, "lon": 2.3259328}, {"type": "node", "id": 4918723242, "lat": 48.8753077, "lon": 2.3259443}, {"type": "node", "id": 4918723243, "lat": 48.8753506, "lon": 2.3259305}, {"type": "node", "id": 4952500423, "lat": 48.8743433, "lon": 2.3222751}, {"type": "node", "id": 4952500424, "lat": 48.8743988, "lon": 2.3222929}, {"type": "node", "id": 4952500425, "lat": 48.8744539, "lon": 2.3223106}, {"type": "node", "id": 4952500426, "lat": 48.8745858, "lon": 2.3213608}, {"type": "node", "id": 4952500427, "lat": 48.8744751, "lon": 2.3213253}, {"type": "node", "id": 4952500429, "lat": 48.8745288, "lon": 2.3213425}, {"type": "node", "id": 4952500432, "lat": 48.8761444, "lon": 2.3247236}, {"type": "node", "id": 4952500433, "lat": 48.8762191, "lon": 2.3245282}, {"type": "node", "id": 4952500434, "lat": 48.8753177, "lon": 2.3237302}, {"type": "node", "id": 4952500435, "lat": 48.8752425, "lon": 2.3239269}, {"type": "node", "id": 4975156877, "lat": 48.862261, "lon": 2.3461143}, {"type": "node", "id": 4975156882, "lat": 48.8622268, "lon": 2.3462167}, {"type": "node", "id": 4975156890, "lat": 48.8623041, "lon": 2.3459521, "tags": {"entrance": "yes", "indoor": "yes", "level": "-3", "source": "survey"}}, {"type": "node", "id": 4975156912, "lat": 48.8623428, "lon": 2.3458045}, {"type": "node", "id": 4975156917, "lat": 48.8622521, "lon": 2.3461089}, {"type": "node", "id": 4975307152, "lat": 48.8623311, "lon": 2.345849}, {"type": "node", "id": 4975307155, "lat": 48.8622487, "lon": 2.3457474}, {"type": "node", "id": 4975635493, "lat": 48.8621512, "lon": 2.3456802}, {"type": "node", "id": 4999765100, "lat": 48.8615481, "lon": 2.346299}, {"type": "node", "id": 4999765104, "lat": 48.8614723, "lon": 2.3462543}, {"type": "node", "id": 5009327623, "lat": 48.861928, "lon": 2.3462733}, {"type": "node", "id": 5009327626, "lat": 48.8621189, "lon": 2.3476281}, {"type": "node", "id": 5009327637, "lat": 48.8617241, "lon": 2.3463615}, {"type": "node", "id": 5009327642, "lat": 48.8618612, "lon": 2.3463021}, {"type": "node", "id": 5009327653, "lat": 48.8618999, "lon": 2.3478422}, {"type": "node", "id": 5053358670, "lat": 48.8607377, "lon": 2.3478939}, {"type": "node", "id": 5053358673, "lat": 48.860702, "lon": 2.347702}, {"type": "node", "id": 5054243886, "lat": 48.8625922, "lon": 2.3466676}, {"type": "node", "id": 5054243891, "lat": 48.860661, "lon": 2.3474934}, {"type": "node", "id": 5054243893, "lat": 48.862612, "lon": 2.3467747}, {"type": "node", "id": 5155172764, "lat": 48.8624906, "lon": 2.3360431, "tags": {"STIF:zone": "1", "name": "Palais Royal - Mus\u00e9e du Louvre", "name:ru": "\u041f\u0430\u043b\u0435-\u0420\u0443\u0430\u044f\u043b\u044c \u2014 \u041c\u044e\u0437\u0435-\u0434\u044e-\u041b\u0443\u0432\u0440", "public_transport": "station", "railway": "station", "ref:FR:FANTOIR": "75101S399H", "ref:FR:RATP": "1774", "ref:FR:STIF": "22079", "source": "STIF - 12/2016", "station": "subway", "subway": "yes", "type:RATP": "metro", "wheelchair": "no", "wikidata": "Q1467113", "wikipedia": "fr:Palais Royal - Mus\u00e9e du Louvre (m\u00e9tro de Paris)"}}, {"type": "node", "id": 5223377751, "lat": 48.8628082, "lon": 2.3463891}, {"type": "node", "id": 5223377752, "lat": 48.8606295, "lon": 2.34734}, {"type": "node", "id": 5223377753, "lat": 48.8606505, "lon": 2.3474459}, {"type": "node", "id": 5223377754, "lat": 48.8628281, "lon": 2.3465051}, {"type": "node", "id": 5223377755, "lat": 48.8625121, "lon": 2.346214}, {"type": "node", "id": 5223377756, "lat": 48.8625454, "lon": 2.3463939}, {"type": "node", "id": 5223377757, "lat": 48.8606095, "lon": 2.3472216}, {"type": "node", "id": 5223377758, "lat": 48.8605762, "lon": 2.3470417}, {"type": "node", "id": 5226630385, "lat": 48.8574911, "lon": 2.3515316, "tags": {"STIF:zone": "1", "addr:city": "Paris", "name": "H\u00f4tel de Ville", "public_transport": "station", "railway": "station", "ref": "01-15", "ref:FR:FANTOIR": "75104S225F", "ref:FR:RATP": "1855", "ref:FR:STIF": "21990", "source": "cadastre-dgi-fr source : Direction G\u00e9n\u00e9rale des Imp\u00f4ts - Cadastre. Mise \u00e0 jour : 2010", "station": "subway", "subway": "yes", "train": "yes", "type:RATP": "metro", "wheelchair": "no", "wikidata": "Q968939", "wikipedia": "fr:H\u00f4tel de Ville (m\u00e9tro de Paris)"}}, {"type": "node", "id": 5226630386, "lat": 48.8693002, "lon": 2.3542855, "tags": {"STIF:zone": "1", "check_date:opening_hours": "2021-10-26", "name": "Strasbourg - Saint-Denis", "old_name": "Boulevard Saint-Denis", "opening_hours": "Mo-Su 05:00-01:30", "operator": "RATP", "public_transport": "station", "railway": "station", "ref:FR:FANTOIR": "75102S537D", "ref:FR:RATP": "1628", "ref:FR:STIF": "22159", "source": "STIF - 12/2016", "station": "subway", "subway": "yes", "type:RATP": "metro", "wheelchair": "no", "wikidata": "Q1403165", "wikipedia": "fr:Strasbourg - Saint-Denis (m\u00e9tro de Paris)"}}, {"type": "node", "id": 5226708287, "lat": 48.8837466, "lon": 2.3496958, "tags": {"STIF:zone": "1", "name": "Barb\u00e8s - Rochechouart", "operator": "RATP", "public_transport": "station", "railway": "station", "ref:FR:FANTOIR": "75109S035C", "ref:FR:RATP": "1999", "ref:FR:STIF": "22127", "source": "STIF - 12/2016", "station": "subway", "subway": "yes", "type:RATP": "metro", "wheelchair": "no", "wikidata": "Q807893", "wikipedia": "fr:Barb\u00e8s - Rochechouart (m\u00e9tro de Paris)"}}, {"type": "node", "id": 5321652781, "lat": 48.8603683, "lon": 2.3464619, "tags": {"entrance": "main", "level": "0", "name": "Porte Marguerite de Navarre", "railway": "subway_entrance", "ref": "1", "wheelchair": "no"}}, {"type": "node", "id": 5364676905, "lat": 48.8795666, "lon": 2.3572124, "tags": {"STIF:zone": "1", "addr:city": "Paris", "addr:postcode": "75010", "name": "Gare du Nord (M\u00e9tro)", "network": "RATP", "operator": "RATP", "public_transport": "station", "railway": "station", "ref:FR:FANTOIR": "75110S186M", "ref:FR:RATP": "1842", "ref:FR:STIF": "22007;22149", "short_name": "Gare du Nord", "start_date": "1907-11-15", "station": "subway", "subway": "yes", "type:RATP": "metro", "wheelchair": "no", "wikidata": "Q1494174", "wikipedia": "fr:Gare du Nord (m\u00e9tro de Paris)"}}, {"type": "node", "id": 5462658948, "lat": 48.8604544, "lon": 2.3476973}, {"type": "node", "id": 5527702547, "lat": 48.8585776, "lon": 2.3422202, "tags": {"STIF:zone": "1", "addr:city": "Paris", "name": "Pont Neuf", "name:en": "Pont Neuf", "name:es": "Puente Nuevo", "name:pt": "Ponte Nova", "name:ru": "\u041d\u043e\u0432\u044b\u0439 \u043c\u043e\u0441\u0442", "name:zh": "\u65b0\u6865", "public_transport": "station", "railway": "station", "ref:FR:FANTOIR": "75101S426M", "ref:FR:RATP": "1712", "ref:FR:STIF": "22379", "source": "STIF - 12/2016", "station": "subway", "subway": "yes", "type:RATP": "metro", "wheelchair": "no", "wikidata": "Q1458421", "wikipedia": "fr:Pont Neuf (m\u00e9tro de Paris)"}}, {"type": "node", "id": 5527816419, "lat": 48.8624659, "lon": 2.3460086, "tags": {"STIF:zone": "1", "name": "Les Halles", "network": "M\u00e9tro de Paris;RATP", "operator": "RATP", "public_transport": "station", "railway": "station", "ref:FR:FANTOIR": "75101S222R", "ref:FR:RATP": "1801", "ref:FR:STIF": "22146", "source": "STIF - 12/2016", "start_date": "1977-10-03", "station": "subway", "subway": "yes", "type:RATP": "metro", "wikidata": "Q1576810", "wikipedia": "fr:Les Halles (m\u00e9tro de Paris)"}}, {"type": "node", "id": 5527829149, "lat": 48.8662481, "lon": 2.3526084, "tags": {"STIF:zone": "1", "addr:city": "Paris", "name": "R\u00e9aumur - S\u00e9bastopol", "name:fr": "R\u00e9aumur - S\u00e9bastopol", "name:ru": "\u0420\u0435\u043e\u043c\u044e\u0440 \u2014 \u0421\u0435\u0431\u0430\u0441\u0442\u043e\u043f\u043e\u043b\u044c", "old_name": "Rue Saint-Denis", "operator": "RATP", "public_transport": "station", "railway": "station", "ref:FR:FANTOIR": "75102S484W", "ref:FR:RATP": "1676", "ref:FR:STIF": "22018", "station": "subway", "subway": "yes", "type:RATP": "metro", "wheelchair": "no", "wikidata": "Q669850", "wikipedia": "fr:R\u00e9aumur - S\u00e9bastopol (m\u00e9tro de Paris)"}}, {"type": "node", "id": 5527829165, "lat": 48.8638718, "lon": 2.3490301, "tags": {"STIF:zone": "1", "addr:city": "Paris", "name": "\u00c9tienne Marcel", "operator": "RATP", "public_transport": "station", "railway": "station", "ref:FR:FANTOIR": "75101S146H", "ref:FR:RATP": "1914", "ref:FR:STIF": "22147", "station": "subway", "subway": "yes", "type:RATP": "metro", "wheelchair": "no", "wikidata": "Q289916", "wikipedia": "fr:\u00c9tienne Marcel (m\u00e9tro de Paris)"}}, {"type": "node", "id": 5527859168, "lat": 48.8728888, "lon": 2.3563528, "tags": {"STIF:zone": "1", "heritage": "3", "heritage:operator": "mhs", "mhs:inscription_date": "1978", "name": "Ch\u00e2teau d'Eau", "operator": "RATP", "public_transport": "station", "railway": "station", "ref:FR:FANTOIR": "75110S086D", "ref:FR:RATP": "1961", "ref:FR:STIF": "22153", "ref:mhs": "PA00086508", "source": "STIF - 12/2016", "station": "subway", "subway": "yes", "type:RATP": "metro", "wheelchair": "no", "wikidata": "Q1090753", "wikipedia": "fr:Ch\u00e2teau d'Eau (m\u00e9tro de Paris)"}}, {"type": "node", "id": 5528174509, "lat": 48.8730441, "lon": 2.3332127, "tags": {"STIF:zone": "1", "name": "Chauss\u00e9e d'Antin - La Fayette", "public_transport": "station", "railway": "station", "ref:FR:FANTOIR": "75109S092P", "ref:FR:RATP": "1957", "ref:FR:STIF": "21932;22388", "station": "subway", "subway": "yes", "type:RATP": "metro", "wheelchair": "no", "wikidata": "Q951466", "wikipedia": "fr:Chauss\u00e9e d'Antin - La Fayette (m\u00e9tro de Paris)"}}, {"type": "node", "id": 5528174511, "lat": 48.8748603, "lon": 2.340218, "tags": {"STIF:zone": "1", "name": "Le Peletier", "public_transport": "station", "railway": "station", "ref:FR:FANTOIR": "75109S288C", "ref:FR:RATP": "1795", "ref:FR:STIF": "22382", "source": "STIF - 12/2016", "station": "subway", "subway": "yes", "type:RATP": "metro", "wikidata": "Q1784008", "wikipedia": "fr:Le Peletier (m\u00e9tro de Paris)"}}, {"type": "node", "id": 5528174520, "lat": 48.8759778, "lon": 2.3444894, "tags": {"STIF:zone": "1", "name": "Cadet", "public_transport": "station", "railway": "station", "ref:FR:FANTOIR": "75109S071S", "ref:FR:RATP": "1939", "ref:FR:STIF": "22390", "source": "STIF - 12/2016", "station": "subway", "subway": "yes", "type:RATP": "metro", "wheelchair": "no", "wikidata": "Q1025135", "wikipedia": "fr:Cadet (m\u00e9tro de Paris)"}}, {"type": "node", "id": 5528176223, "lat": 48.8771197, "lon": 2.3487446, "tags": {"STIF:zone": "1", "addr:city": "Paris", "addr:postcode": "75009;75010", "addr:street": "Rue La Fayette", "name": "Poissonni\u00e8re", "network": "M\u00e9tro de Paris;RATP", "operator": "RATP", "public_transport": "station", "railway": "station", "ref:FR:FANTOIR": "75109S420W", "ref:FR:RATP": "1706", "ref:FR:STIF": "22377", "source": "STIF - 12/2016", "station": "subway", "subway": "yes", "type:RATP": "metro", "wheelchair": "no", "wikidata": "Q764106", "wikipedia": "fr:Poissonni\u00e8re (m\u00e9tro de Paris)"}}, {"type": "node", "id": 5528264337, "lat": 48.8657452, "lon": 2.3344687, "tags": {"STIF:zone": "1", "name": "Pyramides", "public_transport": "station", "railway": "station", "ref:FR:FANTOIR": "75101S452R", "ref:FR:RATP": "1738;50047", "ref:FR:STIF": "22375", "source": "STIF - 12/2016", "station": "subway", "subway": "yes", "type:RATP": "metro", "wheelchair": "limited", "wikidata": "Q1501462", "wikipedia": "fr:Pyramides (m\u00e9tro de Paris)"}}, {"type": "node", "id": 5598647032, "lat": 48.8840041, "lon": 2.3576093}, {"type": "node", "id": 5598647033, "lat": 48.8840049, "lon": 2.3575895}, {"type": "node", "id": 5623118448, "lat": 48.8798844, "lon": 2.3552177}, {"type": "node", "id": 5690243669, "lat": 48.8535895, "lon": 2.3441824}, {"type": "node", "id": 5690243670, "lat": 48.8535694, "lon": 2.3441989}, {"type": "node", "id": 5690243685, "lat": 48.8535608, "lon": 2.3442059}, {"type": "node", "id": 5690243686, "lat": 48.8535987, "lon": 2.3441748}, {"type": "node", "id": 5690304028, "lat": 48.8535037, "lon": 2.3443229}, {"type": "node", "id": 5690304029, "lat": 48.8534753, "lon": 2.3443288}, {"type": "node", "id": 5690304031, "lat": 48.8535739, "lon": 2.3444383}, {"type": "node", "id": 5690304033, "lat": 48.8535355, "lon": 2.3443996}, {"type": "node", "id": 5690304040, "lat": 48.8535332, "lon": 2.344383}, {"type": "node", "id": 5690304045, "lat": 48.8534505, "lon": 2.344414}, {"type": "node", "id": 5690304046, "lat": 48.8534443, "lon": 2.3443823}, {"type": "node", "id": 5690304047, "lat": 48.8533832, "lon": 2.344317}, {"type": "node", "id": 5690304048, "lat": 48.8533774, "lon": 2.3443292}, {"type": "node", "id": 5690304049, "lat": 48.8533355, "lon": 2.3443459}, {"type": "node", "id": 5690304050, "lat": 48.853293, "lon": 2.3443018}, {"type": "node", "id": 5690304051, "lat": 48.8532877, "lon": 2.34428}, {"type": "node", "id": 5690304052, "lat": 48.8533133, "lon": 2.3442543}, {"type": "node", "id": 5690304053, "lat": 48.8533217, "lon": 2.344292}, {"type": "node", "id": 5690304054, "lat": 48.8533358, "lon": 2.344307}, {"type": "node", "id": 5690304055, "lat": 48.8533603, "lon": 2.344298}, {"type": "node", "id": 5690304056, "lat": 48.8533694, "lon": 2.3442753}, {"type": "node", "id": 5690304057, "lat": 48.8533584, "lon": 2.3442629}, {"type": "node", "id": 5690304058, "lat": 48.8533336, "lon": 2.3441678}, {"type": "node", "id": 5690304059, "lat": 48.853331, "lon": 2.3438171}, {"type": "node", "id": 5690304060, "lat": 48.8532882, "lon": 2.343672}, {"type": "node", "id": 5690304061, "lat": 48.8532766, "lon": 2.343649}, {"type": "node", "id": 5690304062, "lat": 48.8532979, "lon": 2.3436222}, {"type": "node", "id": 5690304063, "lat": 48.8533116, "lon": 2.3436441}, {"type": "node", "id": 5690304064, "lat": 48.8533636, "lon": 2.3438195}, {"type": "node", "id": 5690304065, "lat": 48.8533637, "lon": 2.3441571}, {"type": "node", "id": 5690304066, "lat": 48.8536129, "lon": 2.3442152}, {"type": "node", "id": 5690304067, "lat": 48.8533846, "lon": 2.3442359}, {"type": "node", "id": 5690528215, "lat": 48.8531654, "lon": 2.3458138}, {"type": "node", "id": 5690532545, "lat": 48.8539688, "lon": 2.3470132}, {"type": "node", "id": 5690532546, "lat": 48.8527969, "lon": 2.3450945}, {"type": "node", "id": 5690532547, "lat": 48.8527751, "lon": 2.345124}, {"type": "node", "id": 5690532580, "lat": 48.8527928, "lon": 2.3451}, {"type": "node", "id": 5690532581, "lat": 48.8527792, "lon": 2.3451184}, {"type": "node", "id": 5690532583, "lat": 48.8539646, "lon": 2.3470189}, {"type": "node", "id": 5721224853, "lat": 48.8514383, "lon": 2.3435588}, {"type": "node", "id": 5721224854, "lat": 48.8514265, "lon": 2.3435797}, {"type": "node", "id": 5744090208, "lat": 48.86228, "lon": 2.3457664}, {"type": "node", "id": 5753306386, "lat": 48.8756292, "lon": 2.3244063}, {"type": "node", "id": 5753306387, "lat": 48.8756593, "lon": 2.3246203}, {"type": "node", "id": 5753306388, "lat": 48.8756465, "lon": 2.3245303}, {"type": "node", "id": 5755534631, "lat": 48.8756184, "lon": 2.3242778}, {"type": "node", "id": 5755534636, "lat": 48.8755903, "lon": 2.324326}, {"type": "node", "id": 5755534647, "lat": 48.8756039, "lon": 2.3243026}, {"type": "node", "id": 5777078806, "lat": 48.8622515, "lon": 2.3457373}, {"type": "node", "id": 5895999710, "lat": 48.860671, "lon": 2.3475478}, {"type": "node", "id": 5895999711, "lat": 48.8604447, "lon": 2.3476446}, {"type": "node", "id": 5926169104, "lat": 48.867747, "lon": 2.345845}, {"type": "node", "id": 5926169105, "lat": 48.8676411, "lon": 2.3457918}, {"type": "node", "id": 5926259126, "lat": 48.8673641, "lon": 2.3470673}, {"type": "node", "id": 5926259127, "lat": 48.8674701, "lon": 2.3471205}, {"type": "node", "id": 5926300284, "lat": 48.8674614, "lon": 2.3471161}, {"type": "node", "id": 5926303786, "lat": 48.8673727, "lon": 2.3470716}, {"type": "node", "id": 5926303788, "lat": 48.8674528, "lon": 2.3471118}, {"type": "node", "id": 5926303789, "lat": 48.8673787, "lon": 2.3470001}, {"type": "node", "id": 5926303793, "lat": 48.8674847, "lon": 2.3470533}, {"type": "node", "id": 5926303795, "lat": 48.8676825, "lon": 2.3461424}, {"type": "node", "id": 5926303796, "lat": 48.8677063, "lon": 2.3458245}, {"type": "node", "id": 5926303797, "lat": 48.8674295, "lon": 2.3471001}, {"type": "node", "id": 5926303798, "lat": 48.8676816, "lon": 2.3458121}, {"type": "node", "id": 5926303799, "lat": 48.8674047, "lon": 2.3470877}, {"type": "node", "id": 5926303801, "lat": 48.8675765, "lon": 2.3460893}, {"type": "node", "id": 5926303803, "lat": 48.8673814, "lon": 2.347076}, {"type": "node", "id": 5926303804, "lat": 48.8676939, "lon": 2.3458183}, {"type": "node", "id": 5926303805, "lat": 48.8674169, "lon": 2.3470938}, {"type": "node", "id": 5926452925, "lat": 48.866357, "lon": 2.351768}, {"type": "node", "id": 5926452926, "lat": 48.8663466, "lon": 2.3518166}, {"type": "node", "id": 5926452936, "lat": 48.8664337, "lon": 2.3518605}, {"type": "node", "id": 5926452937, "lat": 48.8664443, "lon": 2.3518111}, {"type": "node", "id": 5926452965, "lat": 48.8676027, "lon": 2.3459684}, {"type": "node", "id": 5926452966, "lat": 48.8677087, "lon": 2.3460216}, {"type": "node", "id": 5926452972, "lat": 48.8675911, "lon": 2.3460221}, {"type": "node", "id": 5926452975, "lat": 48.867697, "lon": 2.3460753}, {"type": "node", "id": 5951333746, "lat": 48.8615986, "lon": 2.3477397}, {"type": "node", "id": 5951333747, "lat": 48.8616608, "lon": 2.3477734}, {"type": "node", "id": 5954280641, "lat": 48.86219, "lon": 2.3457023, "tags": {"access": "customers", "entrance": "yes", "level": "-3", "wheelchair": "limited"}}, {"type": "node", "id": 5954280643, "lat": 48.8620919, "lon": 2.3456465}, {"type": "node", "id": 6022127822, "lat": 48.8622289, "lon": 2.3142165}, {"type": "node", "id": 6044199845, "lat": 48.8604616, "lon": 2.325161}, {"type": "node", "id": 6044199846, "lat": 48.8604677, "lon": 2.3251404}, {"type": "node", "id": 6044199847, "lat": 48.8604819, "lon": 2.3251503}, {"type": "node", "id": 6044199848, "lat": 48.8604757, "lon": 2.3251708}, {"type": "node", "id": 6044199853, "lat": 48.8601429, "lon": 2.3249435}, {"type": "node", "id": 6044199854, "lat": 48.8601369, "lon": 2.3249297}, {"type": "node", "id": 6044199855, "lat": 48.8604097, "lon": 2.3251255}, {"type": "node", "id": 6044199856, "lat": 48.860425, "lon": 2.3250779}, {"type": "node", "id": 6045727056, "lat": 48.8602608, "lon": 2.3250239}, {"type": "node", "id": 6045727057, "lat": 48.8602578, "lon": 2.3250343}, {"type": "node", "id": 6063994636, "lat": 48.8607298, "lon": 2.326008}, {"type": "node", "id": 6063994637, "lat": 48.8609279, "lon": 2.3253289}, {"type": "node", "id": 6063994638, "lat": 48.8608909, "lon": 2.3254561}, {"type": "node", "id": 6063994640, "lat": 48.8608999, "lon": 2.3253088}, {"type": "node", "id": 6112575774, "lat": 48.8629489, "lon": 2.3139284}, {"type": "node", "id": 6112597009, "lat": 48.8628515, "lon": 2.3140048}, {"type": "node", "id": 6113052052, "lat": 48.8538002, "lon": 2.3444331}, {"type": "node", "id": 6113052053, "lat": 48.853881, "lon": 2.3442529}, {"type": "node", "id": 6354958621, "lat": 48.8706341, "lon": 2.3258048}, {"type": "node", "id": 6354958622, "lat": 48.8701248, "lon": 2.3273028}, {"type": "node", "id": 6354958623, "lat": 48.8700713, "lon": 2.3272607}, {"type": "node", "id": 6354958624, "lat": 48.8705805, "lon": 2.3257627}, {"type": "node", "id": 6354958625, "lat": 48.870185, "lon": 2.3273491}, {"type": "node", "id": 6354958626, "lat": 48.8706817, "lon": 2.3258426}, {"type": "node", "id": 6354958627, "lat": 48.8707354, "lon": 2.3258835}, {"type": "node", "id": 6354958628, "lat": 48.8702387, "lon": 2.32739}, {"type": "node", "id": 6354958629, "lat": 48.8698882, "lon": 2.3252194}, {"type": "node", "id": 6354958630, "lat": 48.8705731, "lon": 2.3253091}, {"type": "node", "id": 6354958631, "lat": 48.8705725, "lon": 2.3253751}, {"type": "node", "id": 6354958632, "lat": 48.8698834, "lon": 2.3252833}, {"type": "node", "id": 6354958636, "lat": 48.8700517, "lon": 2.3253173}, {"type": "node", "id": 6354958637, "lat": 48.8702241, "lon": 2.325343}, {"type": "node", "id": 6354958638, "lat": 48.8703981, "lon": 2.3253654}, {"type": "node", "id": 6354958639, "lat": 48.8705737, "lon": 2.3252436}, {"type": "node", "id": 6354958643, "lat": 48.8698927, "lon": 2.3251576}, {"type": "node", "id": 6354958644, "lat": 48.8698974, "lon": 2.3250936}, {"type": "node", "id": 6354958645, "lat": 48.8705755, "lon": 2.3251789}, {"type": "node", "id": 6354958646, "lat": 48.8704001, "lon": 2.3251686}, {"type": "node", "id": 6354958647, "lat": 48.8702373, "lon": 2.3251506}, {"type": "node", "id": 6354958648, "lat": 48.8700667, "lon": 2.3251251}, {"type": "node", "id": 6354958652, "lat": 48.8694646, "lon": 2.3256648}, {"type": "node", "id": 6354958653, "lat": 48.8696408, "lon": 2.3266955}, {"type": "node", "id": 6354958654, "lat": 48.8695972, "lon": 2.3267128}, {"type": "node", "id": 6354958655, "lat": 48.8694209, "lon": 2.325682}, {"type": "node", "id": 6354958656, "lat": 48.8696961, "lon": 2.3266726}, {"type": "node", "id": 6354958657, "lat": 48.8695179, "lon": 2.3256447}, {"type": "node", "id": 6354958658, "lat": 48.8695617, "lon": 2.3256289}, {"type": "node", "id": 6354958659, "lat": 48.8697399, "lon": 2.326655}, {"type": "node", "id": 6368126235, "lat": 48.8715492, "lon": 2.3309148}, {"type": "node", "id": 6368126236, "lat": 48.8728498, "lon": 2.3286055}, {"type": "node", "id": 6368126237, "lat": 48.8727997, "lon": 2.3285403}, {"type": "node", "id": 6368126238, "lat": 48.8714991, "lon": 2.3308496}, {"type": "node", "id": 6368126240, "lat": 48.8729019, "lon": 2.3286747}, {"type": "node", "id": 6368126241, "lat": 48.8716034, "lon": 2.3309826}, {"type": "node", "id": 6368126242, "lat": 48.871653, "lon": 2.3310442}, {"type": "node", "id": 6368126243, "lat": 48.8729504, "lon": 2.3287378}, {"type": "node", "id": 6368126255, "lat": 48.8728643, "lon": 2.3286247}, {"type": "node", "id": 6368126256, "lat": 48.8715883, "lon": 2.3309636}, {"type": "node", "id": 6372538104, "lat": 48.8752897, "lon": 2.3238031}, {"type": "node", "id": 6372538105, "lat": 48.8761908, "lon": 2.3246022}, {"type": "node", "id": 6372538106, "lat": 48.8752704, "lon": 2.3238539}, {"type": "node", "id": 6372538109, "lat": 48.8761711, "lon": 2.3246538}, {"type": "node", "id": 6400536383, "lat": 48.875715, "lon": 2.3240875}, {"type": "node", "id": 6400536384, "lat": 48.8757386, "lon": 2.3241083}, {"type": "node", "id": 6400536385, "lat": 48.8757398, "lon": 2.3241049}, {"type": "node", "id": 6400536387, "lat": 48.8757874, "lon": 2.3241471}, {"type": "node", "id": 6400536389, "lat": 48.8757163, "lon": 2.324084}, {"type": "node", "id": 6400536392, "lat": 48.8756638, "lon": 2.3240374}, {"type": "node", "id": 6400536395, "lat": 48.8756421, "lon": 2.3240182}, {"type": "node", "id": 6400536396, "lat": 48.8758071, "lon": 2.3241646}, {"type": "node", "id": 6400577633, "lat": 48.875621, "lon": 2.3242157}, {"type": "node", "id": 6423656925, "lat": 48.8758627, "lon": 2.3267141}, {"type": "node", "id": 6423656929, "lat": 48.8758914, "lon": 2.3267281}, {"type": "node", "id": 6423656930, "lat": 48.8759084, "lon": 2.3267372}, {"type": "node", "id": 6423656931, "lat": 48.8759267, "lon": 2.3267452}, {"type": "node", "id": 6423656932, "lat": 48.8759399, "lon": 2.3267503}, {"type": "node", "id": 6423748891, "lat": 48.8759307, "lon": 2.3250263}, {"type": "node", "id": 6556184314, "lat": 48.8798076, "lon": 2.3617447}, {"type": "node", "id": 6556184340, "lat": 48.8803885, "lon": 2.3616129}, {"type": "node", "id": 6556184346, "lat": 48.8805655, "lon": 2.3615904}, {"type": "node", "id": 6558550894, "lat": 48.8792276, "lon": 2.3619506}, {"type": "node", "id": 6558550895, "lat": 48.8793109, "lon": 2.3619499}, {"type": "node", "id": 6569951185, "lat": 48.8628498, "lon": 2.3138868}, {"type": "node", "id": 6569951186, "lat": 48.8628384, "lon": 2.3127202}, {"type": "node", "id": 6588712135, "lat": 48.876078, "lon": 2.3264232}, {"type": "node", "id": 6588712136, "lat": 48.8761077, "lon": 2.3264148}, {"type": "node", "id": 6588712141, "lat": 48.8760646, "lon": 2.3263143}, {"type": "node", "id": 6588712143, "lat": 48.8760681, "lon": 2.3263423}, {"type": "node", "id": 6588712146, "lat": 48.8760696, "lon": 2.3263551}, {"type": "node", "id": 6588712149, "lat": 48.8760665, "lon": 2.3263298}, {"type": "node", "id": 6588712153, "lat": 48.8760727, "lon": 2.3263802}, {"type": "node", "id": 6588712154, "lat": 48.8760627, "lon": 2.3262988}, {"type": "node", "id": 6588724291, "lat": 48.8761291, "lon": 2.3265555}, {"type": "node", "id": 6588724294, "lat": 48.8761243, "lon": 2.3265503}, {"type": "node", "id": 6588724297, "lat": 48.8761302, "lon": 2.3265647}, {"type": "node", "id": 6588724298, "lat": 48.8761393, "lon": 2.3266391}, {"type": "node", "id": 6707805902, "lat": 48.8771189, "lon": 2.3268312}, {"type": "node", "id": 6707805903, "lat": 48.8761825, "lon": 2.3267949}, {"type": "node", "id": 6761193934, "lat": 48.8757403, "lon": 2.3270846}, {"type": "node", "id": 6761193935, "lat": 48.8757873, "lon": 2.3274523}, {"type": "node", "id": 6761193945, "lat": 48.8757751, "lon": 2.3273561}, {"type": "node", "id": 6761193946, "lat": 48.8757528, "lon": 2.3271805}, {"type": "node", "id": 6801637853, "lat": 48.8774462, "lon": 2.3230913, "tags": {"entrance": "main", "level": "1", "name": "Gare Saint-Lazare - Rue de Rome", "railway": "train_station_entrance", "wheelchair": "no"}}, {"type": "node", "id": 6802495966, "lat": 48.8778982, "lon": 2.3254631}, {"type": "node", "id": 6802495971, "lat": 48.8779187, "lon": 2.3255248}, {"type": "node", "id": 6802495972, "lat": 48.877924, "lon": 2.3255714}, {"type": "node", "id": 6802520286, "lat": 48.8780565, "lon": 2.3257864}, {"type": "node", "id": 6802520290, "lat": 48.8780397, "lon": 2.3258941}, {"type": "node", "id": 6802520291, "lat": 48.8780924, "lon": 2.3259537}, {"type": "node", "id": 6802520292, "lat": 48.878071, "lon": 2.325797}, {"type": "node", "id": 6802520293, "lat": 48.8781239, "lon": 2.3258564}, {"type": "node", "id": 6805810405, "lat": 48.8773313, "lon": 2.3231518}, {"type": "node", "id": 6822905315, "lat": 48.8761215, "lon": 2.3259902}, {"type": "node", "id": 6830010303, "lat": 48.8759678, "lon": 2.3261904}, {"type": "node", "id": 6830010304, "lat": 48.8759735, "lon": 2.3262376}, {"type": "node", "id": 6830010305, "lat": 48.8759931, "lon": 2.3262313}, {"type": "node", "id": 6830495013, "lat": 48.8583384, "lon": 2.3347932, "tags": {"amenity": "ferry_terminal", "ferry": "yes", "name": "Saint-Germain-des-Pr\u00e9s", "network": "Batobus", "operator": "Batobus", "public_transport": "station", "website": "https://www.batobus.com/fr/station/saint-germain-des-pres"}}, {"type": "node", "id": 6862367881, "lat": 48.8760276, "lon": 2.3257573}, {"type": "node", "id": 6895446256, "lat": 48.8809606, "lon": 2.3577967}, {"type": "node", "id": 6895446272, "lat": 48.8821581, "lon": 2.358197}, {"type": "node", "id": 6994725276, "lat": 48.8538232, "lon": 2.3440753}, {"type": "node", "id": 6994725278, "lat": 48.8531027, "lon": 2.3464096}, {"type": "node", "id": 6995614753, "lat": 48.8604971, "lon": 2.3254427}, {"type": "node", "id": 6995614769, "lat": 48.8608246, "lon": 2.3256877}, {"type": "node", "id": 6995614770, "lat": 48.8608571, "lon": 2.3255787}, {"type": "node", "id": 7033944523, "lat": 48.8762085, "lon": 2.3602287}, {"type": "node", "id": 7033998783, "lat": 48.8772569, "lon": 2.358064}, {"type": "node", "id": 7033998784, "lat": 48.876142, "lon": 2.3601564}, {"type": "node", "id": 7058553626, "lat": 48.8551812, "lon": 2.3257736, "tags": {"STIF:zone": "1", "level": "-2", "name": "Rue du Bac", "name:ru": "\u0420\u044e-\u0434\u044e-\u0411\u0430\u043a", "network": "RATP", "operator": "RATP", "public_transport": "station", "railway": "station", "ref:FR:FANTOIR": "75107S031N", "ref:FR:RATP": "1674", "ref:FR:STIF": "22043", "source": "STIF - 12/2016", "station": "subway", "subway": "yes", "type:RATP": "metro", "wheelchair": "no", "wikidata": "Q954566", "wikipedia": "fr:Rue du Bac (m\u00e9tro de Paris)"}}, {"type": "node", "id": 7362749299, "lat": 48.8514325, "lon": 2.3435691}, {"type": "node", "id": 7362749300, "lat": 48.8512344, "lon": 2.3434335, "tags": {"name": "Boulevard Saint-Germain (Mus\u00e9e du Moyen-\u00c2ge)", "railway": "subway_entrance", "ref": "2", "source": "cadastre-dgi-fr source : Direction G\u00e9n\u00e9rale des Imp\u00f4ts - Cadastre. Mise \u00e0 jour : 2011", "wheelchair": "no"}}, {"type": "node", "id": 7363169039, "lat": 48.8539467, "lon": 2.3470395}, {"type": "node", "id": 8070672024, "lat": 48.8760712, "lon": 2.3263677}, {"type": "node", "id": 8109267047, "lat": 48.8811929, "lon": 2.3577583}, {"type": "node", "id": 8248211080, "lat": 48.8768252, "lon": 2.3578129}, {"type": "node", "id": 8290586167, "lat": 48.8895133, "lon": 2.3153423, "tags": {"STIF:zone": "1", "name": "Pont Cardinet", "network": "RATP", "official_name": "PONT CARDINET", "opening_date": "2020-12-14", "operator": "RATP", "public_transport": "station", "railway": "station", "ref:FR:STIF": "411351", "source": "survey", "station": "subway", "subway": "yes", "uic_ref": "8738111", "wheelchair": "yes", "wikidata": "Q3396323", "wikipedia": "fr:Pont-Cardinet (m\u00e9tro de Paris)"}}, {"type": "node", "id": 8515111483, "lat": 48.8719671, "lon": 2.3392504, "tags": {"STIF:zone": "1", "level": "-2", "name": "Richelieu - Drouot", "name:ru": "\u0420\u0438\u0448\u0435\u043b\u044c\u0451 \u2014 \u0414\u0440\u0443\u043e", "network": "RATP", "operator": "RATP", "public_transport": "station", "railway": "station", "ref:FR:FANTOIR": "75109S488V", "ref:FR:RATP": "1665", "ref:FR:STIF": "22196", "source": "STIF - 12/2016", "station": "subway", "subway": "yes", "type:RATP": "metro", "wheelchair": "no", "wikidata": "Q1412692", "wikipedia": "fr:Richelieu - Drouot (m\u00e9tro de Paris)"}}, {"type": "node", "id": 8754107925, "lat": 48.8542568, "lon": 2.3476341, "tags": {"entrance": "yes", "level": "0", "name": "H\u00f4tel-Dieu - Parvis de Notre-Dame", "railway": "train_station_entrance", "ref": "5", "wheelchair": "no"}}, {"type": "node", "id": 9142503438, "lat": 48.8569057, "lon": 2.3150837, "tags": {"STIF:zone": "1", "name": "Varenne", "name:ru": "\u0412\u0430\u0440\u0435\u043d", "public_transport": "station", "railway": "station", "ref:FR:FANTOIR": "75107S582M", "ref:FR:RATP": "1644", "ref:FR:STIF": "22226", "source": "STIF - 12/2016", "station": "subway", "subway": "yes", "type:RATP": "metro", "wheelchair": "no", "wikidata": "Q614636", "wikipedia": "fr:Varenne (m\u00e9tro de Paris)"}}, {"type": "node", "id": 9180784395, "lat": 48.8810847, "lon": 2.358512}, {"type": "node", "id": 9192953494, "lat": 48.8875778, "lon": 2.3138409}, {"type": "node", "id": 9192953495, "lat": 48.8876253, "lon": 2.3143568}, {"type": "node", "id": 9192953499, "lat": 48.8875606, "lon": 2.3140168}, {"type": "node", "id": 9192953501, "lat": 48.8875714, "lon": 2.3142765}, {"type": "node", "id": 9192953502, "lat": 48.8875066, "lon": 2.3141006}, {"type": "node", "id": 9192953504, "lat": 48.8879938, "lon": 2.3142365}, {"type": "node", "id": 9192953505, "lat": 48.8879963, "lon": 2.3142399}, {"type": "node", "id": 9192953506, "lat": 48.888012, "lon": 2.3142148}, {"type": "node", "id": 9192953507, "lat": 48.8878846, "lon": 2.3143606}, {"type": "node", "id": 9192953508, "lat": 48.8878806, "lon": 2.3143669}, {"type": "node", "id": 9192953514, "lat": 48.8876731, "lon": 2.3134262}, {"type": "node", "id": 9192964920, "lat": 48.8876615, "lon": 2.3137677}, {"type": "node", "id": 9192964921, "lat": 48.8876401, "lon": 2.3137533}, {"type": "node", "id": 9192964922, "lat": 48.8878853, "lon": 2.3132433}, {"type": "node", "id": 9192964923, "lat": 48.8878596, "lon": 2.3132113}, {"type": "node", "id": 9192964924, "lat": 48.8878076, "lon": 2.3133375}, {"type": "node", "id": 9192964925, "lat": 48.8877903, "lon": 2.3133288}, {"type": "node", "id": 9192964926, "lat": 48.8877423, "lon": 2.3134593}, {"type": "node", "id": 9192964929, "lat": 48.8886969, "lon": 2.313072}, {"type": "node", "id": 9192964931, "lat": 48.8889231, "lon": 2.3126759}, {"type": "node", "id": 9192964933, "lat": 48.8884664, "lon": 2.3134662}, {"type": "node", "id": 9192964934, "lat": 48.8881204, "lon": 2.3140557}, {"type": "node", "id": 9192964953, "lat": 48.888429, "lon": 2.3128886}, {"type": "node", "id": 9192964954, "lat": 48.8886592, "lon": 2.3125292}, {"type": "node", "id": 9476518028, "lat": 48.8532995, "lon": 2.3462988}, {"type": "node", "id": 9476518029, "lat": 48.8533221, "lon": 2.3463131}, {"type": "node", "id": 9476518030, "lat": 48.8533224, "lon": 2.3455034}, {"type": "node", "id": 9476518032, "lat": 48.8533343, "lon": 2.3454608}, {"type": "node", "id": 9476518034, "lat": 48.8532547, "lon": 2.3457566}, {"type": "node", "id": 9476518035, "lat": 48.8532453, "lon": 2.3457917}, {"type": "node", "id": 9476518036, "lat": 48.853244, "lon": 2.3457952}, {"type": "node", "id": 9476518039, "lat": 48.8534712, "lon": 2.3457735}, {"type": "node", "id": 9476518040, "lat": 48.8533939, "lon": 2.3460564}, {"type": "node", "id": 9476518042, "lat": 48.853612, "lon": 2.3471683}, {"type": "node", "id": 9476518043, "lat": 48.8540889, "lon": 2.3477989}, {"type": "node", "id": 9476518044, "lat": 48.8540757, "lon": 2.3477905}, {"type": "node", "id": 9476518045, "lat": 48.8541585, "lon": 2.3475773}, {"type": "node", "id": 9476518046, "lat": 48.8539652, "lon": 2.3474767}, {"type": "node", "id": 9476518047, "lat": 48.8542253, "lon": 2.3475853}, {"type": "node", "id": 9476518048, "lat": 48.8538746, "lon": 2.3474226}, {"type": "node", "id": 9476518049, "lat": 48.853574, "lon": 2.3472454}, {"type": "node", "id": 9476518050, "lat": 48.8541416, "lon": 2.3475685}, {"type": "node", "id": 9476518051, "lat": 48.8535471, "lon": 2.3470174}, {"type": "node", "id": 9476518052, "lat": 48.8537434, "lon": 2.3467636}, {"type": "node", "id": 9476518053, "lat": 48.8537187, "lon": 2.3467236}, {"type": "node", "id": 9476518054, "lat": 48.8533689, "lon": 2.346149}, {"type": "node", "id": 9476518062, "lat": 48.8539198, "lon": 2.3474496}, {"type": "node", "id": 9476518063, "lat": 48.8539409, "lon": 2.3473598}, {"type": "node", "id": 9476518064, "lat": 48.8512207, "lon": 2.3434259}, {"type": "node", "id": 9476518065, "lat": 48.8512459, "lon": 2.3434394}, {"type": "node", "id": 9476518074, "lat": 48.8512138, "lon": 2.3434562}, {"type": "node", "id": 9476518075, "lat": 48.8512409, "lon": 2.3434582}, {"type": "node", "id": 9476518076, "lat": 48.8512339, "lon": 2.3437178}, {"type": "node", "id": 9476518077, "lat": 48.8512503, "lon": 2.3436568}, {"type": "node", "id": 9476518078, "lat": 48.8511792, "lon": 2.3436914}, {"type": "node", "id": 9476518079, "lat": 48.8512144, "lon": 2.3435523}, {"type": "node", "id": 9476518080, "lat": 48.8513733, "lon": 2.3435505}, {"type": "node", "id": 9476518081, "lat": 48.8513887, "lon": 2.3436256}, {"type": "node", "id": 9476518082, "lat": 48.8513598, "lon": 2.3436197}, {"type": "node", "id": 9476518083, "lat": 48.851356, "lon": 2.3436368}, {"type": "node", "id": 9476518084, "lat": 48.8512283, "lon": 2.3434966}, {"type": "node", "id": 9476518085, "lat": 48.8512477, "lon": 2.3434805}, {"type": "node", "id": 9476518086, "lat": 48.8513772, "lon": 2.3437109}, {"type": "node", "id": 9476518087, "lat": 48.851367, "lon": 2.3436978}, {"type": "node", "id": 9476518088, "lat": 48.8513667, "lon": 2.3436409}, {"type": "node", "id": 9476518089, "lat": 48.8514096, "lon": 2.3437414}, {"type": "node", "id": 9476518090, "lat": 48.8513909, "lon": 2.3436482}, {"type": "node", "id": 9476518091, "lat": 48.8514134, "lon": 2.3436854}, {"type": "node", "id": 9476518092, "lat": 48.8514501, "lon": 2.3436084}, {"type": "node", "id": 9476518098, "lat": 48.8528682, "lon": 2.3453233}, {"type": "node", "id": 9476518099, "lat": 48.8528999, "lon": 2.3453617}, {"type": "node", "id": 9476518115, "lat": 48.8533544, "lon": 2.3454732}, {"type": "node", "id": 9476534985, "lat": 48.8539426, "lon": 2.3470439}, {"type": "node", "id": 9476534986, "lat": 48.8538954, "lon": 2.3473329}, {"type": "node", "id": 9476534988, "lat": 48.8536524, "lon": 2.3472917}, {"type": "node", "id": 9476534989, "lat": 48.8536707, "lon": 2.3472025}, {"type": "node", "id": 9476534996, "lat": 48.8535979, "lon": 2.3470234}, {"type": "node", "id": 9476534997, "lat": 48.853985, "lon": 2.3473858}, {"type": "node", "id": 9476534998, "lat": 48.8539711, "lon": 2.3474512}, {"type": "node", "id": 9476534999, "lat": 48.8542195, "lon": 2.3476088}, {"type": "node", "id": 9492726178, "lat": 48.8535006, "lon": 2.3446161}, {"type": "node", "id": 9532923943, "lat": 48.8813135, "lon": 2.3582248}, {"type": "node", "id": 9535246265, "lat": 48.8799548, "lon": 2.3576361}, {"type": "node", "id": 9535246507, "lat": 48.8811866, "lon": 2.3581078}, {"type": "node", "id": 9535246508, "lat": 48.8813324, "lon": 2.3580102}, {"type": "node", "id": 9535246509, "lat": 48.8813337, "lon": 2.3580111}, {"type": "node", "id": 9535246517, "lat": 48.8813838, "lon": 2.3577946}, {"type": "node", "id": 9535246518, "lat": 48.8813382, "lon": 2.3577704}, {"type": "node", "id": 9535246519, "lat": 48.8813294, "lon": 2.3577657}, {"type": "node", "id": 9535246520, "lat": 48.8813, "lon": 2.3577506}, {"type": "node", "id": 9535246521, "lat": 48.8812911, "lon": 2.3577462}, {"type": "node", "id": 9535246522, "lat": 48.8812702, "lon": 2.3577352}, {"type": "node", "id": 9535246523, "lat": 48.8812059, "lon": 2.3577012}, {"type": "node", "id": 9535246524, "lat": 48.8812614, "lon": 2.3577306}, {"type": "node", "id": 9535246546, "lat": 48.8813297, "lon": 2.3577644}, {"type": "node", "id": 9535246547, "lat": 48.8813385, "lon": 2.3577691}, {"type": "node", "id": 9535246550, "lat": 48.8812915, "lon": 2.3577446}, {"type": "node", "id": 9535246551, "lat": 48.8813003, "lon": 2.3577492}, {"type": "node", "id": 9535246553, "lat": 48.8812618, "lon": 2.3577289}, {"type": "node", "id": 9535246555, "lat": 48.8812706, "lon": 2.3577335}, {"type": "node", "id": 9545122388, "lat": 48.8609295, "lon": 2.3460337}, {"type": "node", "id": 9545156218, "lat": 48.8607377, "lon": 2.3460309}, {"type": "node", "id": 9545156223, "lat": 48.8608694, "lon": 2.3459686}, {"type": "node", "id": 9545156224, "lat": 48.8605538, "lon": 2.3461359}, {"type": "node", "id": 9545156225, "lat": 48.8604913, "lon": 2.3461835}, {"type": "node", "id": 9547069432, "lat": 48.8617983, "lon": 2.3463293}, {"type": "node", "id": 9547069435, "lat": 48.8619109, "lon": 2.3462806}, {"type": "node", "id": 9547823883, "lat": 48.8812244, "lon": 2.357711, "tags": {"door": "hinged", "indoor": "door", "level": "-2", "name": "Gare du Nord", "railway": "train_station_entrance"}}, {"type": "node", "id": 9547823884, "lat": 48.8812429, "lon": 2.3577208, "tags": {"door": "hinged", "indoor": "door", "level": "-2", "name": "Gare du Nord", "railway": "train_station_entrance"}}, {"type": "node", "id": 9547823885, "lat": 48.8812806, "lon": 2.3577407, "tags": {"door": "hinged", "indoor": "door", "level": "-2", "name": "Gare du Nord", "railway": "train_station_entrance"}}, {"type": "node", "id": 9547823886, "lat": 48.8813147, "lon": 2.3577582, "tags": {"door": "hinged", "indoor": "door", "level": "-2", "name": "Gare du Nord", "railway": "train_station_entrance"}}, {"type": "node", "id": 9547823887, "lat": 48.8813503, "lon": 2.3577768, "tags": {"door": "hinged", "indoor": "door", "level": "-2", "name": "Gare du Nord", "railway": "train_station_entrance"}}, {"type": "node", "id": 9547823888, "lat": 48.8813712, "lon": 2.3577879, "tags": {"door": "hinged", "indoor": "door", "level": "-2", "name": "Gare du Nord", "railway": "train_station_entrance"}}, {"type": "node", "id": 9549617331, "lat": 48.880168, "lon": 2.3571808, "tags": {"door": "no", "level": "-1", "noname": "yes", "railway": "train_station_entrance", "repeat_on": "-2"}}, {"type": "node", "id": 9549949541, "lat": 48.8626449, "lon": 2.3469158, "tags": {"entrance": "yes", "level": "0", "name": "Porte Rambuteau", "railway": "subway_entrance", "ref": "4", "wheelchair": "yes", "wikidata": "Q3398938"}}, {"type": "node", "id": 9549949545, "lat": 48.8627262, "lon": 2.3469624}, {"type": "node", "id": 9549949548, "lat": 48.8626763, "lon": 2.347179}, {"type": "node", "id": 9550005345, "lat": 48.8806592, "lon": 2.3574284}, {"type": "node", "id": 9550005346, "lat": 48.880521, "lon": 2.357313}, {"type": "node", "id": 9550005347, "lat": 48.8806118, "lon": 2.3569603}, {"type": "node", "id": 9550005348, "lat": 48.8814117, "lon": 2.3573499}, {"type": "node", "id": 9550005349, "lat": 48.8813306, "lon": 2.3577469}, {"type": "node", "id": 9566464024, "lat": 48.87481, "lon": 2.3302103}, {"type": "node", "id": 9566464025, "lat": 48.8748638, "lon": 2.3302133}, {"type": "node", "id": 9566464127, "lat": 48.875055, "lon": 2.3302264}, {"type": "node", "id": 9566464128, "lat": 48.8751088, "lon": 2.3302303}, {"type": "node", "id": 9568374317, "lat": 48.8759344, "lon": 2.3289565}, {"type": "node", "id": 9568374318, "lat": 48.8759419, "lon": 2.3289543}, {"type": "node", "id": 9568374319, "lat": 48.8759381, "lon": 2.3289248}, {"type": "node", "id": 9568374320, "lat": 48.8759307, "lon": 2.328927}, {"type": "node", "id": 9585967457, "lat": 48.8605988, "lon": 2.3471637}, {"type": "node", "id": 9585967460, "lat": 48.8605852, "lon": 2.3470904}, {"type": "node", "id": 9651423490, "lat": 48.8603798, "lon": 2.3463393}, {"type": "node", "id": 9651423497, "lat": 48.8613824, "lon": 2.3462722}, {"type": "node", "id": 9658708977, "lat": 48.8741955, "lon": 2.3315266}, {"type": "node", "id": 9658708979, "lat": 48.8741886, "lon": 2.3314256}, {"type": "node", "id": 9658708980, "lat": 48.8741948, "lon": 2.3314255}, {"type": "node", "id": 9658708981, "lat": 48.8741949, "lon": 2.3314366}, {"type": "node", "id": 9718113935, "lat": 48.8513935, "lon": 2.3437391, "tags": {"amenity": "ticket_validator", "barrier": "turnstile", "fee": "yes", "level": "-1", "note": "Vers m\u00e9tro M10", "wheelchair": "no"}}, {"type": "node", "id": 9718113936, "lat": 48.851377, "lon": 2.3437367}, {"type": "node", "id": 9858167392, "lat": 48.8802339, "lon": 2.3572107}, {"type": "node", "id": 9895363222, "lat": 48.8603501, "lon": 2.3463549}, {"type": "node", "id": 9895363223, "lat": 48.860386, "lon": 2.3465681}, {"type": "node", "id": 10169371981, "lat": 48.8796039, "lon": 2.3270446, "tags": {"STIF:zone": "1", "name": "Li\u00e8ge", "name:ru": "\u041b\u044c\u0435\u0436", "old_name": "Berlin", "public_transport": "station", "railway": "station", "ref:FR:FANTOIR": "75108S289M", "ref:FR:RATP": "1804", "ref:FR:STIF": "22225", "source": "STIF - 12/2016", "station": "subway", "subway": "yes", "type:RATP": "metro", "wheelchair": "no", "wikidata": "Q1866688", "wikipedia": "fr:Li\u00e8ge (m\u00e9tro de Paris)"}}, {"type": "node", "id": 10207412746, "lat": 48.8875519, "lon": 2.3142474, "tags": {"addr:housenumber": "145 bis"}}, {"type": "node", "id": 10219293935, "lat": 48.8674085, "lon": 2.3468628}, {"type": "node", "id": 10219293937, "lat": 48.8675234, "lon": 2.3463338}, {"type": "node", "id": 10789662118, "lat": 48.8767849, "lon": 2.3579655}, {"type": "node", "id": 10789662119, "lat": 48.8767105, "lon": 2.3582437}, {"type": "node", "id": 10789662183, "lat": 48.8763845, "lon": 2.3603344}, {"type": "node", "id": 10789662184, "lat": 48.8763469, "lon": 2.3603115}, {"type": "node", "id": 10886119172, "lat": 48.862489, "lon": 2.3147647}, {"type": "node", "id": 10886119174, "lat": 48.8625475, "lon": 2.314735}, {"type": "node", "id": 10886119176, "lat": 48.8625225, "lon": 2.3147674}, {"type": "node", "id": 10886119177, "lat": 48.8625463, "lon": 2.3147692}, {"type": "node", "id": 10904653758, "lat": 48.8777083, "lon": 2.3260052}, {"type": "node", "id": 10904653759, "lat": 48.8778885, "lon": 2.3261432}, {"type": "node", "id": 10904653760, "lat": 48.8779391, "lon": 2.3261794}, {"type": "node", "id": 10904653761, "lat": 48.8780659, "lon": 2.3257932}, {"type": "node", "id": 10920188298, "lat": 48.8532971, "lon": 2.3436234}, {"type": "node", "id": 10920188299, "lat": 48.8532773, "lon": 2.3436479}, {"type": "node", "id": 10978719674, "lat": 48.8598345, "lon": 2.3278852}, {"type": "node", "id": 10994250646, "lat": 48.8605456, "lon": 2.3253228}, {"type": "node", "id": 10994250647, "lat": 48.8606316, "lon": 2.3253812}, {"type": "node", "id": 11027628099, "lat": 48.8729414, "lon": 2.3287538}, {"type": "node", "id": 11027642780, "lat": 48.8721605, "lon": 2.3296753}, {"type": "node", "id": 11030123185, "lat": 48.8746297, "lon": 2.3300585}, {"type": "node", "id": 11053126934, "lat": 48.8629794, "lon": 2.313813}, {"type": "node", "id": 11053126935, "lat": 48.863024, "lon": 2.3138125}, {"type": "node", "id": 11070962600, "lat": 48.8811768, "lon": 2.3581454}, {"type": "node", "id": 11073401775, "lat": 48.8818609, "lon": 2.3543737, "tags": {"barrier": "kerb", "kerb": "lowered", "tactile_paving": "yes"}}, {"type": "node", "id": 11073401777, "lat": 48.8820514, "lon": 2.3545431}, {"type": "node", "id": 11207799840, "lat": 48.8603369, "lon": 2.3272227}, {"type": "node", "id": 11207799841, "lat": 48.8603568, "lon": 2.3253461}, {"type": "node", "id": 11207799843, "lat": 48.8603236, "lon": 2.3252168}, {"type": "node", "id": 11224824705, "lat": 48.8532238, "lon": 2.3457855}, {"type": "node", "id": 11224824706, "lat": 48.8528045, "lon": 2.3450843}, {"type": "node", "id": 11224824707, "lat": 48.8527559, "lon": 2.345157}, {"type": "node", "id": 11224824708, "lat": 48.8532332, "lon": 2.3459261}, {"type": "node", "id": 11224824709, "lat": 48.8542579, "lon": 2.3476304}, {"type": "node", "id": 11224824710, "lat": 48.8542545, "lon": 2.3476415}, {"type": "node", "id": 11224824711, "lat": 48.8543309, "lon": 2.3476884}, {"type": "node", "id": 11224824712, "lat": 48.8543399, "lon": 2.3476551}, {"type": "node", "id": 11224824713, "lat": 48.8538748, "lon": 2.3468241}, {"type": "node", "id": 11224824714, "lat": 48.8539833, "lon": 2.3469943}, {"type": "node", "id": 11224824715, "lat": 48.853573, "lon": 2.346488}, {"type": "node", "id": 11224824716, "lat": 48.853657, "lon": 2.3466265}, {"type": "node", "id": 11224824717, "lat": 48.8538311, "lon": 2.3469039}, {"type": "node", "id": 11224824718, "lat": 48.8538642, "lon": 2.346955}, {"type": "node", "id": 11224824719, "lat": 48.8539368, "lon": 2.3470529}, {"type": "node", "id": 11369001770, "lat": 48.8539085, "lon": 2.3441978}, {"type": "node", "id": 11369001776, "lat": 48.8537434, "lon": 2.3446095}, {"type": "node", "id": 11396104923, "lat": 48.863268, "lon": 2.314224, "tags": {"addr:city": "Paris", "amenity": "ferry_terminal", "cargo": "passengers", "ferry": "yes", "harbour": "yes", "harbour:operator": "Batobus", "name": "Invalides", "operator": "Batobus", "port_of_entry": "no", "public_transport": "station", "website": "https://www.batobus.com/fr/station/invalides", "wheelchair": "no"}}, {"type": "way", "id": 182821008, "nodes": [1931878050, 1931878048, 1931882861, 1931878049, 1931878051, 1931878050], "tags": {"amenity": "ferry_terminal", "email": "info@bateaux-mouches.fr", "fax": "+33 1 42 25 02 28", "ferry": "yes", "name": "Bateaux-Mouches", "name:ko": "\ubc14\ud1a0\ubb34\uc288 \uc120\ucc29\uc7a5", "phone": "+33 1 42 25 96 10", "public_transport": "station", "tourism": "attraction", "website": "https://www.bateaux-mouches.fr/", "wikidata": "Q8405", "wikipedia": "fr:Bateau-mouche"}}, {"type": "way", "id": 249838219, "nodes": [9550005348, 9550005347, 9550005346, 9550005345, 9550005349, 9550005348], "tags": {"amenity": "bus_station", "bus": "yes", "name": "Gare du Nord (gare routi\u00e8re)", "public_transport": "station", "short_name": "Gare du Nord"}}, {"type": "way", "id": 483666099, "nodes": [4764069429, 4764062115, 4764069428, 4764069425, 4764069456, 4764069455, 4764069459, 4764069437, 4764069464, 4764069438, 5926452937, 5926452936, 4764069463, 4764069460, 4764069458, 4764069457, 4764069461, 4764069462, 5926452926, 5926452925, 4764069429], "tags": {"area": "yes", "level": "-2", "name": "R\u00e9aumur S\u00e9bastopol", "network": "STIF", "operator": "RATP", "public_transport": "station"}}, {"type": "way", "id": 505277048, "nodes": [4952500427, 4952500429, 4952500426, 4952500425, 4952500424, 4952500423, 4952500427], "tags": {"area": "yes", "level": "-2", "location": "underground", "name": "Saint-Augustin", "public_transport": "station"}}, {"type": "way", "id": 505277050, "nodes": [4952500435, 6372538106, 6372538104, 4952500434, 6400536395, 6400536392, 6400536389, 6400536385, 6400536387, 6400536396, 4952500433, 6372538105, 6372538109, 4952500432, 4952500435], "tags": {"addr:city": "Paris", "addr:postcode": "75009", "addr:street": "Cour de Rome", "area": "yes", "level": "-4", "location": "underground", "name": "Saint-Lazare (M\u00e9tro 14)", "network": "RATP", "operator": "RATP", "public_transport": "station", "start_date": "2003-12-16", "wheelchair": "yes"}}, {"type": "way", "id": 627744515, "nodes": [5926259126, 5926303789, 10219293935, 10219293937, 5926303801, 5926452972, 5926452965, 5926169105, 5926303798, 5926303804, 5926303796, 5926169104, 5926452966, 5926452975, 5926303795, 5926303793, 5926259127, 5926300284, 5926303788, 5926303797, 5926303805, 5926303799, 5926303803, 5926303786, 5926259126], "tags": {"area": "yes", "name": "Sentier", "network": "STIF", "operator": "RATP", "public_transport": "station"}}, {"type": "way", "id": 678701633, "nodes": [6354958658, 6354958657, 6354958652, 6354958655, 6354958654, 6354958653, 6354958656, 6354958659, 6354958658], "tags": {"STIF:zone": "1", "addr:city": "Paris", "addr:postcode": "75008", "building": "yes", "layer": "-2", "level": "-2", "location": "underground", "name": "Madeleine", "network": "M\u00e9tro de Paris;RATP", "operator": "RATP", "public_transport": "station", "railway": "station", "ref:FR:FANTOIR": "75101S312N;75108S312M", "ref:FR:RATP": "1813", "ref:FR:STIF": "22194", "source": "STIF - 12/2016", "start_date": "1913-07-13", "station": "subway", "subway": "yes", "tunnel": "yes", "wheelchair": "no", "wikidata": "Q1417199", "wikipedia": "fr:Madeleine (m\u00e9tro de Paris)"}}, {"type": "way", "id": 678701646, "nodes": [6354958627, 6354958626, 6354958621, 6354958624, 6354958623, 6354958622, 6354958625, 6354958628, 6354958627], "tags": {"STIF:zone": "1", "addr:city": "Paris", "addr:postcode": "75008", "building": "yes", "layer": "-4;-5", "level": "-4;-5", "location": "underground", "name": "Madeleine", "name:ru": "\u041c\u0430\u0434\u043b\u0435\u043d", "network": "M\u00e9tro de Paris;RATP", "operator": "RATP", "public_transport": "station", "railway": "station", "ref:FR:FANTOIR": "75101S312N;75108S312M", "ref:FR:RATP": "1813", "ref:FR:STIF": "22194", "source": "STIF - 12/2016", "start_date": "1998-10-15", "station": "subway", "subway": "yes", "tunnel": "yes", "wheelchair": "yes", "wikidata": "Q1417199", "wikipedia": "fr:Madeleine (m\u00e9tro de Paris)"}}, {"type": "way", "id": 678701656, "nodes": [6354958631, 6354958630, 6354958639, 6354958645, 6354958646, 6354958647, 6354958648, 6354958644, 6354958643, 6354958629, 6354958632, 6354958636, 6354958637, 6354958638, 6354958631], "tags": {"STIF:zone": "1", "addr:city": "Paris", "addr:postcode": "75008", "building": "yes", "layer": "-2", "level": "-2", "location": "underground", "name": "Madeleine", "network": "M\u00e9tro de Paris;RATP", "operator": "RATP", "public_transport": "station", "railway": "station", "ref:FR:FANTOIR": "75101S312N;75108S312M", "ref:FR:RATP": "1813", "ref:FR:STIF": "22194", "source": "STIF - 12/2016", "start_date": "1910-11-05", "station": "subway", "subway": "yes", "tunnel": "yes", "wheelchair": "no"}}, {"type": "way", "id": 680119434, "nodes": [6368126237, 6368126236, 6368126255, 6368126240, 6368126243, 11027628099, 6368126242, 6368126241, 6368126256, 6368126235, 6368126238, 11027642780, 6368126237], "tags": {"addr:city": "Paris", "addr:postcode": "75009", "addr:street": "Rue Auber", "layer": "-5", "level": "-5", "location": "underground", "name": "Auber", "network": "RER Parisien;RATP", "operator": "RATP", "public_transport": "station", "railway": "station", "start_date": "1971-11-23", "train": "yes", "wheelchair": "yes"}}, {"type": "way", "id": 683951156, "nodes": [4215736809, 4215736812, 4215736830, 4215736820, 11369001770, 6113052053, 6113052052, 11369001776, 4215736798, 4215736774, 4215736587, 9476518039, 9476518040, 11224824713, 11224824714, 5690532545, 5690532583, 7363169039, 9476534985, 11224824719, 11224824718, 11224824717, 9476518052, 9476534996, 9476518042, 9476534989, 9476534986, 9476518063, 9476534997, 9476534998, 9476518047, 11224824712, 11224824711, 11224824710, 8754107925, 11224824709, 9476534999, 9476518045, 9476518043, 1381642412, 9476518044, 9476518050, 9476518046, 9476518062, 9476518048, 9476534988, 9476518049, 9476518051, 9476518053, 11224824716, 11224824715, 9476518054, 9476518029, 9476518028, 4215736557, 4215736553, 4215736525, 4215736558, 4215736556, 4215736524, 4215736545, 4215736544, 4215736535, 4215736530, 4215736531, 4215736529, 4215736532, 6994725278, 4215736533, 4215736537, 4215736550, 11224824708, 5690528215, 9476518099, 9476518098, 9476518092, 9476518091, 9476518089, 9718113935, 9718113936, 9476518086, 9476518087, 9476518077, 9476518076, 9476518078, 9476518079, 9476518084, 9476518074, 9476518064, 7362749300, 9476518065, 9476518075, 9476518085, 9476518080, 3335200917, 257512478, 3335200922, 9476518081, 9476518082, 9476518083, 9476518088, 9476518090, 5721224854, 7362749299, 5721224853, 11224824707, 5690532547, 5690532581, 5690532580, 5690532546, 11224824706, 11224824705, 9476518036, 9476518035, 9476518034, 9476518030, 9476518032, 9476518115, 4215736588, 4215736572, 4215736576, 4215736583, 4215736586, 4215736694, 4215736708, 9492726178, 4215736578, 4215736573, 4215736571, 5690304045, 5690304046, 5690304047, 5690304048, 5690304049, 5690304050, 5690304051, 3335202020, 1108259366, 3335202036, 5690304052, 5690304053, 5690304054, 5690304055, 5690304056, 5690304057, 5690304058, 5690304059, 5690304060, 5690304061, 10920188299, 257628954, 10920188298, 5690304062, 5690304063, 5690304064, 5690304065, 5690304067, 5690304029, 5690304028, 5690243685, 5690243670, 5690243669, 5690243686, 5690304066, 5690304040, 5690304033, 4215736717, 5690304031, 4215736731, 4215736737, 4215736753, 4215736748, 4215736751, 4215736786, 6994725276, 4215736809], "tags": {"area": "yes", "level": "-6;-4;-3;-2;-1;0", "location": "underground", "name": "Saint-Michel Notre-Dame", "operator": "SNCF;RATP", "public_transport": "station", "ref:FR:uic8": "87547315", "uic_ref": "8754731", "wikidata": "Q801394"}}, {"type": "way", "id": 683963562, "nodes": [10978719674, 4161541462, 4161541469, 4161541473, 11207799840, 4161543959, 4161543969, 6063994636, 4161543966, 6995614769, 6995614770, 6063994638, 6063994637, 4161544091, 4161544092, 6063994640, 4161544093, 4161543983, 4161543972, 4161543968, 4161543970, 4161543965, 4161543945, 4161543940, 10994250647, 10994250646, 4161543957, 6044199848, 6044199847, 6044199846, 6044199845, 6044199855, 6044199856, 895871336, 4161541449, 4161541447, 4161541448, 6044199854, 6044199853, 4161541450, 6045727057, 6045727056, 4161541455, 11207799843, 4161541451, 11207799841, 6995614753, 4161543913, 10978719674], "tags": {"area": "yes", "level": "-1;-2", "name": "Mus\u00e9e d'Orsay", "operator": "SNCF", "public_transport": "station", "ref:FR:uic8": "87547307", "uic_ref": "8754730"}}, {"type": "way", "id": 683963903, "nodes": [4217750769, 4217750757, 4217750736, 4217750727, 4217750735, 4217750708, 4217750711, 4217750710, 4217750705, 4217750704, 4217750699, 4217749644, 4217749640, 4217749643, 6022127822, 4217749637, 4217749634, 4217749633, 4217749632, 4217749631, 4217749635, 4217749628, 4217749646, 4217749655, 4217749656, 4217750492, 4217750493, 4217750506, 10886119172, 4217750689, 10886119176, 4217749626, 10886119177, 10886119174, 4217750698, 4217750701, 4217750516, 4217750521, 4217750714, 4217750713, 4217750712, 4217750782, 4217750781, 4217750772, 6112597009, 4217750771, 4217750775, 4217750779, 4217814765, 6112575774, 4217814772, 4217814778, 2411479930, 11053126935, 11053126934, 4217814771, 4217814767, 4217750777, 4217750774, 6569951185, 6569951186, 4217750780, 4217750769], "tags": {"area": "yes", "building": "train_station", "layer": "-1,-2", "level": "-1;-2", "location": "underground", "name": "Gare des Invalides", "operator": "SNCF", "public_transport": "station", "ref:FR:uic8": "87393033", "uic_ref": "8739303", "wikidata": "Q2208443", "wikipedia": "fr:Gare des Invalides"}}, {"type": "way", "id": 704596697, "nodes": [4215359581, 9192964923, 9192964924, 9192964925, 9192964926, 9192953514, 4215359544, 4215359532, 4215359519, 9192953494, 4752435979, 4215359516, 4215359530, 9192953499, 4215359507, 9192953502, 4215359511, 10207412746, 9192953501, 4215359510, 9192953495, 4215359537, 4215359557, 4215359565, 4215359560, 4215359564, 4215359567, 4215359572, 4215359575, 9192953508, 9192953507, 4215359583, 4752435971, 9192953504, 9192953505, 4215359798, 9192953506, 9192964934, 980491629, 9192964933, 9192964929, 9192964931, 1737905459, 1737905457, 4766482081, 1737905450, 1737905451, 4766482086, 4766482087, 1737905448, 9192964954, 9192964953, 4766661215, 4766661217, 4215359570, 1737905436, 4215359547, 9192964921, 9192964920, 9192964922, 4215359791, 4766482102, 4215359800, 4215359803, 4215359806, 4215360490, 4215360489, 4254659397, 4766482103, 4254659394, 4215359581], "tags": {"area": "yes", "level": "0;-1", "name": "Pont Cardinet", "operator": "SNCF", "public_transport": "station", "ref:FR:uic8": "87381111", "uic_ref": "8738111"}}, {"type": "way", "id": 729876462, "nodes": [4047893115, 6423656932, 6423656931, 6423656930, 6423656929, 6423656925, 3560632808, 3560737802, 6761193934, 6761193946, 6761193945, 6761193935, 4100121829, 4100121830, 4100121841, 4100121847, 4100121866, 4100121867, 4100121865, 4100121843, 4100121836, 9568374318, 9568374317, 2884062203, 9568374320, 9568374319, 4100121834, 4100121833, 4100121832, 4100121825, 4100121823, 4100121815, 4100121805, 4100121800, 4100121790, 4070354333, 4070354332, 9566464128, 9566464127, 4070354322, 4070354312, 9566464025, 9566464024, 4070354294, 4070354292, 4069004037, 4069004031, 4069004032, 4069004027, 9658708977, 4100172608, 4100172606, 4100172605, 4100172607, 9658708979, 9658708980, 9658708981, 4069004026, 4069004033, 11030123185, 4069004034, 4069004038, 4099981890, 4069004036, 4100056152, 4100056153, 4100056161, 4100056162, 4070354297, 4099946154, 4099946155, 817243485, 841988595, 817244499, 4097653982, 4060075367, 4060075366, 4060075370, 4097653987, 4063011005, 4060075400, 4060075406, 4060075420, 4060075432, 4918723242, 4918723238, 4918723237, 4918723241, 4918723243, 4918718519, 4918718512, 4918718511, 4918718515, 4051151987, 4051163190, 3406089863, 6862367881, 4040554850, 818880431, 4039973245, 6822905315, 4039973244, 4045845810, 3405457394, 3406089868, 3406091295, 3270644600, 4047893115], "tags": {"internet_access": "no", "layer": "-3", "level": "-7;-6;-5;-4;-3;-2;-1;0", "location": "underground", "name": "Haussmann - Saint-Lazare", "network": "RER Parisien;Transilien", "operator": "SNCF", "public_transport": "station", "ref:FR:RATP": "51922", "ref:FR:uic8": "87281899", "train": "yes", "type:RATP": "rer", "uic_ref": "8728189", "wikidata": "Q800898", "wikipedia": "fr:Gare d'Haussmann - Saint-Lazare"}}, {"type": "way", "id": 732844769, "nodes": [4047893144, 2213724098, 6805810405, 6801637853, 818880271, 4040401916, 4040401918, 4040401921, 4040401923, 4040401924, 4040401925, 1342771440, 1342771491, 1342771503, 1342771463, 1342771407, 1342771475, 1342771425, 4323295097, 1342771438, 1342771437, 1342771453, 1342771353, 425042035, 4047923339, 4047923338, 4047923337, 6802495966, 6802495971, 6802495972, 4101996523, 6802520286, 10904653761, 6802520292, 6802520293, 434307684, 6802520291, 6802520290, 818880300, 818880458, 10904653760, 10904653759, 10904653758, 4040325802, 818880405, 818880325, 4097313863, 6707805902, 4047893115, 6707805903, 6588724298, 6588724297, 6588724291, 6588724294, 6588712136, 6588712135, 6588712153, 8070672024, 6588712146, 6588712143, 6588712149, 6588712141, 6588712154, 4051163189, 4060075435, 6830010305, 6830010304, 4051218212, 4051218211, 6830010303, 4063011023, 4097550493, 4051218210, 4051151988, 4051151987, 4051163190, 3406089863, 6862367881, 6423748891, 4912939300, 4912939301, 4916681774, 5753306387, 5753306388, 4916681783, 4916681778, 4916681777, 5753306386, 4916681775, 5755534636, 5755534647, 5755534631, 1342771431, 790027975, 6400577633, 1342771422, 4912934413, 790027896, 790027804, 1342771349, 790027932, 1342771461, 790027892, 6400536383, 6400536384, 4912934417, 4047893091, 4047893090, 4050897564, 4047893116, 4047893118, 4050897570, 4047893121, 4047893125, 4047893129, 4047893135, 4047893144], "tags": {"level": "-3;-2;-1;0;1;2", "name": "Gare Saint-Lazare", "operator": "SNCF", "public_transport": "station", "ref:FR:uic8": "87384008", "uic_ref": "8738400"}}, {"type": "way", "id": 736530618, "nodes": [4061910801, 4061910846, 4036210455, 4063573726, 4063573731, 4063573740, 4063573761, 11073401775, 11073401777, 784356967, 784505551, 4036440691, 4036440696, 4036440697, 4036440698, 4036440703, 4036440707, 4036440712, 4036440711, 4036440719, 4036440723, 4036440729, 4036440745, 4036440744, 4036824608, 4036824607, 4036296005, 4036296004, 4036296003, 4036296001, 4036296000, 4036295999, 4036295998, 4036295996, 4036493855, 4036493854, 5598647033, 5598647032, 4036939729, 4036939727, 4036939735, 4036939732, 4061841242, 4061841241, 4036939726, 4061841240, 4036939723, 4036939718, 4036939714, 4036939713, 4061841238, 4036939711, 4036939707, 4061841235, 4061911203, 4061911198, 4061911190, 4061911178, 6895446272, 4061911176, 4036939688, 4061841199, 4036939686, 4036939684, 8109267047, 4099595672, 4104584498, 6895446256, 4099595667, 4061841068, 4036939675, 4086620870, 4036210467, 4061910979, 4061910966, 4061910964, 4061910947, 4061910939, 4061910924, 9858167392, 4061910906, 4107924563, 9549617331, 4061910886, 4088645331, 4061910872, 4061910864, 4061910797, 4061910185, 4061910144, 4061910127, 4061910126, 4061910129, 4061910132, 5623118448, 4061910801], "tags": {"level": "2;1;0;-1;-2;-3", "name": "Paris Gare du Nord", "operator": "SNCF", "public_transport": "station", "ref:FR:uic8": "87271007", "train": "yes", "uic_ref": "8727100"}}, {"type": "way", "id": 752728161, "nodes": [1000785946, 1000786019, 1000785965, 1000785984, 1000786020, 1000785953, 1000785967, 1281989831, 1281989840, 1281989808, 1000519285, 1000519274, 1000795813, 1000795814, 1000803893, 1000803883, 1000803856, 6556184346, 6556184340, 2331231095, 2331231093, 6556184314, 4507116424, 2331239218, 2331239216, 6558550895, 6558550894, 2331239211, 2331239209, 2331239205, 2331239201, 1000517983, 4058672792, 4058672479, 4058672453, 4058671320, 4058671319, 4058671321, 2506668855, 4058671326, 4058671325, 4058671323, 4046523960, 4046523955, 4046523950, 4046523949, 10789662183, 10789662184, 4039151026, 4039151016, 4039151013, 4039150887, 4039150882, 4039150878, 4039150870, 4039150864, 7033944523, 4058670940, 4058670939, 4058670938, 7033998784, 4058670759, 4058670717, 4058670719, 4058670718, 4058670716, 4058670700, 4058668586, 4058668566, 4058668555, 4058668554, 4058668553, 4058668552, 4058668551, 4058668550, 4058668549, 2506668806, 4058668567, 4058670704, 4058670701, 4058670747, 4050884125, 4051270649, 4051270688, 4050884128, 4050884140, 4050884167, 10789662119, 10789662118, 8248211080, 4058672454, 4058672481, 7033998783, 4058672533, 4058672554, 4058672576, 4058672609, 4058672640, 4058671769, 4058672826, 4058672885, 4058672976, 4058672964, 4058672977, 4058672950, 4058672951, 4058672932, 4058672952, 4058672933, 1000785999, 1000785969, 1000786003, 1000786005, 1000786017, 1000785996, 1282180290, 1282180373, 1000786011, 1282180331, 1282180303, 1000785978, 1000785936, 1000785948, 1000785983, 1000786002, 1000785946], "tags": {"level": "-4;-3;-2;-1;0;1", "name": "Gare de L'Est", "operator": "SNCF", "public_transport": "station", "ref:FR:uic8": "87113001", "uic_ref": "8711300"}}, {"type": "way", "id": 993708571, "nodes": [4061910886, 4061910859, 4061910839, 9535246265, 4061910832, 4061910811, 4061910807, 4061910130, 4061910140, 4090072668, 4090072670, 4090072671, 4072092948, 9532923943, 4072092949, 4089932272, 4089932270, 4061911062, 9535246508, 9535246509, 4089886530, 4061911064, 9535246517, 9547823888, 9547823887, 9535246518, 9535246547, 9535246546, 9535246519, 9547823886, 9535246520, 9535246551, 9535246550, 9535246521, 9547823885, 9535246522, 9535246555, 9535246553, 9535246524, 9547823884, 9547823883, 9535246523, 4061911030, 4061911024, 9535246507, 11070962600, 4072092932, 4089841844, 4089841834, 9180784395, 4061910883, 4099372348, 4061910908, 4087904984, 4061910924, 9858167392, 4061910906, 4107924563, 9549617331, 4061910886], "tags": {"internet_access": "no", "level": "-1;-2;-3;-4;-5;-7", "name": "Magenta", "operator": "SNCF", "public_transport": "station", "ref:FR:uic8": "87281873", "train": "yes", "uic_ref": "8728187"}}, {"type": "way", "id": 1037183222, "nodes": [4975156912, 4975307152, 4975156890, 4975156877, 4975156917, 4975156882, 5223377755, 5223377756, 5223377751, 5223377754, 5054243886, 5054243893, 9549949541, 9549949545, 9549949548, 5009327626, 5009327653, 5951333747, 1713195678, 5951333746, 5053358670, 5053358673, 5462658948, 5895999711, 5895999710, 5054243891, 5223377753, 5223377752, 5223377757, 9585967457, 9585967460, 5223377758, 9895363223, 5321652781, 9895363222, 9651423490, 9545156225, 9545156224, 9545156218, 9545156223, 9545122388, 9651423497, 4999765104, 4999765100, 5009327637, 9547069432, 5009327642, 9547069435, 5009327623, 5954280643, 4975635493, 5954280641, 5777078806, 4975307155, 5744090208, 4975156912], "tags": {"internet_access": "wlan", "level": "0;-1;-2;-3;-4;-5", "name": "Ch\u00e2telet - Les Halles", "network": "RER", "operator": "RATP;SNCF", "public_transport": "station", "ref:FR:uic8": "87758607", "uic_ref": "8775860"}}]}