{"version": 0.6, "generator": "Overpass API 0.7.61.5 4133829e", "osm3s": {"timestamp_osm_base": "2023-12-09T23:49:30Z", "copyright": "The data included in this document is from www.openstreetmap.org. The data is made available under ODbL."}, "elements": [{"type": "node", "id": 26824135, "lat": 48.8448057, "lon": 2.3734794, "tags": {"SNCF:stop_name": "Paris-Gare-de-Lyon", "alt_name": "Paris - Gare de Lyon", "bench": "yes", "name": "Gare de Lyon", "name:ru": "\u041b\u0438\u043e\u043d\u0441\u043a\u0438\u0439 \u0432\u043e\u043a\u0437\u0430\u043b", "name:uk": "\u041b\u0456\u043e\u043d\u0441\u044c\u043a\u0438\u0439 \u0432\u043e\u043a\u0437\u0430\u043b", "note": "Please do not add the tag public_transport=station, it is already on the way that defines the footprint of the station", "opening_hours": "Mo-Su 04:45-01:30", "operator": "SNCF", "railway": "station", "railway:ref": "PLY", "railway:ref:DB": "XFPG", "ref:FR:STIF": "21958", "ref:FR:uic8": "87686006", "ref:SNCF": "PLY", "shelter": "yes", "source": "STIF - 12/2016", "train": "yes", "uic_ref": "8768600", "wheelchair": "yes", "wikidata": "Q747541", "wikipedia": "fr:Paris-Gare-de-Lyon"}}, {"type": "node", "id": 235370184, "lat": 48.8311451, "lon": 2.3434916, "tags": {"STIF:zone": "1", "check_date:wheelchair": "2021-06-22", "name": "Glaci\u00e8re", "public_transport": "station", "railway": "station", "ref:FR:FANTOIR": "75113S193R", "ref:FR:RATP": "1848", "ref:FR:STIF": "22173", "source": "STIF - 12/2016", "station": "subway", "type:RATP": "metro", "wheelchair": "no", "wikidata": "Q1529016", "wikipedia": "fr:Glaci\u00e8re (m\u00e9tro de Paris)"}}, {"type": "node", "id": 235371392, "lat": 48.8309446, "lon": 2.3558932, "tags": {"STIF:zone": "1", "name": "Place d'Italie", "name:es": "Plaza de Italia", "name:fr": "Place d'Italie", "name:ru": "\u041f\u043b\u044f\u0441 \u0434\u2019\u0418\u0442\u0430\u043b\u0438", "public_transport": "station", "railway": "station", "ref:FR:RATP": "1789", "ref:FR:STIF": "22168", "source": "STIF - 12/2016", "station": "subway", "subway": "yes", "type:RATP": "metro", "uic_ref": "8705548", "wheelchair": "no", "wikidata": "Q1537246", "wikipedia": "fr:Place d'Italie (m\u00e9tro de Paris)"}}, {"type": "node", "id": 235371394, "lat": 48.8331995, "lon": 2.3628272, "tags": {"STIF:zone": "1", "check_date:wheelchair": "2021-06-22", "name": "Nationale", "public_transport": "station", "railway": "station", "ref:FR:FANTOIR": "75113P016Z;75113P015Y", "ref:FR:RATP": "1761", "ref:FR:STIF": "22169", "source": "STIF - 12/2016", "station": "subway", "type:RATP": "metro", "wheelchair": "no", "wikidata": "Q661846", "wikipedia": "fr:Nationale (m\u00e9tro de Paris)"}}, {"type": "node", "id": 235371395, "lat": 48.83495, "lon": 2.3681023, "tags": {"STIF:zone": "1", "name": "Chevaleret", "public_transport": "station", "railway": "station", "ref:FR:FANTOIR": "75113S094H", "ref:FR:RATP": "1959", "ref:FR:STIF": "22174", "source": "STIF - 12/2016", "station": "subway", "subway": "yes", "type:RATP": "metro", "wheelchair": "no", "wikidata": "Q937680", "wikipedia": "fr:Chevaleret (m\u00e9tro de Paris)"}}, {"type": "node", "id": 235374383, "lat": 48.8370444, "lon": 2.3728619, "tags": {"STIF:zone": "1", "name": "Quai de la Gare", "public_transport": "station", "railway": "station", "ref:FR:FANTOIR": "75113S471T", "ref:FR:RATP": "1742", "ref:FR:STIF": "22161", "source": "STIF - 12/2016", "station": "subway", "type:RATP": "metro", "wheelchair": "no", "wikidata": "Q1969659", "wikipedia": "fr:Quai de la Gare (m\u00e9tro de Paris)"}}, {"type": "node", "id": 260762378, "lat": 48.8390379, "lon": 2.3897217, "tags": {"STIF:zone": "1", "addr:city": "Paris", "name": "Dugommier", "old_name": "Charenton", "public_transport": "station", "railway": "station", "ref:FR:FANTOIR": "75112S125P", "ref:FR:RATP": "1906", "ref:FR:STIF": "22182", "source": "STIF - 12/2016", "station": "subway", "subway": "yes", "type:RATP": "metro", "wheelchair": "no", "wikidata": "Q602615", "wikipedia": "fr:Dugommier (m\u00e9tro de Paris)"}}, {"type": "node", "id": 260762540, "lat": 48.8401549, "lon": 2.3799474, "tags": {"STIF:zone": "1", "name": "Bercy", "operator": "RATP", "public_transport": "station", "railway": "station", "ref:FR:FANTOIR": "75112S040X", "ref:FR:RATP": "2005", "ref:FR:STIF": "22178", "station": "subway", "type:RATP": "metro", "wheelchair": "yes", "wikidata": "Q818853", "wikipedia": "fr:Bercy (m\u00e9tro de Paris)"}}, {"type": "node", "id": 264481854, "lat": 48.844304, "lon": 2.3901962, "tags": {"STIF:zone": "1", "name": "Montgallet", "name:ru": "\u041c\u043e\u043d\u0433\u0430\u043b\u0435", "public_transport": "station", "railway": "station", "ref:FR:FANTOIR": "75112S336U", "ref:FR:RATP": "1750", "ref:FR:STIF": "22205", "source": "STIF - 12/2016", "station": "subway", "subway": "yes", "type:RATP": "metro", "wheelchair": "no", "wikidata": "Q999159", "wikipedia": "fr:Montgallet (m\u00e9tro de Paris)"}}, {"type": "node", "id": 264786014, "lat": 48.8429053, "lon": 2.3522772, "tags": {"STIF:zone": "1", "alt_name": "Place Monge (Jardin des Plantes)", "name": "Place Monge", "name:ru": "\u041f\u043b\u044f\u0441-\u041c\u043e\u043d\u0436", "public_transport": "stop_position", "railway": "station", "ref:FR:FANTOIR": "75105S335E", "ref:FR:RATP": "1788", "ref:FR:STIF": "22366", "source": "STIF - 12/2016", "station": "subway", "subway": "yes", "type:RATP": "metro", "wheelchair": "no", "wikidata": "Q177476", "wikipedia": "fr:Place Monge (m\u00e9tro de Paris)"}}, {"type": "node", "id": 264789025, "lat": 48.8406473, "lon": 2.3519334, "tags": {"STIF:zone": "1", "name": "Censier - Daubenton", "name:ru": "\u0421\u0430\u043d\u0441\u044c\u0435 \u2014 \u0414\u043e\u0431\u0430\u043d\u0442\u043e\u043d", "public_transport": "stop_position", "railway": "station", "ref:FR:FANTOIR": "75105S076Y", "ref:FR:RATP": "1944", "ref:FR:STIF": "22391", "source": "STIF - 12/2016", "station": "subway", "subway": "yes", "type:RATP": "metro", "wheelchair": "no", "wikidata": "Q938430", "wikipedia": "fr:Censier - Daubenton (m\u00e9tro de Paris)"}}, {"type": "node", "id": 264790337, "lat": 48.8356304, "lon": 2.3526735, "tags": {"STIF:zone": "1", "name": "Les Gobelins", "name:ru": "\u0413\u043e\u0431\u0435\u043b\u0435\u043d", "public_transport": "stop_position", "railway": "station", "ref:FR:FANTOIR": "75113S856L;75113S194S", "ref:FR:RATP": "1800", "ref:FR:STIF": "22383", "source": "STIF - 12/2016", "station": "subway", "subway": "yes", "type:RATP": "metro", "wheelchair": "no", "wikidata": "Q1783617", "wikipedia": "fr:Les Gobelins (m\u00e9tro de Paris)"}}, {"type": "node", "id": 265055434, "lat": 48.8382761, "lon": 2.3608491, "tags": {"STIF:zone": "1", "check_date:wheelchair": "2022-04-17", "name": "Saint-Marcel", "public_transport": "station", "railway": "station", "ref:FR:FANTOIR": "75113S519V", "ref:FR:RATP": "1691", "ref:FR:STIF": "22000", "source": "STIF - 12/2016", "station": "subway", "subway": "yes", "type:RATP": "metro", "wheelchair": "no", "wikidata": "Q587093", "wikipedia": "fr:Saint-Marcel (m\u00e9tro de Paris)"}}, {"type": "node", "id": 268467197, "lat": 48.8260904, "lon": 2.3573505, "tags": {"STIF:zone": "1", "check_date:wheelchair": "2021-06-21", "name": "Tolbiac", "name:ru": "\u0422\u043e\u043b\u0431\u0438\u0430\u043a", "public_transport": "stop_position", "railway": "station", "ref:FR:FANTOIR": "75113S564U", "ref:FR:RATP": "1636", "ref:FR:STIF": "22370", "source": "STIF - 12/2016", "station": "subway", "subway": "yes", "type:RATP": "metro", "wheelchair": "no", "wikidata": "Q1576648", "wikipedia": "fr:Tolbiac (m\u00e9tro de Paris)"}}, {"type": "node", "id": 268467526, "lat": 48.8224745, "lon": 2.358504, "tags": {"STIF:zone": "1", "layer": "-3", "name": "Maison Blanche", "name:ru": "\u041c\u0435\u0437\u043e\u043d-\u0411\u043b\u0430\u043d\u0448", "public_transport": "stop_position", "railway": "station", "ref:FR:FANTOIR": "75113S318B", "ref:FR:RATP": "1820", "ref:FR:STIF": "22385", "source": "STIF - 12/2016", "station": "subway", "subway": "yes", "type:RATP": "metro", "wheelchair": "no", "wikidata": "Q1576642", "wikipedia": "fr:Maison Blanche (m\u00e9tro de Paris)"}}, {"type": "node", "id": 268467559, "lat": 48.8190866, "lon": 2.359533, "tags": {"STIF:zone": "1", "layer": "-2", "name": "Porte d'Italie", "name:ru": "\u041f\u043e\u0440\u0442-\u0434\u2019\u0418\u0442\u0430\u043b\u0438", "public_transport": "stop_position", "railway": "station", "ref:FR:FANTOIR": "75113S438G", "ref:FR:RATP": "1718", "ref:FR:STIF": "22380", "source": "STIF - 12/2016", "station": "subway", "subway": "yes", "type:RATP": "metro", "wheelchair": "no", "wikidata": "Q1783630", "wikipedia": "fr:Porte d'Italie (m\u00e9tro de Paris)"}}, {"type": "node", "id": 318537042, "lat": 48.810328, "lon": 2.3622359, "tags": {"STIF:zone": "2", "name": "Le Kremlin-Bic\u00eatre", "operator": "RATP", "platforms": "2", "public_transport": "stop_position", "railway": "station", "ref:FR:RATP": "1793", "ref:FR:STIF": "22398", "source": "STIF - 12/2016", "station": "subway", "subway": "yes", "type:RATP": "metro", "wheelchair": "no", "wikidata": "Q930284", "wikipedia": "fr:Le Kremlin-Bic\u00eatre (m\u00e9tro de Paris)"}}, {"type": "node", "id": 472985883, "lat": 48.8201241, "lon": 2.3647858, "tags": {"STIF:zone": "1", "name": "Porte de Choisy", "public_transport": "stop_position", "railway": "station", "ref:FR:FANTOIR": "75113S433B", "ref:FR:RATP": "1724", "ref:FR:STIF": "22373", "source": "STIF - 12/2016", "station": "subway", "subway": "yes", "type:RATP": "metro", "wheelchair": "no", "wikidata": "Q953454", "wikipedia": "fr:Porte de Choisy (m\u00e9tro de Paris)"}}, {"type": "node", "id": 472985885, "lat": 48.8159011, "lon": 2.3773455, "tags": {"STIF:zone": "1", "check_date:wheelchair": "2023-09-14", "name": "Pierre et Marie Curie", "public_transport": "stop_position", "railway": "station", "ref:FR:RATP": "1786", "ref:FR:STIF": "22397", "station": "subway", "subway": "yes", "type:RATP": "metro", "wheelchair": "no", "wikidata": "Q1784003", "wikipedia": "fr:Pierre et Marie Curie (m\u00e9tro de Paris)"}}, {"type": "node", "id": 1308998006, "lat": 48.8435522, "lon": 2.3743151, "tags": {"alt_name": "Gare de Lyon RER", "level": "-3", "name": "Gare de Lyon", "note": "Please do not add the tag public_transport=station, it is already on the way that defines the footprint of the station", "official_name": "PARIS GARE DE LYON", "operator": "SNCF", "railway": "station", "ref:FR:STIF": "41396", "ref:FR:uic8": "87686030", "route_ref:FR:RER_D": "SOVA;FUCA;UOVA;VIPE;LOVA;VUCA;FOVA;LUCA;VOVA;MIPE;UUCA;SUCA;VOPA;MOPA;MIPA;FOPA;LOPA", "start_date": "1995-09-24", "station": "train", "train": "yes", "type:RATP": "rer", "uic_ref": "8768603", "wheelchair": "no"}}, {"type": "node", "id": 1823210835, "lat": 48.8391964, "lon": 2.382849, "tags": {"STIF:zone": "1", "bench": "yes", "name": "Paris-Bercy - Bourgogne-Pays d'Auvergne", "old_name": "Paris-Bercy", "operator": "SNCF", "railway": "station", "railway:ref": "PBY", "ref": "BERCY", "shelter": "yes", "source": "SNCF - 06/2013", "train": "yes", "uic_ref": "8768666", "wheelchair": "yes", "wikidata": "Q261320", "wikipedia": "fr:Gare de Paris-Bercy-Bourgogne-Pays d'Auvergne"}}, {"type": "node", "id": 3146958064, "lat": 48.8335481, "lon": 2.3859541, "tags": {"STIF:zone": "1", "name": "Cour Saint-\u00c9milion", "public_transport": "stop_position", "railway": "station", "ref:FR:FANTOIR": "75112S105T", "ref:FR:RATP": "50055", "ref:FR:STIF": "21956", "source": "STIF - 12/2016", "station": "subway", "subway": "yes", "type:RATP": "metro", "wheelchair": "yes", "wikidata": "Q1137613", "wikipedia": "fr:Cour Saint-\u00c9milion (m\u00e9tro de Paris)"}}, {"type": "node", "id": 3325110405, "lat": 48.8297207, "lon": 2.3770491, "tags": {"STIF:zone": "1", "name": "Biblioth\u00e8que Fran\u00e7ois Mitterrand", "note": "Please do not add the tag public_transport=station, it is already on the way that defines the footprint of the station", "railway": "station", "ref:FR:FANTOIR": "75113S611V", "ref:FR:RATP": "51020", "ref:FR:STIF": "41128", "ref:FR:uic8": "87328328", "source": "RATP - 07/2012", "train": "yes", "type:RATP": "rer", "uic_ref": "8732832", "wheelchair": "yes", "wikidata": "Q2856214", "wikipedia": "fr:Gare de la Biblioth\u00e8que Fran\u00e7ois Mitterrand"}}, {"type": "node", "id": 3419908160, "lat": 48.8412453, "lon": 2.3663585, "tags": {"STIF:zone": "1", "alt_name": "Austerlitz", "name": "Gare d'Austerlitz", "name:de": "Austerlitzer Bahnhof", "name:ru": "\u0413\u0430\u0440 \u0434'\u041e\u0441\u0442\u0435\u0440\u043b\u0438\u0446", "official_name": "Paris-Austerlitz", "old_name": "Gare d'Orl\u00e9ans", "operator": "SNCF", "railway": "station", "railway:ref": "PAZ", "railway:ref:DB": "XFPA", "ref": "RER C", "ref:FR:STIF": "41333", "ref:FR:uic8": "87547026;87547000", "ref:SNCF": "RER", "ref:SNCF:RER": "C", "uic_ref": "8754702;8754700", "wheelchair": "no", "wikidata": "Q734017", "wikipedia": "fr:Gare de Paris-Austerlitz"}}, {"type": "node", "id": 3493828793, "lat": 48.8423727, "lon": 2.3656105, "tags": {"STIF:zone": "1", "name": "Gare d'Austerlitz", "old_name": "Gare d\u2019Orl\u00e9ans;Gare d\u2019Orl\u00e9ans \u2013 Austerlitz", "operator": "SNCF", "railway": "station", "ref:FR:RATP": "5605;1838;226221", "ref:FR:STIF": "41333", "source": "STIF - 12/2016", "station": "subway", "subway": "yes", "type:RATP": "metro;rer", "uic_ref": "8754700", "wheelchair": "no", "wikidata": "Q1494179", "wikipedia": "fr:Gare d'Austerlitz (m\u00e9tro de Paris)"}}, {"type": "node", "id": 3530983828, "lat": 48.814468, "lon": 2.391244, "tags": {"STIF:zone": "2", "name": "Ivry-sur-Seine", "note": "Please do not add the tag public_transport=station, it is already on the way that defines the footprint of the station", "official_name": "IVRY SUR SEINE", "operator": "SNCF", "railway": "station", "ref": "RER C", "ref:FR:RATP": "5607", "ref:FR:STIF": "41315", "ref:FR:uic8": "87545301", "ref:SNCF": "RER", "ref:SNCF:RER": "C", "train": "yes", "type:RATP": "rer", "uic_ref": "8754530", "wikidata": "Q3095813", "wikipedia": "fr:Gare d'Ivry-sur-Seine"}}, {"type": "node", "id": 5228032208, "lat": 48.8300059, "lon": 2.3768474, "tags": {"STIF:zone": "1", "name": "Biblioth\u00e8que Fran\u00e7ois Mitterrand", "railway": "station", "ref:FR:STIF": "21955", "station": "subway", "type:RATP": "metro", "wheelchair": "yes", "wikidata": "Q2856214", "wikipedia": "fr:Gare de la Biblioth\u00e8que Fran\u00e7ois Mitterrand"}}, {"type": "node", "id": 5726246818, "lat": 48.8216035, "lon": 2.3693411, "tags": {"STIF:zone": "1", "name": "Porte d'Ivry", "public_transport": "station", "railway": "station", "ref:FR:FANTOIR": "75113S439H", "ref:FR:RATP": "1719", "ref:FR:STIF": "22372", "source": "STIF - 12/2016", "station": "subway", "subway": "yes", "type:RATP": "metro", "wheelchair": "no", "wikidata": "Q1784015", "wikipedia": "fr:Porte d'Ivry (m\u00e9tro de Paris)"}}, {"type": "node", "id": 6539580357, "lat": 48.810989, "lon": 2.3839772, "tags": {"STIF:zone": "1", "name": "Mairie d'Ivry", "network": "Ligne 7", "operator": "RATP", "public_transport": "station", "railway": "station", "ref:FR:RATP": "1815", "ref:FR:STIF": "22396", "source": "STIF - 12/2016", "station": "subway", "subway": "yes", "type:RATP": "metro", "wheelchair": "no", "wikidata": "Q1783997", "wikipedia": "fr:Mairie d'Ivry (m\u00e9tro de Paris)"}}, {"type": "node", "id": 6539675140, "lat": 48.8270448, "lon": 2.3664175, "tags": {"STIF:zone": "1", "name": "Olympiades", "network": "RATP", "public_transport": "station", "railway": "station", "ref:FR:RATP": "171507", "ref:FR:STIF": "21954", "source": "STIF - 12/2016", "station": "subway", "subway": "yes", "type:RATP": "metro", "wheelchair": "yes", "wikidata": "Q1673779", "wikipedia": "fr:Olympiades (m\u00e9tro de Paris)"}}, {"type": "node", "id": 9142503436, "lat": 48.8298024, "lon": 2.3504805, "tags": {"STIF:zone": "1", "name": "Corvisart", "public_transport": "station", "railway": "station", "ref:FR:FANTOIR": "75113P005M;75113P006N", "ref:FR:RATP": "1890", "ref:FR:STIF": "22175", "source": "STIF - 12/2016", "station": "subway", "train": "yes", "type:RATP": "metro", "wheelchair": "no", "wikidata": "Q950314", "wikipedia": "fr:Corvisart (m\u00e9tro de Paris)"}}, {"type": "node", "id": 9568395408, "lat": 48.8153731, "lon": 2.340857, "tags": {"STIF:zone": "2", "name": "Gentilly", "public_transport": "station", "railway": "station", "ref:FR:RATP": "1845", "ref:FR:STIF": "412838", "source": "\u00cele-de-France Mobilit\u00e9s - 03/2022", "type:RATP": "rer", "uic_ref": "8775865", "wheelchair": "yes", "wikidata": "Q3096532", "wikipedia": "fr:Gare de Gentilly"}}, {"type": "node", "id": 10169386217, "lat": 48.8351162, "lon": 2.3582026, "tags": {"STIF:zone": "1", "name": "Campo-Formio", "public_transport": "station", "railway": "station", "ref:FR:FANTOIR": "75113S073K", "ref:FR:RATP": "1941", "ref:FR:STIF": "22009", "source": "STIF - 12/2016", "station": "subway", "subway": "yes", "type:RATP": "metro", "wheelchair": "no", "wikidata": "Q683208", "wikipedia": "fr:Campo-Formio (m\u00e9tro de Paris)"}}, {"type": "node", "id": 11405200504, "lat": 48.8335395, "lon": 2.385978, "tags": {"STIF:zone": "1", "name": "Cour Saint-\u00c9milion", "public_transport": "stop_position", "railway": "station", "ref:FR:FANTOIR": "75112S105T", "ref:FR:RATP": "50055", "ref:FR:STIF": "21956", "source": "STIF - 12/2016", "station": "subway", "subway": "yes", "type:RATP": "metro", "wheelchair": "yes", "wikidata": "Q1137613", "wikipedia": "fr:Cour Saint-\u00c9milion (m\u00e9tro de Paris)"}}, {"type": "node", "id": 11405200533, "lat": 48.8224798, "lon": 2.3584607, "tags": {"STIF:zone": "1", "layer": "-3", "name": "Maison Blanche", "name:ru": "\u041c\u0435\u0437\u043e\u043d-\u0411\u043b\u0430\u043d\u0448", "public_transport": "stop_position", "railway": "station", "ref:FR:FANTOIR": "75113S318B", "ref:FR:RATP": "1820", "ref:FR:STIF": "22385", "source": "STIF - 12/2016", "station": "subway", "subway": "yes", "type:RATP": "metro", "wheelchair": "no", "wikidata": "Q1576642", "wikipedia": "fr:Maison Blanche (m\u00e9tro de Paris)"}}, {"type": "node", "id": 11405200534, "lat": 48.8190862, "lon": 2.3594915, "tags": {"STIF:zone": "1", "layer": "-2", "name": "Porte d'Italie", "name:ru": "\u041f\u043e\u0440\u0442-\u0434\u2019\u0418\u0442\u0430\u043b\u0438", "public_transport": "stop_position", "railway": "station", "ref:FR:FANTOIR": "75113S438G", "ref:FR:RATP": "1718", "ref:FR:STIF": "22380", "source": "STIF - 12/2016", "station": "subway", "subway": "yes", "type:RATP": "metro", "wheelchair": "no", "wikidata": "Q1783630", "wikipedia": "fr:Porte d'Italie (m\u00e9tro de Paris)"}}]}