{"version": 0.6, "generator": "Overpass API 0.7.61.5 4133829e", "osm3s": {"timestamp_osm_base": "2023-12-09T22:50:21Z", "copyright": "The data included in this document is from www.openstreetmap.org. The data is made available under ODbL."}, "elements": [{"type": "node", "id": 496815520, "lat": 48.8680759, "lon": 2.2814412, "tags": {"amenity": "bicycle_rental", "bicycle_rental": "docking_station", "brand": "V\u00e9lib\u2019 M\u00e9tropole", "brand:wikidata": "Q1120762", "brand:wikipedia": "fr:V\u00e9lib' M\u00e9tropole", "capacity": "41", "name": "Victor Hugo - La Pompe", "network": "V\u00e9lib\u2019 M\u00e9tropole", "network:wikidata": "Q1120762", "network:wikipedia": "fr:V\u00e9lib' M\u00e9tropole", "operator": "Smovengo", "operator:wikidata": "Q47008427", "operator:wikipedia": "fr:Smovengo", "ref": "16011", "source": "Autolib Velib M\u00e9tropole - 04/2019", "wikidata": "Q86238769"}}, {"type": "node", "id": 5328053572, "lat": 48.8735554, "lon": 2.2814911, "tags": {"amenity": "bicycle_rental", "bicycle_rental": "docking_station", "brand": "V\u00e9lib\u2019 M\u00e9tropole", "brand:wikidata": "Q1120762", "brand:wikipedia": "fr:V\u00e9lib' M\u00e9tropole", "capacity": "27", "name": "Pergol\u00e8se - Marbeau", "network": "V\u00e9lib\u2019 M\u00e9tropole", "network:wikidata": "Q1120762", "network:wikipedia": "fr:V\u00e9lib' M\u00e9tropole", "operator": "Smovengo", "operator:wikidata": "Q47008427", "operator:wikipedia": "fr:Smovengo", "ref": "16102", "source": "Autolib Velib M\u00e9tropole - 04/2019", "wikidata": "Q86238783"}}, {"type": "node", "id": 6100300958, "lat": 48.8777509, "lon": 2.2844435, "tags": {"amenity": "bicycle_rental", "capacity": "52", "name": "Porte Maillot - Pereire", "network": "V\u00e9lib\u2019", "operator": "Smovengo", "ref": "17042", "source": "Autolib Velib M\u00e9tropole - 2021-03", "wikidata": "Q86238181"}}, {"type": "node", "id": 6200272270, "lat": 48.8668746, "lon": 2.306685, "tags": {"amenity": "bicycle_rental", "bicycle_rental": "docking_station", "brand": "V\u00e9lib\u2019 M\u00e9tropole", "brand:wikidata": "Q1120762", "brand:wikipedia": "fr:V\u00e9lib' M\u00e9tropole", "capacity": "29", "name": "Fran\u00e7ois 1er - Montaigne", "network": "V\u00e9lib\u2019 M\u00e9tropole", "network:wikidata": "Q1120762", "network:wikipedia": "fr:V\u00e9lib' M\u00e9tropole", "operator": "Smovengo", "operator:wikidata": "Q47008427", "operator:wikipedia": "fr:Smovengo", "ref": "8038", "source": "survey 2019-10", "wikidata": "Q86255293"}}, {"type": "node", "id": 6424110081, "lat": 48.8703247, "lon": 2.2850536, "tags": {"amenity": "bicycle_rental", "bicycle_rental": "docking_station", "brand": "V\u00e9lib\u2019 M\u00e9tropole", "brand:wikidata": "Q1120762", "brand:wikipedia": "fr:V\u00e9lib' M\u00e9tropole", "capacity": "25", "name": "Raymond Poincar\u00e9 - Place Victor Hugo", "network": "V\u00e9lib\u2019 M\u00e9tropole", "network:wikidata": "Q1120762", "network:wikipedia": "fr:V\u00e9lib' M\u00e9tropole", "operator": "Smovengo", "operator:wikidata": "Q47008427", "operator:wikipedia": "fr:Smovengo", "ref": "16005", "source": "Autolib Velib M\u00e9tropole - 04/2019", "wikidata": "Q86238823"}}, {"type": "node", "id": 6424114996, "lat": 48.8727911, "lon": 2.2915221, "tags": {"amenity": "bicycle_rental", "bicycle_rental": "docking_station", "brand": "V\u00e9lib\u2019 M\u00e9tropole", "brand:wikidata": "Q1120762", "brand:wikipedia": "fr:V\u00e9lib' M\u00e9tropole", "capacity": "22", "name": "Traktir - Foch", "network": "V\u00e9lib\u2019 M\u00e9tropole", "network:wikidata": "Q1120762", "network:wikipedia": "fr:V\u00e9lib' M\u00e9tropole", "operator": "Smovengo", "operator:wikidata": "Q47008427", "operator:wikipedia": "fr:Smovengo", "ref": "16103", "source": "Autolib Velib M\u00e9tropole - 04/2019", "wikidata": "Q86238815"}}, {"type": "node", "id": 6424128607, "lat": 48.8664409, "lon": 2.2857019, "tags": {"amenity": "bicycle_rental", "bicycle_rental": "docking_station", "brand": "V\u00e9lib\u2019 M\u00e9tropole", "brand:wikidata": "Q1120762", "brand:wikipedia": "fr:V\u00e9lib' M\u00e9tropole", "capacity": "17", "name": "Saint-Didier - Raymond Poincar\u00e9", "network": "V\u00e9lib\u2019 M\u00e9tropole", "network:wikidata": "Q1120762", "network:wikipedia": "fr:V\u00e9lib' M\u00e9tropole", "operator": "Smovengo", "operator:wikidata": "Q47008427", "operator:wikipedia": "fr:Smovengo", "ref": "16009", "source": "Autolib Velib M\u00e9tropole - 04/2019", "wikidata": "Q86238868"}}, {"type": "node", "id": 6433048199, "lat": 48.8748336, "lon": 2.2971313, "tags": {"amenity": "bicycle_rental", "bicycle_rental": "docking_station", "brand": "V\u00e9lib\u2019 M\u00e9tropole", "brand:wikidata": "Q1120762", "brand:wikipedia": "fr:V\u00e9lib' M\u00e9tropole", "capacity": "33", "name": "Hoche - Tilsitt", "network": "V\u00e9lib\u2019 M\u00e9tropole", "network:wikidata": "Q1120762", "network:wikipedia": "fr:V\u00e9lib' M\u00e9tropole", "operator": "Smovengo", "operator:wikidata": "Q47008427", "operator:wikipedia": "fr:Smovengo", "ref": "8057", "source": "Autolib Velib M\u00e9tropole - 04/2019", "wikidata": "Q86255318"}}, {"type": "node", "id": 6433138032, "lat": 48.8734479, "lon": 2.2978151, "tags": {"amenity": "bicycle_rental", "bicycle_rental": "docking_station", "brand": "V\u00e9lib\u2019 M\u00e9tropole", "brand:wikidata": "Q1120762", "brand:wikipedia": "fr:V\u00e9lib' M\u00e9tropole", "capacity": "29", "name": "Ars\u00e8ne Houssaye - Champs-Elys\u00e9es", "network": "V\u00e9lib\u2019 M\u00e9tropole", "network:wikidata": "Q1120762", "network:wikipedia": "fr:V\u00e9lib' M\u00e9tropole", "operator": "Smovengo", "operator:wikidata": "Q47008427", "operator:wikipedia": "fr:Smovengo", "ref": "8028", "source": "Autolib Velib M\u00e9tropole - 04/2019", "wikidata": "Q86255251"}}, {"type": "node", "id": 6433145045, "lat": 48.8753651, "lon": 2.296617, "tags": {"amenity": "bicycle_rental", "bicycle_rental": "docking_station", "brand": "V\u00e9lib\u2019 M\u00e9tropole", "brand:wikidata": "Q1120762", "brand:wikipedia": "fr:V\u00e9lib' M\u00e9tropole", "capacity": "29", "name": "Beaujon - Wagram", "network": "V\u00e9lib\u2019 M\u00e9tropole", "network:wikidata": "Q1120762", "network:wikipedia": "fr:V\u00e9lib' M\u00e9tropole", "operator": "Smovengo", "operator:wikidata": "Q47008427", "operator:wikipedia": "fr:Smovengo", "ref": "8056", "source": "Autolib Velib M\u00e9tropole - 04/2019", "wikidata": "Q86255262"}}, {"type": "node", "id": 6433157196, "lat": 48.8754708, "lon": 2.2937604, "tags": {"amenity": "bicycle_rental", "capacity": "33", "name": "Carnot - G\u00e9n\u00e9ral Lanrezac", "network": "V\u00e9lib\u2019", "operator": "Smovengo", "ref": "17033", "source": "Autolib Velib M\u00e9tropole - 2021-03", "wikidata": "Q86252070"}}, {"type": "node", "id": 6871778503, "lat": 48.8695192, "lon": 2.3024203, "tags": {"amenity": "bicycle_rental", "bicycle_rental": "docking_station", "brand": "V\u00e9lib\u2019 M\u00e9tropole", "brand:wikidata": "Q1120762", "brand:wikipedia": "fr:V\u00e9lib' M\u00e9tropole", "capacity": "31", "name": "Fran\u00e7ois 1er - Lincoln", "network": "V\u00e9lib\u2019 M\u00e9tropole", "network:wikidata": "Q1120762", "network:wikipedia": "fr:V\u00e9lib' M\u00e9tropole", "operator": "Smovengo", "operator:wikidata": "Q47008427", "operator:wikipedia": "fr:Smovengo", "ref": "8105", "source": "Autolib Velib M\u00e9tropole - 04/2020", "wikidata": "Q86255328"}}, {"type": "node", "id": 7368517555, "lat": 48.8713608, "lon": 2.2886846, "tags": {"amenity": "bicycle_rental", "bicycle_rental": "docking_station", "brand": "V\u00e9lib\u2019 M\u00e9tropole", "brand:wikidata": "Q1120762", "brand:wikipedia": "fr:V\u00e9lib' M\u00e9tropole", "capacity": "35", "name": "Paul Valery - Victor Hugo", "network": "V\u00e9lib\u2019 M\u00e9tropole", "network:wikidata": "Q1120762", "network:wikipedia": "fr:V\u00e9lib' M\u00e9tropole", "operator": "Smovengo", "operator:wikidata": "Q47008427", "operator:wikipedia": "fr:Smovengo", "ref": "16104", "source": "Autolib Velib M\u00e9tropole - 04/2019", "wikidata": "Q86238590"}}, {"type": "node", "id": 7368517556, "lat": 48.8752109, "lon": 2.2842782, "tags": {"amenity": "bicycle_rental", "bicycle_rental": "docking_station", "brand": "V\u00e9lib\u2019 M\u00e9tropole", "brand:wikidata": "Q1120762", "brand:wikipedia": "fr:V\u00e9lib' M\u00e9tropole", "capacity": "38", "name": "Pergol\u00e8se - Malakoff", "network": "V\u00e9lib\u2019 M\u00e9tropole", "network:wikidata": "Q1120762", "network:wikipedia": "fr:V\u00e9lib' M\u00e9tropole", "operator": "Smovengo", "operator:wikidata": "Q47008427", "operator:wikipedia": "fr:Smovengo", "ref": "16002", "source": "Autolib Velib M\u00e9tropole - 04/2020", "wikidata": "Q86238848"}}, {"type": "node", "id": 7368517557, "lat": 48.87673, "lon": 2.2834456, "tags": {"amenity": "bicycle_rental", "capacity": "31", "name": "Malakoff - Place de la Porte Maillot", "network": "V\u00e9lib\u2019", "operator": "Smovengo", "ref": "16101", "source": "Autolib Velib M\u00e9tropole - 2021-03", "wikidata": "Q86238721"}}, {"type": "node", "id": 7368517558, "lat": 48.8658118, "lon": 2.2829447, "tags": {"amenity": "bicycle_rental", "bicycle_rental": "docking_station", "brand": "V\u00e9lib\u2019 M\u00e9tropole", "brand:wikidata": "Q1120762", "brand:wikipedia": "fr:V\u00e9lib' M\u00e9tropole", "capacity": "23", "name": "Belles Feuilles - Place de Mexico", "network": "V\u00e9lib\u2019 M\u00e9tropole", "network:wikidata": "Q1120762", "network:wikipedia": "fr:V\u00e9lib' M\u00e9tropole", "operator": "Smovengo", "operator:wikidata": "Q47008427", "operator:wikipedia": "fr:Smovengo", "ref": "16010", "source": "Autolib Velib M\u00e9tropole - 04/2019", "wikidata": "Q86238540"}}, {"type": "node", "id": 7368681196, "lat": 48.8816986, "lon": 2.2836576, "tags": {"amenity": "bicycle_rental", "bicycle_rental": "docking_station", "brand": "V\u00e9lib\u2019 M\u00e9tropole", "brand:wikidata": "Q1120762", "brand:wikipedia": "fr:V\u00e9lib' M\u00e9tropole", "capacity": "22", "name": "Jardin Marguerite Long", "network": "V\u00e9lib\u2019 M\u00e9tropole", "network:wikidata": "Q1120762", "network:wikipedia": "fr:V\u00e9lib' M\u00e9tropole", "operator": "Smovengo", "operator:wikidata": "Q47008427", "operator:wikipedia": "fr:Smovengo", "ref": "17104", "source": "Autolib Velib M\u00e9tropole - 04/2019", "wikidata": "Q86238191"}}, {"type": "node", "id": 7368681197, "lat": 48.864921, "lon": 2.3025492, "tags": {"amenity": "bicycle_rental", "bicycle_rental": "docking_station", "brand": "V\u00e9lib\u2019 M\u00e9tropole", "brand:wikidata": "Q1120762", "brand:wikipedia": "fr:V\u00e9lib' M\u00e9tropole", "capacity": "58", "name": "Place de la Reine Astrid", "network": "V\u00e9lib\u2019 M\u00e9tropole", "network:wikidata": "Q1120762", "network:wikipedia": "fr:V\u00e9lib' M\u00e9tropole", "operator": "Smovengo", "operator:wikidata": "Q47008427", "operator:wikipedia": "fr:Smovengo", "ref": "8045", "source": "Autolib Velib M\u00e9tropole - 04/2019", "wikidata": "Q86255253"}}, {"type": "node", "id": 7368681199, "lat": 48.8694957, "lon": 2.3066138, "tags": {"amenity": "bicycle_rental", "bicycle_rental": "docking_station", "brand": "V\u00e9lib\u2019 M\u00e9tropole", "brand:wikidata": "Q1120762", "brand:wikipedia": "fr:V\u00e9lib' M\u00e9tropole", "capacity": "35", "name": "Marignan - Champs-Elys\u00e9es", "network": "V\u00e9lib\u2019 M\u00e9tropole", "network:wikidata": "Q1120762", "network:wikipedia": "fr:V\u00e9lib' M\u00e9tropole", "operator": "Smovengo", "operator:wikidata": "Q47008427", "operator:wikipedia": "fr:Smovengo", "ref": "8013", "source": "Autolib Velib M\u00e9tropole - 04/2020", "wikidata": "Q86255302"}}, {"type": "node", "id": 7368681200, "lat": 48.8701034, "lon": 2.3043501, "tags": {"amenity": "bicycle_rental", "bicycle_rental": "docking_station", "brand": "V\u00e9lib\u2019 M\u00e9tropole", "brand:wikidata": "Q1120762", "brand:wikipedia": "fr:V\u00e9lib' M\u00e9tropole", "capacity": "32", "name": "Pierre Charron - Champs-Elys\u00e9es", "network": "V\u00e9lib\u2019 M\u00e9tropole", "network:wikidata": "Q1120762", "network:wikipedia": "fr:V\u00e9lib' M\u00e9tropole", "operator": "Smovengo", "operator:wikidata": "Q47008427", "operator:wikipedia": "fr:Smovengo", "ref": "8040", "source": "Autolib Velib M\u00e9tropole - 04/2019", "wikidata": "Q86255320"}}, {"type": "node", "id": 7368681201, "lat": 48.8704338, "lon": 2.3011826, "tags": {"amenity": "bicycle_rental", "bicycle_rental": "docking_station", "brand": "V\u00e9lib\u2019 M\u00e9tropole", "brand:wikidata": "Q1120762", "brand:wikipedia": "fr:V\u00e9lib' M\u00e9tropole", "capacity": "24", "name": "George V - Christophe Colomb", "network": "V\u00e9lib\u2019 M\u00e9tropole", "network:wikidata": "Q1120762", "network:wikipedia": "fr:V\u00e9lib' M\u00e9tropole", "operator": "Smovengo", "operator:wikidata": "Q47008427", "operator:wikipedia": "fr:Smovengo", "ref": "8549", "source": "Autolib Velib M\u00e9tropole - 04/2019", "wikidata": "Q86255323"}}, {"type": "node", "id": 7368681202, "lat": 48.8704224, "lon": 2.3010697, "tags": {"amenity": "bicycle_rental", "bicycle_rental": "docking_station", "brand": "V\u00e9lib\u2019 M\u00e9tropole", "brand:wikidata": "Q1120762", "brand:wikipedia": "fr:V\u00e9lib' M\u00e9tropole", "capacity": "22", "name": "Georges V - Fran\u00e7ois 1er", "network": "V\u00e9lib\u2019 M\u00e9tropole", "network:wikidata": "Q1120762", "network:wikipedia": "fr:V\u00e9lib' M\u00e9tropole", "operator": "Smovengo", "operator:wikidata": "Q47008427", "operator:wikipedia": "fr:Smovengo", "ref": "8049", "source": "Autolib Velib M\u00e9tropole - 04/2019", "wikidata": "Q86255239"}}, {"type": "node", "id": 7368681203, "lat": 48.8718109, "lon": 2.3002391, "tags": {"amenity": "bicycle_rental", "bicycle_rental": "docking_station", "brand": "V\u00e9lib\u2019 M\u00e9tropole", "brand:wikidata": "Q1120762", "brand:wikipedia": "fr:V\u00e9lib' M\u00e9tropole", "capacity": "25", "name": "Champs-Elysees - Bassano", "network": "V\u00e9lib\u2019 M\u00e9tropole", "network:wikidata": "Q1120762", "network:wikipedia": "fr:V\u00e9lib' M\u00e9tropole", "operator": "Smovengo", "operator:wikidata": "Q47008427", "operator:wikipedia": "fr:Smovengo", "ref": "8116", "source": "Autolib Velib M\u00e9tropole - 04/2019", "wikidata": "Q86255225"}}, {"type": "node", "id": 7368681204, "lat": 48.8688339, "lon": 2.2989968, "tags": {"amenity": "bicycle_rental", "bicycle_rental": "docking_station", "brand": "V\u00e9lib\u2019 M\u00e9tropole", "brand:wikidata": "Q1120762", "brand:wikipedia": "fr:V\u00e9lib' M\u00e9tropole", "capacity": "21", "name": "Marceau - Chaillot", "network": "V\u00e9lib\u2019 M\u00e9tropole", "network:wikidata": "Q1120762", "network:wikipedia": "fr:V\u00e9lib' M\u00e9tropole", "operator": "Smovengo", "operator:wikidata": "Q47008427", "operator:wikipedia": "fr:Smovengo", "ref": "8048", "source": "Autolib Velib M\u00e9tropole - 04/2019", "wikidata": "Q86255213"}}, {"type": "node", "id": 7368681205, "lat": 48.8717156, "lon": 2.2985444, "tags": {"amenity": "bicycle_rental", "bicycle_rental": "docking_station", "brand": "V\u00e9lib\u2019 M\u00e9tropole", "brand:wikidata": "Q1120762", "brand:wikipedia": "fr:V\u00e9lib' M\u00e9tropole", "capacity": "17", "name": "Galil\u00e9e - Vernet", "network": "V\u00e9lib\u2019 M\u00e9tropole", "network:wikidata": "Q1120762", "network:wikipedia": "fr:V\u00e9lib' M\u00e9tropole", "operator": "Smovengo", "operator:wikidata": "Q47008427", "operator:wikipedia": "fr:Smovengo", "ref": "8003", "source": "Autolib Velib M\u00e9tropole - 04/2019", "wikidata": "Q86255179"}}, {"type": "node", "id": 7368681206, "lat": 48.8652244, "lon": 2.3002285, "tags": {"amenity": "bicycle_rental", "bicycle_rental": "docking_station", "brand": "V\u00e9lib\u2019 M\u00e9tropole", "brand:wikidata": "Q1120762", "brand:wikipedia": "fr:V\u00e9lib' M\u00e9tropole", "capacity": "32", "name": "Marceau - Pr\u00e9sident Wilson", "network": "V\u00e9lib\u2019 M\u00e9tropole", "network:wikidata": "Q1120762", "network:wikipedia": "fr:V\u00e9lib' M\u00e9tropole", "operator": "Smovengo", "operator:wikidata": "Q47008427", "operator:wikipedia": "fr:Smovengo", "ref": "8046", "source": "Autolib Velib M\u00e9tropole - 04/2019", "wikidata": "Q86255208"}}, {"type": "node", "id": 7368681207, "lat": 48.868145, "lon": 2.2961495, "tags": {"amenity": "bicycle_rental", "bicycle_rental": "docking_station", "brand": "V\u00e9lib\u2019 M\u00e9tropole", "brand:wikidata": "Q1120762", "brand:wikipedia": "fr:V\u00e9lib' M\u00e9tropole", "capacity": "15", "name": "Bassano - I\u00e9na", "network": "V\u00e9lib\u2019 M\u00e9tropole", "network:wikidata": "Q1120762", "network:wikipedia": "fr:V\u00e9lib' M\u00e9tropole", "operator": "Smovengo", "operator:wikidata": "Q47008427", "operator:wikipedia": "fr:Smovengo", "ref": "16015", "source": "Autolib Velib M\u00e9tropole - 04/2019", "wikidata": "Q86234158"}}, {"type": "node", "id": 7368681208, "lat": 48.8649178, "lon": 2.2926748, "tags": {"amenity": "bicycle_rental", "bicycle_rental": "docking_station", "brand": "V\u00e9lib\u2019 M\u00e9tropole", "brand:wikidata": "Q1120762", "brand:wikipedia": "fr:V\u00e9lib' M\u00e9tropole", "capacity": "40", "name": "Longchamp - Place d'I\u00e9na", "network": "V\u00e9lib\u2019 M\u00e9tropole", "network:wikidata": "Q1120762", "network:wikipedia": "fr:V\u00e9lib' M\u00e9tropole", "operator": "Smovengo", "operator:wikidata": "Q47008427", "operator:wikipedia": "fr:Smovengo", "ref": "16007", "source": "Autolib Velib M\u00e9tropole - 04/2019", "wikidata": "Q86238860"}}, {"type": "node", "id": 7368681209, "lat": 48.871221, "lon": 2.2937362, "tags": {"amenity": "bicycle_rental", "bicycle_rental": "docking_station", "brand": "V\u00e9lib\u2019 M\u00e9tropole", "brand:wikidata": "Q1120762", "brand:wikipedia": "fr:V\u00e9lib' M\u00e9tropole", "capacity": "26", "name": "Portugais - Kl\u00e9ber", "network": "V\u00e9lib\u2019 M\u00e9tropole", "network:wikidata": "Q1120762", "network:wikipedia": "fr:V\u00e9lib' M\u00e9tropole", "operator": "Smovengo", "operator:wikidata": "Q47008427", "operator:wikipedia": "fr:Smovengo", "ref": "16001", "source": "Autolib Velib M\u00e9tropole - 04/2019", "wikidata": "Q86238775"}}, {"type": "node", "id": 7368681210, "lat": 48.8674119, "lon": 2.2907814, "tags": {"amenity": "bicycle_rental", "bicycle_rental": "docking_station", "brand": "V\u00e9lib\u2019 M\u00e9tropole", "brand:wikidata": "Q1120762", "brand:wikipedia": "fr:V\u00e9lib' M\u00e9tropole", "capacity": "33", "name": "Galil\u00e9e - Kl\u00e9ber", "network": "V\u00e9lib\u2019 M\u00e9tropole", "network:wikidata": "Q1120762", "network:wikipedia": "fr:V\u00e9lib' M\u00e9tropole", "operator": "Smovengo", "operator:wikidata": "Q47008427", "operator:wikipedia": "fr:Smovengo", "ref": "16008", "source": "Autolib Velib M\u00e9tropole - 04/2019", "wikidata": "Q86238672"}}, {"type": "node", "id": 7368681211, "lat": 48.8692589, "lon": 2.2899179, "tags": {"amenity": "bicycle_rental", "bicycle_rental": "docking_station", "brand": "V\u00e9lib\u2019 M\u00e9tropole", "brand:wikidata": "Q1120762", "brand:wikipedia": "fr:V\u00e9lib' M\u00e9tropole", "capacity": "19", "name": "Lauriston - Copernic", "network": "V\u00e9lib\u2019 M\u00e9tropole", "network:wikidata": "Q1120762", "network:wikipedia": "fr:V\u00e9lib' M\u00e9tropole", "operator": "Smovengo", "operator:wikidata": "Q47008427", "operator:wikipedia": "fr:Smovengo", "ref": "16006", "source": "Autolib Velib M\u00e9tropole - 04/2019", "wikidata": "Q86238709"}}, {"type": "node", "id": 7368986180, "lat": 48.8704754, "lon": 2.3076191, "tags": {"amenity": "bicycle_rental", "bicycle_rental": "docking_station", "brand": "V\u00e9lib\u2019 M\u00e9tropole", "brand:wikidata": "Q1120762", "brand:wikipedia": "fr:V\u00e9lib' M\u00e9tropole", "capacity": "24", "name": "Colis\u00e9e - Champs-Elys\u00e9es", "network": "V\u00e9lib\u2019 M\u00e9tropole", "network:wikidata": "Q1120762", "network:wikipedia": "fr:V\u00e9lib' M\u00e9tropole", "operator": "Smovengo", "operator:wikidata": "Q47008427", "operator:wikipedia": "fr:Smovengo", "ref": "8039", "source": "Autolib Velib M\u00e9tropole - 04/2020", "wikidata": "Q86255273"}}, {"type": "node", "id": 7369015138, "lat": 48.8792008, "lon": 2.2914987, "tags": {"amenity": "bicycle_rental", "capacity": "28", "name": "Place Tristan Bernard", "network": "V\u00e9lib\u2019", "operator": "Smovengo", "ref": "17036", "source": "Autolib Velib M\u00e9tropole - 2021-03", "wikidata": "Q86238309"}}, {"type": "node", "id": 7369015139, "lat": 48.877533, "lon": 2.2945125, "tags": {"amenity": "bicycle_rental", "capacity": "25", "name": "Mac-Mahon - Brey", "network": "V\u00e9lib\u2019", "operator": "Smovengo", "ref": "17046", "source": "Autolib Velib M\u00e9tropole - 2021-03", "wikidata": "Q86238186"}}, {"type": "node", "id": 7369015140, "lat": 48.8784766, "lon": 2.2979592, "tags": {"amenity": "bicycle_rental", "bicycle_rental": "docking_station", "brand": "V\u00e9lib\u2019 M\u00e9tropole", "brand:wikidata": "Q1120762", "brand:wikipedia": "fr:V\u00e9lib' M\u00e9tropole", "capacity": "46", "name": "Place des Ternes", "network": "V\u00e9lib\u2019 M\u00e9tropole", "network:wikidata": "Q1120762", "network:wikipedia": "fr:V\u00e9lib' M\u00e9tropole", "operator": "Smovengo", "operator:wikidata": "Q47008427", "operator:wikipedia": "fr:Smovengo", "ref": "17045", "source": "Autolib Velib M\u00e9tropole - 2021-03", "wikidata": "Q86238416"}}, {"type": "node", "id": 7369015141, "lat": 48.8782061, "lon": 2.2992981, "tags": {"amenity": "bicycle_rental", "bicycle_rental": "docking_station", "brand": "V\u00e9lib\u2019 M\u00e9tropole", "brand:wikidata": "Q1120762", "brand:wikipedia": "fr:V\u00e9lib' M\u00e9tropole", "capacity": "31", "name": "Courcelles - Place des Ternes", "network": "V\u00e9lib\u2019 M\u00e9tropole", "network:wikidata": "Q1120762", "network:wikipedia": "fr:V\u00e9lib' M\u00e9tropole", "operator": "Smovengo", "operator:wikidata": "Q47008427", "operator:wikipedia": "fr:Smovengo", "ref": "8055", "source": "Autolib Velib M\u00e9tropole - 2021-03", "wikidata": "Q86255290"}}, {"type": "node", "id": 7369015142, "lat": 48.8783614, "lon": 2.3052544, "tags": {"amenity": "bicycle_rental", "bicycle_rental": "docking_station", "capacity": "33", "name": "Alfred de Vigny - Place du G\u00e9n\u00e9ral Brocard", "network": "V\u00e9lib\u2019", "operator": "Smovengo", "ref": "8044", "source": "Autolib Velib M\u00e9tropole - 2021-03", "wikidata": "Q86255204"}}, {"type": "node", "id": 7369015143, "lat": 48.879441, "lon": 2.3034996, "tags": {"amenity": "bicycle_rental", "bicycle_rental": "docking_station", "capacity": "35", "name": "Chazelles - Courcelles", "network": "V\u00e9lib\u2019", "operator": "Smovengo", "ref": "17025", "source": "Autolib Velib M\u00e9tropole - 2021-03", "wikidata": "Q86238385"}}, {"type": "node", "id": 7369015144, "lat": 48.8761253, "lon": 2.3012936, "tags": {"amenity": "bicycle_rental", "bicycle_rental": "docking_station", "brand": "V\u00e9lib\u2019 M\u00e9tropole", "brand:wikidata": "Q1120762", "brand:wikipedia": "fr:V\u00e9lib' M\u00e9tropole", "capacity": "32", "name": "Bertie Albrecht - Hoche", "network": "V\u00e9lib\u2019 M\u00e9tropole", "network:wikidata": "Q1120762", "network:wikipedia": "fr:V\u00e9lib' M\u00e9tropole", "operator": "Smovengo", "operator:wikidata": "Q47008427", "operator:wikipedia": "fr:Smovengo", "ref": "8054", "source": "Autolib Velib M\u00e9tropole - 04/2019", "wikidata": "Q86255256"}}, {"type": "node", "id": 7369015145, "lat": 48.8747444, "lon": 2.3082953, "tags": {"amenity": "bicycle_rental", "bicycle_rental": "docking_station", "brand": "V\u00e9lib\u2019 M\u00e9tropole", "brand:wikidata": "Q1120762", "brand:wikipedia": "fr:V\u00e9lib' M\u00e9tropole", "capacity": "35", "name": "Berri - Haussmann", "network": "V\u00e9lib\u2019 M\u00e9tropole", "network:wikidata": "Q1120762", "network:wikipedia": "fr:V\u00e9lib' M\u00e9tropole", "operator": "Smovengo", "operator:wikidata": "Q47008427", "operator:wikipedia": "fr:Smovengo", "ref": "8034", "source": "Autolib Velib M\u00e9tropole - 04/2019", "wikidata": "Q86255268"}}, {"type": "node", "id": 7369015146, "lat": 48.8747652, "lon": 2.3017473, "tags": {"amenity": "bicycle_rental", "bicycle_rental": "docking_station", "brand": "V\u00e9lib\u2019 M\u00e9tropole", "brand:wikidata": "Q1120762", "brand:wikipedia": "fr:V\u00e9lib' M\u00e9tropole", "capacity": "29", "name": "Place Georges Guillaumin", "network": "V\u00e9lib\u2019 M\u00e9tropole", "network:wikidata": "Q1120762", "network:wikipedia": "fr:V\u00e9lib' M\u00e9tropole", "operator": "Smovengo", "operator:wikidata": "Q47008427", "operator:wikipedia": "fr:Smovengo", "ref": "8053", "source": "Autolib Velib M\u00e9tropole - 04/2019", "wikidata": "Q86255185"}}, {"type": "node", "id": 7369015147, "lat": 48.8740158, "lon": 2.2999163, "tags": {"amenity": "bicycle_rental", "bicycle_rental": "docking_station", "brand": "V\u00e9lib\u2019 M\u00e9tropole", "brand:wikidata": "Q1120762", "brand:wikipedia": "fr:V\u00e9lib' M\u00e9tropole", "capacity": "31", "name": "Chateaubriand - Friedland", "network": "V\u00e9lib\u2019 M\u00e9tropole", "network:wikidata": "Q1120762", "network:wikipedia": "fr:V\u00e9lib' M\u00e9tropole", "operator": "Smovengo", "operator:wikidata": "Q47008427", "operator:wikipedia": "fr:Smovengo", "ref": "8104", "source": "Autolib Velib M\u00e9tropole - 04/2019", "wikidata": "Q86255333"}}, {"type": "node", "id": 7369015148, "lat": 48.8729553, "lon": 2.3000565, "tags": {"amenity": "bicycle_rental", "bicycle_rental": "docking_station", "brand": "V\u00e9lib\u2019 M\u00e9tropole", "brand:wikidata": "Q1120762", "brand:wikipedia": "fr:V\u00e9lib' M\u00e9tropole", "capacity": "30", "name": "Balzac - Champs Elys\u00e9es", "network": "V\u00e9lib\u2019 M\u00e9tropole", "network:wikidata": "Q1120762", "network:wikipedia": "fr:V\u00e9lib' M\u00e9tropole", "operator": "Smovengo", "operator:wikidata": "Q47008427", "operator:wikipedia": "fr:Smovengo", "ref": "8052", "source": "Autolib Velib M\u00e9tropole - 04/2019", "wikidata": "Q86255266"}}, {"type": "node", "id": 7369015149, "lat": 48.8735313, "lon": 2.3034449, "tags": {"amenity": "bicycle_rental", "bicycle_rental": "docking_station", "brand": "V\u00e9lib\u2019 M\u00e9tropole", "brand:wikidata": "Q1120762", "brand:wikipedia": "fr:V\u00e9lib' M\u00e9tropole", "capacity": "26", "name": "Lamennais - Washington", "network": "V\u00e9lib\u2019 M\u00e9tropole", "network:wikidata": "Q1120762", "network:wikipedia": "fr:V\u00e9lib' M\u00e9tropole", "operator": "Smovengo", "operator:wikidata": "Q47008427", "operator:wikipedia": "fr:Smovengo", "ref": "8102", "source": "Autolib Velib M\u00e9tropole - 04/2019", "wikidata": "Q86255325"}}, {"type": "node", "id": 7369015150, "lat": 48.8738632, "lon": 2.3063319, "tags": {"amenity": "bicycle_rental", "bicycle_rental": "docking_station", "brand": "V\u00e9lib\u2019 M\u00e9tropole", "brand:wikidata": "Q1120762", "brand:wikipedia": "fr:V\u00e9lib' M\u00e9tropole", "capacity": "23", "name": "Artois - Berri", "network": "V\u00e9lib\u2019 M\u00e9tropole", "network:wikidata": "Q1120762", "network:wikipedia": "fr:V\u00e9lib' M\u00e9tropole", "operator": "Smovengo", "operator:wikidata": "Q47008427", "operator:wikipedia": "fr:Smovengo", "ref": "8103", "source": "Autolib Velib M\u00e9tropole - 04/2019", "wikidata": "Q86255232"}}, {"type": "node", "id": 7369032813, "lat": 48.8819733, "lon": 2.3011322, "tags": {"amenity": "bicycle_rental", "bicycle_rental": "docking_station", "brand": "V\u00e9lib\u2019 M\u00e9tropole", "brand:wikidata": "Q1120762", "brand:wikipedia": "fr:V\u00e9lib' M\u00e9tropole", "capacity": "40", "name": "Jouffroy d'Abbans - Wagram", "network": "V\u00e9lib\u2019 M\u00e9tropole", "network:wikidata": "Q1120762", "network:wikipedia": "fr:V\u00e9lib' M\u00e9tropole", "operator": "Smovengo", "operator:wikidata": "Q47008427", "operator:wikipedia": "fr:Smovengo", "ref": "17026", "source": "Autolib Velib M\u00e9tropole - 04/2019", "wikidata": "Q86238316"}}, {"type": "node", "id": 7369032819, "lat": 48.8813381, "lon": 2.2948219, "tags": {"amenity": "bicycle_rental", "bicycle_rental": "docking_station", "brand": "V\u00e9lib\u2019 M\u00e9tropole", "brand:wikidata": "Q1120762", "brand:wikipedia": "fr:V\u00e9lib' M\u00e9tropole", "capacity": "37", "name": "Pierre Demours - Laugier", "network": "V\u00e9lib\u2019 M\u00e9tropole", "network:wikidata": "Q1120762", "network:wikipedia": "fr:V\u00e9lib' M\u00e9tropole", "operator": "Smovengo", "operator:wikidata": "Q47008427", "operator:wikipedia": "fr:Smovengo", "ref": "17029", "source": "Autolib Velib M\u00e9tropole - 04/2019", "wikidata": "Q86237863"}}, {"type": "node", "id": 7369032820, "lat": 48.8818335, "lon": 2.2921263, "tags": {"amenity": "bicycle_rental", "bicycle_rental": "docking_station", "brand": "V\u00e9lib\u2019 M\u00e9tropole", "brand:wikidata": "Q1120762", "brand:wikipedia": "fr:V\u00e9lib' M\u00e9tropole", "capacity": "22", "name": "Bayen - Pereire", "network": "V\u00e9lib\u2019 M\u00e9tropole", "network:wikidata": "Q1120762", "network:wikipedia": "fr:V\u00e9lib' M\u00e9tropole", "operator": "Smovengo", "operator:wikidata": "Q47008427", "operator:wikipedia": "fr:Smovengo", "ref": "17037", "source": "Autolib Velib M\u00e9tropole - 04/2019", "wikidata": "Q86252064"}}, {"type": "node", "id": 7369032822, "lat": 48.8802376, "lon": 2.2854655, "tags": {"amenity": "bicycle_rental", "bicycle_rental": "docking_station", "brand": "V\u00e9lib\u2019 M\u00e9tropole", "brand:wikidata": "Q1120762", "brand:wikipedia": "fr:V\u00e9lib' M\u00e9tropole", "capacity": "40", "name": "B\u00e9lidor - Gouvion-Saint-Cyr", "network": "V\u00e9lib\u2019 M\u00e9tropole", "network:wikidata": "Q1120762", "network:wikipedia": "fr:V\u00e9lib' M\u00e9tropole", "operator": "Smovengo", "operator:wikidata": "Q47008427", "operator:wikipedia": "fr:Smovengo", "ref": "17043", "source": "Autolib Velib M\u00e9tropole - 04/2019", "wikidata": "Q86238414"}}, {"type": "node", "id": 7369032823, "lat": 48.8797395, "lon": 2.2880121, "tags": {"amenity": "bicycle_rental", "bicycle_rental": "docking_station", "brand": "V\u00e9lib\u2019 M\u00e9tropole", "brand:wikidata": "Q1120762", "brand:wikipedia": "fr:V\u00e9lib' M\u00e9tropole", "capacity": "48", "name": "Pereire - Ternes", "network": "V\u00e9lib\u2019 M\u00e9tropole", "network:wikidata": "Q1120762", "network:wikipedia": "fr:V\u00e9lib' M\u00e9tropole", "operator": "Smovengo", "operator:wikidata": "Q47008427", "operator:wikipedia": "fr:Smovengo", "ref": "17040", "source": "Autolib Velib M\u00e9tropole - 04/2020", "wikidata": "Q86238201"}}, {"type": "node", "id": 7369032824, "lat": 48.8781548, "lon": 2.288518, "tags": {"amenity": "bicycle_rental", "bicycle_rental": "docking_station", "brand": "V\u00e9lib\u2019 M\u00e9tropole", "brand:wikidata": "Q1120762", "brand:wikipedia": "fr:V\u00e9lib' M\u00e9tropole", "capacity": "38", "name": "Place Saint-Ferdinand", "network": "V\u00e9lib\u2019 M\u00e9tropole", "network:wikidata": "Q1120762", "network:wikipedia": "fr:V\u00e9lib' M\u00e9tropole", "operator": "Smovengo", "operator:wikidata": "Q47008427", "operator:wikipedia": "fr:Smovengo", "ref": "17039", "source": "Autolib Velib M\u00e9tropole - 04/2019", "wikidata": "Q86238388"}}, {"type": "node", "id": 7369032825, "lat": 48.876116, "lon": 2.288124, "tags": {"amenity": "bicycle_rental", "bicycle_rental": "docking_station", "capacity": "62", "name": "Grande Arm\u00e9e - Brunel", "network": "V\u00e9lib\u2019", "operator": "Smovengo", "ref": "17038", "source": "Autolib Velib M\u00e9tropole - 2021-03", "wikidata": "Q86238338"}}, {"type": "node", "id": 9898240418, "lat": 48.8704024, "lon": 2.3012344, "tags": {"amenity": "bicycle_rental", "bicycle_rental": "docking_station", "capacity": "25"}}, {"type": "node", "id": 10002245617, "lat": 48.8736695, "lon": 2.2913535, "tags": {"amenity": "bicycle_rental", "contact:city": "Paris 16eme Arrondissement", "contact:housenumber": "8", "contact:phone": "+33 1 44 08 05 28", "contact:postcode": "75116", "contact:street": "Avenue Foch", "contact:website": "https://locations.hollandbikes.com/en/rent-a-bike-in-paris/", "level": "-1", "location": "underground", "name": "Holland Bikes Tours & Rentals - Paris 16", "opening_hours": "Mo-Su 09:00-18:00", "operator": "Holland Bikes", "reservation": "required", "self_service": "yes", "shop": "bicycle", "website": "https://locations.hollandbikes.com/location-de-velo-arc-de-triomphe/"}}, {"type": "node", "id": 10671817997, "lat": 48.8745106, "lon": 2.2994717, "tags": {"amenity": "bicycle_rental", "bicycle_rental": "docking_station", "brand": "V\u00e9lib\u2019 M\u00e9tropole", "brand:wikidata": "Q1120762", "brand:wikipedia": "fr:V\u00e9lib' M\u00e9tropole", "capacity": "29", "name": "Ars\u00e8ne Houssaye - Friedland", "network": "V\u00e9lib\u2019 M\u00e9tropole", "network:wikidata": "Q1120762", "network:wikipedia": "fr:V\u00e9lib' M\u00e9tropole", "operator": "Smovengo", "operator:wikidata": "Q47008427", "operator:wikipedia": "fr:Smovengo", "ref": "8201", "wikidata": "Q116796006"}}]}