{"version": 0.6, "generator": "Overpass API 0.7.61.5 4133829e", "osm3s": {"timestamp_osm_base": "2023-12-09T23:49:30Z", "copyright": "The data included in this document is from www.openstreetmap.org. The data is made available under ODbL."}, "elements": [{"type": "node", "id": 27362251, "lat": 48.8690339, "lon": 2.3099266, "tags": {"STIF:zone": "1", "name": "Franklin D. Roosevelt", "name:ru": "\u0424\u0440\u0430\u043d\u043a\u043b\u0438\u043d \u0414. \u0420\u0443\u0437\u0432\u0435\u043b\u044c\u0442", "old_name": "Marbeuf Rond Point des Champs-\u00c9lys\u00e9es", "public_transport": "station", "railway": "station", "ref:FR:FANTOIR": "75108S169G", "ref:FR:RATP": "1924", "ref:FR:STIF": "21931", "source": "survey", "station": "subway", "subway": "yes", "type:RATP": "metro", "wheelchair": "no", "wikidata": "Q1445234", "wikipedia": "fr:Franklin D. Roosevelt (m\u00e9tro de Paris)"}}, {"type": "node", "id": 27362258, "lat": 48.8645025, "lon": 2.3296589, "tags": {"STIF:zone": "1", "name": "Tuileries", "name:de": "Tuilerien", "name:ru": "\u0422\u044e\u0438\u043b\u044c\u0440\u0438", "public_transport": "station", "railway": "station", "ref:FR:FANTOIR": "75101S567R", "ref:FR:RATP": "1640", "ref:FR:STIF": "22075", "source": "STIF - 12/2016", "station": "subway", "subway": "yes", "type:RATP": "metro", "wheelchair": "no", "wikidata": "Q666009", "wikipedia": "fr:Tuileries (m\u00e9tro de Paris)"}}, {"type": "node", "id": 27362260, "lat": 48.8608027, "lon": 2.3411235, "tags": {"STIF:zone": "1", "check_date:wheelchair": "2023-03-13", "name": "Louvre \u2014 Rivoli", "name:ru": "\u041b\u0443\u0432\u0440 \u2014 \u0420\u0438\u0432\u043e\u043b\u0438", "public_transport": "stop_position", "railway": "station", "ref:FR:FANTOIR": "75101S293T", "ref:FR:RATP": "1809", "ref:FR:STIF": "22081", "source": "STIF - 12/2016", "station": "subway", "subway": "yes", "type:RATP": "metro", "wheelchair": "no", "wikidata": "Q1461794", "wikipedia": "fr:Louvre - Rivoli (m\u00e9tro de Paris)"}}, {"type": "node", "id": 27371862, "lat": 48.8587782, "lon": 2.3474106, "tags": {"STIF:zone": "1", "name": "Ch\u00e2telet", "name:ru": "\u0428\u0430\u0442\u043b\u0435", "old_name": "Pont Notre-Dame;Pont Notre-Dame \u2013 Pont au Change", "operator": "RATP", "public_transport": "station", "railway": "station", "ref:FR:FANTOIR": "75101S090X;75104S090J", "ref:FR:RATP": "1964", "ref:FR:STIF": "21959", "source": "STIF - 12/2016", "station": "subway", "subway": "yes", "type:RATP": "metro", "wheelchair": "no", "wikidata": "Q601484", "wikipedia": "fr:Ch\u00e2telet (m\u00e9tro de Paris)"}}, {"type": "node", "id": 154788912, "lat": 48.8628261, "lon": 2.3138373, "tags": {"STIF:zone": "1", "name": "Invalides", "name:fr": "Invalides", "name:ru": "\u042d\u043d\u0432\u0430\u043b\u0438\u0434", "note": "Please do not add the tag public_transport=station, it is already on the way that defines the footprint of the station", "operator": "SNCF", "railway": "station", "ref:FR:RATP": "5602", "ref:FR:STIF": "41208", "ref:FR:uic8": "87393033", "train": "yes", "type:RATP": "rer", "uic_ref": "8739303", "wheelchair": "yes", "wikidata": "Q2208443", "wikipedia": "fr:Gare des Invalides"}}, {"type": "node", "id": 243496025, "lat": 48.8834886, "lon": 2.3336343, "tags": {"STIF:zone": "1", "name": "Blanche", "public_transport": "station", "railway": "station", "ref:FR:FANTOIR": "75118S043B", "ref:FR:RATP": "2009", "ref:FR:STIF": "22125", "source": "STIF - 12/2016", "station": "subway", "subway": "yes", "type:RATP": "metro", "wheelchair": "no", "wikidata": "Q881406", "wikipedia": "fr:Blanche (m\u00e9tro de Paris)"}}, {"type": "node", "id": 243496027, "lat": 48.8834466, "lon": 2.3272634, "tags": {"STIF:zone": "1", "name": "Place de Clichy", "name:ru": "\u041f\u043b\u044f\u0441-\u0434\u0435-\u041a\u043b\u0438\u0448\u0438", "public_transport": "station", "railway": "station", "ref:FR:FANTOIR": "75117S416L;75109S416S", "ref:FR:RATP": "1790", "ref:FR:STIF": "22115", "source": "STIF - 12/2016", "station": "subway", "subway": "yes", "type:RATP": "metro", "wheelchair": "no", "wikidata": "Q610012", "wikipedia": "fr:Place de Clichy (m\u00e9tro de Paris)"}}, {"type": "node", "id": 243496028, "lat": 48.8822428, "lon": 2.3213306, "tags": {"STIF:zone": "1", "name": "Rome", "public_transport": "station", "railway": "station", "ref:FR:FANTOIR": "75117S492U", "ref:FR:RATP": "1670", "ref:FR:STIF": "22110", "source": "STIF - 12/2016", "station": "subway", "subway": "yes", "survey:date": "2017-09-20", "type:RATP": "metro", "wheelchair": "no", "wikidata": "Q567806", "wikipedia": "fr:Rome (m\u00e9tro de Paris)"}}, {"type": "node", "id": 243496029, "lat": 48.8811181, "lon": 2.3149118, "tags": {"STIF:zone": "1", "name": "Villiers", "name:ru": "\u0412\u0438\u043b\u044c\u0435", "public_transport": "station", "railway": "station", "ref:FR:FANTOIR": "75117S589Z", "ref:FR:RATP": "1654", "ref:FR:STIF": "22027", "source": "STIF - 12/2016", "station": "subway", "subway": "yes", "type:RATP": "metro", "wheelchair": "no", "wikidata": "Q1511335", "wikipedia": "fr:Villiers (m\u00e9tro de Paris)"}}, {"type": "node", "id": 243496030, "lat": 48.8802919, "lon": 2.3085925, "tags": {"STIF:zone": "1", "check_date:wheelchair": "2023-09-02", "name": "Monceau", "public_transport": "station", "railway": "station", "ref:FR:FANTOIR": "75108S334L", "ref:FR:RATP": "1749", "ref:FR:STIF": "22117", "source": "STIF - 12/2016", "station": "subway", "type:RATP": "metro", "wheelchair": "no", "wikidata": "Q1717241", "wikipedia": "fr:Monceau (m\u00e9tro de Paris)"}}, {"type": "node", "id": 243507793, "lat": 48.8654414, "lon": 2.3561316, "tags": {"STIF:zone": "1", "addr:city": "Paris", "check_date:wheelchair": "2021-02-01", "name": "Arts et M\u00e9tiers", "name:ru": "\u0410\u0440-\u044d-\u041c\u0435\u0442\u044c\u0435", "operator": "RATP", "public_transport": "station", "railway": "station", "ref:FR:RATP": "1988", "ref:FR:STIF": "21994", "source": "STIF - 12/2016", "station": "subway", "subway": "yes", "type:RATP": "metro", "wheelchair": "no", "wikidata": "Q713944", "wikipedia": "fr:Arts et M\u00e9tiers (m\u00e9tro de Paris)"}}, {"type": "node", "id": 243510334, "lat": 48.8686333, "lon": 2.3414766, "tags": {"STIF:zone": "1", "name": "Bourse", "name:ru": "\u0411\u0443\u0440\u0441", "public_transport": "station", "railway": "station", "ref:FR:FANTOIR": "75102S052B", "ref:FR:RATP": "1930", "ref:FR:STIF": "22033", "source": "STIF - 12/2016", "station": "subway", "type:RATP": "metro", "wheelchair": "no", "wikidata": "Q895259", "wikipedia": "fr:Bourse (m\u00e9tro de Paris)"}}, {"type": "node", "id": 243510335, "lat": 48.8695954, "lon": 2.3359026, "tags": {"STIF:zone": "1", "name": "Quatre Septembre", "name:fr": "Quatre Septembre", "name:ru": "\u041a\u0430\u0442\u0440-\u0421\u0435\u043f\u0442\u0430\u043c\u0431\u0440", "public_transport": "station", "railway": "station", "ref:FR:FANTOIR": "75102S473J", "ref:FR:RATP": "1744", "ref:FR:STIF": "22024", "source": "STIF - 12/2016", "station": "subway", "subway": "yes", "type:RATP": "metro", "wheelchair": "no", "wikidata": "Q945229", "wikipedia": "fr:Quatre-Septembre (m\u00e9tro de Paris)"}}, {"type": "node", "id": 243510336, "lat": 48.8706446, "lon": 2.33233, "tags": {"STIF:zone": "1", "name": "Op\u00e9ra", "name:ru": "\u041e\u043f\u0435\u0440\u0430", "railway": "station", "ref:FR:FANTOIR": "75109S383F", "ref:FR:RATP": "1771", "ref:FR:STIF": "22030", "source": "STIF - 12/2016", "station": "subway", "type:RATP": "metro", "wheelchair": "no", "wikidata": "Q1392037", "wikipedia": "fr:Op\u00e9ra (m\u00e9tro de Paris)"}}, {"type": "node", "id": 243510337, "lat": 48.8736792, "lon": 2.3273189, "tags": {"STIF:zone": "1", "name": "Havre - Caumartin", "name:fr": "Havre - Caumartin", "name:ru": "\u0413\u0430\u0432\u0440 \u2014 \u041a\u043e\u043c\u0430\u0440\u0442\u0435\u043d", "old_name": "Caumartin", "public_transport": "station", "railway": "station", "ref:FR:FANTOIR": "75109S223G", "ref:FR:RATP": "1852", "ref:FR:STIF": "21906;21926", "station": "subway", "subway": "yes", "type:RATP": "metro", "wheelchair": "no", "wikidata": "Q1511406", "wikipedia": "fr:Havre - Caumartin (m\u00e9tro de Paris)"}}, {"type": "node", "id": 243510678, "lat": 48.8828567, "lon": 2.3092267, "tags": {"STIF:zone": "1", "name": "Malesherbes", "name:ru": "\u041c\u0430\u043b\u044c\u0437\u0435\u0440\u0431", "public_transport": "station", "railway": "station", "ref:FR:FANTOIR": "75117S319F", "ref:FR:RATP": "1826", "ref:FR:STIF": "22031", "source": "STIF - 12/2016", "station": "subway", "subway": "yes", "type:RATP": "metro", "wheelchair": "no", "wikidata": "Q1784153", "wikipedia": "fr:Malesherbes (m\u00e9tro de Paris)"}}, {"type": "node", "id": 256897078, "lat": 48.8706233, "lon": 2.3487498, "tags": {"STIF:zone": "1", "name": "Bonne Nouvelle", "public_transport": "station", "railway": "station", "ref:FR:FANTOIR": "75102P003Z;75102P004A", "ref:FR:RATP": "2015", "ref:FR:STIF": "21933", "source": "STIF - 12/2016", "station": "subway", "subway": "yes", "type:RATP": "metro", "wheelchair": "no", "wikidata": "Q892720", "wikipedia": "fr:Bonne-Nouvelle (m\u00e9tro de Paris)"}}, {"type": "node", "id": 256897079, "lat": 48.8714412, "lon": 2.3434953, "tags": {"STIF:zone": "1", "name": "Grands Boulevards", "old_name": "Montmartre; rue Montmartre", "public_transport": "station", "railway": "station", "ref:FR:RATP": "1671", "ref:FR:STIF": "21909", "source": "STIF - 12/2016", "station": "subway", "subway": "yes", "type:RATP": "metro", "wheelchair": "no", "wikidata": "Q1543053", "wikipedia": "fr:Grands Boulevards (m\u00e9tro de Paris)"}}, {"type": "node", "id": 256897554, "lat": 48.874471, "lon": 2.3217921, "tags": {"STIF:zone": "1", "name": "Saint-Augustin", "public_transport": "stop_position", "railway": "station", "ref:FR:FANTOIR": "75108S511D", "ref:FR:RATP": "1681", "ref:FR:STIF": "21911", "source": "STIF - 12/2016", "station": "subway", "subway": "yes", "type:RATP": "metro", "wheelchair": "no", "wikidata": "Q649273", "wikipedia": "fr:Saint-Augustin (m\u00e9tro de Paris)"}}, {"type": "node", "id": 260769651, "lat": 48.8723362, "lon": 2.3100827, "tags": {"STIF:zone": "1", "name": "Saint-Philippe du Roule", "public_transport": "stop_position", "railway": "station", "ref:FR:FANTOIR": "75108S524T", "ref:FR:RATP": "1696", "ref:FR:STIF": "21912", "source": "STIF - 12/2016", "station": "subway", "subway": "yes", "type:RATP": "metro", "wheelchair": "no", "wikidata": "Q1784247", "wikipedia": "fr:Saint-Philippe du Roule (m\u00e9tro de Paris)"}}, {"type": "node", "id": 260769652, "lat": 48.873719, "lon": 2.3145029, "tags": {"STIF:zone": "1", "name": "Miromesnil", "name:fr": "Miromesnil", "name:ru": "\u041c\u0438\u0440\u043e\u043c\u0435\u043d\u0438\u043b\u044c", "public_transport": "station", "railway": "station", "ref:FR:FANTOIR": "75108P013N;75108P014P", "ref:FR:RATP": "1747", "ref:FR:STIF": "21924", "source": "STIF - 12/2016", "station": "subway", "type:RATP": "metro", "wheelchair": "yes", "wikidata": "Q1578045", "wikipedia": "fr:Miromesnil (m\u00e9tro de Paris)"}}, {"type": "node", "id": 261612240, "lat": 48.886971, "lon": 2.3258228, "tags": {"STIF:zone": "1", "addr:city": "Paris", "addr:postcode": "75017", "name": "La Fourche", "name:fr": "La Fourche", "name:ru": "\u041b\u044f-\u0424\u0443\u0440\u0448", "network": "M\u00e9tro de Paris;RATP", "operator": "RATP", "public_transport": "station", "railway": "station", "ref:FR:RATP": "1872", "ref:FR:STIF": "22227", "source": "STIF - 12/2016", "station": "subway", "subway": "yes", "type:RATP": "metro", "wheelchair": "no", "wikidata": "Q780625", "wikipedia": "fr:La Fourche (m\u00e9tro de Paris)"}}, {"type": "node", "id": 263497271, "lat": 48.860697, "lon": 2.3210551, "tags": {"STIF:zone": "1", "name": "Assembl\u00e9e Nationale", "old_name": "Chambre des D\u00e9put\u00e9s", "railway": "station", "ref:FR:FANTOIR": "75107S077N", "ref:FR:RATP": "1989", "ref:FR:STIF": "22060", "source": "STIF - 12/2016", "station": "subway", "type:RATP": "metro", "wheelchair": "no", "wikidata": "Q740744", "wikipedia": "fr:Assembl\u00e9e nationale (m\u00e9tro de Paris)"}}, {"type": "node", "id": 263497272, "lat": 48.858657, "lon": 2.3229936, "tags": {"STIF:zone": "1", "name": "Solf\u00e9rino", "name:ru": "\u0421\u043e\u043b\u044c\u0444\u0435\u0440\u0438\u043d\u043e", "network": "M\u00e9tro de Paris", "operator": "RATP", "public_transport": "station", "railway": "station", "ref:FR:FANTOIR": "75107S535L", "ref:FR:RATP": "1622", "ref:FR:STIF": "22045", "source": "STIF - 12/2016", "station": "subway", "subway": "yes", "train": "yes", "type:RATP": "metro", "wheelchair": "no", "wikidata": "Q1368640", "wikipedia": "fr:Solf\u00e9rino (m\u00e9tro de Paris)"}}, {"type": "node", "id": 264469541, "lat": 48.8546647, "lon": 2.3060728, "tags": {"STIF:zone": "1", "name": "\u00c9cole Militaire", "name:fr": "\u00c9cole Militaire", "name:ru": "\u042d\u043a\u043e\u043b\u044c \u041c\u0438\u043b\u0438\u0442\u0435\u0440", "public_transport": "station", "railway": "station", "ref:FR:FANTOIR": "75107S141H", "ref:FR:RATP": "1909;1007", "ref:FR:STIF": "22191", "source": "STIF - 12/2016", "station": "subway", "subway": "yes", "type:RATP": "metro", "wheelchair": "no", "wikidata": "Q273476", "wikipedia": "fr:\u00c9cole Militaire (m\u00e9tro de Paris)"}}, {"type": "node", "id": 264473011, "lat": 48.8575602, "lon": 2.3103234, "tags": {"STIF:zone": "1", "addr:city": "Paris", "name": "La Tour Maubourg", "name:ru": "\u041b\u044f\u0442\u0443\u0440-\u041c\u043e\u0431\u0443\u0440", "public_transport": "station", "railway": "station", "ref:FR:FANTOIR": "75107S285P", "ref:FR:RATP": "1008;54166", "station": "subway", "subway": "yes", "type:RATP": "metro", "wheelchair": "no", "wikidata": "Q1514082", "wikipedia": "fr:La Tour-Maubourg (m\u00e9tro de Paris)"}}, {"type": "node", "id": 264495077, "lat": 48.8763251, "lon": 2.3326415, "tags": {"STIF:zone": "1", "name": "Trinit\u00e9 d'Estienne d'Orves", "name:ru": "\u0422\u0440\u0438\u043d\u0438\u0442\u0435 \u2014 \u0434\u2019\u042d\u0441\u0442\u044c\u0435\u043d \u0434\u2019\u041e\u0440\u0432", "railway": "station", "ref:FR:FANTOIR": "75109S565D", "ref:FR:RATP": "1638;3108", "ref:FR:STIF": "22046", "source": "STIF - 12/2016", "station": "subway", "type:RATP": "metro", "wheelchair": "no", "wikidata": "Q1316395", "wikipedia": "fr:Trinit\u00e9 - d'Estienne d'Orves (m\u00e9tro de Paris)"}}, {"type": "node", "id": 264495078, "lat": 48.8759935, "lon": 2.3385437, "tags": {"STIF:zone": "1", "name": "Notre-Dame de Lorette", "name:ru": "\u041d\u043e\u0442\u0440-\u0414\u0430\u043c-\u0434\u0435-\u041b\u043e\u0440\u0435\u0442", "railway": "station", "ref:FR:FANTOIR": "75109S365L", "ref:FR:RATP": "1767;3109", "ref:FR:STIF": "22050", "source": "STIF - 12/2016", "station": "subway", "type:RATP": "metro", "wheelchair": "no", "wikidata": "Q575604", "wikipedia": "fr:Notre-Dame-de-Lorette (m\u00e9tro de Paris)"}}, {"type": "node", "id": 264504832, "lat": 48.8784469, "lon": 2.337458, "tags": {"STIF:zone": "1", "name": "Saint-Georges", "name:ru": "\u0421\u0435\u043d-\u0416\u043e\u0440\u0436", "public_transport": "station", "railway": "station", "ref:FR:FANTOIR": "75109S514Y", "ref:FR:RATP": "3110;1686", "ref:FR:STIF": "22044", "source": "STIF - 12/2016", "station": "subway", "subway": "yes", "type:RATP": "metro", "wheelchair": "no", "wikidata": "Q1937499", "wikipedia": "fr:Saint-Georges (m\u00e9tro de Paris)"}}, {"type": "node", "id": 264505115, "lat": 48.8845677, "lon": 2.3379294, "tags": {"STIF:zone": "1", "name": "Abbesses", "name:ru": "\u0410\u0431\u0431\u0435\u0441", "public_transport": "station", "railway": "station", "ref:FR:FANTOIR": "75118S001F", "ref:FR:RATP": "1975", "ref:FR:STIF": "22059", "source": "STIF - 12/2016", "station": "subway", "subway": "yes", "type:RATP": "metro", "wheelchair": "no", "wikidata": "Q306256", "wikipedia": "fr:Abbesses (m\u00e9tro de Paris)"}}, {"type": "node", "id": 264505153, "lat": 48.8897543, "lon": 2.3388254, "tags": {"STIF:zone": "1", "name": "Lamarck - Caulaincourt", "name:ru": "\u041b\u0430\u043c\u0430\u0440\u043a \u2014 \u041a\u043e\u043b\u0435\u043d\u043a\u0443\u0440", "public_transport": "station", "railway": "station", "ref:FR:FANTOIR": "75118S282L", "ref:FR:RATP": "1879", "ref:FR:STIF": "22055", "source": "STIF - 12/2016", "station": "subway", "subway": "yes", "type:RATP": "metro", "wheelchair": "no", "wikidata": "Q980380", "wikipedia": "fr:Lamarck - Caulaincourt (m\u00e9tro de Paris)"}}, {"type": "node", "id": 264508548, "lat": 48.8762027, "lon": 2.3579127, "tags": {"STIF:zone": "1", "addr:city": "Paris", "addr:postcode": "75010", "alt_name": "Gare de l'Est (Verdun)", "name": "Gare de l'Est", "network": "M\u00e9tro de Paris;RATP", "operator": "RATP", "public_transport": "station", "railway": "station", "ref:FR:FANTOIR": "75110S184K", "ref:FR:RATP": "1841", "ref:FR:STIF": "41010", "source": "STIF - 12/2016", "station": "subway", "subway": "yes", "type:RATP": "metro", "wikidata": "Q1494172", "wikipedia": "fr:Gare de l'Est (m\u00e9tro de Paris)"}}, {"type": "node", "id": 264514896, "lat": 48.8553245, "lon": 2.347542, "tags": {"STIF:zone": "1", "elevator": "yes", "level": "-2", "name": "Cit\u00e9", "name:ru": "\u0421\u0438\u0442\u044d", "network": "RATP", "operator": "RATP", "public_transport": "station", "railway": "station", "ref:FR:FANTOIR": "75104S095P", "ref:FR:RATP": "1969", "ref:FR:STIF": "22150", "source": "STIF - 12/2016", "station": "subway", "subway": "yes", "type:RATP": "metro", "wheelchair": "no", "wikidata": "Q1094294", "wikipedia": "fr:Cit\u00e9 (m\u00e9tro de Paris)"}}, {"type": "node", "id": 282635141, "lat": 48.8678551, "lon": 2.3138686, "tags": {"STIF:zone": "1", "name": "Champs-\u00c9lys\u00e9es - Clemenceau", "name:ru": "\u0428\u0430\u043d\u0437-\u042d\u043b\u0438\u0437\u0435 \u2014 \u041a\u043b\u0435\u043c\u0430\u043d\u0441\u043e", "public_transport": "station", "railway": "station", "ref:FR:FANTOIR": "75108S080K", "ref:FR:RATP": "1949", "ref:FR:STIF": "22090", "source": "STIF - 12/2016", "station": "subway", "subway": "yes", "type:RATP": "metro", "wheelchair": "no", "wikidata": "Q1061527", "wikipedia": "fr:Champs-\u00c9lys\u00e9es - Clemenceau (m\u00e9tro de Paris)"}}, {"type": "node", "id": 329974472, "lat": 48.8808038, "lon": 2.3587094, "tags": {"STIF:zone": "1", "layer": "-3", "name": "Magenta", "network": "RER", "note": "Please do not add the tag public_transport=station, it is already on the way that defines the footprint of the station", "operator": "SNCF", "railway": "station", "ref:FR:RATP": "51923", "ref:FR:STIF": "41126", "ref:FR:uic8": "87281873", "source": "\u00cele-de-France Mobilit\u00e9s - 03/2022", "start_date": "1999-07-14", "train": "yes", "type:RATP": "rer", "uic_ref": "8728187", "wheelchair": "limited", "wikidata": "Q608428", "wikipedia": "fr:Gare de Magenta"}}, {"type": "node", "id": 354969611, "lat": 48.8722245, "lon": 2.3297877, "tags": {"STIF:zone": "1", "addr:city": "Paris", "addr:postcode": "75009", "name": "Auber", "name:ru": "\u041e\u0431\u0435\u0440", "operator": "RATP", "public_transport": "station", "railway": "station", "ref:FR:FANTOIR": "75109S015F", "ref:FR:RATP": "1990", "ref:FR:STIF": "412806", "source": "STIF - 12/2016", "start_date": "1971-11-23", "type:RATP": "rer", "uic_ref": "8775859", "wheelchair": "yes", "wikidata": "Q800416", "wikipedia": "fr:Gare Auber"}}, {"type": "node", "id": 1981222779, "lat": 48.8787676, "lon": 2.3222643, "tags": {"STIF:zone": "1", "name": "Europe", "note": "\"Simone-Veil\" est un sous-titre, le nom de la station reste \"Europe\"", "public_transport": "station", "railway": "station", "ref:FR:FANTOIR": "75108S148J", "ref:FR:RATP": "1915", "ref:FR:STIF": "22032", "source": "cadastre-dgi-fr source : Direction G\u00e9n\u00e9rale des Imp\u00f4ts - Cadastre. Mise \u00e0 jour : 2012", "station": "subway", "subway": "yes", "type:RATP": "metro", "wheelchair": "no", "wikidata": "Q766618"}}, {"type": "node", "id": 2379542204, "lat": 48.8605888, "lon": 2.3259096, "tags": {"STIF:zone": "1", "addr:city": "Paris", "addr:housenumber": "62", "addr:postcode": "75343", "addr:street": "Rue de Lille", "level": "-1;-2", "name": "Mus\u00e9e d'Orsay", "official_name": "Gare du Mus\u00e9e d'Orsay - Val\u00e9ry Giscard d'Estaing", "operator": "SNCF", "railway": "station", "ref": "RER C", "ref:FR:RATP": "5603", "ref:FR:STIF": "41334", "ref:FR:uic8": "87547307", "ref:SNCF": "RER", "ref:SNCF:RER": "C", "type:RATP": "rer", "uic_ref": "8754730", "wheelchair": "no", "wikidata": "Q15260427", "wikipedia": "fr:Gare du Mus\u00e9e d'Orsay"}}, {"type": "node", "id": 3090733718, "lat": 48.8804003, "lon": 2.3549733, "tags": {"SNCF:stop_name": "Paris-Nord", "STIF:zone": "1", "addr:city": "Paris", "addr:country": "FR", "addr:housenumber": "112", "addr:postcode": "75010", "addr:street": "rue de Maubeuge", "internet_access": "wlan", "name": "Paris Gare du Nord", "name:de": "Paris Nordbahnhof", "name:ru": "\u0421\u0435\u0432\u0435\u0440\u043d\u044b\u0439 \u0432\u043e\u043a\u0437\u0430\u043b", "network": "SNCF.", "note": "Please do not add the tag public_transport=station, it is already on the way that defines the footprint of the station", "old_name": "Embarcad\u00e8re du Chemin de Fer du Nord", "operator": "SNCF", "railway": "station", "railway:ref:DB": "XFPN", "ref:FR:STIF": "41071", "ref:FR:uic8": "87271007;87271031", "train": "yes", "uic_ref": "8727100;8727103", "website": "https://www.garesetconnexions.sncf/fr/gare/frpno/paris-gare-du-nord", "wheelchair": "yes", "wikidata": "Q745942", "wikipedia": "fr:Gare de Paris-Nord"}}, {"type": "node", "id": 3190883103, "lat": 48.8616513, "lon": 2.3470129, "tags": {"STIF:zone": "1", "name": "Ch\u00e2telet - Les Halles", "network": "RER (RATP SNCF)", "note": "Please do not add the tag public_transport=station, it is already on the way that defines the footprint of the station", "official_name": "CHATELET LES HALLES", "operator": "RATP", "railway": "station", "ref:FR:RATP": "1967", "ref:FR:STIF": "412815", "ref:FR:uic8": "87758607", "route_ref:FR:RER_D": "SOVA;FUCA;UOVA;VIPE;LOVA;VUCA;FOVA;LUCA;VOVA;MIPE;UUCA;SUCA;VOPA;MOPA;MIPA;FOPA;LOPA", "source": "STIF - 12/2016", "start_date": "1977-12-09", "type:RATP": "rer", "uic_ref": "8775860", "wheelchair": "limited", "wikidata": "Q800627", "wikipedia": "fr:Gare de Ch\u00e2telet - Les Halles"}}, {"type": "node", "id": 3417692493, "lat": 48.8828803, "lon": 2.3442565, "tags": {"STIF:zone": "1", "name": "Anvers", "public_transport": "station", "railway": "station", "ref:FR:FANTOIR": "75118S009P", "ref:FR:RATP": "1984", "ref:FR:STIF": "22123", "source": "STIF - 12/2016", "station": "subway", "subway": "yes", "type:RATP": "metro", "wheelchair": "no", "wikidata": "Q612971", "wikipedia": "fr:Anvers (m\u00e9tro de Paris)"}}, {"type": "node", "id": 3417692497, "lat": 48.8846923, "lon": 2.3426644, "tags": {"STIF:zone": "1", "alt_name": "Funiculaire Gare basse", "name": "Funiculaire Montmartre - Station Inf\u00e9rieure", "operator": "RATP", "public_transport": "station", "railway": "station", "ref:FR:RATP": "2021", "ref:FR:STIF": "463175", "source": "Bing", "station": "funicular", "wheelchair": "yes"}}, {"type": "node", "id": 3417692499, "lat": 48.8856581, "lon": 2.3425549, "tags": {"STIF:zone": "1", "alt_name": "Funiculaire Gare haute", "name": "Funiculaire Montmartre - Station Sup\u00e9rieure", "operator": "RATP", "public_transport": "station", "railway": "station", "ref:FR:RATP": "2022", "ref:FR:STIF": "412355", "source": "Bing", "station": "funicular", "wheelchair": "yes"}}, {"type": "node", "id": 3430515272, "lat": 48.8677091, "lon": 2.3457466, "tags": {"STIF:zone": "1", "addr:city": "Paris", "name": "Sentier", "name:ru": "\u0421\u0430\u043d\u0442\u044c\u0435", "public_transport": "station", "railway": "station", "ref:FR:FANTOIR": "75102S531X", "ref:FR:RATP": "1702", "ref:FR:STIF": "22029", "source": "STIF - 12/2016", "station": "subway", "subway": "yes", "type:RATP": "metro", "wheelchair": "no", "wikidata": "Q1783889", "wikipedia": "fr:Sentier (m\u00e9tro de Paris)"}}, {"type": "node", "id": 3533789791, "lat": 48.87653, "lon": 2.3252374, "tags": {"STIF:zone": "1", "level": "1", "name": "Gare de Paris-Saint-Lazare", "name:be": "\u0412\u0430\u043a\u0437\u0430\u043b \u0421\u0435\u043d-\u041b\u0430\u0437\u0430\u0440", "name:es": "Estaci\u00f3n de Paris Saint-Lazare", "name:eu": "Paris-Saint Lazare geltokia", "name:fi": "Saint Lazaren rautatieasema", "name:he": "\u05ea\u05d7\u05e0\u05ea_\u05e1\u05df_\u05dc\u05d0\u05d6\u05d0\u05e8", "name:ja": "\u30b5\u30f3\u30fb\u30e9\u30b6\u30fc\u30eb\u99c5", "name:ru": "\u0412\u043e\u043a\u0437\u0430\u043b \u0421\u0435\u043d-\u041b\u0430\u0437\u0430\u0440", "name:sv": "Paris Saint-Lazare j\u00e4rnv\u00e4gsstation", "name:uk": "\u0412\u043e\u043a\u0437\u0430\u043b \u0421\u0435\u043d-\u041b\u0430\u0437\u0430\u0440", "name:zh": "\u5df4\u9ece\u5723\u62c9\u624e\u5c14\u8f66\u7ad9", "old_name": "Embarcad\u00e8re de l'Ouest;Gare de l'Ouest", "operator": "SNCF", "railway": "station", "railway:ref": "PSL", "railway:ref:DB": "XFPSL", "ref:FR:STIF": "22218", "ref:FR:uic8": "87384008", "source": "STIF - 12/2016", "uic_ref": "8738400", "website": "https://www.gares-sncf.com/fr/gare/frpsl/paris-saint-lazare", "wheelchair": "limited", "wikidata": "Q747506", "wikipedia": "fr:Gare de Paris-Saint-Lazare"}}, {"type": "node", "id": 3542631493, "lat": 48.8754153, "lon": 2.3253531, "tags": {"STIF:zone": "1", "addr:city": "Paris", "addr:postcode": "75009", "layer": "-2", "name": "Saint-Lazare", "name:ru": "\u0421\u0435\u043d-\u041b\u0430\u0437\u0430\u0440", "network": "M\u00e9tro de Paris;RATP", "operator": "RATP", "public_transport": "station", "railway": "station", "ref:FR:FANTOIR": "75108S188C", "ref:FR:RATP": "1689", "ref:FR:STIF": "21963", "source": "STIF - 12/2016", "start_date": "1903-10-19", "station": "subway", "subway": "yes", "type:RATP": "metro", "wheelchair": "limited", "wikidata": "Q1519529", "wikipedia": "fr:Saint-Lazare (m\u00e9tro de Paris)"}}, {"type": "node", "id": 3763562357, "lat": 48.8662052, "lon": 2.3223767, "tags": {"STIF:zone": "1", "name": "Concorde", "name:de": "Concorde", "name:es": "Concorde", "name:it": "Concorde", "name:ko": "\ucf69\ucf54\ub974\ub4dc \uad11\uc7a5", "name:pt": "Concorde", "name:ro": "Concorde", "name:ru": "\u041a\u043e\u043d\u043a\u043e\u0440\u0434", "operator": "RATP", "public_transport": "station", "railway": "station", "ref:FR:FANTOIR": "75108S099F;75101S099G", "ref:FR:RATP": "1885", "ref:FR:STIF": "22085", "source": "STIF - 12/2016", "station": "subway", "type:RATP": "metro", "wheelchair": "no", "wikidata": "Q970075", "wikipedia": "fr:Concorde (m\u00e9tro de Paris)"}}, {"type": "node", "id": 3931967758, "lat": 48.8608923, "lon": 2.3144984, "tags": {"STIF:zone": "1", "name": "Invalides", "name:ru": "\u042d\u043d\u0432\u0430\u043b\u0438\u0434", "public_transport": "station", "railway": "station", "ref:FR:FANTOIR": "75107S242T", "ref:FR:RATP": "1857", "ref:FR:STIF": "22185", "source": "STIF - 12/2016", "station": "subway", "subway": "yes", "type:RATP": "metro", "wheelchair": "no", "wikidata": "Q1528456", "wikipedia": "fr:Invalides (m\u00e9tro de Paris)"}}, {"type": "node", "id": 4067925155, "lat": 48.8822982, "lon": 2.3380899, "tags": {"STIF:zone": "1", "name": "Pigalle", "name:ru": "\u041f\u0438\u0433\u0430\u043b\u044c", "public_transport": "station", "railway": "station", "ref:FR:FANTOIR": "75109S415R", "ref:FR:RATP": "1787", "ref:FR:STIF": "22114", "source": "STIF - 12/2016", "station": "subway", "subway": "yes", "type:RATP": "metro", "wheelchair": "no", "wikidata": "Q338898", "wikipedia": "fr:Pigalle (m\u00e9tro de Paris)"}}, {"type": "node", "id": 4075421186, "lat": 48.8872884, "lon": 2.3495532, "tags": {"STIF:zone": "1", "check_date:wheelchair": "2023-04-11", "name": "Ch\u00e2teau Rouge", "operator": "RATP", "public_transport": "station", "railway": "station", "ref:FR:FANTOIR": "75118S088A", "ref:FR:RATP": "1960", "ref:FR:STIF": "22152", "source": "STIF - 12/2016", "station": "subway", "subway": "yes", "type:RATP": "metro", "wheelchair": "no", "wikidata": "Q957172", "wikipedia": "fr:Ch\u00e2teau Rouge (m\u00e9tro de Paris)"}}, {"type": "node", "id": 5155172764, "lat": 48.8624906, "lon": 2.3360431, "tags": {"STIF:zone": "1", "name": "Palais Royal - Mus\u00e9e du Louvre", "name:ru": "\u041f\u0430\u043b\u0435-\u0420\u0443\u0430\u044f\u043b\u044c \u2014 \u041c\u044e\u0437\u0435-\u0434\u044e-\u041b\u0443\u0432\u0440", "public_transport": "station", "railway": "station", "ref:FR:FANTOIR": "75101S399H", "ref:FR:RATP": "1774", "ref:FR:STIF": "22079", "source": "STIF - 12/2016", "station": "subway", "subway": "yes", "type:RATP": "metro", "wheelchair": "no", "wikidata": "Q1467113", "wikipedia": "fr:Palais Royal - Mus\u00e9e du Louvre (m\u00e9tro de Paris)"}}, {"type": "node", "id": 5226630385, "lat": 48.8574911, "lon": 2.3515316, "tags": {"STIF:zone": "1", "addr:city": "Paris", "name": "H\u00f4tel de Ville", "public_transport": "station", "railway": "station", "ref": "01-15", "ref:FR:FANTOIR": "75104S225F", "ref:FR:RATP": "1855", "ref:FR:STIF": "21990", "source": "cadastre-dgi-fr source : Direction G\u00e9n\u00e9rale des Imp\u00f4ts - Cadastre. Mise \u00e0 jour : 2010", "station": "subway", "subway": "yes", "train": "yes", "type:RATP": "metro", "wheelchair": "no", "wikidata": "Q968939", "wikipedia": "fr:H\u00f4tel de Ville (m\u00e9tro de Paris)"}}, {"type": "node", "id": 5226630386, "lat": 48.8693002, "lon": 2.3542855, "tags": {"STIF:zone": "1", "check_date:opening_hours": "2021-10-26", "name": "Strasbourg - Saint-Denis", "old_name": "Boulevard Saint-Denis", "opening_hours": "Mo-Su 05:00-01:30", "operator": "RATP", "public_transport": "station", "railway": "station", "ref:FR:FANTOIR": "75102S537D", "ref:FR:RATP": "1628", "ref:FR:STIF": "22159", "source": "STIF - 12/2016", "station": "subway", "subway": "yes", "type:RATP": "metro", "wheelchair": "no", "wikidata": "Q1403165", "wikipedia": "fr:Strasbourg - Saint-Denis (m\u00e9tro de Paris)"}}, {"type": "node", "id": 5226708287, "lat": 48.8837466, "lon": 2.3496958, "tags": {"STIF:zone": "1", "name": "Barb\u00e8s - Rochechouart", "operator": "RATP", "public_transport": "station", "railway": "station", "ref:FR:FANTOIR": "75109S035C", "ref:FR:RATP": "1999", "ref:FR:STIF": "22127", "source": "STIF - 12/2016", "station": "subway", "subway": "yes", "type:RATP": "metro", "wheelchair": "no", "wikidata": "Q807893", "wikipedia": "fr:Barb\u00e8s - Rochechouart (m\u00e9tro de Paris)"}}, {"type": "node", "id": 5230752679, "lat": 48.881399, "lon": 2.357438, "tags": {"STIF:zone": "1", "alt_name": "Paris Nord RER", "layer": "-2", "name": "Gare du Nord (RER)", "official_name": "PARIS NORD (GARE DU NORD)", "operator": "SNCF", "railway": "station", "railway:traffic_mode": "passenger", "ref": "RER B,D", "ref:FR:RATP": "1843", "ref:FR:STIF": "41071", "ref:FR:uic8": "87271023;87271007", "short_name": "Gare du Nord", "train": "yes", "type:RATP": "rer", "uic_ref": "8727102;8727100", "wheelchair": "yes", "wikidata": "Q745942", "wikipedia": "fr:Gare de Paris-Nord"}}, {"type": "node", "id": 5364676905, "lat": 48.8795666, "lon": 2.3572124, "tags": {"STIF:zone": "1", "addr:city": "Paris", "addr:postcode": "75010", "name": "Gare du Nord (M\u00e9tro)", "network": "RATP", "operator": "RATP", "public_transport": "station", "railway": "station", "ref:FR:FANTOIR": "75110S186M", "ref:FR:RATP": "1842", "ref:FR:STIF": "22007;22149", "short_name": "Gare du Nord", "start_date": "1907-11-15", "station": "subway", "subway": "yes", "type:RATP": "metro", "wheelchair": "no", "wikidata": "Q1494174", "wikipedia": "fr:Gare du Nord (m\u00e9tro de Paris)"}}, {"type": "node", "id": 5527702547, "lat": 48.8585776, "lon": 2.3422202, "tags": {"STIF:zone": "1", "addr:city": "Paris", "name": "Pont Neuf", "name:en": "Pont Neuf", "name:es": "Puente Nuevo", "name:pt": "Ponte Nova", "name:ru": "\u041d\u043e\u0432\u044b\u0439 \u043c\u043e\u0441\u0442", "name:zh": "\u65b0\u6865", "public_transport": "station", "railway": "station", "ref:FR:FANTOIR": "75101S426M", "ref:FR:RATP": "1712", "ref:FR:STIF": "22379", "source": "STIF - 12/2016", "station": "subway", "subway": "yes", "type:RATP": "metro", "wheelchair": "no", "wikidata": "Q1458421", "wikipedia": "fr:Pont Neuf (m\u00e9tro de Paris)"}}, {"type": "node", "id": 5527816419, "lat": 48.8624659, "lon": 2.3460086, "tags": {"STIF:zone": "1", "name": "Les Halles", "network": "M\u00e9tro de Paris;RATP", "operator": "RATP", "public_transport": "station", "railway": "station", "ref:FR:FANTOIR": "75101S222R", "ref:FR:RATP": "1801", "ref:FR:STIF": "22146", "source": "STIF - 12/2016", "start_date": "1977-10-03", "station": "subway", "subway": "yes", "type:RATP": "metro", "wikidata": "Q1576810", "wikipedia": "fr:Les Halles (m\u00e9tro de Paris)"}}, {"type": "node", "id": 5527829149, "lat": 48.8662481, "lon": 2.3526084, "tags": {"STIF:zone": "1", "addr:city": "Paris", "name": "R\u00e9aumur - S\u00e9bastopol", "name:fr": "R\u00e9aumur - S\u00e9bastopol", "name:ru": "\u0420\u0435\u043e\u043c\u044e\u0440 \u2014 \u0421\u0435\u0431\u0430\u0441\u0442\u043e\u043f\u043e\u043b\u044c", "old_name": "Rue Saint-Denis", "operator": "RATP", "public_transport": "station", "railway": "station", "ref:FR:FANTOIR": "75102S484W", "ref:FR:RATP": "1676", "ref:FR:STIF": "22018", "station": "subway", "subway": "yes", "type:RATP": "metro", "wheelchair": "no", "wikidata": "Q669850", "wikipedia": "fr:R\u00e9aumur - S\u00e9bastopol (m\u00e9tro de Paris)"}}, {"type": "node", "id": 5527829165, "lat": 48.8638718, "lon": 2.3490301, "tags": {"STIF:zone": "1", "addr:city": "Paris", "name": "\u00c9tienne Marcel", "operator": "RATP", "public_transport": "station", "railway": "station", "ref:FR:FANTOIR": "75101S146H", "ref:FR:RATP": "1914", "ref:FR:STIF": "22147", "station": "subway", "subway": "yes", "type:RATP": "metro", "wheelchair": "no", "wikidata": "Q289916", "wikipedia": "fr:\u00c9tienne Marcel (m\u00e9tro de Paris)"}}, {"type": "node", "id": 5527859168, "lat": 48.8728888, "lon": 2.3563528, "tags": {"STIF:zone": "1", "heritage": "3", "heritage:operator": "mhs", "mhs:inscription_date": "1978", "name": "Ch\u00e2teau d'Eau", "operator": "RATP", "public_transport": "station", "railway": "station", "ref:FR:FANTOIR": "75110S086D", "ref:FR:RATP": "1961", "ref:FR:STIF": "22153", "ref:mhs": "PA00086508", "source": "STIF - 12/2016", "station": "subway", "subway": "yes", "type:RATP": "metro", "wheelchair": "no", "wikidata": "Q1090753", "wikipedia": "fr:Ch\u00e2teau d'Eau (m\u00e9tro de Paris)"}}, {"type": "node", "id": 5528174509, "lat": 48.8730441, "lon": 2.3332127, "tags": {"STIF:zone": "1", "name": "Chauss\u00e9e d'Antin - La Fayette", "public_transport": "station", "railway": "station", "ref:FR:FANTOIR": "75109S092P", "ref:FR:RATP": "1957", "ref:FR:STIF": "21932;22388", "station": "subway", "subway": "yes", "type:RATP": "metro", "wheelchair": "no", "wikidata": "Q951466", "wikipedia": "fr:Chauss\u00e9e d'Antin - La Fayette (m\u00e9tro de Paris)"}}, {"type": "node", "id": 5528174511, "lat": 48.8748603, "lon": 2.340218, "tags": {"STIF:zone": "1", "name": "Le Peletier", "public_transport": "station", "railway": "station", "ref:FR:FANTOIR": "75109S288C", "ref:FR:RATP": "1795", "ref:FR:STIF": "22382", "source": "STIF - 12/2016", "station": "subway", "subway": "yes", "type:RATP": "metro", "wikidata": "Q1784008", "wikipedia": "fr:Le Peletier (m\u00e9tro de Paris)"}}, {"type": "node", "id": 5528174520, "lat": 48.8759778, "lon": 2.3444894, "tags": {"STIF:zone": "1", "name": "Cadet", "public_transport": "station", "railway": "station", "ref:FR:FANTOIR": "75109S071S", "ref:FR:RATP": "1939", "ref:FR:STIF": "22390", "source": "STIF - 12/2016", "station": "subway", "subway": "yes", "type:RATP": "metro", "wheelchair": "no", "wikidata": "Q1025135", "wikipedia": "fr:Cadet (m\u00e9tro de Paris)"}}, {"type": "node", "id": 5528176223, "lat": 48.8771197, "lon": 2.3487446, "tags": {"STIF:zone": "1", "addr:city": "Paris", "addr:postcode": "75009;75010", "addr:street": "Rue La Fayette", "name": "Poissonni\u00e8re", "network": "M\u00e9tro de Paris;RATP", "operator": "RATP", "public_transport": "station", "railway": "station", "ref:FR:FANTOIR": "75109S420W", "ref:FR:RATP": "1706", "ref:FR:STIF": "22377", "source": "STIF - 12/2016", "station": "subway", "subway": "yes", "type:RATP": "metro", "wheelchair": "no", "wikidata": "Q764106", "wikipedia": "fr:Poissonni\u00e8re (m\u00e9tro de Paris)"}}, {"type": "node", "id": 5528264337, "lat": 48.8657452, "lon": 2.3344687, "tags": {"STIF:zone": "1", "name": "Pyramides", "public_transport": "station", "railway": "station", "ref:FR:FANTOIR": "75101S452R", "ref:FR:RATP": "1738;50047", "ref:FR:STIF": "22375", "source": "STIF - 12/2016", "station": "subway", "subway": "yes", "type:RATP": "metro", "wheelchair": "limited", "wikidata": "Q1501462", "wikipedia": "fr:Pyramides (m\u00e9tro de Paris)"}}, {"type": "node", "id": 5771575163, "lat": 48.8880133, "lon": 2.3137814, "tags": {"STIF:zone": "1", "air_conditioning": "no", "internet_access": "wlan", "name": "Pont Cardinet", "network": "Transilien", "note": "Please do not add the tag public_transport=station, it is already on the way that defines the footprint of the station", "official_name": "PONT CARDINET", "operator": "SNCF", "railway": "station", "ref": "973 000", "ref:FR:STIF": "411351", "ref:FR:uic8": "87381111", "train": "yes", "uic_ref": "8738111", "website": "https://www.transilien.com/fr/gare/pont-cardinet-8738111", "wheelchair": "no", "wikidata": "Q2298114", "wikipedia": "fr:Gare de Pont-Cardinet"}}, {"type": "node", "id": 6354958621, "lat": 48.8706341, "lon": 2.3258048}, {"type": "node", "id": 6354958622, "lat": 48.8701248, "lon": 2.3273028}, {"type": "node", "id": 6354958623, "lat": 48.8700713, "lon": 2.3272607}, {"type": "node", "id": 6354958624, "lat": 48.8705805, "lon": 2.3257627}, {"type": "node", "id": 6354958625, "lat": 48.870185, "lon": 2.3273491}, {"type": "node", "id": 6354958626, "lat": 48.8706817, "lon": 2.3258426}, {"type": "node", "id": 6354958627, "lat": 48.8707354, "lon": 2.3258835}, {"type": "node", "id": 6354958628, "lat": 48.8702387, "lon": 2.32739}, {"type": "node", "id": 6354958629, "lat": 48.8698882, "lon": 2.3252194}, {"type": "node", "id": 6354958630, "lat": 48.8705731, "lon": 2.3253091}, {"type": "node", "id": 6354958631, "lat": 48.8705725, "lon": 2.3253751}, {"type": "node", "id": 6354958632, "lat": 48.8698834, "lon": 2.3252833}, {"type": "node", "id": 6354958636, "lat": 48.8700517, "lon": 2.3253173}, {"type": "node", "id": 6354958637, "lat": 48.8702241, "lon": 2.325343}, {"type": "node", "id": 6354958638, "lat": 48.8703981, "lon": 2.3253654}, {"type": "node", "id": 6354958639, "lat": 48.8705737, "lon": 2.3252436}, {"type": "node", "id": 6354958643, "lat": 48.8698927, "lon": 2.3251576}, {"type": "node", "id": 6354958644, "lat": 48.8698974, "lon": 2.3250936}, {"type": "node", "id": 6354958645, "lat": 48.8705755, "lon": 2.3251789}, {"type": "node", "id": 6354958646, "lat": 48.8704001, "lon": 2.3251686}, {"type": "node", "id": 6354958647, "lat": 48.8702373, "lon": 2.3251506}, {"type": "node", "id": 6354958648, "lat": 48.8700667, "lon": 2.3251251}, {"type": "node", "id": 6354958652, "lat": 48.8694646, "lon": 2.3256648}, {"type": "node", "id": 6354958653, "lat": 48.8696408, "lon": 2.3266955}, {"type": "node", "id": 6354958654, "lat": 48.8695972, "lon": 2.3267128}, {"type": "node", "id": 6354958655, "lat": 48.8694209, "lon": 2.325682}, {"type": "node", "id": 6354958656, "lat": 48.8696961, "lon": 2.3266726}, {"type": "node", "id": 6354958657, "lat": 48.8695179, "lon": 2.3256447}, {"type": "node", "id": 6354958658, "lat": 48.8695617, "lon": 2.3256289}, {"type": "node", "id": 6354958659, "lat": 48.8697399, "lon": 2.326655}, {"type": "node", "id": 6368126235, "lat": 48.8715492, "lon": 2.3309148}, {"type": "node", "id": 6368126236, "lat": 48.8728498, "lon": 2.3286055}, {"type": "node", "id": 6368126237, "lat": 48.8727997, "lon": 2.3285403}, {"type": "node", "id": 6368126238, "lat": 48.8714991, "lon": 2.3308496}, {"type": "node", "id": 6368126240, "lat": 48.8729019, "lon": 2.3286747}, {"type": "node", "id": 6368126241, "lat": 48.8716034, "lon": 2.3309826}, {"type": "node", "id": 6368126242, "lat": 48.871653, "lon": 2.3310442}, {"type": "node", "id": 6368126243, "lat": 48.8729504, "lon": 2.3287378}, {"type": "node", "id": 6368126255, "lat": 48.8728643, "lon": 2.3286247}, {"type": "node", "id": 6368126256, "lat": 48.8715883, "lon": 2.3309636}, {"type": "node", "id": 6372537879, "lat": 48.8749979, "lon": 2.3286951, "tags": {"STIF:zone": "1", "addr:city": "Paris", "addr:postcode": "75009", "ele": "2", "level": "-7", "name": "Haussmann - Saint-Lazare", "network": "RER", "note": "Please do not add the tag public_transport=station, it is already on the way that defines the footprint of the station", "operator": "SNCF", "railway": "station", "ref:FR:RATP": "51922", "ref:FR:STIF": "41127", "ref:FR:uic8": "87281899", "source": "\u00cele-de-France Mobilit\u00e9s - 03/2022", "start_date": "1999-07-14", "train": "yes", "type:RATP": "rer", "uic_ref": "8728189", "wheelchair": "yes", "wikidata": "Q800898", "wikipedia": "fr:Gare d'Haussmann - Saint-Lazare"}}, {"type": "node", "id": 7058553626, "lat": 48.8551812, "lon": 2.3257736, "tags": {"STIF:zone": "1", "level": "-2", "name": "Rue du Bac", "name:ru": "\u0420\u044e-\u0434\u044e-\u0411\u0430\u043a", "network": "RATP", "operator": "RATP", "public_transport": "station", "railway": "station", "ref:FR:FANTOIR": "75107S031N", "ref:FR:RATP": "1674", "ref:FR:STIF": "22043", "source": "STIF - 12/2016", "station": "subway", "subway": "yes", "type:RATP": "metro", "wheelchair": "no", "wikidata": "Q954566", "wikipedia": "fr:Rue du Bac (m\u00e9tro de Paris)"}}, {"type": "node", "id": 8290586167, "lat": 48.8895133, "lon": 2.3153423, "tags": {"STIF:zone": "1", "name": "Pont Cardinet", "network": "RATP", "official_name": "PONT CARDINET", "opening_date": "2020-12-14", "operator": "RATP", "public_transport": "station", "railway": "station", "ref:FR:STIF": "411351", "source": "survey", "station": "subway", "subway": "yes", "uic_ref": "8738111", "wheelchair": "yes", "wikidata": "Q3396323", "wikipedia": "fr:Pont-Cardinet (m\u00e9tro de Paris)"}}, {"type": "node", "id": 8515111483, "lat": 48.8719671, "lon": 2.3392504, "tags": {"STIF:zone": "1", "level": "-2", "name": "Richelieu - Drouot", "name:ru": "\u0420\u0438\u0448\u0435\u043b\u044c\u0451 \u2014 \u0414\u0440\u0443\u043e", "network": "RATP", "operator": "RATP", "public_transport": "station", "railway": "station", "ref:FR:FANTOIR": "75109S488V", "ref:FR:RATP": "1665", "ref:FR:STIF": "22196", "source": "STIF - 12/2016", "station": "subway", "subway": "yes", "type:RATP": "metro", "wheelchair": "no", "wikidata": "Q1412692", "wikipedia": "fr:Richelieu - Drouot (m\u00e9tro de Paris)"}}, {"type": "node", "id": 9142503438, "lat": 48.8569057, "lon": 2.3150837, "tags": {"STIF:zone": "1", "name": "Varenne", "name:ru": "\u0412\u0430\u0440\u0435\u043d", "public_transport": "station", "railway": "station", "ref:FR:FANTOIR": "75107S582M", "ref:FR:RATP": "1644", "ref:FR:STIF": "22226", "source": "STIF - 12/2016", "station": "subway", "subway": "yes", "type:RATP": "metro", "wheelchair": "no", "wikidata": "Q614636", "wikipedia": "fr:Varenne (m\u00e9tro de Paris)"}}, {"type": "node", "id": 10169371981, "lat": 48.8796039, "lon": 2.3270446, "tags": {"STIF:zone": "1", "name": "Li\u00e8ge", "name:ru": "\u041b\u044c\u0435\u0436", "old_name": "Berlin", "public_transport": "station", "railway": "station", "ref:FR:FANTOIR": "75108S289M", "ref:FR:RATP": "1804", "ref:FR:STIF": "22225", "source": "STIF - 12/2016", "station": "subway", "subway": "yes", "type:RATP": "metro", "wheelchair": "no", "wikidata": "Q1866688", "wikipedia": "fr:Li\u00e8ge (m\u00e9tro de Paris)"}}, {"type": "node", "id": 10275184608, "lat": 48.8617648, "lon": 2.3537854, "tags": {"STIF:zone": "1", "name": "Rambuteau", "public_transport": "stop_position", "railway": "station", "ref:FR:FANTOIR": "75103S481N;75104S481J", "ref:FR:RATP": "1745", "ref:FR:STIF": "21992", "source": "STIF - 12/2016", "station": "subway", "subway": "yes", "type:RATP": "metro", "wheelchair": "no", "wikidata": "Q646376", "wikipedia": "fr:Rambuteau (m\u00e9tro de Paris)"}}, {"type": "node", "id": 11027628099, "lat": 48.8729414, "lon": 2.3287538}, {"type": "node", "id": 11027642780, "lat": 48.8721605, "lon": 2.3296753}, {"type": "way", "id": 678701633, "nodes": [6354958658, 6354958657, 6354958652, 6354958655, 6354958654, 6354958653, 6354958656, 6354958659, 6354958658], "tags": {"STIF:zone": "1", "addr:city": "Paris", "addr:postcode": "75008", "building": "yes", "layer": "-2", "level": "-2", "location": "underground", "name": "Madeleine", "network": "M\u00e9tro de Paris;RATP", "operator": "RATP", "public_transport": "station", "railway": "station", "ref:FR:FANTOIR": "75101S312N;75108S312M", "ref:FR:RATP": "1813", "ref:FR:STIF": "22194", "source": "STIF - 12/2016", "start_date": "1913-07-13", "station": "subway", "subway": "yes", "tunnel": "yes", "wheelchair": "no", "wikidata": "Q1417199", "wikipedia": "fr:Madeleine (m\u00e9tro de Paris)"}}, {"type": "way", "id": 678701646, "nodes": [6354958627, 6354958626, 6354958621, 6354958624, 6354958623, 6354958622, 6354958625, 6354958628, 6354958627], "tags": {"STIF:zone": "1", "addr:city": "Paris", "addr:postcode": "75008", "building": "yes", "layer": "-4;-5", "level": "-4;-5", "location": "underground", "name": "Madeleine", "name:ru": "\u041c\u0430\u0434\u043b\u0435\u043d", "network": "M\u00e9tro de Paris;RATP", "operator": "RATP", "public_transport": "station", "railway": "station", "ref:FR:FANTOIR": "75101S312N;75108S312M", "ref:FR:RATP": "1813", "ref:FR:STIF": "22194", "source": "STIF - 12/2016", "start_date": "1998-10-15", "station": "subway", "subway": "yes", "tunnel": "yes", "wheelchair": "yes", "wikidata": "Q1417199", "wikipedia": "fr:Madeleine (m\u00e9tro de Paris)"}}, {"type": "way", "id": 678701656, "nodes": [6354958631, 6354958630, 6354958639, 6354958645, 6354958646, 6354958647, 6354958648, 6354958644, 6354958643, 6354958629, 6354958632, 6354958636, 6354958637, 6354958638, 6354958631], "tags": {"STIF:zone": "1", "addr:city": "Paris", "addr:postcode": "75008", "building": "yes", "layer": "-2", "level": "-2", "location": "underground", "name": "Madeleine", "network": "M\u00e9tro de Paris;RATP", "operator": "RATP", "public_transport": "station", "railway": "station", "ref:FR:FANTOIR": "75101S312N;75108S312M", "ref:FR:RATP": "1813", "ref:FR:STIF": "22194", "source": "STIF - 12/2016", "start_date": "1910-11-05", "station": "subway", "subway": "yes", "tunnel": "yes", "wheelchair": "no"}}, {"type": "way", "id": 680119434, "nodes": [6368126237, 6368126236, 6368126255, 6368126240, 6368126243, 11027628099, 6368126242, 6368126241, 6368126256, 6368126235, 6368126238, 11027642780, 6368126237], "tags": {"addr:city": "Paris", "addr:postcode": "75009", "addr:street": "Rue Auber", "layer": "-5", "level": "-5", "location": "underground", "name": "Auber", "network": "RER Parisien;RATP", "operator": "RATP", "public_transport": "station", "railway": "station", "start_date": "1971-11-23", "train": "yes", "wheelchair": "yes"}}]}