{"version": 0.6, "generator": "Overpass API 0.7.61.5 4133829e", "osm3s": {"timestamp_osm_base": "2023-12-09T23:49:30Z", "copyright": "The data included in this document is from www.openstreetmap.org. The data is made available under ODbL."}, "elements": [{"type": "node", "id": 282489109, "lat": 48.8739628, "lon": 2.3483713, "tags": {"amenity": "bicycle_rental", "bicycle_rental": "docking_station", "brand": "V\u00e9lib\u2019 M\u00e9tropole", "brand:wikidata": "Q1120762", "brand:wikipedia": "fr:V\u00e9lib' M\u00e9tropole", "capacity": "18", "disused:amenity": "bicycle_rental", "end_date": "2017-10-01", "name": "Petites \u00c9curies - Faubourg Poissonni\u00e8re", "network": "V\u00e9lib\u2019 M\u00e9tropole", "network:wikidata": "Q1120762", "network:wikipedia": "fr:V\u00e9lib' M\u00e9tropole", "operator": "Smovengo", "operator:wikidata": "Q47008427", "operator:wikipedia": "fr:Smovengo", "ref": "10005", "source": "Autolib Velib M\u00e9tropole - 04/2020", "wikidata": "Q86253014"}}, {"type": "node", "id": 428508903, "lat": 48.8803674, "lon": 2.3528307, "tags": {"amenity": "bicycle_rental", "bicycle_rental": "docking_station", "brand": "V\u00e9lib\u2019 M\u00e9tropole", "brand:wikidata": "Q1120762", "brand:wikipedia": "fr:V\u00e9lib' M\u00e9tropole", "capacity": "29", "name": "Gare du Nord - Dunkerque", "network": "V\u00e9lib\u2019 M\u00e9tropole", "network:wikidata": "Q1120762", "network:wikipedia": "fr:V\u00e9lib' M\u00e9tropole", "operator": "Smovengo", "operator:wikidata": "Q47008427", "operator:wikipedia": "fr:Smovengo", "ref": "10028", "source": "survey 10/2018", "wheelchair": "no", "wikidata": "Q86252960"}}, {"type": "node", "id": 436617783, "lat": 48.8580787, "lon": 2.3502718, "tags": {"amenity": "bicycle_rental", "bicycle_rental": "docking_station", "brand": "V\u00e9lib\u2019 M\u00e9tropole", "brand:wikidata": "Q1120762", "brand:wikipedia": "fr:V\u00e9lib' M\u00e9tropole", "capacity": "19", "name": "Saint-Bon - Rivoli", "network": "V\u00e9lib\u2019 M\u00e9tropole", "network:wikidata": "Q1120762", "network:wikipedia": "fr:V\u00e9lib' M\u00e9tropole", "operator": "Smovengo", "operator:wikidata": "Q47008427", "operator:wikipedia": "fr:Smovengo", "ref": "4018", "source": "Autolib Velib M\u00e9tropole - 2021-03", "wikidata": "Q86255030"}}, {"type": "node", "id": 782578990, "lat": 48.8576071, "lon": 2.3358845, "tags": {"amenity": "bicycle_rental", "bicycle_rental": "docking_station", "brand": "V\u00e9lib\u2019 M\u00e9tropole", "brand:wikidata": "Q1120762", "brand:wikipedia": "fr:V\u00e9lib' M\u00e9tropole", "capacity": "17", "name": "Institut de France", "network": "V\u00e9lib\u2019 M\u00e9tropole", "network:wikidata": "Q1120762", "network:wikipedia": "fr:V\u00e9lib' M\u00e9tropole", "operator": "Smovengo", "operator:wikidata": "Q47008427", "operator:wikipedia": "fr:Smovengo", "ref": "6001", "source": "Autolib Velib M\u00e9tropole - 2021-03", "wikidata": "Q86252833"}}, {"type": "node", "id": 998020842, "lat": 48.8667755, "lon": 2.3343748, "tags": {"amenity": "bicycle_rental", "bicycle_rental": "docking_station", "brand": "V\u00e9lib\u2019 M\u00e9tropole", "brand:wikidata": "Q1120762", "brand:wikipedia": "fr:V\u00e9lib' M\u00e9tropole", "capacity": "27", "name": "Ventadour - Op\u00e9ra", "network": "V\u00e9lib\u2019 M\u00e9tropole", "network:wikidata": "Q1120762", "network:wikipedia": "fr:V\u00e9lib' M\u00e9tropole", "operator": "Smovengo", "operator:wikidata": "Q47008427", "operator:wikipedia": "fr:Smovengo", "ref": "1116", "wikidata": "Q86255061"}}, {"type": "node", "id": 1490016248, "lat": 48.8552293, "lon": 2.3473369, "tags": {"amenity": "bicycle_rental", "bicycle_rental": "docking_station", "brand": "V\u00e9lib\u2019 M\u00e9tropole", "brand:wikidata": "Q1120762", "brand:wikipedia": "fr:V\u00e9lib' M\u00e9tropole", "capacity": "23", "disused:amenity": "bicycle_rental", "name": "March\u00e9 aux Fleurs", "network": "V\u00e9lib\u2019 M\u00e9tropole", "network:wikidata": "Q1120762", "network:wikipedia": "fr:V\u00e9lib' M\u00e9tropole", "operator": "Smovengo", "operator:wikidata": "Q47008427", "operator:wikipedia": "fr:Smovengo", "ref": "4002", "source": "survey 2019-05-02", "wikidata": "Q86255000"}}, {"type": "node", "id": 1764095108, "lat": 48.8848869, "lon": 2.3109585, "tags": {"amenity": "bicycle_rental", "bicycle_rental": "docking_station", "brand": "V\u00e9lib\u2019 M\u00e9tropole", "brand:wikidata": "Q1120762", "brand:wikipedia": "fr:V\u00e9lib' M\u00e9tropole", "capacity": "33", "name": "Toqueville - Cardinet", "network": "V\u00e9lib\u2019 M\u00e9tropole", "network:wikidata": "Q1120762", "network:wikipedia": "fr:V\u00e9lib' M\u00e9tropole", "operator": "Smovengo", "operator:wikidata": "Q47008427", "operator:wikipedia": "fr:Smovengo", "ref": "17119", "source": "Autolib Velib M\u00e9tropole - 04/2020", "wikidata": "Q86238375"}}, {"type": "node", "id": 2174795259, "lat": 48.8617427, "lon": 2.3501518}, {"type": "node", "id": 2174795260, "lat": 48.8617483, "lon": 2.3501289}, {"type": "node", "id": 2174795264, "lat": 48.8618708, "lon": 2.3502258}, {"type": "node", "id": 2174795266, "lat": 48.8618765, "lon": 2.3502028}, {"type": "node", "id": 2279282604, "lat": 48.8552856, "lon": 2.3399457, "tags": {"amenity": "bicycle_rental", "bicycle_rental": "docking_station", "brand": "V\u00e9lib\u2019 M\u00e9tropole", "brand:wikidata": "Q1120762", "brand:wikipedia": "fr:V\u00e9lib' M\u00e9tropole", "capacity": "23", "name": "Pont de Lodi - Dauphine", "network": "V\u00e9lib\u2019 M\u00e9tropole", "network:wikidata": "Q1120762", "network:wikipedia": "fr:V\u00e9lib' M\u00e9tropole", "operator": "Smovengo", "operator:wikidata": "Q47008427", "operator:wikipedia": "fr:Smovengo", "ref": "6014", "source": "Autolib Velib M\u00e9tropole - 2022-09", "unsigned_ref": "36003", "wikidata": "Q86252890"}}, {"type": "node", "id": 2481098013, "lat": 48.8620663, "lon": 2.352704, "tags": {"addr:city": "Paris", "addr:country": "FR", "addr:housenumber": "13", "addr:postcode": "75003", "addr:street": "Rue Brant\u00f4me", "amenity": "bicycle_rental", "bicycle_rental": "shop", "name": "Paris Bike Tour", "shop": "rental", "website": "https://parisbiketour.net/"}}, {"type": "node", "id": 2937425832, "lat": 48.8850146, "lon": 2.3070199, "tags": {"amenity": "bicycle_rental", "bicycle_parking": "wide_stands", "bicycle_rental": "docking_station", "brand": "V\u00e9lib\u2019 M\u00e9tropole", "brand:wikidata": "Q1120762", "brand:wikipedia": "fr:V\u00e9lib' M\u00e9tropole", "capacity": "27", "covered": "no", "name": "Jouffroy d'Abbans - Malesherbes", "network": "V\u00e9lib\u2019 M\u00e9tropole", "network:wikidata": "Q1120762", "network:wikipedia": "fr:V\u00e9lib' M\u00e9tropole", "operator": "Smovengo", "operator:wikidata": "Q47008427", "operator:wikipedia": "fr:Smovengo", "ref": "17020", "source": "Survey", "supervised": "no", "wikidata": "Q86238283"}}, {"type": "node", "id": 5363801429, "lat": 48.8781041, "lon": 2.3294724, "tags": {"amenity": "bicycle_rental", "bicycle_rental": "docking_station", "brand": "V\u00e9lib\u2019 M\u00e9tropole", "brand:wikidata": "Q1120762", "brand:wikipedia": "fr:V\u00e9lib' M\u00e9tropole", "capacity": "20", "name": "Ath\u00e8nes - Clichy", "network": "V\u00e9lib\u2019 M\u00e9tropole", "network:wikidata": "Q1120762", "network:wikipedia": "fr:V\u00e9lib' M\u00e9tropole", "operator": "Smovengo", "operator:wikidata": "Q47008427", "operator:wikipedia": "fr:Smovengo", "ref": "9036", "source": "Autolib Velib M\u00e9tropole - 04/2020", "wikidata": "Q86254706"}}, {"type": "node", "id": 5540287647, "lat": 48.8798271, "lon": 2.3454459}, {"type": "node", "id": 5540287648, "lat": 48.8798141, "lon": 2.3454382}, {"type": "node", "id": 5540287649, "lat": 48.8798674, "lon": 2.3452076}, {"type": "node", "id": 5540287650, "lat": 48.8798815, "lon": 2.3452153}, {"type": "node", "id": 5596256890, "lat": 48.8829038, "lon": 2.3463669, "tags": {"amenity": "bicycle_rental", "bicycle_rental": "docking_station", "brand": "V\u00e9lib\u2019 M\u00e9tropole", "brand:wikidata": "Q1120762", "brand:wikipedia": "fr:V\u00e9lib' M\u00e9tropole", "capacity": "21", "name": "G\u00e9rando - Rochechouart", "network": "V\u00e9lib\u2019 M\u00e9tropole", "network:wikidata": "Q1120762", "network:wikipedia": "fr:V\u00e9lib' M\u00e9tropole", "operator": "Smovengo", "operator:wikidata": "Q47008427", "operator:wikipedia": "fr:Smovengo", "ref": "9004", "source": "Autolib Velib M\u00e9tropole - 04/2019", "vending": "no", "wikidata": "Q86254667"}}, {"type": "node", "id": 5596257214, "lat": 48.8826283, "lon": 2.3449016, "tags": {"amenity": "bicycle_rental", "bicycle_rental": "docking_station", "brand": "V\u00e9lib\u2019 M\u00e9tropole", "brand:wikidata": "Q1120762", "brand:wikipedia": "fr:V\u00e9lib' M\u00e9tropole", "capacity": "33", "name": "Square d'Anvers", "network": "V\u00e9lib\u2019 M\u00e9tropole", "network:wikidata": "Q1120762", "network:wikipedia": "fr:V\u00e9lib' M\u00e9tropole", "operator": "Smovengo", "operator:wikidata": "Q47008427", "operator:wikipedia": "fr:Smovengo", "ref": "9005", "source": "Autolib Velib M\u00e9tropole - 04/2020", "vending": "no", "wikidata": "Q86254701"}}, {"type": "node", "id": 5627118343, "lat": 48.8645723, "lon": 2.3463019, "tags": {"amenity": "bicycle_rental", "bicycle_rental": "docking_station", "brand": "V\u00e9lib\u2019 M\u00e9tropole", "brand:wikidata": "Q1120762", "brand:wikipedia": "fr:V\u00e9lib' M\u00e9tropole", "capacity": "28", "name": "\u00c9tienne Marcel - Montorgueil", "network": "V\u00e9lib\u2019 M\u00e9tropole", "network:wikidata": "Q1120762", "network:wikipedia": "fr:V\u00e9lib' M\u00e9tropole", "operator": "Smovengo", "operator:wikidata": "Q47008427", "operator:wikipedia": "fr:Smovengo", "ref": "2002", "source": "Autolib Velib M\u00e9tropole - 2021-03", "wikidata": "Q86255072"}}, {"type": "node", "id": 5646306477, "lat": 48.8889641, "lon": 2.3225523, "tags": {"amenity": "bicycle_rental", "bicycle_rental": "docking_station", "brand": "V\u00e9lib\u2019 M\u00e9tropole", "brand:wikidata": "Q1120762", "brand:wikipedia": "fr:V\u00e9lib' M\u00e9tropole", "capacity": "40", "name": "Legendre - Clichy", "network": "V\u00e9lib\u2019 M\u00e9tropole", "network:wikidata": "Q1120762", "network:wikipedia": "fr:V\u00e9lib' M\u00e9tropole", "operator": "Smovengo", "operator:wikidata": "Q47008427", "operator:wikipedia": "fr:Smovengo", "ref": "17004", "source": "Autolib Velib M\u00e9tropole - 04/2020", "wikidata": "Q86238266"}}, {"type": "node", "id": 5655597962, "lat": 48.8558581, "lon": 2.3508449, "tags": {"amenity": "bicycle_rental", "bicycle_rental": "docking_station", "brand": "V\u00e9lib\u2019 M\u00e9tropole", "brand:wikidata": "Q1120762", "brand:wikipedia": "fr:V\u00e9lib' M\u00e9tropole", "capacity": "20", "layer": "-1", "location": "station au niveau de la voie sur berge", "name": "H\u00f4tel de Ville - Pont d'Arcole", "network": "V\u00e9lib\u2019 M\u00e9tropole", "network:wikidata": "Q1120762", "network:wikipedia": "fr:V\u00e9lib' M\u00e9tropole", "operator": "Smovengo", "operator:wikidata": "Q47008427", "operator:wikipedia": "fr:Smovengo", "ref": "4111", "source": "Autolib Velib M\u00e9tropole - 2021-03", "unsigned_ref": "303563942", "wikidata": "Q86254993"}}, {"type": "node", "id": 5655931519, "lat": 48.8552486, "lon": 2.3375564, "tags": {"amenity": "bicycle_rental", "bicycle_rental": "docking_station", "brand": "V\u00e9lib\u2019 M\u00e9tropole", "brand:wikidata": "Q1120762", "brand:wikipedia": "fr:V\u00e9lib' M\u00e9tropole", "capacity": "28", "name": "Jacques Callot - Mazarine", "network": "V\u00e9lib\u2019 M\u00e9tropole", "network:wikidata": "Q1120762", "network:wikipedia": "fr:V\u00e9lib' M\u00e9tropole", "operator": "Smovengo", "operator:wikidata": "Q47008427", "operator:wikipedia": "fr:Smovengo", "ref": "6013", "source": "Autolib Velib M\u00e9tropole - 04/2020", "wikidata": "Q86252836"}}, {"type": "node", "id": 5659056369, "lat": 48.8661047, "lon": 2.3454362, "tags": {"amenity": "bicycle_rental", "bicycle_rental": "docking_station", "brand": "V\u00e9lib\u2019 M\u00e9tropole", "brand:wikidata": "Q1120762", "brand:wikipedia": "fr:V\u00e9lib' M\u00e9tropole", "capacity": "33", "name": "Bachaumont - Montmartre", "network": "V\u00e9lib\u2019 M\u00e9tropole", "network:wikidata": "Q1120762", "network:wikipedia": "fr:V\u00e9lib' M\u00e9tropole", "note": "localisation aproximative dans open data paris (de 50m)", "operator": "Smovengo", "operator:wikidata": "Q47008427", "operator:wikipedia": "fr:Smovengo", "ref": "2101", "source": "Autolib Velib M\u00e9tropole - 04/2020", "wikidata": "Q86254761"}}, {"type": "node", "id": 5708095754, "lat": 48.858858, "lon": 2.3518235, "tags": {"addr:city": "Paris", "addr:housenumber": "4", "addr:postcode": "75004", "addr:street": "Rue du Clo\u00eetre Saint-Merri", "amenity": "bicycle_rental", "bicycle_rental": "docking_station", "brand": "V\u00e9lib\u2019 M\u00e9tropole", "brand:wikidata": "Q1120762", "brand:wikipedia": "fr:V\u00e9lib' M\u00e9tropole", "capacity": "32", "capacity:opendata": "32", "name": "Clo\u00eetre Saint-Merri - Renard", "network": "V\u00e9lib\u2019 M\u00e9tropole", "network:wikidata": "Q1120762", "network:wikipedia": "fr:V\u00e9lib' M\u00e9tropole", "operator": "Smovengo", "operator:wikidata": "Q47008427", "operator:wikipedia": "fr:Smovengo", "payment:none": "yes", "ref": "4019", "source": "Autolib Velib M\u00e9tropole - 2021-03", "unsigned_ref": "54000543", "website": "https://www.velib-metropole.fr/map#/", "wikidata": "Q86255012"}}, {"type": "node", "id": 5838535122, "lat": 48.8655857, "lon": 2.3561633, "tags": {"amenity": "bicycle_rental", "bicycle_rental": "docking_station", "brand": "V\u00e9lib\u2019 M\u00e9tropole", "brand:wikidata": "Q1120762", "brand:wikipedia": "fr:V\u00e9lib' M\u00e9tropole", "capacity": "31", "name": "Turbigo - R\u00e9aumur", "network": "V\u00e9lib\u2019 M\u00e9tropole", "network:wikidata": "Q1120762", "network:wikipedia": "fr:V\u00e9lib' M\u00e9tropole", "operator": "Smovengo", "operator:wikidata": "Q47008427", "operator:wikipedia": "fr:Smovengo", "ref": "3011", "source": "Autolib Velib M\u00e9tropole - 2021-03", "wikidata": "Q86255157"}}, {"type": "node", "id": 5925974721, "lat": 48.8652434, "lon": 2.3516713, "tags": {"amenity": "bicycle_rental", "bicycle_rental": "docking_station", "brand": "V\u00e9lib\u2019 M\u00e9tropole", "brand:wikidata": "Q1120762", "brand:wikipedia": "fr:V\u00e9lib' M\u00e9tropole", "capacity": "30", "name": "Greneta - Sebastopol", "network": "V\u00e9lib\u2019 M\u00e9tropole", "network:wikidata": "Q1120762", "network:wikipedia": "fr:V\u00e9lib' M\u00e9tropole", "operator": "Smovengo", "operator:wikidata": "Q47008427", "operator:wikipedia": "fr:Smovengo", "ref": "2001", "source": "Autolib Velib M\u00e9tropole - 04/2020", "wikidata": "Q86254755"}}, {"type": "node", "id": 5925974722, "lat": 48.8661916, "lon": 2.3508795, "tags": {"amenity": "bicycle_rental", "bicycle_rental": "docking_station", "brand": "V\u00e9lib\u2019 M\u00e9tropole", "brand:wikidata": "Q1120762", "brand:wikipedia": "fr:V\u00e9lib' M\u00e9tropole", "capacity": "32", "name": "Saint-Denis - R\u00e9aumur", "network": "V\u00e9lib\u2019 M\u00e9tropole", "network:wikidata": "Q1120762", "network:wikipedia": "fr:V\u00e9lib' M\u00e9tropole", "operator": "Smovengo", "operator:wikidata": "Q47008427", "operator:wikipedia": "fr:Smovengo", "ref": "2003", "source": "Autolib Velib M\u00e9tropole - 2021-03", "wikidata": "Q86254732"}}, {"type": "node", "id": 5957673015, "lat": 48.8638545, "lon": 2.3425244}, {"type": "node", "id": 5957673016, "lat": 48.8638515, "lon": 2.3424921}, {"type": "node", "id": 5964620983, "lat": 48.8570865, "lon": 2.3417635, "tags": {"amenity": "bicycle_rental", "bicycle_rental": "docking_station", "brand": "V\u00e9lib\u2019 M\u00e9tropole", "brand:wikidata": "Q1120762", "brand:wikipedia": "fr:V\u00e9lib' M\u00e9tropole", "capacity": "17", "name": "Quai de l'Horloge - Pont Neuf", "network": "V\u00e9lib\u2019 M\u00e9tropole", "network:wikidata": "Q1120762", "network:wikipedia": "fr:V\u00e9lib' M\u00e9tropole", "operator": "Smovengo", "operator:wikidata": "Q47008427", "operator:wikipedia": "fr:Smovengo", "ref": "1001", "source": "Autolib Velib M\u00e9tropole - 2021-03", "unsigned_ref": "323616530", "wikidata": "Q86255080"}}, {"type": "node", "id": 6016301689, "lat": 48.8606515, "lon": 2.3148342, "tags": {"amenity": "bicycle_rental", "bicycle_rental": "docking_station", "brand": "V\u00e9lib\u2019 M\u00e9tropole", "brand:wikidata": "Q1120762", "brand:wikipedia": "fr:V\u00e9lib' M\u00e9tropole", "capacity": "65", "name": "Constantine - Universit\u00e9", "network": "V\u00e9lib\u2019 M\u00e9tropole", "network:wikidata": "Q1120762", "network:wikipedia": "fr:V\u00e9lib' M\u00e9tropole", "operator": "Smovengo", "operator:wikidata": "Q47008427", "operator:wikipedia": "fr:Smovengo", "ref": "7010", "source": "Autolib Velib M\u00e9tropole - 04/2020", "wikidata": "Q86252402"}}, {"type": "node", "id": 6016301692, "lat": 48.8590743, "lon": 2.3186208, "tags": {"amenity": "bicycle_rental", "bicycle_rental": "docking_station", "brand": "V\u00e9lib\u2019 M\u00e9tropole", "brand:wikidata": "Q1120762", "brand:wikipedia": "fr:V\u00e9lib' M\u00e9tropole", "capacity": "22", "name": "Las Cases - Bourgogne", "network": "V\u00e9lib\u2019 M\u00e9tropole", "network:wikidata": "Q1120762", "network:wikipedia": "fr:V\u00e9lib' M\u00e9tropole", "operator": "Smovengo", "operator:wikidata": "Q47008427", "operator:wikipedia": "fr:Smovengo", "ref": "7011", "source": "Autolib Velib M\u00e9tropole - 04/2020", "wikidata": "Q86252405"}}, {"type": "node", "id": 6016301694, "lat": 48.8576838, "lon": 2.3149556, "tags": {"amenity": "bicycle_rental", "bicycle_rental": "docking_station", "brand": "V\u00e9lib\u2019 M\u00e9tropole", "brand:wikidata": "Q1120762", "brand:wikipedia": "fr:V\u00e9lib' M\u00e9tropole", "capacity": "47", "name": "Varenne", "network": "V\u00e9lib\u2019 M\u00e9tropole", "network:wikidata": "Q1120762", "network:wikipedia": "fr:V\u00e9lib' M\u00e9tropole", "note": "deuxi\u00e8me partie de la station v\u00e9lib'", "operator": "Smovengo", "operator:wikidata": "Q47008427", "operator:wikipedia": "fr:Smovengo", "ref": "07015", "source": "Autolib Velib M\u00e9tropole - 04/2020", "wikidata": "Q86252345"}}, {"type": "node", "id": 6031787138, "lat": 48.8877521, "lon": 2.3203072, "tags": {"amenity": "bicycle_rental", "bicycle_rental": "docking_station", "brand": "V\u00e9lib\u2019 M\u00e9tropole", "brand:wikidata": "Q1120762", "brand:wikipedia": "fr:V\u00e9lib' M\u00e9tropole", "capacity": "30", "name": "Legendre - Nollet", "network": "V\u00e9lib\u2019 M\u00e9tropole", "network:wikidata": "Q1120762", "network:wikipedia": "fr:V\u00e9lib' M\u00e9tropole", "operator": "Smovengo", "operator:wikidata": "Q47008427", "operator:wikipedia": "fr:Smovengo", "ref": "17110", "source": "Autolib Velib M\u00e9tropole - 04/2020", "wikidata": "Q86238250"}}, {"type": "node", "id": 6134818406, "lat": 48.8768665, "lon": 2.3327976, "tags": {"amenity": "bicycle_rental", "bicycle_rental": "docking_station", "brand": "V\u00e9lib\u2019 M\u00e9tropole", "brand:wikidata": "Q1120762", "brand:wikipedia": "fr:V\u00e9lib' M\u00e9tropole", "capacity": "39", "name": "Saint-Lazare - Place d'Estienne d'Orves", "network": "V\u00e9lib\u2019 M\u00e9tropole", "network:wikidata": "Q1120762", "network:wikipedia": "fr:V\u00e9lib' M\u00e9tropole", "operator": "Smovengo", "operator:wikidata": "Q47008427", "operator:wikipedia": "fr:Smovengo", "ref": "9029", "source": "Autolib Velib M\u00e9tropole - 04/2020", "wikidata": "Q86254588"}}, {"type": "node", "id": 6200272270, "lat": 48.8668746, "lon": 2.306685, "tags": {"amenity": "bicycle_rental", "bicycle_rental": "docking_station", "brand": "V\u00e9lib\u2019 M\u00e9tropole", "brand:wikidata": "Q1120762", "brand:wikipedia": "fr:V\u00e9lib' M\u00e9tropole", "capacity": "29", "name": "Fran\u00e7ois 1er - Montaigne", "network": "V\u00e9lib\u2019 M\u00e9tropole", "network:wikidata": "Q1120762", "network:wikipedia": "fr:V\u00e9lib' M\u00e9tropole", "operator": "Smovengo", "operator:wikidata": "Q47008427", "operator:wikipedia": "fr:Smovengo", "ref": "8038", "source": "survey 2019-10", "wikidata": "Q86255293"}}, {"type": "node", "id": 6200279782, "lat": 48.8652463, "lon": 2.3101062, "tags": {"amenity": "bicycle_rental", "bicycle_rental": "docking_station", "brand": "V\u00e9lib\u2019 M\u00e9tropole", "brand:wikidata": "Q1120762", "brand:wikipedia": "fr:V\u00e9lib' M\u00e9tropole", "capacity": "40", "name": "Place du Canada", "network": "V\u00e9lib\u2019 M\u00e9tropole", "network:wikidata": "Q1120762", "network:wikipedia": "fr:V\u00e9lib' M\u00e9tropole", "operator": "Smovengo", "operator:wikidata": "Q47008427", "operator:wikipedia": "fr:Smovengo", "ref": "8029", "source": "survey 2019-01", "wikidata": "Q86255242"}}, {"type": "node", "id": 6203928293, "lat": 48.8765329, "lon": 2.3559806, "tags": {"amenity": "bicycle_rental", "bicycle_rental": "docking_station", "brand": "V\u00e9lib\u2019 M\u00e9tropole", "brand:wikidata": "Q1120762", "brand:wikipedia": "fr:V\u00e9lib' M\u00e9tropole", "capacity": "24", "name": "Magenta - Chabrol", "network": "V\u00e9lib\u2019 M\u00e9tropole", "network:wikidata": "Q1120762", "network:wikipedia": "fr:V\u00e9lib' M\u00e9tropole", "operator": "Smovengo", "operator:wikidata": "Q47008427", "operator:wikipedia": "fr:Smovengo", "ref": "10201", "source": "survey 2019-01", "wikidata": "Q86252933"}}, {"type": "node", "id": 6297078185, "lat": 48.8703804, "lon": 2.323324, "tags": {"amenity": "bicycle_rental", "bicycle_rental": "docking_station", "brand": "V\u00e9lib\u2019 M\u00e9tropole", "brand:wikidata": "Q1120762", "brand:wikipedia": "fr:V\u00e9lib' M\u00e9tropole", "capacity": "67", "name": "Malesherbes - Place de la Madeleine", "network": "V\u00e9lib\u2019 M\u00e9tropole", "network:wikidata": "Q1120762", "network:wikipedia": "fr:V\u00e9lib' M\u00e9tropole", "opening_hours": "24/7", "operator": "Smovengo", "operator:wikidata": "Q47008427", "operator:wikipedia": "fr:Smovengo", "ref": "8004", "source": "Autolib Velib M\u00e9tropole - 04/2020", "website": "https://www.velib-metropole.fr", "wikidata": "Q86255313"}}, {"type": "node", "id": 6320368373, "lat": 48.8559636, "lon": 2.3563873, "tags": {"amenity": "bicycle_rental", "bicycle_rental": "docking_station", "brand": "V\u00e9lib\u2019 M\u00e9tropole", "brand:wikidata": "Q1120762", "brand:wikipedia": "fr:V\u00e9lib' M\u00e9tropole", "capacity": "44", "contact:city": "Paris", "contact:email": "info@velib-metropole.fr", "contact:housenumber": "25", "contact:phone": "+33 1 76 49 12 34", "contact:postcode": "75004", "contact:street": "Rue du Pont Louis-Philippe", "contact:website": "https://www.velib-metropole.fr", "covered": "no", "fee": "yes", "name": "Mairie du 4\u00e8me", "network": "V\u00e9lib\u2019 M\u00e9tropole", "network:wikidata": "Q1120762", "network:wikipedia": "fr:V\u00e9lib' M\u00e9tropole", "opening_hours": "24/7", "operator": "Smovengo", "operator:wikidata": "Q47008427", "operator:wikipedia": "fr:Smovengo", "ref": "4015", "source": "Autolib Velib M\u00e9tropole - 2021-03", "unsigned_ref": "100767550", "wheelchair": "yes", "wikidata": "Q86255040"}}, {"type": "node", "id": 6389571746, "lat": 48.8613954, "lon": 2.3525409, "tags": {"amenity": "bicycle_rental", "bicycle_rental": "docking_station", "brand": "V\u00e9lib\u2019 M\u00e9tropole", "brand:wikidata": "Q1120762", "brand:wikipedia": "fr:V\u00e9lib' M\u00e9tropole", "capacity": "26", "name": "Centre Georges Pompidou", "network": "V\u00e9lib\u2019 M\u00e9tropole", "network:wikidata": "Q1120762", "network:wikipedia": "fr:V\u00e9lib' M\u00e9tropole", "operator": "Smovengo", "operator:wikidata": "Q47008427", "operator:wikipedia": "fr:Smovengo", "ref": "4021", "source": "Autolib Velib M\u00e9tropole - 2021-03", "unsigned_ref": "210395439", "wikidata": "Q86254982"}}, {"type": "node", "id": 6389571747, "lat": 48.8624999, "lon": 2.3542486, "tags": {"amenity": "bicycle_rental", "bicycle_rental": "docking_station", "brand": "V\u00e9lib\u2019 M\u00e9tropole", "brand:wikidata": "Q1120762", "brand:wikipedia": "fr:V\u00e9lib' M\u00e9tropole", "capacity": "17", "name": "Beaubourg - Michel-le-Comte", "network": "V\u00e9lib\u2019 M\u00e9tropole", "network:wikidata": "Q1120762", "network:wikipedia": "fr:V\u00e9lib' M\u00e9tropole", "operator": "Smovengo", "operator:wikidata": "Q47008427", "operator:wikipedia": "fr:Smovengo", "ref": "3010", "source": "Autolib Velib M\u00e9tropole - 2022-09", "unsigned_ref": "66491367", "wikidata": "Q86255137"}}, {"type": "node", "id": 6389571749, "lat": 48.8685995, "lon": 2.3557832, "tags": {"amenity": "bicycle_rental", "bicycle_rental": "docking_station", "brand": "V\u00e9lib\u2019 M\u00e9tropole", "brand:wikidata": "Q1120762", "brand:wikipedia": "fr:V\u00e9lib' M\u00e9tropole", "capacity": "35", "name": "Porte Saint-Martin", "network": "V\u00e9lib\u2019 M\u00e9tropole", "network:wikidata": "Q1120762", "network:wikipedia": "fr:V\u00e9lib' M\u00e9tropole", "operator": "Smovengo", "operator:wikidata": "Q47008427", "operator:wikipedia": "fr:Smovengo", "ref": "3101", "source": "Autolib Velib M\u00e9tropole - 04/2020", "wikidata": "Q86255167"}}, {"type": "node", "id": 6389571750, "lat": 48.8674928, "lon": 2.3536572, "tags": {"amenity": "bicycle_rental", "bicycle_rental": "docking_station", "brand": "V\u00e9lib\u2019 M\u00e9tropole", "brand:wikidata": "Q1120762", "brand:wikipedia": "fr:V\u00e9lib' M\u00e9tropole", "capacity": "25", "name": "Square \u00c9mile - Chautemps", "network": "V\u00e9lib\u2019 M\u00e9tropole", "network:wikidata": "Q1120762", "network:wikipedia": "fr:V\u00e9lib' M\u00e9tropole", "operator": "Smovengo", "operator:wikidata": "Q47008427", "operator:wikipedia": "fr:Smovengo", "ref": "3012", "source": "Autolib Velib M\u00e9tropole - 2021-03", "wikidata": "Q86255143"}}, {"type": "node", "id": 6418479198, "lat": 48.879226, "lon": 2.3491474, "tags": {"amenity": "bicycle_rental", "bicycle_rental": "docking_station", "brand": "V\u00e9lib\u2019 M\u00e9tropole", "brand:wikidata": "Q1120762", "brand:wikipedia": "fr:V\u00e9lib' M\u00e9tropole", "capacity": "14", "name": "Abbeville - Faubourg Poissonni\u00e8re", "network": "V\u00e9lib\u2019 M\u00e9tropole", "network:wikidata": "Q1120762", "network:wikipedia": "fr:V\u00e9lib' M\u00e9tropole", "operator": "Smovengo", "operator:wikidata": "Q47008427", "operator:wikipedia": "fr:Smovengo", "ref": "9002", "wikidata": "Q86254696"}}, {"type": "node", "id": 6418480208, "lat": 48.8712408, "lon": 2.3414049, "tags": {"amenity": "bicycle_rental", "bicycle_rental": "docking_station", "brand": "V\u00e9lib\u2019 M\u00e9tropole", "brand:wikidata": "Q1120762", "brand:wikipedia": "fr:V\u00e9lib' M\u00e9tropole", "capacity": "39", "name": "Vivienne - Montmartre", "network": "V\u00e9lib\u2019 M\u00e9tropole", "network:wikidata": "Q1120762", "network:wikipedia": "fr:V\u00e9lib' M\u00e9tropole", "operator": "Smovengo", "operator:wikidata": "Q47008427", "operator:wikipedia": "fr:Smovengo", "ref": "2108", "wikidata": "Q86254745"}}, {"type": "node", "id": 6423680104, "lat": 48.8756834, "lon": 2.3266255, "tags": {"amenity": "bicycle_rental", "bicycle_rental": "docking_station", "brand": "V\u00e9lib\u2019 M\u00e9tropole", "brand:wikidata": "Q1120762", "brand:wikipedia": "fr:V\u00e9lib' M\u00e9tropole", "capacity": "45", "level": "0", "name": "Gare Saint-Lazare - Cour du Havre", "network": "V\u00e9lib\u2019 M\u00e9tropole", "network:wikidata": "Q1120762", "network:wikipedia": "fr:V\u00e9lib' M\u00e9tropole", "operator": "Smovengo", "operator:wikidata": "Q47008427", "operator:wikipedia": "fr:Smovengo", "ref": "8002", "source": "Autolib Velib M\u00e9tropole - 04/2020", "wikidata": "Q86255300"}}, {"type": "node", "id": 6424025689, "lat": 48.8678369, "lon": 2.3495454, "tags": {"amenity": "bicycle_rental", "bicycle_rental": "docking_station", "brand": "V\u00e9lib\u2019 M\u00e9tropole", "brand:wikidata": "Q1120762", "brand:wikipedia": "fr:V\u00e9lib' M\u00e9tropole", "capacity": "40", "name": "Caire - Dussoubs", "network": "V\u00e9lib\u2019 M\u00e9tropole", "network:wikidata": "Q1120762", "network:wikipedia": "fr:V\u00e9lib' M\u00e9tropole", "operator": "Smovengo", "operator:wikidata": "Q47008427", "operator:wikipedia": "fr:Smovengo", "ref": "2017", "source": "Autolib Velib M\u00e9tropole - 04/2019", "wikidata": "Q86254773"}}, {"type": "node", "id": 6424068486, "lat": 48.8811578, "lon": 2.3366444, "tags": {"amenity": "bicycle_rental", "bicycle_rental": "docking_station", "brand": "V\u00e9lib\u2019 M\u00e9tropole", "brand:wikidata": "Q1120762", "brand:wikipedia": "fr:V\u00e9lib' M\u00e9tropole", "capacity": "18", "name": "Victor Mass\u00e9 - Jean-Baptiste Pigalle", "network": "V\u00e9lib\u2019 M\u00e9tropole", "network:wikidata": "Q1120762", "network:wikipedia": "fr:V\u00e9lib' M\u00e9tropole", "operator": "Smovengo", "operator:wikidata": "Q47008427", "operator:wikipedia": "fr:Smovengo", "ref": "9019", "wikidata": "Q86254719"}}, {"type": "node", "id": 6424083985, "lat": 48.8819441, "lon": 2.3523463, "tags": {"amenity": "bicycle_rental", "bicycle_rental": "docking_station", "brand": "V\u00e9lib\u2019 M\u00e9tropole", "brand:wikidata": "Q1120762", "brand:wikipedia": "fr:V\u00e9lib' M\u00e9tropole", "capacity": "49", "name": "Gare du Nord - H\u00f4pital Lariboisi\u00e8re", "network": "V\u00e9lib\u2019 M\u00e9tropole", "network:wikidata": "Q1120762", "network:wikipedia": "fr:V\u00e9lib' M\u00e9tropole", "operator": "Smovengo", "operator:wikidata": "Q47008427", "operator:wikipedia": "fr:Smovengo", "ref": "10107", "wikidata": "Q86253005"}}, {"type": "node", "id": 6424090385, "lat": 48.8809587, "lon": 2.3524469, "tags": {"amenity": "bicycle_rental", "bicycle_rental": "docking_station", "brand": "V\u00e9lib\u2019 M\u00e9tropole", "brand:wikidata": "Q1120762", "brand:wikipedia": "fr:V\u00e9lib' M\u00e9tropole", "capacity": "24", "name": "Gare du Nord - Saint-Vincent de Paul", "network": "V\u00e9lib\u2019 M\u00e9tropole", "network:wikidata": "Q1120762", "network:wikipedia": "fr:V\u00e9lib' M\u00e9tropole", "operator": "Smovengo", "operator:wikidata": "Q47008427", "operator:wikipedia": "fr:Smovengo", "ref": "10033", "source": "Autolib Velib M\u00e9tropole - 04/2020", "wikidata": "Q86252990"}}, {"type": "node", "id": 6433028528, "lat": 48.8721989, "lon": 2.3294205, "tags": {"amenity": "bicycle_rental", "bicycle_rental": "docking_station", "brand": "V\u00e9lib\u2019 M\u00e9tropole", "brand:wikidata": "Q1120762", "brand:wikipedia": "fr:V\u00e9lib' M\u00e9tropole", "capacity": "14", "name": "Boudreau - Auber", "network": "V\u00e9lib\u2019 M\u00e9tropole", "network:wikidata": "Q1120762", "network:wikipedia": "fr:V\u00e9lib' M\u00e9tropole", "operator": "Smovengo", "operator:wikidata": "Q47008427", "operator:wikipedia": "fr:Smovengo", "ref": "9106", "source": "Autolib Velib M\u00e9tropole - 04/2020", "wikidata": "Q86254615"}}, {"type": "node", "id": 6433036361, "lat": 48.8592701, "lon": 2.3467044, "tags": {"amenity": "bicycle_rental", "bicycle_rental": "docking_station", "brand": "V\u00e9lib\u2019 M\u00e9tropole", "brand:wikidata": "Q1120762", "brand:wikipedia": "fr:V\u00e9lib' M\u00e9tropole", "capacity": "27", "name": "Lavandieres Sainte-Opportune - Rivoli", "network": "V\u00e9lib\u2019 M\u00e9tropole", "network:wikidata": "Q1120762", "network:wikipedia": "fr:V\u00e9lib' M\u00e9tropole", "operator": "Smovengo", "operator:wikidata": "Q47008427", "operator:wikipedia": "fr:Smovengo", "ref": "1120", "source": "Autolib Velib M\u00e9tropole - 2022-08", "wikidata": "Q86255052"}}, {"type": "node", "id": 6433057571, "lat": 48.8590644, "lon": 2.34764, "tags": {"amenity": "bicycle_rental", "bicycle_rental": "docking_station", "brand": "V\u00e9lib\u2019 M\u00e9tropole", "brand:wikidata": "Q1120762", "brand:wikipedia": "fr:V\u00e9lib' M\u00e9tropole", "capacity": "43", "name": "Saint-Denis - Rivoli", "network": "V\u00e9lib\u2019 M\u00e9tropole", "network:wikidata": "Q1120762", "network:wikipedia": "fr:V\u00e9lib' M\u00e9tropole", "operator": "Smovengo", "operator:wikidata": "Q47008427", "operator:wikipedia": "fr:Smovengo", "ref": "1003", "source": "Autolib Velib M\u00e9tropole - 2021-03", "wikidata": "Q86255105"}}, {"type": "node", "id": 6433120265, "lat": 48.8729803, "lon": 2.3294795, "tags": {"amenity": "bicycle_rental", "bicycle_rental": "docking_station", "brand": "V\u00e9lib\u2019 M\u00e9tropole", "brand:wikidata": "Q1120762", "brand:wikipedia": "fr:V\u00e9lib' M\u00e9tropole", "capacity": "36", "name": "Mathurins - Auber", "network": "V\u00e9lib\u2019 M\u00e9tropole", "network:wikidata": "Q1120762", "network:wikipedia": "fr:V\u00e9lib' M\u00e9tropole", "operator": "Smovengo", "operator:wikidata": "Q47008427", "operator:wikipedia": "fr:Smovengo", "ref": "9032", "source": "Autolib Velib M\u00e9tropole - 04/2020", "wikidata": "Q86254650"}}, {"type": "node", "id": 6433159066, "lat": 48.8580209, "lon": 2.3468887, "tags": {"amenity": "bicycle_rental", "bicycle_rental": "docking_station", "brand": "V\u00e9lib\u2019 M\u00e9tropole", "brand:wikidata": "Q1120762", "brand:wikipedia": "fr:V\u00e9lib' M\u00e9tropole", "capacity": "22", "name": "Victoria - Place du Chatelet", "network": "V\u00e9lib\u2019 M\u00e9tropole", "network:wikidata": "Q1120762", "network:wikipedia": "fr:V\u00e9lib' M\u00e9tropole", "operator": "Smovengo", "operator:wikidata": "Q47008427", "operator:wikipedia": "fr:Smovengo", "ref": "1002", "source": "Autolib Velib M\u00e9tropole - 2021-03", "unsigned_ref": "82328045", "wikidata": "Q86255085"}}, {"type": "node", "id": 6433219535, "lat": 48.8616478, "lon": 2.3566847, "tags": {"amenity": "bicycle_rental", "bicycle_rental": "docking_station", "brand": "V\u00e9lib\u2019 M\u00e9tropole", "brand:wikidata": "Q1120762", "brand:wikipedia": "fr:V\u00e9lib' M\u00e9tropole", "capacity": "19", "name": "Temple - Haudriettes", "network": "V\u00e9lib\u2019 M\u00e9tropole", "network:wikidata": "Q1120762", "network:wikipedia": "fr:V\u00e9lib' M\u00e9tropole", "operator": "Smovengo", "operator:wikidata": "Q47008427", "operator:wikipedia": "fr:Smovengo", "ref": "3009", "source": "Autolib Velib M\u00e9tropole - 04/2020", "unsigned_ref": "128874528", "wikidata": "Q86255148"}}, {"type": "node", "id": 6433219536, "lat": 48.8601646, "lon": 2.3501401, "tags": {"amenity": "bicycle_rental", "bicycle_rental": "docking_station", "brand": "V\u00e9lib\u2019 M\u00e9tropole", "brand:wikidata": "Q1120762", "brand:wikipedia": "fr:V\u00e9lib' M\u00e9tropole", "capacity": "23", "name": "Place Edmond Michelet", "network": "V\u00e9lib\u2019 M\u00e9tropole", "network:wikidata": "Q1120762", "network:wikipedia": "fr:V\u00e9lib' M\u00e9tropole", "operator": "Smovengo", "operator:wikidata": "Q47008427", "operator:wikipedia": "fr:Smovengo", "ref": "4020", "source": "Autolib Velib M\u00e9tropole - 2021-03", "unsigned_ref": "266422568", "wikidata": "Q86254990"}}, {"type": "node", "id": 6433803365, "lat": 48.8639458, "lon": 2.3356757, "tags": {"amenity": "bicycle_rental", "bicycle_rental": "docking_station", "brand": "V\u00e9lib\u2019 M\u00e9tropole", "brand:wikidata": "Q1120762", "brand:wikipedia": "fr:V\u00e9lib' M\u00e9tropole", "capacity": "19", "name": "Place Andr\u00e9 Malraux", "network": "V\u00e9lib\u2019 M\u00e9tropole", "network:wikidata": "Q1120762", "network:wikipedia": "fr:V\u00e9lib' M\u00e9tropole", "operator": "Smovengo", "operator:wikidata": "Q47008427", "operator:wikipedia": "fr:Smovengo", "ref": "1015", "source": "Autolib Velib M\u00e9tropole - 04/2020", "wikidata": "Q86255069"}}, {"type": "node", "id": 6433805360, "lat": 48.889501, "lon": 2.3333959, "tags": {"amenity": "bicycle_rental", "bicycle_rental": "docking_station", "capacity": "25", "name": "F\u00e9lix Ziem - Armand Gauthier", "network": "V\u00e9lib\u2019", "operator": "Smovengo", "ref": "18111", "source": "Autolib Velib M\u00e9tropole - 2021-03", "wikidata": "Q86253552"}}, {"type": "node", "id": 6435368573, "lat": 48.8573016, "lon": 2.3515339, "tags": {"amenity": "bicycle_rental", "bicycle_rental": "docking_station", "brand": "V\u00e9lib\u2019 M\u00e9tropole", "brand:wikidata": "Q1120762", "brand:wikipedia": "fr:V\u00e9lib' M\u00e9tropole", "capacity": "14", "name": "Place de l'H\u00f4tel de Ville", "network": "V\u00e9lib\u2019 M\u00e9tropole", "network:wikidata": "Q1120762", "network:wikipedia": "fr:V\u00e9lib' M\u00e9tropole", "operator": "Smovengo", "operator:wikidata": "Q47008427", "operator:wikipedia": "fr:Smovengo", "ref": "4017", "source": "survey 04/2019", "wikidata": "Q86255016"}}, {"type": "node", "id": 6438519107, "lat": 48.8572137, "lon": 2.3540069, "tags": {"amenity": "bicycle_rental", "bicycle_rental": "docking_station", "brand": "V\u00e9lib\u2019 M\u00e9tropole", "brand:wikidata": "Q1120762", "brand:wikipedia": "fr:V\u00e9lib' M\u00e9tropole", "capacity": "25", "name": "Archives - Rivoli", "network": "V\u00e9lib\u2019 M\u00e9tropole", "network:wikidata": "Q1120762", "network:wikipedia": "fr:V\u00e9lib' M\u00e9tropole", "operator": "Smovengo", "operator:wikidata": "Q47008427", "operator:wikipedia": "fr:Smovengo", "ref": "4103", "source": "Autolib Velib M\u00e9tropole - 2021-03", "unsigned_ref": "128880156", "wikidata": "Q86255025"}}, {"type": "node", "id": 6438519108, "lat": 48.8562451, "lon": 2.353283, "tags": {"amenity": "bicycle_rental", "bicycle_rental": "docking_station", "brand": "V\u00e9lib\u2019 M\u00e9tropole", "brand:wikidata": "Q1120762", "brand:wikipedia": "fr:V\u00e9lib' M\u00e9tropole", "capacity": "60", "name": "Lobau - H\u00f4tel de Ville", "network": "V\u00e9lib\u2019 M\u00e9tropole", "network:wikidata": "Q1120762", "network:wikipedia": "fr:V\u00e9lib' M\u00e9tropole", "operator": "Smovengo", "operator:wikidata": "Q47008427", "operator:wikipedia": "fr:Smovengo", "ref": "4016", "source": "Autolib Velib M\u00e9tropole - 2021-03", "unsigned_ref": "98187918", "wikidata": "Q86254997"}}, {"type": "node", "id": 6438519110, "lat": 48.8557759, "lon": 2.3578968, "tags": {"amenity": "bicycle_rental", "bicycle_rental": "docking_station", "capacity": "28", "name": "Tiron - Rivoli", "network": "V\u00e9lib\u2019", "operator": "Smovengo", "ref": "4012", "source": "Autolib Velib M\u00e9tropole - 2021-03", "unsigned_ref": "58391194", "wikidata": "Q86255033"}}, {"type": "node", "id": 6439759681, "lat": 48.8626276, "lon": 2.3499155, "tags": {"amenity": "bicycle_rental", "bicycle_rental": "docking_station", "brand": "V\u00e9lib\u2019 M\u00e9tropole", "brand:wikidata": "Q1120762", "brand:wikipedia": "fr:V\u00e9lib' M\u00e9tropole", "capacity": "33", "name": "Grande Truanderie - Saint-Denis", "network": "V\u00e9lib\u2019 M\u00e9tropole", "network:wikidata": "Q1120762", "network:wikipedia": "fr:V\u00e9lib' M\u00e9tropole", "operator": "Smovengo", "operator:wikidata": "Q47008427", "operator:wikipedia": "fr:Smovengo", "ref": "1006", "source": "Autolib Velib M\u00e9tropole - 2021-03", "unsigned_ref": "220504949", "wikidata": "Q86255089"}}, {"type": "node", "id": 6466763535, "lat": 48.8811703, "lon": 2.3584076, "tags": {"amenity": "bicycle_rental", "bicycle_rental": "docking_station", "brand": "V\u00e9lib\u2019 M\u00e9tropole", "brand:wikidata": "Q1120762", "brand:wikipedia": "fr:V\u00e9lib' M\u00e9tropole", "capacity": "30", "name": "Gare du Nord - Demarquay", "network": "V\u00e9lib\u2019 M\u00e9tropole", "network:wikidata": "Q1120762", "network:wikipedia": "fr:V\u00e9lib' M\u00e9tropole", "operator": "Smovengo", "operator:wikidata": "Q47008427", "operator:wikipedia": "fr:Smovengo", "ref": "10163", "source": "Autolib Velib M\u00e9tropole - 04/2019;survey 2019-05", "wikidata": "Q86252941"}}, {"type": "node", "id": 6486388510, "lat": 48.8594004, "lon": 2.3559334, "tags": {"amenity": "bicycle_rental", "bicycle_rental": "docking_station", "brand": "V\u00e9lib\u2019 M\u00e9tropole", "brand:wikidata": "Q1120762", "brand:wikipedia": "fr:V\u00e9lib' M\u00e9tropole", "capacity": "29", "name": "Blancs-Manteaux - Archives", "network": "V\u00e9lib\u2019 M\u00e9tropole", "network:wikidata": "Q1120762", "network:wikipedia": "fr:V\u00e9lib' M\u00e9tropole", "operator": "Smovengo", "operator:wikidata": "Q47008427", "operator:wikipedia": "fr:Smovengo", "ref": "4014", "source": "Autolib Velib M\u00e9tropole - 2021-03", "unsigned_ref": "54000542", "wikidata": "Q86254984"}}, {"type": "node", "id": 6486388511, "lat": 48.8585606, "lon": 2.358674, "tags": {"amenity": "bicycle_rental", "capacity": "29", "name": "Vieille du Temple - Francs Bourgeois", "network": "V\u00e9lib\u2019", "operator": "Smovengo", "ref": "4013", "source": "Autolib Velib M\u00e9tropole - 2021-03", "survey:date": "2021-02-16", "unsigned_ref": "54000541", "wikidata": "Q86254978"}}, {"type": "node", "id": 6549488949, "lat": 48.8762106, "lon": 2.3198369, "tags": {"amenity": "bicycle_rental", "bicycle_rental": "docking_station", "brand": "V\u00e9lib\u2019 M\u00e9tropole", "brand:wikidata": "Q1120762", "brand:wikipedia": "fr:V\u00e9lib' M\u00e9tropole", "capacity": "31", "fee": "yes", "name": "Saint-Augustin", "network": "V\u00e9lib\u2019 M\u00e9tropole", "network:wikidata": "Q1120762", "network:wikipedia": "fr:V\u00e9lib' M\u00e9tropole", "opening_hours": "24/7", "operator": "Smovengo", "operator:wikidata": "Q47008427", "operator:wikipedia": "fr:Smovengo", "payment:debit_cards": "yes", "ref": "8018", "source": "Autolib Velib M\u00e9tropole - 04/2020", "wikidata": "Q86255330"}}, {"type": "node", "id": 6596334443, "lat": 48.876741, "lon": 2.3304734, "tags": {"amenity": "bicycle_rental", "bicycle_rental": "docking_station", "brand": "V\u00e9lib\u2019 M\u00e9tropole", "brand:wikidata": "Q1120762", "brand:wikipedia": "fr:V\u00e9lib' M\u00e9tropole", "capacity": "25", "name": "Londres - Place d'Estienne d'Orves", "network": "V\u00e9lib\u2019 M\u00e9tropole", "network:wikidata": "Q1120762", "network:wikipedia": "fr:V\u00e9lib' M\u00e9tropole", "operator": "Smovengo", "operator:wikidata": "Q47008427", "operator:wikipedia": "fr:Smovengo", "ref": "9102", "source": "Autolib Velib M\u00e9tropole - 04/2020", "wikidata": "Q86254594"}}, {"type": "node", "id": 6596334444, "lat": 48.877754, "lon": 2.32735, "tags": {"amenity": "bicycle_rental", "bicycle_rental": "docking_station", "brand": "V\u00e9lib\u2019 M\u00e9tropole", "brand:wikidata": "Q1120762", "brand:wikipedia": "fr:V\u00e9lib' M\u00e9tropole", "capacity": "44", "name": "Gare Saint-Lazare - Place de Budapest", "network": "V\u00e9lib\u2019 M\u00e9tropole", "network:wikidata": "Q1120762", "network:wikipedia": "fr:V\u00e9lib' M\u00e9tropole", "operator": "Smovengo", "operator:wikidata": "Q47008427", "operator:wikipedia": "fr:Smovengo", "ref": "9035", "source": "Autolib Velib M\u00e9tropole - 04/2020", "wikidata": "Q86254622"}}, {"type": "node", "id": 6596334447, "lat": 48.8785057, "lon": 2.3250424, "tags": {"amenity": "bicycle_rental", "bicycle_rental": "docking_station", "brand": "V\u00e9lib\u2019 M\u00e9tropole", "brand:wikidata": "Q1120762", "brand:wikipedia": "fr:V\u00e9lib' M\u00e9tropole", "capacity": "27", "fee": "yes", "name": "Londres - Europe", "network": "V\u00e9lib\u2019 M\u00e9tropole", "network:wikidata": "Q1120762", "network:wikipedia": "fr:V\u00e9lib' M\u00e9tropole", "operator": "Smovengo", "operator:wikidata": "Q47008427", "operator:wikipedia": "fr:Smovengo", "ref": "8202", "source": "Autolib Velib M\u00e9tropole - 04/2020", "wikidata": "Q86255244"}}, {"type": "node", "id": 6736637867, "lat": 48.8708236, "lon": 2.3538271, "tags": {"amenity": "bicycle_rental", "bicycle_rental": "docking_station", "brand": "V\u00e9lib\u2019 M\u00e9tropole", "brand:wikidata": "Q1120762", "brand:wikipedia": "fr:V\u00e9lib' M\u00e9tropole", "capacity": "48", "name": "Metz - Faubourg Saint-Denis", "network": "V\u00e9lib\u2019 M\u00e9tropole", "network:wikidata": "Q1120762", "network:wikipedia": "fr:V\u00e9lib' M\u00e9tropole", "operator": "Smovengo", "operator:wikidata": "Q47008427", "operator:wikipedia": "fr:Smovengo", "ref": "10004", "source": "Autolib Velib M\u00e9tropole - 04/2019", "wikidata": "Q86253038"}}, {"type": "node", "id": 6736639209, "lat": 48.8707979, "lon": 2.3496534, "tags": {"amenity": "bicycle_rental", "bicycle_rental": "docking_station", "brand": "V\u00e9lib\u2019 M\u00e9tropole", "brand:wikidata": "Q1120762", "brand:wikipedia": "fr:V\u00e9lib' M\u00e9tropole", "capacity": "17", "name": "Hauteville - Bonne Nouvelle", "network": "V\u00e9lib\u2019 M\u00e9tropole", "network:wikidata": "Q1120762", "network:wikipedia": "fr:V\u00e9lib' M\u00e9tropole", "operator": "Smovengo", "operator:wikidata": "Q47008427", "operator:wikipedia": "fr:Smovengo", "ref": "10003", "source": "Autolib Velib M\u00e9tropole - 04/2020", "wikidata": "Q86252986"}}, {"type": "node", "id": 6742656166, "lat": 48.8707655, "lon": 2.3587313, "tags": {"amenity": "bicycle_rental", "bicycle_rental": "docking_station", "brand": "V\u00e9lib\u2019 M\u00e9tropole", "brand:wikidata": "Q1120762", "brand:wikipedia": "fr:V\u00e9lib' M\u00e9tropole", "capacity": "18", "name": "Cit\u00e9 Riverin - Ch\u00e2teau d'Eau", "network": "V\u00e9lib\u2019 M\u00e9tropole", "network:wikidata": "Q1120762", "network:wikipedia": "fr:V\u00e9lib' M\u00e9tropole", "operator": "Smovengo", "operator:wikidata": "Q47008427", "operator:wikipedia": "fr:Smovengo", "ref": "10008", "source": "Autolib Velib M\u00e9tropole - 04/2020", "wikidata": "Q86252912"}}, {"type": "node", "id": 6742672134, "lat": 48.8720861, "lon": 2.3576627, "tags": {"amenity": "bicycle_rental", "bicycle_rental": "docking_station", "brand": "V\u00e9lib\u2019 M\u00e9tropole", "brand:wikidata": "Q1120762", "brand:wikipedia": "fr:V\u00e9lib' M\u00e9tropole", "capacity": "19", "name": "Mairie du 10\u00e8me", "network": "V\u00e9lib\u2019 M\u00e9tropole", "network:wikidata": "Q1120762", "network:wikipedia": "fr:V\u00e9lib' M\u00e9tropole", "operator": "Smovengo", "operator:wikidata": "Q47008427", "operator:wikipedia": "fr:Smovengo", "ref": "10009", "source": "Autolib Velib M\u00e9tropole - 04/2020", "wikidata": "Q86252948"}}, {"type": "node", "id": 6742675422, "lat": 48.8729626, "lon": 2.353959, "tags": {"amenity": "bicycle_rental", "bicycle_rental": "docking_station", "brand": "V\u00e9lib\u2019 M\u00e9tropole", "brand:wikidata": "Q1120762", "brand:wikipedia": "fr:V\u00e9lib' M\u00e9tropole", "capacity": "28", "name": "Petites Ecuries - Faubourg Saint-Denis", "network": "V\u00e9lib\u2019 M\u00e9tropole", "network:wikidata": "Q1120762", "network:wikipedia": "fr:V\u00e9lib' M\u00e9tropole", "operator": "Smovengo", "operator:wikidata": "Q47008427", "operator:wikipedia": "fr:Smovengo", "ref": "10006", "source": "Autolib Velib M\u00e9tropole - 04/2020", "wikidata": "Q86253042"}}, {"type": "node", "id": 6742682210, "lat": 48.8745725, "lon": 2.3567936, "tags": {"amenity": "bicycle_rental", "bicycle_rental": "docking_station", "brand": "V\u00e9lib\u2019 M\u00e9tropole", "brand:wikidata": "Q1120762", "brand:wikipedia": "fr:V\u00e9lib' M\u00e9tropole", "capacity": "15", "name": "Gare de l'Est - Fid\u00e9lit\u00e9", "network": "V\u00e9lib\u2019 M\u00e9tropole", "network:wikidata": "Q1120762", "network:wikipedia": "fr:V\u00e9lib' M\u00e9tropole", "operator": "Smovengo", "operator:wikidata": "Q47008427", "operator:wikipedia": "fr:Smovengo", "ref": "10017", "source": "Autolib Velib M\u00e9tropole - 04/2020", "wikidata": "Q86252975"}}, {"type": "node", "id": 6742710306, "lat": 48.8753816, "lon": 2.3560915, "tags": {"amenity": "bicycle_rental", "bicycle_rental": "docking_station", "brand": "V\u00e9lib\u2019 M\u00e9tropole", "brand:wikidata": "Q1120762", "brand:wikipedia": "fr:V\u00e9lib' M\u00e9tropole", "capacity": "30", "name": "Square Alban Satragne", "network": "V\u00e9lib\u2019 M\u00e9tropole", "network:wikidata": "Q1120762", "network:wikipedia": "fr:V\u00e9lib' M\u00e9tropole", "operator": "Smovengo", "operator:wikidata": "Q47008427", "operator:wikipedia": "fr:Smovengo", "ref": "10018", "source": "Autolib Velib M\u00e9tropole - 04/2020", "wikidata": "Q86252905"}}, {"type": "node", "id": 6755991828, "lat": 48.8779506, "lon": 2.3374655, "tags": {"amenity": "bicycle_rental", "bicycle_rental": "docking_station", "brand": "V\u00e9lib\u2019 M\u00e9tropole", "brand:wikidata": "Q1120762", "brand:wikipedia": "fr:V\u00e9lib' M\u00e9tropole", "capacity": "23", "name": "Saint-Georges - d'Aumale", "network": "V\u00e9lib\u2019 M\u00e9tropole", "network:wikidata": "Q1120762", "network:wikipedia": "fr:V\u00e9lib' M\u00e9tropole", "operator": "Smovengo", "operator:wikidata": "Q47008427", "operator:wikipedia": "fr:Smovengo", "payment:contactless": "yes", "payment:mastercard": "yes", "payment:visa": "yes", "ref": "9021", "source": "Autolib Velib M\u00e9tropole - 04/2020", "vending": "yes", "wikidata": "Q86254704"}}, {"type": "node", "id": 6763682114, "lat": 48.875038, "lon": 2.3521409, "tags": {"amenity": "bicycle_rental", "bicycle_rental": "docking_station", "brand": "V\u00e9lib\u2019 M\u00e9tropole", "brand:wikidata": "Q1120762", "brand:wikipedia": "fr:V\u00e9lib' M\u00e9tropole", "capacity": "31", "name": "Paradis - Hauteville", "network": "V\u00e9lib\u2019 M\u00e9tropole", "network:wikidata": "Q1120762", "network:wikipedia": "fr:V\u00e9lib' M\u00e9tropole", "operator": "Smovengo", "operator:wikidata": "Q47008427", "operator:wikipedia": "fr:Smovengo", "ref": "10019", "source": "Autolib Velib M\u00e9tropole - 04/2020", "wikidata": "Q86253061"}}, {"type": "node", "id": 6763682115, "lat": 48.877101, "lon": 2.3512033, "tags": {"amenity": "bicycle_rental", "bicycle_rental": "docking_station", "brand": "V\u00e9lib\u2019 M\u00e9tropole", "brand:wikidata": "Q1120762", "brand:wikipedia": "fr:V\u00e9lib' M\u00e9tropole", "capacity": "11", "name": "Chabrol - d'Hauteville", "network": "V\u00e9lib\u2019 M\u00e9tropole", "network:wikidata": "Q1120762", "network:wikipedia": "fr:V\u00e9lib' M\u00e9tropole", "operator": "Smovengo", "operator:wikidata": "Q47008427", "operator:wikipedia": "fr:Smovengo", "ref": "10020", "source": "Autolib Velib M\u00e9tropole - 04/2019", "wikidata": "Q86252958"}}, {"type": "node", "id": 6763682116, "lat": 48.8773562, "lon": 2.3545046, "tags": {"amenity": "bicycle_rental", "bicycle_rental": "docking_station", "brand": "V\u00e9lib\u2019 M\u00e9tropole", "brand:wikidata": "Q1120762", "brand:wikipedia": "fr:V\u00e9lib' M\u00e9tropole", "capacity": "15", "name": "March\u00e9 Saint-Quentin", "network": "V\u00e9lib\u2019 M\u00e9tropole", "network:wikidata": "Q1120762", "network:wikipedia": "fr:V\u00e9lib' M\u00e9tropole", "operator": "Smovengo", "operator:wikidata": "Q47008427", "operator:wikipedia": "fr:Smovengo", "ref": "10021", "source": "Autolib Velib M\u00e9tropole - 04/2019", "wikidata": "Q86253011"}}, {"type": "node", "id": 6763717995, "lat": 48.8793585, "lon": 2.3583226, "tags": {"amenity": "bicycle_rental", "bicycle_rental": "docking_station", "brand": "V\u00e9lib\u2019 M\u00e9tropole", "brand:wikidata": "Q1120762", "brand:wikipedia": "fr:V\u00e9lib' M\u00e9tropole", "capacity": "18", "name": "Dunkerque - Alsace", "network": "V\u00e9lib\u2019 M\u00e9tropole", "network:wikidata": "Q1120762", "network:wikipedia": "fr:V\u00e9lib' M\u00e9tropole", "operator": "Smovengo", "operator:wikidata": "Q47008427", "operator:wikipedia": "fr:Smovengo", "ref": "10027", "source": "Autolib Velib M\u00e9tropole - 04/2019", "wikidata": "Q86253026"}}, {"type": "node", "id": 6763717996, "lat": 48.8807212, "lon": 2.3514536, "tags": {"amenity": "bicycle_rental", "bicycle_rental": "docking_station", "brand": "V\u00e9lib\u2019 M\u00e9tropole", "brand:wikidata": "Q1120762", "brand:wikipedia": "fr:V\u00e9lib' M\u00e9tropole", "capacity": "24", "name": "Dunkerque - Rocroy", "network": "V\u00e9lib\u2019 M\u00e9tropole", "network:wikidata": "Q1120762", "network:wikipedia": "fr:V\u00e9lib' M\u00e9tropole", "operator": "Smovengo", "operator:wikidata": "Q47008427", "operator:wikipedia": "fr:Smovengo", "ref": "10029", "source": "Autolib Velib M\u00e9tropole - 04/2020", "wikidata": "Q86252893"}}, {"type": "node", "id": 6763718002, "lat": 48.8636064, "lon": 2.3478837, "tags": {"amenity": "bicycle_rental", "bicycle_rental": "docking_station", "brand": "V\u00e9lib\u2019 M\u00e9tropole", "brand:wikidata": "Q1120762", "brand:wikipedia": "fr:V\u00e9lib' M\u00e9tropole", "capacity": "16", "name": "Turbigo - Fran\u00e7aise", "network": "V\u00e9lib\u2019 M\u00e9tropole", "network:wikidata": "Q1120762", "network:wikipedia": "fr:V\u00e9lib' M\u00e9tropole", "operator": "Smovengo", "operator:wikidata": "Q47008427", "operator:wikipedia": "fr:Smovengo", "ref": "1007", "source": "Autolib Velib M\u00e9tropole - 04/2020", "wikidata": "Q86255078"}}, {"type": "node", "id": 6763718003, "lat": 48.8638018, "lon": 2.3425753, "tags": {"amenity": "bicycle_rental", "bicycle_rental": "docking_station", "brand": "V\u00e9lib\u2019 M\u00e9tropole", "brand:wikidata": "Q1120762", "brand:wikipedia": "fr:V\u00e9lib' M\u00e9tropole", "capacity": "21", "name": "Coquilli\u00e8re - Louvre", "network": "V\u00e9lib\u2019 M\u00e9tropole", "network:wikidata": "Q1120762", "network:wikipedia": "fr:V\u00e9lib' M\u00e9tropole", "operator": "Smovengo", "operator:wikidata": "Q47008427", "operator:wikipedia": "fr:Smovengo", "ref": "1024", "source": "Autolib Velib M\u00e9tropole - 04/2020", "wikidata": "Q86255110"}}, {"type": "node", "id": 6763718004, "lat": 48.8702627, "lon": 2.3512688, "tags": {"amenity": "bicycle_rental", "bicycle_rental": "docking_station", "brand": "V\u00e9lib\u2019 M\u00e9tropole", "brand:wikidata": "Q1120762", "brand:wikipedia": "fr:V\u00e9lib' M\u00e9tropole", "capacity": "25", "name": "Mazagran - Bonne Nouvelle", "network": "V\u00e9lib\u2019 M\u00e9tropole", "network:wikidata": "Q1120762", "network:wikipedia": "fr:V\u00e9lib' M\u00e9tropole", "operator": "Smovengo", "operator:wikidata": "Q47008427", "operator:wikipedia": "fr:Smovengo", "ref": "10105", "source": "Autolib Velib M\u00e9tropole - 04/2019", "wikidata": "Q86252929"}}, {"type": "node", "id": 6795914873, "lat": 48.8629772, "lon": 2.3415179, "tags": {"amenity": "bicycle_rental", "bicycle_rental": "docking_station", "brand": "V\u00e9lib\u2019 M\u00e9tropole", "brand:wikidata": "Q1120762", "brand:wikipedia": "fr:V\u00e9lib' M\u00e9tropole", "capacity": "22", "name": "Jean-Jacques Rousseau - Deux Ecus", "network": "V\u00e9lib\u2019 M\u00e9tropole", "network:wikidata": "Q1120762", "network:wikipedia": "fr:V\u00e9lib' M\u00e9tropole", "operator": "Smovengo", "operator:wikidata": "Q47008427", "operator:wikipedia": "fr:Smovengo", "ref": "1012", "source": "Autolib Velib M\u00e9tropole - 04/2020", "wikidata": "Q86255107"}}, {"type": "node", "id": 6795914874, "lat": 48.8624227, "lon": 2.3385936, "tags": {"amenity": "bicycle_rental", "bicycle_rental": "docking_station", "brand": "V\u00e9lib\u2019 M\u00e9tropole", "brand:wikidata": "Q1120762", "brand:wikipedia": "fr:V\u00e9lib' M\u00e9tropole", "capacity": "67", "name": "Place du Palais Royal", "network": "V\u00e9lib\u2019 M\u00e9tropole", "network:wikidata": "Q1120762", "network:wikipedia": "fr:V\u00e9lib' M\u00e9tropole", "operator": "Smovengo", "operator:wikidata": "Q47008427", "operator:wikipedia": "fr:Smovengo", "ref": "1013", "source": "Autolib Velib M\u00e9tropole - 04/2020", "wikidata": "Q86255083"}}, {"type": "node", "id": 6795916694, "lat": 48.8636827, "lon": 2.3340472, "tags": {"amenity": "bicycle_rental", "bicycle_rental": "docking_station", "brand": "V\u00e9lib\u2019 M\u00e9tropole", "brand:wikidata": "Q1120762", "brand:wikipedia": "fr:V\u00e9lib' M\u00e9tropole", "capacity": "24", "name": "Rivoli - Mus\u00e9e du Louvre", "network": "V\u00e9lib\u2019 M\u00e9tropole", "network:wikidata": "Q1120762", "network:wikipedia": "fr:V\u00e9lib' M\u00e9tropole", "operator": "Smovengo", "operator:wikidata": "Q47008427", "operator:wikipedia": "fr:Smovengo", "ref": "1014", "source": "Autolib Velib M\u00e9tropole - 04/2020", "wikidata": "Q86255127"}}, {"type": "node", "id": 6795916695, "lat": 48.8796362, "lon": 2.3568989, "tags": {"amenity": "bicycle_rental", "bicycle_rental": "docking_station", "brand": "V\u00e9lib\u2019 M\u00e9tropole", "brand:wikidata": "Q1120762", "brand:wikipedia": "fr:V\u00e9lib' M\u00e9tropole", "capacity": "28", "name": "Gare du Nord - Faubourg Saint-Denis", "network": "V\u00e9lib\u2019 M\u00e9tropole", "network:wikidata": "Q1120762", "network:wikipedia": "fr:V\u00e9lib' M\u00e9tropole", "operator": "Smovengo", "operator:wikidata": "Q47008427", "operator:wikipedia": "fr:Smovengo", "ref": "10151", "source": "Autolib Velib M\u00e9tropole - 04/2019", "wikidata": "Q86253058"}}, {"type": "node", "id": 6795916696, "lat": 48.8791079, "lon": 2.354235, "tags": {"amenity": "bicycle_rental", "bicycle_rental": "docking_station", "brand": "V\u00e9lib\u2019 M\u00e9tropole", "brand:wikidata": "Q1120762", "brand:wikipedia": "fr:V\u00e9lib' M\u00e9tropole", "capacity": "25", "name": "Gare du Nord - Place de Valenciennes", "network": "V\u00e9lib\u2019 M\u00e9tropole", "network:wikidata": "Q1120762", "network:wikipedia": "fr:V\u00e9lib' M\u00e9tropole", "operator": "Smovengo", "operator:wikidata": "Q47008427", "operator:wikipedia": "fr:Smovengo", "ref": "10152", "source": "Autolib Velib M\u00e9tropole - 04/2020", "wikidata": "Q86252943"}}, {"type": "node", "id": 6795916697, "lat": 48.8795828, "lon": 2.3544902, "tags": {"amenity": "bicycle_rental", "bicycle_rental": "docking_station", "brand": "V\u00e9lib\u2019 M\u00e9tropole", "brand:wikidata": "Q1120762", "brand:wikipedia": "fr:V\u00e9lib' M\u00e9tropole", "capacity": "20", "name": "Gare du Nord - Denain", "network": "V\u00e9lib\u2019 M\u00e9tropole", "network:wikidata": "Q1120762", "network:wikipedia": "fr:V\u00e9lib' M\u00e9tropole", "operator": "Smovengo", "operator:wikidata": "Q47008427", "operator:wikipedia": "fr:Smovengo", "ref": "10153", "source": "Autolib Velib M\u00e9tropole - 04/2019", "wikidata": "Q86252983"}}, {"type": "node", "id": 6795916698, "lat": 48.866462, "lon": 2.3344911, "tags": {"amenity": "bicycle_rental", "bicycle_rental": "docking_station", "brand": "V\u00e9lib\u2019 M\u00e9tropole", "brand:wikidata": "Q1120762", "brand:wikipedia": "fr:V\u00e9lib' M\u00e9tropole", "capacity": "25", "name": "Th\u00e9r\u00e8se - Op\u00e9ra", "network": "V\u00e9lib\u2019 M\u00e9tropole", "network:wikidata": "Q1120762", "network:wikipedia": "fr:V\u00e9lib' M\u00e9tropole", "operator": "Smovengo", "operator:wikidata": "Q47008427", "operator:wikipedia": "fr:Smovengo", "ref": "1016", "source": "Autolib Velib M\u00e9tropole - 04/2020", "wikidata": "Q86255098"}}, {"type": "node", "id": 6795916699, "lat": 48.876361, "lon": 2.358636, "tags": {"amenity": "bicycle_rental", "bicycle_rental": "docking_station", "brand": "V\u00e9lib\u2019 M\u00e9tropole", "brand:wikidata": "Q1120762", "brand:wikipedia": "fr:V\u00e9lib' M\u00e9tropole", "capacity": "40", "name": "Gare de l'Est - Place du 11 Novembre 1918", "network": "V\u00e9lib\u2019 M\u00e9tropole", "network:wikidata": "Q1120762", "network:wikipedia": "fr:V\u00e9lib' M\u00e9tropole", "operator": "Smovengo", "operator:wikidata": "Q47008427", "operator:wikipedia": "fr:Smovengo", "ref": "10165", "source": "Autolib Velib M\u00e9tropole - 04/2019", "wikidata": "Q86252917"}}, {"type": "node", "id": 6801503709, "lat": 48.8655676, "lon": 2.3306009, "tags": {"amenity": "bicycle_rental", "bicycle_rental": "docking_station", "brand": "V\u00e9lib\u2019 M\u00e9tropole", "brand:wikidata": "Q1120762", "brand:wikipedia": "fr:V\u00e9lib' M\u00e9tropole", "capacity": "20", "name": "Saint-Honor\u00e9 - 29 juillet", "network": "V\u00e9lib\u2019 M\u00e9tropole", "network:wikidata": "Q1120762", "network:wikipedia": "fr:V\u00e9lib' M\u00e9tropole", "operator": "Smovengo", "operator:wikidata": "Q47008427", "operator:wikipedia": "fr:Smovengo", "ref": "1017", "source": "Autolib Velib M\u00e9tropole - 04/2020", "wikidata": "Q86255058"}}, {"type": "node", "id": 6801503710, "lat": 48.8648016, "lon": 2.3294416, "tags": {"amenity": "bicycle_rental", "bicycle_rental": "docking_station", "brand": "V\u00e9lib\u2019 M\u00e9tropole", "brand:wikidata": "Q1120762", "brand:wikipedia": "fr:V\u00e9lib' M\u00e9tropole", "capacity": "21", "name": "Alger - Rivoli", "network": "V\u00e9lib\u2019 M\u00e9tropole", "network:wikidata": "Q1120762", "network:wikipedia": "fr:V\u00e9lib' M\u00e9tropole", "not:brand:wikidata": "Q1120762", "operator": "Smovengo", "operator:wikidata": "Q47008427", "operator:wikipedia": "fr:Smovengo", "ref": "1018", "source": "Autolib Velib M\u00e9tropole - 04/2020", "wikidata": "Q86255115"}}, {"type": "node", "id": 6801503711, "lat": 48.8661768, "lon": 2.3251794, "tags": {"amenity": "bicycle_rental", "bicycle_rental": "docking_station", "brand": "V\u00e9lib\u2019 M\u00e9tropole", "brand:wikidata": "Q1120762", "brand:wikipedia": "fr:V\u00e9lib' M\u00e9tropole", "capacity": "40", "name": "Cambon - Rivoli", "network": "V\u00e9lib\u2019 M\u00e9tropole", "network:wikidata": "Q1120762", "network:wikipedia": "fr:V\u00e9lib' M\u00e9tropole", "operator": "Smovengo", "operator:wikidata": "Q47008427", "operator:wikipedia": "fr:Smovengo", "ref": "1020", "source": "Autolib Velib M\u00e9tropole - 04/2020", "wheelchair": "no", "wikidata": "Q86255113"}}, {"type": "node", "id": 6801503712, "lat": 48.8682126, "lon": 2.3305029, "tags": {"amenity": "bicycle_rental", "bicycle_rental": "docking_station", "brand": "V\u00e9lib\u2019 M\u00e9tropole", "brand:wikidata": "Q1120762", "brand:wikipedia": "fr:V\u00e9lib' M\u00e9tropole", "capacity": "37", "name": "Danielle Casanova - Place Vend\u00f4me", "network": "V\u00e9lib\u2019 M\u00e9tropole", "network:wikidata": "Q1120762", "network:wikipedia": "fr:V\u00e9lib' M\u00e9tropole", "operator": "Smovengo", "operator:wikidata": "Q47008427", "operator:wikipedia": "fr:Smovengo", "ref": "1022", "source": "Autolib Velib M\u00e9tropole - 04/2020", "wikidata": "Q86254740"}}, {"type": "node", "id": 6801503713, "lat": 48.8634637, "lon": 2.3348827, "tags": {"amenity": "bicycle_rental", "bicycle_rental": "docking_station", "brand": "V\u00e9lib\u2019 M\u00e9tropole", "brand:wikidata": "Q1120762", "brand:wikipedia": "fr:V\u00e9lib' M\u00e9tropole", "capacity": "22", "name": "Saint-Honor\u00e9 - Mus\u00e9e du Louvre", "network": "V\u00e9lib\u2019 M\u00e9tropole", "network:wikidata": "Q1120762", "network:wikipedia": "fr:V\u00e9lib' M\u00e9tropole", "operator": "Smovengo", "operator:wikidata": "Q47008427", "operator:wikipedia": "fr:Smovengo", "ref": "1023", "source": "Autolib Velib M\u00e9tropole - 04/2020", "wikidata": "Q86255063"}}, {"type": "node", "id": 6801503714, "lat": 48.8635063, "lon": 2.3426393, "tags": {"amenity": "bicycle_rental", "bicycle_rental": "docking_station", "brand": "V\u00e9lib\u2019 M\u00e9tropole", "brand:wikidata": "Q1120762", "brand:wikipedia": "fr:V\u00e9lib' M\u00e9tropole", "capacity": "32", "name": "Les Halles - Saint-Eustache", "network": "V\u00e9lib\u2019 M\u00e9tropole", "network:wikidata": "Q1120762", "network:wikipedia": "fr:V\u00e9lib' M\u00e9tropole", "operator": "Smovengo", "operator:wikidata": "Q47008427", "operator:wikipedia": "fr:Smovengo", "ref": "1008", "source": "Autolib Velib M\u00e9tropole - 04/2020", "wikidata": "Q86255066"}}, {"type": "node", "id": 6801503715, "lat": 48.8613995, "lon": 2.3400377, "tags": {"amenity": "bicycle_rental", "bicycle_rental": "docking_station", "brand": "V\u00e9lib\u2019 M\u00e9tropole", "brand:wikidata": "Q1120762", "brand:wikipedia": "fr:V\u00e9lib' M\u00e9tropole", "capacity": "18", "name": "Oratoire - Rivoli", "network": "V\u00e9lib\u2019 M\u00e9tropole", "network:wikidata": "Q1120762", "network:wikipedia": "fr:V\u00e9lib' M\u00e9tropole", "operator": "Smovengo", "operator:wikidata": "Q47008427", "operator:wikipedia": "fr:Smovengo", "ref": "1025", "source": "Autolib Velib M\u00e9tropole - 04/2020", "wikidata": "Q86255075"}}, {"type": "node", "id": 6801503716, "lat": 48.8634398, "lon": 2.3400532, "tags": {"amenity": "bicycle_rental", "bicycle_rental": "docking_station", "brand": "V\u00e9lib\u2019 M\u00e9tropole", "brand:wikidata": "Q1120762", "brand:wikipedia": "fr:V\u00e9lib' M\u00e9tropole", "capacity": "30", "name": "Place du Lieutenant Henri Karcher", "network": "V\u00e9lib\u2019 M\u00e9tropole", "network:wikidata": "Q1120762", "network:wikipedia": "fr:V\u00e9lib' M\u00e9tropole", "operator": "Smovengo", "operator:wikidata": "Q47008427", "operator:wikipedia": "fr:Smovengo", "ref": "1026", "source": "Autolib Velib M\u00e9tropole - 04/2020", "wikidata": "Q86255092"}}, {"type": "node", "id": 6801503720, "lat": 48.8640235, "lon": 2.3475846, "tags": {"amenity": "bicycle_rental", "bicycle_rental": "docking_station", "brand": "V\u00e9lib\u2019 M\u00e9tropole", "brand:wikidata": "Q1120762", "brand:wikipedia": "fr:V\u00e9lib' M\u00e9tropole", "capacity": "37", "name": "Fran\u00e7aise - \u00c9tienne Marcel", "network": "V\u00e9lib\u2019 M\u00e9tropole", "network:wikidata": "Q1120762", "network:wikipedia": "fr:V\u00e9lib' M\u00e9tropole", "operator": "Smovengo", "operator:wikidata": "Q47008427", "operator:wikipedia": "fr:Smovengo", "ref": "1102", "source": "Autolib Velib M\u00e9tropole - 2021-03", "wikidata": "Q86255120"}}, {"type": "node", "id": 6868468278, "lat": 48.8542809, "lon": 2.3193621, "tags": {"amenity": "bicycle_rental", "bicycle_rental": "docking_station", "brand": "V\u00e9lib\u2019 M\u00e9tropole", "brand:wikidata": "Q1120762", "brand:wikipedia": "fr:V\u00e9lib' M\u00e9tropole", "capacity": "26", "name": "Cit\u00e9 Vaneau", "network": "V\u00e9lib\u2019 M\u00e9tropole", "network:wikidata": "Q1120762", "network:wikipedia": "fr:V\u00e9lib' M\u00e9tropole", "operator": "Smovengo", "operator:wikidata": "Q47008427", "operator:wikipedia": "fr:Smovengo", "ref": "7012", "source": "Autolib Velib M\u00e9tropole - 04/2020", "unsigned_ref": "100868590", "wikidata": "Q86252400"}}, {"type": "node", "id": 6910100841, "lat": 48.8650144, "lon": 2.3450705, "tags": {"amenity": "bicycle_rental", "bicycle_rental": "docking_station", "brand": "V\u00e9lib\u2019 M\u00e9tropole", "brand:wikidata": "Q1120762", "brand:wikipedia": "fr:V\u00e9lib' M\u00e9tropole", "capacity": "16", "name": "Montmartre - \u00c9tienne Marcel", "network": "V\u00e9lib\u2019 M\u00e9tropole", "network:wikidata": "Q1120762", "network:wikipedia": "fr:V\u00e9lib' M\u00e9tropole", "operator": "Smovengo", "operator:wikidata": "Q47008427", "operator:wikipedia": "fr:Smovengo", "ref": "2005", "source": "Autolib Velib M\u00e9tropole - 04/2020", "wikidata": "Q86254780"}}, {"type": "node", "id": 7075874105, "lat": 48.8760948, "lon": 2.3227115, "tags": {"amenity": "bicycle_rental", "bicycle_rental": "docking_station", "brand": "V\u00e9lib\u2019 M\u00e9tropole", "brand:wikidata": "Q1120762", "brand:wikipedia": "fr:V\u00e9lib' M\u00e9tropole", "capacity": "65", "name": "Rocher - Laborde", "network": "V\u00e9lib\u2019 M\u00e9tropole", "network:wikidata": "Q1120762", "network:wikipedia": "fr:V\u00e9lib' M\u00e9tropole", "operator": "Smovengo", "operator:wikidata": "Q47008427", "operator:wikipedia": "fr:Smovengo", "ref": "8017", "source": "Autolib Velib M\u00e9tropole - 04/2020", "unsigned_ref": "88140066", "wikidata": "Q86255282"}}, {"type": "node", "id": 7104646166, "lat": 48.8888491, "lon": 2.3559626, "tags": {"amenity": "bicycle_rental", "bicycle_rental": "docking_station", "capacity": "36", "name": "Stephenson - Doudeauville", "network": "V\u00e9lib\u2019", "operator": "Smovengo", "payment:credit_cards": "yes", "ref": "18012", "source": "Autolib Velib M\u00e9tropole - 2021-03", "wikidata": "Q86253523"}}, {"type": "node", "id": 7104646167, "lat": 48.8861262, "lon": 2.3568086, "tags": {"amenity": "bicycle_rental", "bicycle_rental": "docking_station", "brand": "V\u00e9lib\u2019 M\u00e9tropole", "brand:wikidata": "Q1120762", "brand:wikipedia": "fr:V\u00e9lib' M\u00e9tropole", "capacity": "22", "name": "Jean-Fran\u00e7ois L\u00e9pine - Stephenson", "network": "V\u00e9lib\u2019 M\u00e9tropole", "network:wikidata": "Q1120762", "network:wikipedia": "fr:V\u00e9lib' M\u00e9tropole", "operator": "Smovengo", "operator:wikidata": "Q47008427", "operator:wikipedia": "fr:Smovengo", "payment:credit_cards": "yes", "ref": "18009", "source": "Autolib Velib M\u00e9tropole - 04/2020", "wikidata": "Q86254471"}}, {"type": "node", "id": 7104646168, "lat": 48.8866532, "lon": 2.3531454, "tags": {"amenity": "bicycle_rental", "bicycle_rental": "docking_station", "brand": "V\u00e9lib\u2019 M\u00e9tropole", "brand:wikidata": "Q1120762", "brand:wikipedia": "fr:V\u00e9lib' M\u00e9tropole", "capacity": "33", "name": "Square L\u00e9on", "network": "V\u00e9lib\u2019 M\u00e9tropole", "network:wikidata": "Q1120762", "network:wikipedia": "fr:V\u00e9lib' M\u00e9tropole", "operator": "Smovengo", "operator:wikidata": "Q47008427", "operator:wikipedia": "fr:Smovengo", "payment:credit_cards": "no", "ref": "18008", "source": "Autolib Velib M\u00e9tropole - 04/2020", "wikidata": "Q86254476"}}, {"type": "node", "id": 7104646169, "lat": 48.8883276, "lon": 2.3535768, "tags": {"amenity": "bicycle_rental", "bicycle_rental": "docking_station", "capacity": "13", "name": "L\u00e9on - Doudeauville", "network": "V\u00e9lib\u2019", "operator": "Smovengo", "payment:credit_cards": "no", "ref": "18014", "source": "Autolib Velib M\u00e9tropole - 2021-03", "wikidata": "Q86254418"}}, {"type": "node", "id": 7117966124, "lat": 48.8745619, "lon": 2.3284733, "tags": {"amenity": "bicycle_rental", "bicycle_rental": "docking_station", "brand": "V\u00e9lib\u2019 M\u00e9tropole", "brand:wikidata": "Q1120762", "brand:wikipedia": "fr:V\u00e9lib' M\u00e9tropole", "capacity": "22", "name": "Caumartin - Provence", "network": "V\u00e9lib\u2019 M\u00e9tropole", "network:wikidata": "Q1120762", "network:wikipedia": "fr:V\u00e9lib' M\u00e9tropole", "operator": "Smovengo", "operator:wikidata": "Q47008427", "operator:wikipedia": "fr:Smovengo", "ref": "9104", "source": "Autolib Velib M\u00e9tropole - 04/2020", "wikidata": "Q86254591"}}, {"type": "node", "id": 7117966125, "lat": 48.8718894, "lon": 2.3372173, "tags": {"amenity": "bicycle_rental", "bicycle_rental": "docking_station", "brand": "V\u00e9lib\u2019 M\u00e9tropole", "brand:wikidata": "Q1120762", "brand:wikipedia": "fr:V\u00e9lib' M\u00e9tropole", "capacity": "33", "name": "Laffitte - Italiens", "network": "V\u00e9lib\u2019 M\u00e9tropole", "network:wikidata": "Q1120762", "network:wikipedia": "fr:V\u00e9lib' M\u00e9tropole", "operator": "Smovengo", "operator:wikidata": "Q47008427", "operator:wikipedia": "fr:Smovengo", "ref": "9023", "source": "Autolib Velib M\u00e9tropole - 04/2020", "wikidata": "Q86254617"}}, {"type": "node", "id": 7117966126, "lat": 48.8733281, "lon": 2.3380856, "tags": {"amenity": "bicycle_rental", "bicycle_rental": "docking_station", "brand": "V\u00e9lib\u2019 M\u00e9tropole", "brand:wikidata": "Q1120762", "brand:wikipedia": "fr:V\u00e9lib' M\u00e9tropole", "capacity": "33", "name": "Rossini - Laffitte", "network": "V\u00e9lib\u2019 M\u00e9tropole", "network:wikidata": "Q1120762", "network:wikipedia": "fr:V\u00e9lib' M\u00e9tropole", "operator": "Smovengo", "operator:wikidata": "Q47008427", "operator:wikipedia": "fr:Smovengo", "ref": "9022", "source": "Autolib Velib M\u00e9tropole - 04/2020", "wikidata": "Q86254690"}}, {"type": "node", "id": 7117966127, "lat": 48.8751415, "lon": 2.3381176, "tags": {"amenity": "bicycle_rental", "bicycle_rental": "docking_station", "brand": "V\u00e9lib\u2019 M\u00e9tropole", "brand:wikidata": "Q1120762", "brand:wikipedia": "fr:V\u00e9lib' M\u00e9tropole", "capacity": "20", "name": "Victoire - Laffitte", "network": "V\u00e9lib\u2019 M\u00e9tropole", "network:wikidata": "Q1120762", "network:wikipedia": "fr:V\u00e9lib' M\u00e9tropole", "operator": "Smovengo", "operator:wikidata": "Q47008427", "operator:wikipedia": "fr:Smovengo", "ref": "9111", "source": "Autolib Velib M\u00e9tropole - 04/2020", "wikidata": "Q86254679"}}, {"type": "node", "id": 7117966128, "lat": 48.8733852, "lon": 2.3352971, "tags": {"amenity": "bicycle_rental", "bicycle_rental": "docking_station", "brand": "V\u00e9lib\u2019 M\u00e9tropole", "brand:wikidata": "Q1120762", "brand:wikipedia": "fr:V\u00e9lib' M\u00e9tropole", "capacity": "53", "name": "Taitbout - La Fayette", "network": "V\u00e9lib\u2019 M\u00e9tropole", "network:wikidata": "Q1120762", "network:wikipedia": "fr:V\u00e9lib' M\u00e9tropole", "operator": "Smovengo", "operator:wikidata": "Q47008427", "operator:wikipedia": "fr:Smovengo", "ref": "9024", "source": "Autolib Velib M\u00e9tropole - 04/2020", "wikidata": "Q86254612"}}, {"type": "node", "id": 7117966129, "lat": 48.876436, "lon": 2.3353612, "tags": {"amenity": "bicycle_rental", "bicycle_rental": "docking_station", "brand": "V\u00e9lib\u2019 M\u00e9tropole", "brand:wikidata": "Q1120762", "brand:wikipedia": "fr:V\u00e9lib' M\u00e9tropole", "capacity": "39", "name": "Taitbout - Ch\u00e2teaudun", "network": "V\u00e9lib\u2019 M\u00e9tropole", "network:wikidata": "Q1120762", "network:wikipedia": "fr:V\u00e9lib' M\u00e9tropole", "operator": "Smovengo", "operator:wikidata": "Q47008427", "operator:wikipedia": "fr:Smovengo", "ref": "9025", "source": "Autolib Velib M\u00e9tropole - 04/2020", "wikidata": "Q86254606"}}, {"type": "node", "id": 7117966130, "lat": 48.875053, "lon": 2.3316195, "tags": {"amenity": "bicycle_rental", "bicycle_rental": "docking_station", "brand": "V\u00e9lib\u2019 M\u00e9tropole", "brand:wikidata": "Q1120762", "brand:wikipedia": "fr:V\u00e9lib' M\u00e9tropole", "capacity": "24", "name": "Victoire - Chauss\u00e9e d'Antin", "network": "V\u00e9lib\u2019 M\u00e9tropole", "network:wikidata": "Q1120762", "network:wikipedia": "fr:V\u00e9lib' M\u00e9tropole", "operator": "Smovengo", "operator:wikidata": "Q47008427", "operator:wikipedia": "fr:Smovengo", "ref": "9116", "source": "Autolib Velib M\u00e9tropole - 04/2020", "wikidata": "Q86254698"}}, {"type": "node", "id": 7117966131, "lat": 48.872446, "lon": 2.3335802, "tags": {"amenity": "bicycle_rental", "bicycle_rental": "docking_station", "brand": "V\u00e9lib\u2019 M\u00e9tropole", "brand:wikidata": "Q1120762", "brand:wikipedia": "fr:V\u00e9lib' M\u00e9tropole", "capacity": "28", "name": "Chauss\u00e9e d'Antin - Haussmann", "network": "V\u00e9lib\u2019 M\u00e9tropole", "network:wikidata": "Q1120762", "network:wikipedia": "fr:V\u00e9lib' M\u00e9tropole", "operator": "Smovengo", "operator:wikidata": "Q47008427", "operator:wikipedia": "fr:Smovengo", "ref": "9039", "source": "Autolib Velib M\u00e9tropole - 04/2020", "wikidata": "Q86254692"}}, {"type": "node", "id": 7117966132, "lat": 48.8742783, "lon": 2.3331245, "tags": {"amenity": "bicycle_rental", "bicycle_rental": "docking_station", "brand": "V\u00e9lib\u2019 M\u00e9tropole", "brand:wikidata": "Q1120762", "brand:wikipedia": "fr:V\u00e9lib' M\u00e9tropole", "capacity": "25", "name": "Provence - Chauss\u00e9e d'Antin", "network": "V\u00e9lib\u2019 M\u00e9tropole", "network:wikidata": "Q1120762", "network:wikipedia": "fr:V\u00e9lib' M\u00e9tropole", "operator": "Smovengo", "operator:wikidata": "Q47008427", "operator:wikipedia": "fr:Smovengo", "ref": "9031", "source": "survey 01/2020", "wikidata": "Q86254661"}}, {"type": "node", "id": 7149870071, "lat": 48.8841668, "lon": 2.3560692, "tags": {"amenity": "bicycle_rental", "bicycle_rental": "dropoff_point", "capacity": "18", "name": "Gare du Nord - La Chapelle", "network": "V\u00e9lib\u2019", "operator": "Smovengo", "ref": "10041", "source": "survey 01/2020", "unsigned_ref": "549876068", "wikidata": "Q86252977"}}, {"type": "node", "id": 7174435964, "lat": 48.8809357, "lon": 2.3245049, "tags": {"amenity": "bicycle_rental", "bicycle_rental": "docking_station", "brand": "V\u00e9lib\u2019 M\u00e9tropole", "brand:wikidata": "Q1120762", "brand:wikipedia": "fr:V\u00e9lib' M\u00e9tropole", "capacity": "15", "name": "Clapeyron - Moscou", "network": "V\u00e9lib\u2019 M\u00e9tropole", "network:wikidata": "Q1120762", "network:wikipedia": "fr:V\u00e9lib' M\u00e9tropole", "operator": "Smovengo", "operator:wikidata": "Q47008427", "operator:wikipedia": "fr:Smovengo", "ref": "8011", "source": "Autolib Velib M\u00e9tropole - 04/2020", "wikidata": "Q86255223"}}, {"type": "node", "id": 7284781836, "lat": 48.8842912, "lon": 2.3055055, "tags": {"amenity": "bicycle_rental", "bicycle_rental": "docking_station", "brand": "V\u00e9lib\u2019 M\u00e9tropole", "brand:wikidata": "Q1120762", "brand:wikipedia": "fr:V\u00e9lib' M\u00e9tropole", "capacity": "34", "name": "Jouffroy d'Abbans - Villiers", "network": "V\u00e9lib\u2019 M\u00e9tropole", "network:wikidata": "Q1120762", "network:wikipedia": "fr:V\u00e9lib' M\u00e9tropole", "operator": "Smovengo", "operator:wikidata": "Q47008427", "operator:wikipedia": "fr:Smovengo", "ref": "17021", "source": "Survey", "wikidata": "Q86238295"}}, {"type": "node", "id": 7366568993, "lat": 48.8554977, "lon": 2.3334494, "tags": {"amenity": "bicycle_rental", "bicycle_rental": "docking_station", "brand": "V\u00e9lib\u2019 M\u00e9tropole", "brand:wikidata": "Q1120762", "brand:wikipedia": "fr:V\u00e9lib' M\u00e9tropole", "capacity": "23", "name": "Saint-Beno\u00eet - Jacob", "network": "V\u00e9lib\u2019 M\u00e9tropole", "network:wikidata": "Q1120762", "network:wikipedia": "fr:V\u00e9lib' M\u00e9tropole", "operator": "Smovengo", "operator:wikidata": "Q47008427", "operator:wikipedia": "fr:Smovengo", "ref": "6002", "source": "Autolib Velib M\u00e9tropole - 04/2020", "wikidata": "Q86252816"}}, {"type": "node", "id": 7366568994, "lat": 48.8564316, "lon": 2.3348466, "tags": {"amenity": "bicycle_rental", "bicycle_rental": "docking_station", "brand": "V\u00e9lib\u2019 M\u00e9tropole", "brand:wikidata": "Q1120762", "brand:wikipedia": "fr:V\u00e9lib' M\u00e9tropole", "capacity": "20", "name": "Beaux-Arts - Bonaparte", "network": "V\u00e9lib\u2019 M\u00e9tropole", "network:wikidata": "Q1120762", "network:wikipedia": "fr:V\u00e9lib' M\u00e9tropole", "operator": "Smovengo", "operator:wikidata": "Q47008427", "operator:wikipedia": "fr:Smovengo", "ref": "6021", "source": "Autolib Velib M\u00e9tropole - 04/2019", "wikidata": "Q86252831"}}, {"type": "node", "id": 7366607229, "lat": 48.8566742, "lon": 2.3066523, "tags": {"amenity": "bicycle_rental", "bicycle_rental": "docking_station", "brand": "V\u00e9lib\u2019 M\u00e9tropole", "brand:wikidata": "Q1120762", "brand:wikipedia": "fr:V\u00e9lib' M\u00e9tropole", "capacity": "41", "name": "Champ de Mars - Cler", "network": "V\u00e9lib\u2019 M\u00e9tropole", "network:wikidata": "Q1120762", "network:wikipedia": "fr:V\u00e9lib' M\u00e9tropole", "operator": "Smovengo", "operator:wikidata": "Q47008427", "operator:wikipedia": "fr:Smovengo", "ref": "7020", "source": "Autolib Velib M\u00e9tropole - 04/2019", "wikidata": "Q86252351"}}, {"type": "node", "id": 7366607231, "lat": 48.861273, "lon": 2.3094536, "tags": {"amenity": "bicycle_rental", "bicycle_rental": "docking_station", "brand": "V\u00e9lib\u2019 M\u00e9tropole", "brand:wikidata": "Q1120762", "brand:wikipedia": "fr:V\u00e9lib' M\u00e9tropole", "capacity": "58", "name": "Surcouf - Universit\u00e9", "network": "V\u00e9lib\u2019 M\u00e9tropole", "network:wikidata": "Q1120762", "network:wikipedia": "fr:V\u00e9lib' M\u00e9tropole", "operator": "Smovengo", "operator:wikidata": "Q47008427", "operator:wikipedia": "fr:Smovengo", "ref": "7016", "source": "Autolib Velib M\u00e9tropole - 04/2019", "wikidata": "Q86252360"}}, {"type": "node", "id": 7366607232, "lat": 48.8624083, "lon": 2.3113624, "tags": {"amenity": "bicycle_rental", "bicycle_rental": "docking_station", "brand": "V\u00e9lib\u2019 M\u00e9tropole", "brand:wikidata": "Q1120762", "brand:wikipedia": "fr:V\u00e9lib' M\u00e9tropole", "capacity": "25", "name": "Place de Finlande", "network": "V\u00e9lib\u2019 M\u00e9tropole", "network:wikidata": "Q1120762", "network:wikipedia": "fr:V\u00e9lib' M\u00e9tropole", "operator": "Smovengo", "operator:wikidata": "Q47008427", "operator:wikipedia": "fr:Smovengo", "ref": "7026", "source": "Autolib Velib M\u00e9tropole - 04/2019", "wikidata": "Q86252390"}}, {"type": "node", "id": 7366609075, "lat": 48.8597262, "lon": 2.3258604, "tags": {"amenity": "bicycle_rental", "bicycle_rental": "docking_station", "brand": "V\u00e9lib\u2019 M\u00e9tropole", "brand:wikidata": "Q1120762", "brand:wikipedia": "fr:V\u00e9lib' M\u00e9tropole", "capacity": "65", "name": "Mus\u00e9e d'Orsay", "network": "V\u00e9lib\u2019 M\u00e9tropole", "network:wikidata": "Q1120762", "network:wikipedia": "fr:V\u00e9lib' M\u00e9tropole", "operator": "Smovengo", "operator:wikidata": "Q47008427", "operator:wikipedia": "fr:Smovengo", "ref": "7007", "source": "Autolib Velib M\u00e9tropole - 2021-03", "wikidata": "Q86252387"}}, {"type": "node", "id": 7366609076, "lat": 48.8582954, "lon": 2.3237934, "tags": {"amenity": "bicycle_rental", "bicycle_rental": "docking_station", "brand": "V\u00e9lib\u2019 M\u00e9tropole", "brand:wikidata": "Q1120762", "brand:wikipedia": "fr:V\u00e9lib' M\u00e9tropole", "capacity": "16", "name": "Villersexel - Saint-Germain", "network": "V\u00e9lib\u2019 M\u00e9tropole", "network:wikidata": "Q1120762", "network:wikipedia": "fr:V\u00e9lib' M\u00e9tropole", "operator": "Smovengo", "operator:wikidata": "Q47008427", "operator:wikipedia": "fr:Smovengo", "ref": "7008", "source": "Autolib Velib M\u00e9tropole - 04/2019", "wikidata": "Q86252356"}}, {"type": "node", "id": 7366609078, "lat": 48.8552971, "lon": 2.3257434, "tags": {"amenity": "bicycle_rental", "bicycle_rental": "docking_station", "brand": "V\u00e9lib\u2019 M\u00e9tropole", "brand:wikidata": "Q1120762", "brand:wikipedia": "fr:V\u00e9lib' M\u00e9tropole", "capacity": "52", "name": "Raspail - Bac", "network": "V\u00e9lib\u2019 M\u00e9tropole", "network:wikidata": "Q1120762", "network:wikipedia": "fr:V\u00e9lib' M\u00e9tropole", "operator": "Smovengo", "operator:wikidata": "Q47008427", "operator:wikipedia": "fr:Smovengo", "ref": "7005", "source": "Autolib Velib M\u00e9tropole - 2021-03", "wikidata": "Q86252431"}}, {"type": "node", "id": 7366609081, "lat": 48.8541832, "lon": 2.3303058, "tags": {"amenity": "bicycle_rental", "bicycle_rental": "docking_station", "brand": "V\u00e9lib\u2019 M\u00e9tropole", "brand:wikidata": "Q1120762", "brand:wikipedia": "fr:V\u00e9lib' M\u00e9tropole", "capacity": "26", "name": "Saint-Germain-des-Pr\u00e9s", "network": "V\u00e9lib\u2019 M\u00e9tropole", "network:wikidata": "Q1120762", "network:wikipedia": "fr:V\u00e9lib' M\u00e9tropole", "operator": "Smovengo", "operator:wikidata": "Q47008427", "operator:wikipedia": "fr:Smovengo", "ref": "6024", "source": "Autolib Velib M\u00e9tropole - 04/2019", "wikidata": "Q86252825"}}, {"type": "node", "id": 7366609082, "lat": 48.858943, "lon": 2.3314182, "tags": {"amenity": "bicycle_rental", "brand": "V\u00e9lib\u2019 M\u00e9tropole", "brand:wikidata": "Q1120762", "capacity": "32", "name": "Quai Voltaire", "network": "V\u00e9lib\u2019 M\u00e9tropole", "network:wikidata": "Q1120762", "operator": "Smovengo", "operator:wikidata": "Q47008427", "ref": "7006", "source": "Autolib Velib M\u00e9tropole - 2021-03", "wikidata": "Q86252433"}}, {"type": "node", "id": 7366621207, "lat": 48.8578644, "lon": 2.3192493, "tags": {"amenity": "bicycle_rental", "bicycle_rental": "docking_station", "brand": "V\u00e9lib\u2019 M\u00e9tropole", "brand:wikidata": "Q1120762", "brand:wikipedia": "fr:V\u00e9lib' M\u00e9tropole", "capacity": "27", "name": "Mairie du 7\u00e8me", "network": "V\u00e9lib\u2019 M\u00e9tropole", "network:wikidata": "Q1120762", "network:wikipedia": "fr:V\u00e9lib' M\u00e9tropole", "operator": "Smovengo", "operator:wikidata": "Q47008427", "operator:wikipedia": "fr:Smovengo", "ref": "7102", "source": "Autolib Velib M\u00e9tropole - 04/2019", "wikidata": "Q86252378"}}, {"type": "node", "id": 7366621208, "lat": 48.861411, "lon": 2.3201214, "tags": {"amenity": "bicycle_rental", "bicycle_rental": "docking_station", "brand": "V\u00e9lib\u2019 M\u00e9tropole", "brand:wikidata": "Q1120762", "brand:wikipedia": "fr:V\u00e9lib' M\u00e9tropole", "capacity": "63", "name": "Assembl\u00e9e Nationale", "network": "V\u00e9lib\u2019 M\u00e9tropole", "network:wikidata": "Q1120762", "network:wikipedia": "fr:V\u00e9lib' M\u00e9tropole", "operator": "Smovengo", "operator:wikidata": "Q47008427", "operator:wikipedia": "fr:Smovengo", "ref": "7009", "source": "Autolib Velib M\u00e9tropole - 04/2020", "wikidata": "Q86252408"}}, {"type": "node", "id": 7366637099, "lat": 48.8568021, "lon": 2.3094714, "tags": {"amenity": "bicycle_rental", "bicycle_rental": "docking_station", "brand": "V\u00e9lib\u2019 M\u00e9tropole", "brand:wikidata": "Q1120762", "brand:wikipedia": "fr:V\u00e9lib' M\u00e9tropole", "capacity": "40", "name": "La Motte-Picquet - La Tour Maubourg", "network": "V\u00e9lib\u2019 M\u00e9tropole", "network:wikidata": "Q1120762", "network:wikipedia": "fr:V\u00e9lib' M\u00e9tropole", "operator": "Smovengo", "operator:wikidata": "Q47008427", "operator:wikipedia": "fr:Smovengo", "ref": "7017", "source": "Autolib Velib M\u00e9tropole - 04/2019", "wikidata": "Q86252411"}}, {"type": "node", "id": 7368681193, "lat": 48.8639051, "lon": 2.3523875, "tags": {"amenity": "bicycle_rental", "bicycle_rental": "docking_station", "brand": "V\u00e9lib\u2019 M\u00e9tropole", "brand:wikidata": "Q1120762", "brand:wikipedia": "fr:V\u00e9lib' M\u00e9tropole", "capacity": "42", "name": "Bourg l'Abb\u00e9 - Saint-Martin", "network": "V\u00e9lib\u2019 M\u00e9tropole", "network:wikidata": "Q1120762", "network:wikipedia": "fr:V\u00e9lib' M\u00e9tropole", "operator": "Smovengo", "operator:wikidata": "Q47008427", "operator:wikipedia": "fr:Smovengo", "ref": "3102", "source": "Autolib Velib M\u00e9tropole - 2021-03", "wikidata": "Q86255145"}}, {"type": "node", "id": 7368681194, "lat": 48.8605777, "lon": 2.3460998, "tags": {"amenity": "bicycle_rental", "bicycle_rental": "docking_station", "brand": "V\u00e9lib\u2019 M\u00e9tropole", "brand:wikidata": "Q1120762", "brand:wikipedia": "fr:V\u00e9lib' M\u00e9tropole", "capacity": "20", "name": "Halles - Bourdonnais", "network": "V\u00e9lib\u2019 M\u00e9tropole", "network:wikidata": "Q1120762", "network:wikipedia": "fr:V\u00e9lib' M\u00e9tropole", "operator": "Smovengo", "operator:wikidata": "Q47008427", "operator:wikipedia": "fr:Smovengo", "ref": "1021", "source": "Autolib Velib M\u00e9tropole - 2021-03", "wikidata": "Q86255102"}}, {"type": "node", "id": 7368681195, "lat": 48.8600899, "lon": 2.3440576, "tags": {"amenity": "bicycle_rental", "bicycle_rental": "docking_station", "brand": "V\u00e9lib\u2019 M\u00e9tropole", "brand:wikidata": "Q1120762", "brand:wikipedia": "fr:V\u00e9lib' M\u00e9tropole", "capacity": "27", "name": "Pont Neuf - Rivoli", "network": "V\u00e9lib\u2019 M\u00e9tropole", "network:wikidata": "Q1120762", "network:wikipedia": "fr:V\u00e9lib' M\u00e9tropole", "operator": "Smovengo", "operator:wikidata": "Q47008427", "operator:wikipedia": "fr:Smovengo", "ref": "1117", "source": "Autolib Velib M\u00e9tropole - 2021-03", "wikidata": "Q86255125"}}, {"type": "node", "id": 7368681198, "lat": 48.8667679, "lon": 2.3157654, "tags": {"amenity": "bicycle_rental", "bicycle_rental": "docking_station", "brand": "V\u00e9lib\u2019 M\u00e9tropole", "brand:wikidata": "Q1120762", "brand:wikipedia": "fr:V\u00e9lib' M\u00e9tropole", "capacity": "43", "name": "Petit Palais", "network": "V\u00e9lib\u2019 M\u00e9tropole", "network:wikidata": "Q1120762", "network:wikipedia": "fr:V\u00e9lib' M\u00e9tropole", "operator": "Smovengo", "operator:wikidata": "Q47008427", "operator:wikipedia": "fr:Smovengo", "ref": "8001", "source": "Autolib Velib M\u00e9tropole - 04/2019", "wikidata": "Q86255190"}}, {"type": "node", "id": 7368681199, "lat": 48.8694957, "lon": 2.3066138, "tags": {"amenity": "bicycle_rental", "bicycle_rental": "docking_station", "brand": "V\u00e9lib\u2019 M\u00e9tropole", "brand:wikidata": "Q1120762", "brand:wikipedia": "fr:V\u00e9lib' M\u00e9tropole", "capacity": "35", "name": "Marignan - Champs-Elys\u00e9es", "network": "V\u00e9lib\u2019 M\u00e9tropole", "network:wikidata": "Q1120762", "network:wikipedia": "fr:V\u00e9lib' M\u00e9tropole", "operator": "Smovengo", "operator:wikidata": "Q47008427", "operator:wikipedia": "fr:Smovengo", "ref": "8013", "source": "Autolib Velib M\u00e9tropole - 04/2020", "wikidata": "Q86255302"}}, {"type": "node", "id": 7368681556, "lat": 48.8847466, "lon": 2.3534589, "tags": {"amenity": "bicycle_rental", "capacity": "34", "name": "Chartres - La Charbonni\u00e8re", "network": "V\u00e9lib\u2019", "operator": "Smovengo", "ref": "18107", "source": "Autolib Velib M\u00e9tropole - 2021-03", "wikidata": "Q86254457"}}, {"type": "node", "id": 7368681557, "lat": 48.8848454, "lon": 2.3589304, "tags": {"amenity": "bicycle_rental", "capacity": "30", "name": "JesSaint-- Marx Dormoy", "network": "V\u00e9lib\u2019", "operator": "Smovengo", "ref": "18142", "source": "Autolib Velib M\u00e9tropole - 2021-03", "wikidata": "Q86253541"}}, {"type": "node", "id": 7368986180, "lat": 48.8704754, "lon": 2.3076191, "tags": {"amenity": "bicycle_rental", "bicycle_rental": "docking_station", "brand": "V\u00e9lib\u2019 M\u00e9tropole", "brand:wikidata": "Q1120762", "brand:wikipedia": "fr:V\u00e9lib' M\u00e9tropole", "capacity": "24", "name": "Colis\u00e9e - Champs-Elys\u00e9es", "network": "V\u00e9lib\u2019 M\u00e9tropole", "network:wikidata": "Q1120762", "network:wikipedia": "fr:V\u00e9lib' M\u00e9tropole", "operator": "Smovengo", "operator:wikidata": "Q47008427", "operator:wikipedia": "fr:Smovengo", "ref": "8039", "source": "Autolib Velib M\u00e9tropole - 04/2020", "wikidata": "Q86255273"}}, {"type": "node", "id": 7368986181, "lat": 48.8696899, "lon": 2.3107326, "tags": {"amenity": "bicycle_rental", "bicycle_rental": "docking_station", "brand": "V\u00e9lib\u2019 M\u00e9tropole", "brand:wikidata": "Q1120762", "brand:wikipedia": "fr:V\u00e9lib' M\u00e9tropole", "capacity": "33", "name": "Jean Mermoz - Champs-Elys\u00e9es", "network": "V\u00e9lib\u2019 M\u00e9tropole", "network:wikidata": "Q1120762", "network:wikipedia": "fr:V\u00e9lib' M\u00e9tropole", "operator": "Smovengo", "operator:wikidata": "Q47008427", "operator:wikipedia": "fr:Smovengo", "ref": "8031", "source": "Autolib Velib M\u00e9tropole - 04/2019", "wikidata": "Q86255337"}}, {"type": "node", "id": 7368986182, "lat": 48.8734512, "lon": 2.3204045, "tags": {"amenity": "bicycle_rental", "bicycle_rental": "docking_station", "brand": "V\u00e9lib\u2019 M\u00e9tropole", "brand:wikidata": "Q1120762", "brand:wikipedia": "fr:V\u00e9lib' M\u00e9tropole", "capacity": "37", "name": "Roqu\u00e9pine - Malesherbes", "network": "V\u00e9lib\u2019 M\u00e9tropole", "network:wikidata": "Q1120762", "network:wikipedia": "fr:V\u00e9lib' M\u00e9tropole", "operator": "Smovengo", "operator:wikidata": "Q47008427", "operator:wikipedia": "fr:Smovengo", "ref": "8015", "source": "Autolib Velib M\u00e9tropole - 04/2019", "wikidata": "Q86255192"}}, {"type": "node", "id": 7368986183, "lat": 48.8732044, "lon": 2.3236622, "tags": {"amenity": "bicycle_rental", "bicycle_rental": "docking_station", "brand": "V\u00e9lib\u2019 M\u00e9tropole", "brand:wikidata": "Q1120762", "brand:wikipedia": "fr:V\u00e9lib' M\u00e9tropole", "capacity": "29", "name": "Square Louis XVI", "network": "V\u00e9lib\u2019 M\u00e9tropole", "network:wikidata": "Q1120762", "network:wikipedia": "fr:V\u00e9lib' M\u00e9tropole", "operator": "Smovengo", "operator:wikidata": "Q47008427", "operator:wikipedia": "fr:Smovengo", "ref": "8016", "source": "Autolib Velib M\u00e9tropole - 04/2019", "wikidata": "Q86255295"}}, {"type": "node", "id": 7368986184, "lat": 48.8697891, "lon": 2.3263471, "tags": {"amenity": "bicycle_rental", "bicycle_rental": "docking_station", "brand": "V\u00e9lib\u2019 M\u00e9tropole", "brand:wikidata": "Q1120762", "brand:wikipedia": "fr:V\u00e9lib' M\u00e9tropole", "capacity": "22", "name": "Godot de Mauroy - Madeleine", "network": "V\u00e9lib\u2019 M\u00e9tropole", "network:wikidata": "Q1120762", "network:wikipedia": "fr:V\u00e9lib' M\u00e9tropole", "operator": "Smovengo", "operator:wikidata": "Q47008427", "operator:wikipedia": "fr:Smovengo", "ref": "9034", "source": "Autolib Velib M\u00e9tropole - 04/2019", "wikidata": "Q86254675"}}, {"type": "node", "id": 7369001585, "lat": 48.8691022, "lon": 2.3244502, "tags": {"amenity": "bicycle_rental", "bicycle_rental": "docking_station", "brand": "V\u00e9lib\u2019 M\u00e9tropole", "brand:wikidata": "Q1120762", "brand:wikipedia": "fr:V\u00e9lib' M\u00e9tropole", "capacity": "26", "name": "Place de la Madeleine - Royale", "network": "V\u00e9lib\u2019 M\u00e9tropole", "network:wikidata": "Q1120762", "network:wikipedia": "fr:V\u00e9lib' M\u00e9tropole", "operator": "Smovengo", "operator:wikidata": "Q47008427", "operator:wikipedia": "fr:Smovengo", "ref": "8117", "source": "Autolib Velib M\u00e9tropole - 04/2019", "wikidata": "Q86255285"}}, {"type": "node", "id": 7369001586, "lat": 48.8732681, "lon": 2.3407533, "tags": {"amenity": "bicycle_rental", "bicycle_rental": "docking_station", "brand": "V\u00e9lib\u2019 M\u00e9tropole", "brand:wikidata": "Q1120762", "brand:wikipedia": "fr:V\u00e9lib' M\u00e9tropole", "capacity": "24", "name": "Mairie du 9\u00e8me", "network": "V\u00e9lib\u2019 M\u00e9tropole", "network:wikidata": "Q1120762", "network:wikipedia": "fr:V\u00e9lib' M\u00e9tropole", "operator": "Smovengo", "operator:wikidata": "Q47008427", "operator:wikipedia": "fr:Smovengo", "ref": "9013", "source": "Autolib Velib M\u00e9tropole - 04/2019", "wikidata": "Q86254644"}}, {"type": "node", "id": 7369001587, "lat": 48.8737831, "lon": 2.3445139, "tags": {"amenity": "bicycle_rental", "bicycle_rental": "docking_station", "brand": "V\u00e9lib\u2019 M\u00e9tropole", "brand:wikidata": "Q1120762", "brand:wikipedia": "fr:V\u00e9lib' M\u00e9tropole", "capacity": "20", "name": "Geoffroy - Marie", "network": "V\u00e9lib\u2019 M\u00e9tropole", "network:wikidata": "Q1120762", "network:wikipedia": "fr:V\u00e9lib' M\u00e9tropole", "operator": "Smovengo", "operator:wikidata": "Q47008427", "operator:wikipedia": "fr:Smovengo", "ref": "9011", "source": "Autolib Velib M\u00e9tropole - 04/2019", "wikidata": "Q86254687"}}, {"type": "node", "id": 7369001588, "lat": 48.8708267, "lon": 2.345926, "tags": {"amenity": "bicycle_rental", "bicycle_rental": "docking_station", "brand": "V\u00e9lib\u2019 M\u00e9tropole", "brand:wikidata": "Q1120762", "brand:wikipedia": "fr:V\u00e9lib' M\u00e9tropole", "capacity": "35", "name": "Saint-Fiacre - Poissoni\u00e8re", "network": "V\u00e9lib\u2019 M\u00e9tropole", "network:wikidata": "Q1120762", "network:wikipedia": "fr:V\u00e9lib' M\u00e9tropole", "operator": "Smovengo", "operator:wikidata": "Q47008427", "operator:wikipedia": "fr:Smovengo", "ref": "2022", "source": "Autolib Velib M\u00e9tropole - 04/2019", "wikidata": "Q86254766"}}, {"type": "node", "id": 7369001589, "lat": 48.870791, "lon": 2.343101, "tags": {"amenity": "bicycle_rental", "bicycle_rental": "docking_station", "brand": "V\u00e9lib\u2019 M\u00e9tropole", "brand:wikidata": "Q1120762", "brand:wikipedia": "fr:V\u00e9lib' M\u00e9tropole", "capacity": "29", "name": "Uz\u00e8s - Montmartre", "network": "V\u00e9lib\u2019 M\u00e9tropole", "network:wikidata": "Q1120762", "network:wikipedia": "fr:V\u00e9lib' M\u00e9tropole", "operator": "Smovengo", "operator:wikidata": "Q47008427", "operator:wikipedia": "fr:Smovengo", "ref": "2010", "source": "Autolib Velib M\u00e9tropole - 04/2019", "wikidata": "Q86254739"}}, {"type": "node", "id": 7369001590, "lat": 48.8689829, "lon": 2.3469129, "tags": {"amenity": "bicycle_rental", "bicycle_rental": "docking_station", "brand": "V\u00e9lib\u2019 M\u00e9tropole", "brand:wikidata": "Q1120762", "brand:wikipedia": "fr:V\u00e9lib' M\u00e9tropole", "capacity": "28", "name": "Je\u00fbneurs - Mulhouse", "network": "V\u00e9lib\u2019 M\u00e9tropole", "network:wikidata": "Q1120762", "network:wikipedia": "fr:V\u00e9lib' M\u00e9tropole", "operator": "Smovengo", "operator:wikidata": "Q47008427", "operator:wikipedia": "fr:Smovengo", "ref": "2110", "source": "Autolib Velib M\u00e9tropole - 04/2019", "wikidata": "Q86254778"}}, {"type": "node", "id": 7369001591, "lat": 48.8682037, "lon": 2.3437952, "tags": {"amenity": "bicycle_rental", "bicycle_rental": "docking_station", "brand": "V\u00e9lib\u2019 M\u00e9tropole", "brand:wikidata": "Q1120762", "brand:wikipedia": "fr:V\u00e9lib' M\u00e9tropole", "capacity": "19", "name": "R\u00e9aumur - Montmartre", "network": "V\u00e9lib\u2019 M\u00e9tropole", "network:wikidata": "Q1120762", "network:wikipedia": "fr:V\u00e9lib' M\u00e9tropole", "operator": "Smovengo", "operator:wikidata": "Q47008427", "operator:wikipedia": "fr:Smovengo", "ref": "2109", "source": "Autolib Velib M\u00e9tropole - 04/2019", "wikidata": "Q86254750"}}, {"type": "node", "id": 7369001592, "lat": 48.8703107, "lon": 2.3419792, "tags": {"amenity": "bicycle_rental", "bicycle_rental": "docking_station", "brand": "V\u00e9lib\u2019 M\u00e9tropole", "brand:wikidata": "Q1120762", "brand:wikipedia": "fr:V\u00e9lib' M\u00e9tropole", "capacity": "37", "name": "Saint-Marc - Feydeau", "network": "V\u00e9lib\u2019 M\u00e9tropole", "network:wikidata": "Q1120762", "network:wikipedia": "fr:V\u00e9lib' M\u00e9tropole", "operator": "Smovengo", "operator:wikidata": "Q47008427", "operator:wikipedia": "fr:Smovengo", "ref": "2102", "source": "Autolib Velib M\u00e9tropole - 04/2019", "wikidata": "Q86254728"}}, {"type": "node", "id": 7369001593, "lat": 48.868866, "lon": 2.3397317, "tags": {"amenity": "bicycle_rental", "bicycle_rental": "docking_station", "brand": "V\u00e9lib\u2019 M\u00e9tropole", "brand:wikidata": "Q1120762", "brand:wikipedia": "fr:V\u00e9lib' M\u00e9tropole", "capacity": "58", "check_date": "2023-03-19", "name": "Filles Saint-Thomas - Place de la Bourse", "network": "V\u00e9lib\u2019 M\u00e9tropole", "network:wikidata": "Q1120762", "network:wikipedia": "fr:V\u00e9lib' M\u00e9tropole", "operator": "Smovengo", "operator:wikidata": "Q47008427", "operator:wikipedia": "fr:Smovengo", "ref": "2009", "source": "Autolib Velib M\u00e9tropole - 04/2019", "wikidata": "Q86254741"}}, {"type": "node", "id": 7369001594, "lat": 48.8699355, "lon": 2.3359975, "tags": {"amenity": "bicycle_rental", "bicycle_rental": "docking_station", "brand": "V\u00e9lib\u2019 M\u00e9tropole", "brand:wikidata": "Q1120762", "brand:wikipedia": "fr:V\u00e9lib' M\u00e9tropole", "capacity": "44", "name": "Choiseul - Quatre Septembre", "network": "V\u00e9lib\u2019 M\u00e9tropole", "network:wikidata": "Q1120762", "network:wikipedia": "fr:V\u00e9lib' M\u00e9tropole", "operator": "Smovengo", "operator:wikidata": "Q47008427", "operator:wikipedia": "fr:Smovengo", "ref": "2012", "source": "Autolib Velib M\u00e9tropole - 04/2019", "wikidata": "Q86254757"}}, {"type": "node", "id": 7369001595, "lat": 48.8705107, "lon": 2.3340478, "tags": {"amenity": "bicycle_rental", "bicycle_rental": "docking_station", "brand": "V\u00e9lib\u2019 M\u00e9tropole", "brand:wikidata": "Q1120762", "brand:wikipedia": "fr:V\u00e9lib' M\u00e9tropole", "capacity": "33", "name": "Louis le Grand - Italiens", "network": "V\u00e9lib\u2019 M\u00e9tropole", "network:wikidata": "Q1120762", "network:wikipedia": "fr:V\u00e9lib' M\u00e9tropole", "operator": "Smovengo", "operator:wikidata": "Q47008427", "operator:wikipedia": "fr:Smovengo", "ref": "2015", "source": "Autolib Velib M\u00e9tropole - 04/2019", "wikidata": "Q86254775"}}, {"type": "node", "id": 7369001596, "lat": 48.8691101, "lon": 2.3325069, "tags": {"amenity": "bicycle_rental", "bicycle_rental": "docking_station", "brand": "V\u00e9lib\u2019 M\u00e9tropole", "brand:wikidata": "Q1120762", "brand:wikipedia": "fr:V\u00e9lib' M\u00e9tropole", "capacity": "17", "name": "Daunou - Louis le Grand", "network": "V\u00e9lib\u2019 M\u00e9tropole", "network:wikidata": "Q1120762", "network:wikipedia": "fr:V\u00e9lib' M\u00e9tropole", "operator": "Smovengo", "operator:wikidata": "Q47008427", "operator:wikipedia": "fr:Smovengo", "ref": "2014", "source": "Autolib Velib M\u00e9tropole - 04/2019", "wikidata": "Q86254738"}}, {"type": "node", "id": 7369001597, "lat": 48.8676432, "lon": 2.3333894, "tags": {"amenity": "bicycle_rental", "bicycle_rental": "docking_station", "brand": "V\u00e9lib\u2019 M\u00e9tropole", "brand:wikidata": "Q1120762", "brand:wikipedia": "fr:V\u00e9lib' M\u00e9tropole", "capacity": "20", "name": "Danielle Casanova - Op\u00e9ra", "network": "V\u00e9lib\u2019 M\u00e9tropole", "network:wikidata": "Q1120762", "network:wikipedia": "fr:V\u00e9lib' M\u00e9tropole", "operator": "Smovengo", "operator:wikidata": "Q47008427", "operator:wikipedia": "fr:Smovengo", "ref": "2020", "source": "Autolib Velib M\u00e9tropole - 04/2019", "wikidata": "Q86254784"}}, {"type": "node", "id": 7369001598, "lat": 48.868289, "lon": 2.3380893, "tags": {"amenity": "bicycle_rental", "bicycle_rental": "docking_station", "brand": "V\u00e9lib\u2019 M\u00e9tropole", "brand:wikidata": "Q1120762", "brand:wikipedia": "fr:V\u00e9lib' M\u00e9tropole", "capacity": "17", "name": "Biblioth\u00e8que Nationale", "network": "V\u00e9lib\u2019 M\u00e9tropole", "network:wikidata": "Q1120762", "network:wikipedia": "fr:V\u00e9lib' M\u00e9tropole", "operator": "Smovengo", "operator:wikidata": "Q47008427", "operator:wikipedia": "fr:Smovengo", "ref": "2112", "source": "Autolib Velib M\u00e9tropole - 04/2020", "wikidata": "Q86254743"}}, {"type": "node", "id": 7369001599, "lat": 48.8672322, "lon": 2.3405014, "tags": {"amenity": "bicycle_rental", "bicycle_rental": "docking_station", "brand": "V\u00e9lib\u2019 M\u00e9tropole", "brand:wikidata": "Q1120762", "brand:wikipedia": "fr:V\u00e9lib' M\u00e9tropole", "capacity": "28", "name": "Mairie du 2\u00e8me", "network": "V\u00e9lib\u2019 M\u00e9tropole", "network:wikidata": "Q1120762", "network:wikipedia": "fr:V\u00e9lib' M\u00e9tropole", "operator": "Smovengo", "operator:wikidata": "Q47008427", "operator:wikipedia": "fr:Smovengo", "ref": "2008", "source": "Autolib Velib M\u00e9tropole - 04/2019", "wikidata": "Q86254735"}}, {"type": "node", "id": 7369001600, "lat": 48.8696016, "lon": 2.3542909, "tags": {"amenity": "bicycle_rental", "bicycle_rental": "docking_station", "brand": "V\u00e9lib\u2019 M\u00e9tropole", "brand:wikidata": "Q1120762", "brand:wikipedia": "fr:V\u00e9lib' M\u00e9tropole", "capacity": "16", "name": "Strasbourg - Saint-Denis", "network": "V\u00e9lib\u2019 M\u00e9tropole", "network:wikidata": "Q1120762", "network:wikipedia": "fr:V\u00e9lib' M\u00e9tropole", "operator": "Smovengo", "operator:wikidata": "Q47008427", "operator:wikipedia": "fr:Smovengo", "ref": "10166", "source": "Autolib Velib M\u00e9tropole - 04/2019", "wikidata": "Q86252926"}}, {"type": "node", "id": 7369001601, "lat": 48.8686829, "lon": 2.3502042, "tags": {"amenity": "bicycle_rental", "bicycle_rental": "docking_station", "brand": "V\u00e9lib\u2019 M\u00e9tropole", "brand:wikidata": "Q1120762", "brand:wikipedia": "fr:V\u00e9lib' M\u00e9tropole", "capacity": "21", "name": "Aboukir - Alexandrie", "network": "V\u00e9lib\u2019 M\u00e9tropole", "network:wikidata": "Q1120762", "network:wikipedia": "fr:V\u00e9lib' M\u00e9tropole", "operator": "Smovengo", "operator:wikidata": "Q47008427", "operator:wikipedia": "fr:Smovengo", "ref": "2016", "source": "Autolib Velib M\u00e9tropole - 04/2020", "wikidata": "Q86254763"}}, {"type": "node", "id": 7369001602, "lat": 48.8670273, "lon": 2.3483584, "tags": {"amenity": "bicycle_rental", "bicycle_rental": "docking_station", "brand": "V\u00e9lib\u2019 M\u00e9tropole", "brand:wikidata": "Q1120762", "brand:wikipedia": "fr:V\u00e9lib' M\u00e9tropole", "capacity": "17", "name": "Square Pierre Lazareff", "network": "V\u00e9lib\u2019 M\u00e9tropole", "network:wikidata": "Q1120762", "network:wikipedia": "fr:V\u00e9lib' M\u00e9tropole", "operator": "Smovengo", "operator:wikidata": "Q47008427", "operator:wikipedia": "fr:Smovengo", "ref": "2004", "source": "Autolib Velib M\u00e9tropole - 2021-03", "wikidata": "Q86254769"}}, {"type": "node", "id": 7369001603, "lat": 48.867458, "lon": 2.3445211, "tags": {"amenity": "bicycle_rental", "bicycle_rental": "docking_station", "brand": "V\u00e9lib\u2019 M\u00e9tropole", "brand:wikidata": "Q1120762", "brand:wikipedia": "fr:V\u00e9lib' M\u00e9tropole", "capacity": "44", "name": "Cl\u00e9ry - Montmartre", "network": "V\u00e9lib\u2019 M\u00e9tropole", "network:wikidata": "Q1120762", "network:wikipedia": "fr:V\u00e9lib' M\u00e9tropole", "operator": "Smovengo", "operator:wikidata": "Q47008427", "operator:wikipedia": "fr:Smovengo", "ref": "2021", "source": "Autolib Velib M\u00e9tropole - 04/2019", "wikidata": "Q86254782"}}, {"type": "node", "id": 7369001604, "lat": 48.8660355, "lon": 2.3420334, "tags": {"amenity": "bicycle_rental", "bicycle_rental": "docking_station", "brand": "V\u00e9lib\u2019 M\u00e9tropole", "brand:wikidata": "Q1120762", "brand:wikipedia": "fr:V\u00e9lib' M\u00e9tropole", "capacity": "24", "name": "Place des Victoires", "network": "V\u00e9lib\u2019 M\u00e9tropole", "network:wikidata": "Q1120762", "network:wikipedia": "fr:V\u00e9lib' M\u00e9tropole", "operator": "Smovengo", "operator:wikidata": "Q47008427", "operator:wikipedia": "fr:Smovengo", "ref": "2006", "source": "Autolib Velib M\u00e9tropole - 04/2019", "wikidata": "Q86254737"}}, {"type": "node", "id": 7369015142, "lat": 48.8783614, "lon": 2.3052544, "tags": {"amenity": "bicycle_rental", "bicycle_rental": "docking_station", "capacity": "33", "name": "Alfred de Vigny - Place du G\u00e9n\u00e9ral Brocard", "network": "V\u00e9lib\u2019", "operator": "Smovengo", "ref": "8044", "source": "Autolib Velib M\u00e9tropole - 2021-03", "wikidata": "Q86255204"}}, {"type": "node", "id": 7369015145, "lat": 48.8747444, "lon": 2.3082953, "tags": {"amenity": "bicycle_rental", "bicycle_rental": "docking_station", "brand": "V\u00e9lib\u2019 M\u00e9tropole", "brand:wikidata": "Q1120762", "brand:wikipedia": "fr:V\u00e9lib' M\u00e9tropole", "capacity": "35", "name": "Berri - Haussmann", "network": "V\u00e9lib\u2019 M\u00e9tropole", "network:wikidata": "Q1120762", "network:wikipedia": "fr:V\u00e9lib' M\u00e9tropole", "operator": "Smovengo", "operator:wikidata": "Q47008427", "operator:wikipedia": "fr:Smovengo", "ref": "8034", "source": "Autolib Velib M\u00e9tropole - 04/2019", "wikidata": "Q86255268"}}, {"type": "node", "id": 7369015150, "lat": 48.8738632, "lon": 2.3063319, "tags": {"amenity": "bicycle_rental", "bicycle_rental": "docking_station", "brand": "V\u00e9lib\u2019 M\u00e9tropole", "brand:wikidata": "Q1120762", "brand:wikipedia": "fr:V\u00e9lib' M\u00e9tropole", "capacity": "23", "name": "Artois - Berri", "network": "V\u00e9lib\u2019 M\u00e9tropole", "network:wikidata": "Q1120762", "network:wikipedia": "fr:V\u00e9lib' M\u00e9tropole", "operator": "Smovengo", "operator:wikidata": "Q47008427", "operator:wikipedia": "fr:Smovengo", "ref": "8103", "source": "Autolib Velib M\u00e9tropole - 04/2019", "wikidata": "Q86255232"}}, {"type": "node", "id": 7369015151, "lat": 48.8727725, "lon": 2.3096853, "tags": {"amenity": "bicycle_rental", "bicycle_rental": "docking_station", "brand": "V\u00e9lib\u2019 M\u00e9tropole", "brand:wikidata": "Q1120762", "brand:wikipedia": "fr:V\u00e9lib' M\u00e9tropole", "capacity": "27", "name": "Commandant Rivi\u00e8re", "network": "V\u00e9lib\u2019 M\u00e9tropole", "network:wikidata": "Q1120762", "network:wikipedia": "fr:V\u00e9lib' M\u00e9tropole", "operator": "Smovengo", "operator:wikidata": "Q47008427", "operator:wikipedia": "fr:Smovengo", "ref": "8033", "source": "Autolib Velib M\u00e9tropole - 04/2019", "wikidata": "Q86255237"}}, {"type": "node", "id": 7369015152, "lat": 48.8715165, "lon": 2.3139015, "tags": {"amenity": "bicycle_rental", "bicycle_rental": "docking_station", "brand": "V\u00e9lib\u2019 M\u00e9tropole", "brand:wikidata": "Q1120762", "brand:wikipedia": "fr:V\u00e9lib' M\u00e9tropole", "capacity": "36", "name": "Matignon - Faubourg Saint-Honor\u00e9", "network": "V\u00e9lib\u2019 M\u00e9tropole", "network:wikidata": "Q1120762", "network:wikipedia": "fr:V\u00e9lib' M\u00e9tropole", "operator": "Smovengo", "operator:wikidata": "Q47008427", "operator:wikipedia": "fr:Smovengo", "ref": "8032", "source": "Autolib Velib M\u00e9tropole - 04/2019", "wikidata": "Q86255201"}}, {"type": "node", "id": 7369032806, "lat": 48.8824234, "lon": 2.3090453, "tags": {"amenity": "bicycle_rental", "bicycle_rental": "docking_station", "capacity": "20", "name": "Phalsbourg - Villiers", "network": "V\u00e9lib\u2019", "operator": "Smovengo", "ref": "17019", "source": "Autolib Velib M\u00e9tropole - 2021-03", "wikidata": "Q86238402"}}, {"type": "node", "id": 7369032807, "lat": 48.8811035, "lon": 2.3094809, "tags": {"amenity": "bicycle_rental", "capacity": "18", "name": "Parc Monceau", "network": "V\u00e9lib\u2019", "operator": "Smovengo", "ref": "17018", "source": "Autolib Velib M\u00e9tropole - 2021-03", "wikidata": "Q86238363"}}, {"type": "node", "id": 7369032808, "lat": 48.8795975, "lon": 2.3145171, "tags": {"amenity": "bicycle_rental", "bicycle_rental": "docking_station", "brand": "V\u00e9lib\u2019 M\u00e9tropole", "brand:wikidata": "Q1120762", "brand:wikipedia": "fr:V\u00e9lib' M\u00e9tropole", "capacity": "38", "name": "Monceau - Malesherbes", "network": "V\u00e9lib\u2019 M\u00e9tropole", "network:wikidata": "Q1120762", "network:wikipedia": "fr:V\u00e9lib' M\u00e9tropole", "operator": "Smovengo", "operator:wikidata": "Q47008427", "operator:wikipedia": "fr:Smovengo", "ref": "8037", "source": "Autolib Velib M\u00e9tropole - 04/2019", "wikidata": "Q86255196"}}, {"type": "node", "id": 7369032809, "lat": 48.8774557, "lon": 2.3096942, "tags": {"amenity": "bicycle_rental", "bicycle_rental": "docking_station", "brand": "V\u00e9lib\u2019 M\u00e9tropole", "brand:wikidata": "Q1120762", "brand:wikipedia": "fr:V\u00e9lib' M\u00e9tropole", "capacity": "33", "name": "Lisbonne - Monceau", "network": "V\u00e9lib\u2019 M\u00e9tropole", "network:wikidata": "Q1120762", "network:wikipedia": "fr:V\u00e9lib' M\u00e9tropole", "operator": "Smovengo", "operator:wikidata": "Q47008427", "operator:wikipedia": "fr:Smovengo", "ref": "8036", "source": "Autolib Velib M\u00e9tropole - 04/2019", "wikidata": "Q86255216"}}, {"type": "node", "id": 7369032810, "lat": 48.8766143, "lon": 2.3131677, "tags": {"amenity": "bicycle_rental", "bicycle_rental": "docking_station", "brand": "V\u00e9lib\u2019 M\u00e9tropole", "brand:wikidata": "Q1120762", "brand:wikipedia": "fr:V\u00e9lib' M\u00e9tropole", "capacity": "36", "name": "Bienfaisance - Place de Narvik", "network": "V\u00e9lib\u2019 M\u00e9tropole", "network:wikidata": "Q1120762", "network:wikipedia": "fr:V\u00e9lib' M\u00e9tropole", "operator": "Smovengo", "operator:wikidata": "Q47008427", "operator:wikipedia": "fr:Smovengo", "ref": "8035", "source": "Autolib Velib M\u00e9tropole - 04/2019", "wikidata": "Q86255260"}}, {"type": "node", "id": 7369032811, "lat": 48.875448, "lon": 2.315508, "tags": {"amenity": "bicycle_rental", "bicycle_rental": "docking_station", "brand": "V\u00e9lib\u2019 M\u00e9tropole", "brand:wikidata": "Q1120762", "brand:wikipedia": "fr:V\u00e9lib' M\u00e9tropole", "capacity": "12", "name": "Messine - Place Du P\u00e9rou", "network": "V\u00e9lib\u2019 M\u00e9tropole", "network:wikidata": "Q1120762", "network:wikipedia": "fr:V\u00e9lib' M\u00e9tropole", "operator": "Smovengo", "operator:wikidata": "Q47008427", "operator:wikipedia": "fr:Smovengo", "ref": "8026", "source": "Autolib Velib M\u00e9tropole - 04/2019", "wikidata": "Q86255219"}}, {"type": "node", "id": 7369032812, "lat": 48.8737259, "lon": 2.3158615, "tags": {"amenity": "bicycle_rental", "bicycle_rental": "docking_station", "brand": "V\u00e9lib\u2019 M\u00e9tropole", "brand:wikidata": "Q1120762", "brand:wikipedia": "fr:V\u00e9lib' M\u00e9tropole", "capacity": "35", "name": "Miromesnil - La Bo\u00e9tie", "network": "V\u00e9lib\u2019 M\u00e9tropole", "network:wikidata": "Q1120762", "network:wikipedia": "fr:V\u00e9lib' M\u00e9tropole", "operator": "Smovengo", "operator:wikidata": "Q47008427", "operator:wikipedia": "fr:Smovengo", "ref": "8025", "source": "Autolib Velib M\u00e9tropole - 04/2019", "wikidata": "Q86255297"}}, {"type": "node", "id": 7369043455, "lat": 48.8882163, "lon": 2.3101323, "tags": {"amenity": "bicycle_rental", "bicycle_rental": "docking_station", "brand": "V\u00e9lib\u2019 M\u00e9tropole", "brand:wikidata": "Q1120762", "brand:wikipedia": "fr:V\u00e9lib' M\u00e9tropole", "capacity": "32", "name": "Pereire - Saussure", "network": "V\u00e9lib\u2019 M\u00e9tropole", "network:wikidata": "Q1120762", "network:wikipedia": "fr:V\u00e9lib' M\u00e9tropole", "operator": "Smovengo", "operator:wikidata": "Q47008427", "operator:wikipedia": "fr:Smovengo", "ref": "17117", "source": "Autolib Velib M\u00e9tropole - 04/2019", "wikidata": "Q86238330"}}, {"type": "node", "id": 7369043456, "lat": 48.8886367, "lon": 2.3111707, "tags": {"amenity": "bicycle_rental", "bicycle_rental": "docking_station", "brand": "V\u00e9lib\u2019 M\u00e9tropole", "brand:wikidata": "Q1120762", "brand:wikipedia": "fr:V\u00e9lib' M\u00e9tropole", "capacity": "32", "name": "Marie-Georges Picquart - Pereire", "network": "V\u00e9lib\u2019 M\u00e9tropole", "network:wikidata": "Q1120762", "network:wikipedia": "fr:V\u00e9lib' M\u00e9tropole", "operator": "Smovengo", "operator:wikidata": "Q47008427", "operator:wikipedia": "fr:Smovengo", "ref": "17125", "source": "Autolib Velib M\u00e9tropole - 04/2019", "wikidata": "Q86238270"}}, {"type": "node", "id": 7369043457, "lat": 48.8871384, "lon": 2.3144941, "tags": {"amenity": "bicycle_rental", "bicycle_rental": "docking_station", "brand": "V\u00e9lib\u2019 M\u00e9tropole", "brand:wikidata": "Q1120762", "brand:wikipedia": "fr:V\u00e9lib' M\u00e9tropole", "capacity": "34", "name": "Gare de Pont-Cardinet", "network": "V\u00e9lib\u2019 M\u00e9tropole", "network:wikidata": "Q1120762", "network:wikipedia": "fr:V\u00e9lib' M\u00e9tropole", "operator": "Smovengo", "operator:wikidata": "Q47008427", "operator:wikipedia": "fr:Smovengo", "ref": "17017", "source": "Autolib Velib M\u00e9tropole - 04/2019", "wikidata": "Q86238288"}}, {"type": "node", "id": 7369043458, "lat": 48.8853645, "lon": 2.3163829, "tags": {"amenity": "bicycle_rental", "bicycle_rental": "docking_station", "brand": "V\u00e9lib\u2019 M\u00e9tropole", "brand:wikidata": "Q1120762", "capacity": "23", "name": "Legendre - Dulong", "network": "V\u00e9lib\u2019 M\u00e9tropole", "network:wikidata": "Q1120762", "operator": "Smovengo", "operator:wikidata": "Q47008427", "ref": "17013", "source": "Autolib Velib M\u00e9tropole - 2021-03", "wikidata": "Q86238225"}}, {"type": "node", "id": 7369043459, "lat": 48.8835901, "lon": 2.3132296, "tags": {"amenity": "bicycle_rental", "bicycle_rental": "docking_station", "capacity": "48", "name": "Place de L\u00e9vis", "network": "V\u00e9lib\u2019", "operator": "Smovengo", "ref": "17015", "source": "Autolib Velib M\u00e9tropole - 2021-03", "wikidata": "Q86238410"}}, {"type": "node", "id": 7369043460, "lat": 48.8824272, "lon": 2.314002, "tags": {"amenity": "bicycle_rental", "bicycle_rental": "docking_station", "capacity": "30", "name": "De Toqueville - Terrasse", "network": "V\u00e9lib\u2019", "operator": "Smovengo", "ref": "17048", "source": "Autolib Velib M\u00e9tropole - 2021-03", "wikidata": "Q86238220"}}, {"type": "node", "id": 7369043461, "lat": 48.8821487, "lon": 2.3198547, "tags": {"amenity": "bicycle_rental", "bicycle_rental": "docking_station", "brand": "V\u00e9lib\u2019 M\u00e9tropole", "brand:wikidata": "Q1120762", "brand:wikipedia": "fr:V\u00e9lib' M\u00e9tropole", "capacity": "44", "name": "Batignolles - Beudant", "network": "V\u00e9lib\u2019 M\u00e9tropole", "network:wikidata": "Q1120762", "network:wikipedia": "fr:V\u00e9lib' M\u00e9tropole", "operator": "Smovengo", "operator:wikidata": "Q47008427", "operator:wikipedia": "fr:Smovengo", "ref": "8020", "source": "Autolib Velib M\u00e9tropole - 04/2019", "wheelchair": "limited", "wikidata": "Q86238299"}}, {"type": "node", "id": 7369043462, "lat": 48.881176, "lon": 2.316535, "tags": {"amenity": "bicycle_rental", "bicycle_rental": "docking_station", "capacity": "23", "name": "Villiers - Batignolles", "network": "V\u00e9lib\u2019", "operator": "Smovengo", "ref": "17024", "source": "Autolib Velib M\u00e9tropole - 2021-03", "wikidata": "Q86255248"}}, {"type": "node", "id": 7369043463, "lat": 48.8818798, "lon": 2.3202214, "tags": {"amenity": "bicycle_rental", "bicycle_rental": "docking_station", "brand": "V\u00e9lib\u2019 M\u00e9tropole", "brand:wikidata": "Q1120762", "brand:wikipedia": "fr:V\u00e9lib' M\u00e9tropole", "capacity": "15", "name": "Batignolles - Rome", "network": "V\u00e9lib\u2019 M\u00e9tropole", "network:wikidata": "Q1120762", "network:wikipedia": "fr:V\u00e9lib' M\u00e9tropole", "operator": "Smovengo", "operator:wikidata": "Q47008427", "operator:wikipedia": "fr:Smovengo", "ref": "8051", "source": "Autolib Velib M\u00e9tropole - 04/2019", "wheelchair": "yes", "wikidata": "Q86255210"}}, {"type": "node", "id": 7369043464, "lat": 48.8799553, "lon": 2.3213587, "tags": {"amenity": "bicycle_rental", "bicycle_rental": "docking_station", "brand": "V\u00e9lib\u2019 M\u00e9tropole", "brand:wikidata": "Q1120762", "brand:wikipedia": "fr:V\u00e9lib' M\u00e9tropole", "capacity": "26", "name": "Naples - Rome", "network": "V\u00e9lib\u2019 M\u00e9tropole", "network:wikidata": "Q1120762", "network:wikipedia": "fr:V\u00e9lib' M\u00e9tropole", "operator": "Smovengo", "operator:wikidata": "Q47008427", "operator:wikipedia": "fr:Smovengo", "ref": "8019", "source": "Autolib Velib M\u00e9tropole - 04/2019", "wikidata": "Q86255173"}}, {"type": "node", "id": 7369043465, "lat": 48.8779335, "lon": 2.318264, "tags": {"amenity": "bicycle_rental", "bicycle_rental": "docking_station", "brand": "V\u00e9lib\u2019 M\u00e9tropole", "brand:wikidata": "Q1120762", "brand:wikipedia": "fr:V\u00e9lib' M\u00e9tropole", "capacity": "14", "name": "Mairie du 8\u00e8me", "network": "V\u00e9lib\u2019 M\u00e9tropole", "network:wikidata": "Q1120762", "network:wikipedia": "fr:V\u00e9lib' M\u00e9tropole", "operator": "Smovengo", "operator:wikidata": "Q47008427", "operator:wikipedia": "fr:Smovengo", "ref": "8027", "source": "Autolib Velib M\u00e9tropole - 04/2019", "wikidata": "Q86255304"}}, {"type": "node", "id": 7369043466, "lat": 48.8771286, "lon": 2.3224173, "tags": {"amenity": "bicycle_rental", "bicycle_rental": "docking_station", "brand": "V\u00e9lib\u2019 M\u00e9tropole", "brand:wikidata": "Q1120762", "brand:wikipedia": "fr:V\u00e9lib' M\u00e9tropole", "capacity": "32", "name": "Gare Saint-Lazare - Stockholm", "network": "V\u00e9lib\u2019 M\u00e9tropole", "network:wikidata": "Q1120762", "network:wikipedia": "fr:V\u00e9lib' M\u00e9tropole", "operator": "Smovengo", "operator:wikidata": "Q47008427", "operator:wikipedia": "fr:Smovengo", "ref": "8110", "source": "Autolib Velib M\u00e9tropole - 04/2019", "wikidata": "Q86255306"}}, {"type": "node", "id": 7369043467, "lat": 48.8742294, "lon": 2.3255701, "tags": {"amenity": "bicycle_rental", "bicycle_rental": "docking_station", "brand": "V\u00e9lib\u2019 M\u00e9tropole", "brand:wikidata": "Q1120762", "brand:wikipedia": "fr:V\u00e9lib' M\u00e9tropole", "capacity": "30", "name": "Rome - Provence", "network": "V\u00e9lib\u2019 M\u00e9tropole", "network:wikidata": "Q1120762", "network:wikipedia": "fr:V\u00e9lib' M\u00e9tropole", "operator": "Smovengo", "operator:wikidata": "Q47008427", "operator:wikipedia": "fr:Smovengo", "ref": "8007", "source": "Autolib Velib M\u00e9tropole - 04/2019", "wikidata": "Q86255198"}}, {"type": "node", "id": 7369043468, "lat": 48.8747902, "lon": 2.3265264, "tags": {"amenity": "bicycle_rental", "bicycle_rental": "docking_station", "brand": "V\u00e9lib\u2019 M\u00e9tropole", "brand:wikidata": "Q1120762", "brand:wikipedia": "fr:V\u00e9lib' M\u00e9tropole", "capacity": "27", "name": "Gare Saint-Lazare - Isly", "network": "V\u00e9lib\u2019 M\u00e9tropole", "network:wikidata": "Q1120762", "network:wikipedia": "fr:V\u00e9lib' M\u00e9tropole", "operator": "Smovengo", "operator:wikidata": "Q47008427", "operator:wikipedia": "fr:Smovengo", "ref": "8009", "source": "Autolib Velib M\u00e9tropole - 04/2019", "wikidata": "Q86255188"}}, {"type": "node", "id": 7371231527, "lat": 48.8833969, "lon": 2.3264488, "tags": {"amenity": "bicycle_rental", "bicycle_rental": "docking_station", "brand": "V\u00e9lib\u2019 M\u00e9tropole", "brand:wikidata": "Q1120762", "capacity": "47", "name": "Batignolles - Place de Clichy", "network": "V\u00e9lib\u2019 M\u00e9tropole", "network:wikidata": "Q1120762", "operator": "Smovengo", "operator:wikidata": "Q47008427", "ref": "8012", "source": "Autolib Velib M\u00e9tropole - 2021-03", "wheelchair": "yes", "wikidata": "Q86238306"}}, {"type": "node", "id": 7371231528, "lat": 48.8841171, "lon": 2.3287287, "tags": {"amenity": "bicycle_rental", "bicycle_rental": "dropoff_point", "capacity": "32", "name": "Clichy - Douai", "network": "V\u00e9lib\u2019", "operator": "Smovengo", "ref": "18044", "source": "Autolib Velib M\u00e9tropole - 2021-03", "wheelchair": "yes", "wikidata": "Q86253601"}}, {"type": "node", "id": 7371231529, "lat": 48.8832092, "lon": 2.3308451, "tags": {"amenity": "bicycle_rental", "bicycle_rental": "docking_station", "brand": "V\u00e9lib\u2019 M\u00e9tropole", "brand:wikidata": "Q1120762", "capacity": "27", "name": "Douai - Bruxelles", "network": "V\u00e9lib\u2019 M\u00e9tropole", "network:wikidata": "Q1120762", "operator": "Smovengo", "operator:wikidata": "Q47008427", "ref": "9038", "source": "Autolib Velib M\u00e9tropole - 2021-03", "wikidata": "Q86254709"}}, {"type": "node", "id": 7371231530, "lat": 48.882343, "lon": 2.3332645, "tags": {"amenity": "bicycle_rental", "bicycle_rental": "docking_station", "brand": "V\u00e9lib\u2019 M\u00e9tropole", "brand:wikidata": "Q1120762", "brand:wikipedia": "fr:V\u00e9lib' M\u00e9tropole", "capacity": "25", "name": "Douai - Pierre Fontaine", "network": "V\u00e9lib\u2019 M\u00e9tropole", "network:wikidata": "Q1120762", "network:wikipedia": "fr:V\u00e9lib' M\u00e9tropole", "operator": "Smovengo", "operator:wikidata": "Q47008427", "operator:wikipedia": "fr:Smovengo", "ref": "9027", "source": "Autolib Velib M\u00e9tropole - 04/2020", "wikidata": "Q86254655"}}, {"type": "node", "id": 7371231531, "lat": 48.8825569, "lon": 2.3497293, "tags": {"amenity": "bicycle_rental", "bicycle_rental": "docking_station", "capacity": "36", "name": "Faubourg Poissonniere - Delta", "network": "V\u00e9lib\u2019", "operator": "Smovengo", "ref": "9118", "source": "Autolib Velib M\u00e9tropole - 2021-03", "wikidata": "Q86253008"}}, {"type": "node", "id": 7371231532, "lat": 48.8808834, "lon": 2.3499182, "tags": {"amenity": "bicycle_rental", "bicycle_rental": "docking_station", "brand": "V\u00e9lib\u2019 M\u00e9tropole", "brand:wikidata": "Q1120762", "brand:wikipedia": "fr:V\u00e9lib' M\u00e9tropole", "capacity": "30", "name": "Faubourg Poissonni\u00e8re - Dunkerque", "network": "V\u00e9lib\u2019 M\u00e9tropole", "network:wikidata": "Q1120762", "network:wikipedia": "fr:V\u00e9lib' M\u00e9tropole", "operator": "Smovengo", "operator:wikidata": "Q47008427", "operator:wikipedia": "fr:Smovengo", "ref": "9114", "source": "Autolib Velib M\u00e9tropole - 04/2020", "wikidata": "Q86252922"}}, {"type": "node", "id": 7371231533, "lat": 48.8810969, "lon": 2.3408171, "tags": {"amenity": "bicycle_rental", "bicycle_rental": "docking_station", "brand": "V\u00e9lib\u2019 M\u00e9tropole", "brand:wikidata": "Q1120762", "brand:wikipedia": "fr:V\u00e9lib' M\u00e9tropole", "capacity": "29", "name": "Lallier - Trudaine", "network": "V\u00e9lib\u2019 M\u00e9tropole", "network:wikidata": "Q1120762", "network:wikipedia": "fr:V\u00e9lib' M\u00e9tropole", "operator": "Smovengo", "operator:wikidata": "Q47008427", "operator:wikipedia": "fr:Smovengo", "ref": "9017", "source": "Autolib Velib M\u00e9tropole - 04/2020", "wikidata": "Q86254639"}}, {"type": "node", "id": 7371231535, "lat": 48.8812664, "lon": 2.3281971, "tags": {"amenity": "bicycle_rental", "bicycle_rental": "docking_station", "brand": "V\u00e9lib\u2019 M\u00e9tropole", "brand:wikidata": "Q1120762", "brand:wikipedia": "fr:V\u00e9lib' M\u00e9tropole", "capacity": "24", "name": "Parme - Clichy", "network": "V\u00e9lib\u2019 M\u00e9tropole", "network:wikidata": "Q1120762", "network:wikipedia": "fr:V\u00e9lib' M\u00e9tropole", "operator": "Smovengo", "operator:wikidata": "Q47008427", "operator:wikipedia": "fr:Smovengo", "ref": "9037", "source": "Autolib Velib M\u00e9tropole - 04/2020", "wikidata": "Q86254658"}}, {"type": "node", "id": 7371231536, "lat": 48.880085, "lon": 2.3310797, "tags": {"amenity": "bicycle_rental", "bicycle_rental": "docking_station", "brand": "V\u00e9lib\u2019 M\u00e9tropole", "brand:wikidata": "Q1120762", "brand:wikipedia": "fr:V\u00e9lib' M\u00e9tropole", "capacity": "17", "name": "Moncey - Blanche", "network": "V\u00e9lib\u2019 M\u00e9tropole", "network:wikidata": "Q1120762", "network:wikipedia": "fr:V\u00e9lib' M\u00e9tropole", "operator": "Smovengo", "operator:wikidata": "Q47008427", "operator:wikipedia": "fr:Smovengo", "ref": "9028", "source": "Autolib Velib M\u00e9tropole - 04/2020", "wikidata": "Q86254683"}}, {"type": "node", "id": 7371231537, "lat": 48.8793983, "lon": 2.3337092, "tags": {"amenity": "bicycle_rental", "bicycle_rental": "docking_station", "brand": "V\u00e9lib\u2019 M\u00e9tropole", "brand:wikidata": "Q1120762", "brand:wikipedia": "fr:V\u00e9lib' M\u00e9tropole", "capacity": "17", "name": "Jean-Baptiste Pigalle - La Bruyere", "network": "V\u00e9lib\u2019 M\u00e9tropole", "network:wikidata": "Q1120762", "network:wikipedia": "fr:V\u00e9lib' M\u00e9tropole", "operator": "Smovengo", "operator:wikidata": "Q47008427", "operator:wikipedia": "fr:Smovengo", "ref": "9026", "source": "Autolib Velib M\u00e9tropole - 04/2020", "wikidata": "Q86254722"}}, {"type": "node", "id": 7371231538, "lat": 48.8795243, "lon": 2.3371209, "tags": {"amenity": "bicycle_rental", "bicycle_rental": "docking_station", "brand": "V\u00e9lib\u2019 M\u00e9tropole", "brand:wikidata": "Q1120762", "brand:wikipedia": "fr:V\u00e9lib' M\u00e9tropole", "capacity": "21", "name": "Toudouze - Clauzel", "network": "V\u00e9lib\u2019 M\u00e9tropole", "network:wikidata": "Q1120762", "network:wikipedia": "fr:V\u00e9lib' M\u00e9tropole", "operator": "Smovengo", "operator:wikidata": "Q47008427", "operator:wikipedia": "fr:Smovengo", "ref": "9020", "source": "Autolib Velib M\u00e9tropole - 04/2020", "wikidata": "Q86254572"}}, {"type": "node", "id": 7371231539, "lat": 48.879161, "lon": 2.343698, "tags": {"amenity": "bicycle_rental", "bicycle_rental": "docking_station", "brand": "V\u00e9lib\u2019 M\u00e9tropole", "brand:wikidata": "Q1120762", "brand:wikipedia": "fr:V\u00e9lib' M\u00e9tropole", "capacity": "17", "check_date": "2023-01-26", "name": "Tour d'Auvergne - Rodier", "network": "V\u00e9lib\u2019 M\u00e9tropole", "network:wikidata": "Q1120762", "network:wikipedia": "fr:V\u00e9lib' M\u00e9tropole", "operator": "Smovengo", "operator:wikidata": "Q47008427", "operator:wikipedia": "fr:Smovengo", "ref": "9008", "source": "Autolib Velib M\u00e9tropole - 04/2020", "wikidata": "Q86254603"}}, {"type": "node", "id": 7371231540, "lat": 48.8782554, "lon": 2.3452642, "tags": {"amenity": "bicycle_rental", "bicycle_rental": "docking_station", "brand": "V\u00e9lib\u2019 M\u00e9tropole", "brand:wikidata": "Q1120762", "brand:wikipedia": "fr:V\u00e9lib' M\u00e9tropole", "capacity": "31", "name": "Bellefond - Maubeuge", "network": "V\u00e9lib\u2019 M\u00e9tropole", "network:wikidata": "Q1120762", "network:wikipedia": "fr:V\u00e9lib' M\u00e9tropole", "operator": "Smovengo", "operator:wikidata": "Q47008427", "operator:wikipedia": "fr:Smovengo", "ref": "9117", "source": "Autolib Velib M\u00e9tropole - 04/2020", "wikidata": "Q86254609"}}, {"type": "node", "id": 7371231541, "lat": 48.8774704, "lon": 2.3487104, "tags": {"amenity": "bicycle_rental", "bicycle_rental": "docking_station", "brand": "V\u00e9lib\u2019 M\u00e9tropole", "brand:wikidata": "Q1120762", "brand:wikipedia": "fr:V\u00e9lib' M\u00e9tropole", "capacity": "17", "name": "Bellefond - Poissonni\u00e8re", "network": "V\u00e9lib\u2019 M\u00e9tropole", "network:wikidata": "Q1120762", "network:wikipedia": "fr:V\u00e9lib' M\u00e9tropole", "operator": "Smovengo", "operator:wikidata": "Q47008427", "operator:wikipedia": "fr:Smovengo", "ref": "9001", "source": "Autolib Velib M\u00e9tropole - 04/2020", "wikidata": "Q86254647"}}, {"type": "node", "id": 7371231542, "lat": 48.8766136, "lon": 2.3457634, "tags": {"amenity": "bicycle_rental", "bicycle_rental": "docking_station", "brand": "V\u00e9lib\u2019 M\u00e9tropole", "brand:wikidata": "Q1120762", "brand:wikipedia": "fr:V\u00e9lib' M\u00e9tropole", "capacity": "21", "name": "Square Montholon", "network": "V\u00e9lib\u2019 M\u00e9tropole", "network:wikidata": "Q1120762", "network:wikipedia": "fr:V\u00e9lib' M\u00e9tropole", "operator": "Smovengo", "operator:wikidata": "Q47008427", "operator:wikipedia": "fr:Smovengo", "ref": "9009", "source": "Autolib Velib M\u00e9tropole - 04/2020", "wikidata": "Q86254601"}}, {"type": "node", "id": 7371231543, "lat": 48.8767199, "lon": 2.344393, "tags": {"amenity": "bicycle_rental", "bicycle_rental": "docking_station", "brand": "V\u00e9lib\u2019 M\u00e9tropole", "brand:wikidata": "Q1120762", "brand:wikipedia": "fr:V\u00e9lib' M\u00e9tropole", "capacity": "24", "name": "Rochechouart lamartine", "network": "V\u00e9lib\u2019 M\u00e9tropole", "network:wikidata": "Q1120762", "network:wikipedia": "fr:V\u00e9lib' M\u00e9tropole", "operator": "Smovengo", "operator:wikidata": "Q47008427", "operator:wikipedia": "fr:Smovengo", "ref": "9010", "source": "Autolib Velib M\u00e9tropole - 04/2020", "wikidata": "Q86254633"}}, {"type": "node", "id": 7371231544, "lat": 48.8782486, "lon": 2.3411569, "tags": {"amenity": "bicycle_rental", "bicycle_rental": "docking_station", "brand": "V\u00e9lib\u2019 M\u00e9tropole", "brand:wikidata": "Q1120762", "brand:wikipedia": "fr:V\u00e9lib' M\u00e9tropole", "capacity": "22", "name": "Milton - Manuel", "network": "V\u00e9lib\u2019 M\u00e9tropole", "network:wikidata": "Q1120762", "network:wikipedia": "fr:V\u00e9lib' M\u00e9tropole", "operator": "Smovengo", "operator:wikidata": "Q47008427", "operator:wikipedia": "fr:Smovengo", "ref": "9115", "source": "Autolib Velib M\u00e9tropole - 04/2020", "wikidata": "Q86254635"}}, {"type": "node", "id": 7371231545, "lat": 48.8777733, "lon": 2.3397465, "tags": {"amenity": "bicycle_rental", "bicycle_rental": "docking_station", "brand": "V\u00e9lib\u2019 M\u00e9tropole", "brand:wikidata": "Q1120762", "brand:wikipedia": "fr:V\u00e9lib' M\u00e9tropole", "capacity": "17", "name": "Choron - Martyrs", "network": "V\u00e9lib\u2019 M\u00e9tropole", "network:wikidata": "Q1120762", "network:wikipedia": "fr:V\u00e9lib' M\u00e9tropole", "operator": "Smovengo", "operator:wikidata": "Q47008427", "operator:wikipedia": "fr:Smovengo", "ref": "9016", "source": "Autolib Velib M\u00e9tropole - 04/2020", "wikidata": "Q86254586"}}, {"type": "node", "id": 7371231546, "lat": 48.876614, "lon": 2.3397657, "tags": {"amenity": "bicycle_rental", "bicycle_rental": "docking_station", "brand": "V\u00e9lib\u2019 M\u00e9tropole", "brand:wikidata": "Q1120762", "brand:wikipedia": "fr:V\u00e9lib' M\u00e9tropole", "capacity": "32", "name": "Lamartine - Faubourg Montmartre", "network": "V\u00e9lib\u2019 M\u00e9tropole", "network:wikidata": "Q1120762", "network:wikipedia": "fr:V\u00e9lib' M\u00e9tropole", "operator": "Smovengo", "operator:wikidata": "Q47008427", "operator:wikipedia": "fr:Smovengo", "ref": "9015", "source": "Autolib Velib M\u00e9tropole - 04/2020", "wikidata": "Q86254712"}}, {"type": "node", "id": 7371231547, "lat": 48.8752976, "lon": 2.3407941, "tags": {"amenity": "bicycle_rental", "bicycle_rental": "docking_station", "brand": "V\u00e9lib\u2019 M\u00e9tropole", "brand:wikidata": "Q1120762", "brand:wikipedia": "fr:V\u00e9lib' M\u00e9tropole", "capacity": "35", "name": "Faubourg Montmartre - La Fayette", "network": "V\u00e9lib\u2019 M\u00e9tropole", "network:wikidata": "Q1120762", "network:wikipedia": "fr:V\u00e9lib' M\u00e9tropole", "operator": "Smovengo", "operator:wikidata": "Q47008427", "operator:wikipedia": "fr:Smovengo", "ref": "9014", "source": "Autolib Velib M\u00e9tropole - 04/2020", "wikidata": "Q86254581"}}, {"type": "node", "id": 7371231548, "lat": 48.8758037, "lon": 2.3472903, "tags": {"amenity": "bicycle_rental", "bicycle_rental": "docking_station", "brand": "V\u00e9lib\u2019 M\u00e9tropole", "brand:wikidata": "Q1120762", "brand:wikipedia": "fr:V\u00e9lib' M\u00e9tropole", "capacity": "30", "name": "Bleue - Tr\u00e9vise", "network": "V\u00e9lib\u2019 M\u00e9tropole", "network:wikidata": "Q1120762", "network:wikipedia": "fr:V\u00e9lib' M\u00e9tropole", "operator": "Smovengo", "operator:wikidata": "Q47008427", "operator:wikipedia": "fr:Smovengo", "ref": "9113", "source": "Autolib Velib M\u00e9tropole - 04/2020", "wikidata": "Q86254641"}}, {"type": "node", "id": 7371263877, "lat": 48.8875351, "lon": 2.3343077, "tags": {"amenity": "bicycle_rental", "bicycle_rental": "docking_station", "brand": "V\u00e9lib\u2019 M\u00e9tropole", "brand:wikidata": "Q1120762", "brand:wikipedia": "fr:V\u00e9lib' M\u00e9tropole", "capacity": "24", "name": "Lepic - Arm\u00e9e d'Orient", "network": "V\u00e9lib\u2019 M\u00e9tropole", "network:wikidata": "Q1120762", "network:wikipedia": "fr:V\u00e9lib' M\u00e9tropole", "operator": "Smovengo", "operator:wikidata": "Q47008427", "operator:wikipedia": "fr:Smovengo", "ref": "18113", "source": "Autolib Velib M\u00e9tropole - 04/2020", "wikidata": "Q86253594"}}, {"type": "node", "id": 7371263878, "lat": 48.8896779, "lon": 2.3381787, "tags": {"amenity": "bicycle_rental", "bicycle_rental": "docking_station", "brand": "V\u00e9lib\u2019 M\u00e9tropole", "brand:wikidata": "Q1120762", "brand:wikipedia": "fr:V\u00e9lib' M\u00e9tropole", "capacity": "44", "name": "Caulaincourt - Place Constantin Pecqueur", "network": "V\u00e9lib\u2019 M\u00e9tropole", "network:wikidata": "Q1120762", "network:wikipedia": "fr:V\u00e9lib' M\u00e9tropole", "operator": "Smovengo", "operator:wikidata": "Q47008427", "operator:wikipedia": "fr:Smovengo", "ref": "18017", "source": "Autolib Velib M\u00e9tropole - 04/2020", "wikidata": "Q86254405"}}, {"type": "node", "id": 7371263879, "lat": 48.8899847, "lon": 2.3425217, "tags": {"amenity": "bicycle_rental", "bicycle_rental": "docking_station", "brand": "V\u00e9lib\u2019 M\u00e9tropole", "brand:wikidata": "Q1120762", "brand:wikipedia": "fr:V\u00e9lib' M\u00e9tropole", "capacity": "34", "name": "Franc\u0153ur - Caulaincourt", "network": "V\u00e9lib\u2019 M\u00e9tropole", "network:wikidata": "Q1120762", "network:wikipedia": "fr:V\u00e9lib' M\u00e9tropole", "operator": "Smovengo", "operator:wikidata": "Q47008427", "operator:wikipedia": "fr:Smovengo", "ref": "18016", "source": "Autolib Velib M\u00e9tropole - 04/2020", "wikidata": "Q86254461"}}, {"type": "node", "id": 7371263880, "lat": 48.8886381, "lon": 2.3468967, "tags": {"amenity": "bicycle_rental", "bicycle_rental": "docking_station", "brand": "V\u00e9lib\u2019 M\u00e9tropole", "brand:wikidata": "Q1120762", "brand:wikipedia": "fr:V\u00e9lib' M\u00e9tropole", "capacity": "41", "name": "Custine - Ramey", "network": "V\u00e9lib\u2019 M\u00e9tropole", "network:wikidata": "Q1120762", "network:wikipedia": "fr:V\u00e9lib' M\u00e9tropole", "operator": "Smovengo", "operator:wikidata": "Q47008427", "operator:wikipedia": "fr:Smovengo", "ref": "18015", "source": "Autolib Velib M\u00e9tropole - 04/2020", "wikidata": "Q86253591"}}, {"type": "node", "id": 7371263881, "lat": 48.8871269, "lon": 2.349076, "tags": {"amenity": "bicycle_rental", "capacity": "20", "name": "Poulet - Barb\u00e8s", "network": "V\u00e9lib\u2019", "operator": "Smovengo", "ref": "18136", "source": "Autolib Velib M\u00e9tropole - 2021-03", "wikidata": "Q86253531"}}, {"type": "node", "id": 7371263882, "lat": 48.8851287, "lon": 2.3496882, "tags": {"amenity": "bicycle_rental", "bicycle_rental": "docking_station", "brand": "V\u00e9lib\u2019 M\u00e9tropole", "brand:wikidata": "Q1120762", "brand:wikipedia": "fr:V\u00e9lib' M\u00e9tropole", "capacity": "20", "name": "Goutte d'or - Barb\u00e8s", "network": "V\u00e9lib\u2019 M\u00e9tropole", "network:wikidata": "Q1120762", "network:wikipedia": "fr:V\u00e9lib' M\u00e9tropole", "operator": "Smovengo", "operator:wikidata": "Q47008427", "operator:wikipedia": "fr:Smovengo", "ref": "18007", "source": "Autolib Velib M\u00e9tropole - 2021-03", "wikidata": "Q86253580"}}, {"type": "node", "id": 7371263883, "lat": 48.8851199, "lon": 2.3471949, "tags": {"amenity": "bicycle_rental", "bicycle_rental": "docking_station", "brand": "V\u00e9lib\u2019 M\u00e9tropole", "brand:wikidata": "Q1120762", "brand:wikipedia": "fr:V\u00e9lib' M\u00e9tropole", "capacity": "19", "name": "Clignancourt - Sofia", "network": "V\u00e9lib\u2019 M\u00e9tropole", "network:wikidata": "Q1120762", "network:wikipedia": "fr:V\u00e9lib' M\u00e9tropole", "operator": "Smovengo", "operator:wikidata": "Q47008427", "operator:wikipedia": "fr:Smovengo", "ref": "18141", "source": "Autolib Velib M\u00e9tropole - 04/2020", "wikidata": "Q86253563"}}, {"type": "node", "id": 7371263884, "lat": 48.8846855, "lon": 2.3441293, "tags": {"amenity": "bicycle_rental", "bicycle_rental": "docking_station", "brand": "V\u00e9lib\u2019 M\u00e9tropole", "brand:wikidata": "Q1120762", "brand:wikipedia": "fr:V\u00e9lib' M\u00e9tropole", "capacity": "36", "name": "Square Louise Michel", "network": "V\u00e9lib\u2019 M\u00e9tropole", "network:wikidata": "Q1120762", "network:wikipedia": "fr:V\u00e9lib' M\u00e9tropole", "operator": "Smovengo", "operator:wikidata": "Q47008427", "operator:wikipedia": "fr:Smovengo", "ref": "18006", "source": "Autolib Velib M\u00e9tropole - 04/2020", "wikidata": "Q86254421"}}, {"type": "node", "id": 7371318685, "lat": 48.8841515, "lon": 2.3418427, "tags": {"amenity": "bicycle_rental", "bicycle_rental": "docking_station", "brand": "V\u00e9lib\u2019 M\u00e9tropole", "brand:wikidata": "Q1120762", "brand:wikipedia": "fr:V\u00e9lib' M\u00e9tropole", "capacity": "18", "name": "Tardieu - Chappe", "network": "V\u00e9lib\u2019 M\u00e9tropole", "network:wikidata": "Q1120762", "network:wikipedia": "fr:V\u00e9lib' M\u00e9tropole", "operator": "Smovengo", "operator:wikidata": "Q47008427", "operator:wikipedia": "fr:Smovengo", "ref": "18005", "source": "Autolib Velib M\u00e9tropole - 04/2020", "wikidata": "Q86254449"}}, {"type": "node", "id": 7371318686, "lat": 48.8845135, "lon": 2.3388287, "tags": {"amenity": "bicycle_rental", "bicycle_rental": "docking_station", "brand": "V\u00e9lib\u2019 M\u00e9tropole", "brand:wikidata": "Q1120762", "brand:wikipedia": "fr:V\u00e9lib' M\u00e9tropole", "capacity": "12", "name": "Place des Abbesses", "network": "V\u00e9lib\u2019 M\u00e9tropole", "network:wikidata": "Q1120762", "network:wikipedia": "fr:V\u00e9lib' M\u00e9tropole", "operator": "Smovengo", "operator:wikidata": "Q47008427", "operator:wikipedia": "fr:Smovengo", "ref": "18004", "source": "Autolib Velib M\u00e9tropole - 04/2020", "wikidata": "Q86254424"}}, {"type": "node", "id": 7371318687, "lat": 48.8852692, "lon": 2.3345721, "tags": {"amenity": "bicycle_rental", "capacity": "23", "name": "V\u00e9ron - Lepic", "network": "V\u00e9lib\u2019", "operator": "Smovengo", "ref": "18114", "source": "Autolib Velib M\u00e9tropole - 2021-03", "wikidata": "Q86253587"}}, {"type": "node", "id": 7371318688, "lat": 48.8864725, "lon": 2.3328902, "tags": {"amenity": "bicycle_rental", "bicycle_rental": "docking_station", "capacity": "43", "name": "Cimeti\u00e8re de Montmartre", "network": "V\u00e9lib\u2019", "operator": "Smovengo", "ref": "18003", "source": "Autolib Velib M\u00e9tropole - 2021-03", "wikidata": "Q86253555"}}, {"type": "node", "id": 7371318689, "lat": 48.8871422, "lon": 2.3326149, "tags": {"amenity": "bicycle_rental", "bicycle_rental": "docking_station", "brand": "V\u00e9lib\u2019 M\u00e9tropole", "brand:wikidata": "Q1120762", "brand:wikipedia": "fr:V\u00e9lib' M\u00e9tropole", "capacity": "18", "name": "Damr\u00e9mont - Caulaincourt", "network": "V\u00e9lib\u2019 M\u00e9tropole", "network:wikidata": "Q1120762", "network:wikipedia": "fr:V\u00e9lib' M\u00e9tropole", "operator": "Smovengo", "operator:wikidata": "Q47008427", "operator:wikipedia": "fr:Smovengo", "ref": "18001", "source": "Autolib Velib M\u00e9tropole - 04/2020", "wikidata": "Q86253539"}}, {"type": "node", "id": 7371318691, "lat": 48.8867683, "lon": 2.3262279, "tags": {"amenity": "bicycle_rental", "bicycle_rental": "docking_station", "brand": "V\u00e9lib\u2019 M\u00e9tropole", "brand:wikidata": "Q1120762", "brand:wikipedia": "fr:V\u00e9lib' M\u00e9tropole", "capacity": "16", "name": "Pierre Ginier - Clichy", "network": "V\u00e9lib\u2019 M\u00e9tropole", "network:wikidata": "Q1120762", "network:wikipedia": "fr:V\u00e9lib' M\u00e9tropole", "operator": "Smovengo", "operator:wikidata": "Q47008427", "operator:wikipedia": "fr:Smovengo", "ref": "18045", "source": "Autolib Velib M\u00e9tropole - 04/2020", "wikidata": "Q86254429"}}, {"type": "node", "id": 7371318692, "lat": 48.8879402, "lon": 2.3261244, "tags": {"amenity": "bicycle_rental", "bicycle_rental": "docking_station", "brand": "V\u00e9lib\u2019 M\u00e9tropole", "brand:wikidata": "Q1120762", "brand:wikipedia": "fr:V\u00e9lib' M\u00e9tropole", "capacity": "33", "name": "\u00c9tienne Jodelle - Saint-Ouen", "network": "V\u00e9lib\u2019 M\u00e9tropole", "network:wikidata": "Q1120762", "network:wikipedia": "fr:V\u00e9lib' M\u00e9tropole", "operator": "Smovengo", "operator:wikidata": "Q47008427", "operator:wikipedia": "fr:Smovengo", "ref": "18046", "source": "Autolib Velib M\u00e9tropole - 04/2020", "wikidata": "Q86254411"}}, {"type": "node", "id": 7371318702, "lat": 48.8900132, "lon": 2.3175738, "tags": {"amenity": "bicycle_rental", "bicycle_rental": "docking_station", "brand": "V\u00e9lib\u2019 M\u00e9tropole", "brand:wikidata": "Q1120762", "brand:wikipedia": "fr:V\u00e9lib' M\u00e9tropole", "capacity": "24", "name": "Lemercier - Cardinet", "network": "V\u00e9lib\u2019 M\u00e9tropole", "network:wikidata": "Q1120762", "network:wikipedia": "fr:V\u00e9lib' M\u00e9tropole", "operator": "Smovengo", "operator:wikidata": "Q47008427", "operator:wikipedia": "fr:Smovengo", "ref": "17111", "source": "Autolib Velib M\u00e9tropole - 04/2020", "wikidata": "Q86238196"}}, {"type": "node", "id": 7371318704, "lat": 48.888187, "lon": 2.3168611, "tags": {"amenity": "bicycle_rental", "bicycle_rental": "docking_station", "brand": "V\u00e9lib\u2019 M\u00e9tropole", "brand:wikidata": "Q1120762", "brand:wikipedia": "fr:V\u00e9lib' M\u00e9tropole", "capacity": "31", "name": "Brochant - Square des Batignolles", "network": "V\u00e9lib\u2019 M\u00e9tropole", "network:wikidata": "Q1120762", "network:wikipedia": "fr:V\u00e9lib' M\u00e9tropole", "operator": "Smovengo", "operator:wikidata": "Q47008427", "operator:wikipedia": "fr:Smovengo", "ref": "17016", "source": "Autolib Velib M\u00e9tropole - 04/2020", "wikidata": "Q86238352"}}, {"type": "node", "id": 7371318705, "lat": 48.8861686, "lon": 2.3206239, "tags": {"amenity": "bicycle_rental", "capacity": "29", "name": "Bridaine - Lamand\u00e9", "network": "V\u00e9lib\u2019", "operator": "Smovengo", "ref": "17122", "source": "Autolib Velib M\u00e9tropole - 2021-03", "wikidata": "Q86238273"}}, {"type": "node", "id": 7371318706, "lat": 48.8844382, "lon": 2.32131, "tags": {"amenity": "bicycle_rental", "bicycle_rental": "docking_station", "brand": "V\u00e9lib\u2019 M\u00e9tropole", "brand:wikidata": "Q1120762", "capacity": "20", "name": "Mairie du 17\u00e8me", "network": "V\u00e9lib\u2019 M\u00e9tropole", "network:wikidata": "Q1120762", "operator": "Smovengo", "operator:wikidata": "Q47008427", "ref": "17012", "source": "Autolib Velib M\u00e9tropole - 2021-03", "wikidata": "Q86237831"}}, {"type": "node", "id": 7371318707, "lat": 48.8831024, "lon": 2.3238347, "tags": {"amenity": "bicycle_rental", "bicycle_rental": "docking_station", "brand": "V\u00e9lib\u2019 M\u00e9tropole", "brand:wikidata": "Q1120762", "brand:wikipedia": "fr:V\u00e9lib' M\u00e9tropole", "capacity": "28", "name": "Batignolles - Abel Truchet", "network": "V\u00e9lib\u2019 M\u00e9tropole", "network:wikidata": "Q1120762", "network:wikipedia": "fr:V\u00e9lib' M\u00e9tropole", "operator": "Smovengo", "operator:wikidata": "Q47008427", "operator:wikipedia": "fr:Smovengo", "ref": "17050", "source": "Autolib Velib M\u00e9tropole - 04/2020", "wikidata": "Q86237858"}}, {"type": "node", "id": 7371318708, "lat": 48.8836011, "lon": 2.3332238, "tags": {"amenity": "bicycle_rental", "bicycle_rental": "docking_station", "capacity": "20", "name": "Clichy - Place Blanche", "network": "V\u00e9lib\u2019", "operator": "Smovengo", "ref": "18043", "source": "Autolib Velib M\u00e9tropole - 2021-03", "wikidata": "Q86254685"}}, {"type": "node", "id": 7371318709, "lat": 48.8827555, "lon": 2.3361566, "tags": {"amenity": "bicycle_rental", "bicycle_rental": "docking_station", "brand": "V\u00e9lib\u2019 M\u00e9tropole", "brand:wikidata": "Q1120762", "brand:wikipedia": "fr:V\u00e9lib' M\u00e9tropole", "capacity": "21", "name": "Place Pigalle", "network": "V\u00e9lib\u2019 M\u00e9tropole", "network:wikidata": "Q1120762", "network:wikipedia": "fr:V\u00e9lib' M\u00e9tropole", "operator": "Smovengo", "operator:wikidata": "Q47008427", "operator:wikipedia": "fr:Smovengo", "ref": "18042", "source": "Autolib Velib M\u00e9tropole - 04/2020", "wikidata": "Q86253535"}}, {"type": "node", "id": 7371318710, "lat": 48.8821938, "lon": 2.3405496, "tags": {"amenity": "bicycle_rental", "bicycle_rental": "docking_station", "brand": "V\u00e9lib\u2019 M\u00e9tropole", "brand:wikidata": "Q1120762", "brand:wikipedia": "fr:V\u00e9lib' M\u00e9tropole", "capacity": "20", "name": "Rochechouart - Martyrs", "network": "V\u00e9lib\u2019 M\u00e9tropole", "network:wikidata": "Q1120762", "network:wikipedia": "fr:V\u00e9lib' M\u00e9tropole", "operator": "Smovengo", "operator:wikidata": "Q47008427", "operator:wikipedia": "fr:Smovengo", "ref": "18041", "source": "Autolib Velib M\u00e9tropole - 04/2020", "wikidata": "Q86254413"}}, {"type": "node", "id": 7426505264, "lat": 48.8821526, "lon": 2.3463187, "tags": {"amenity": "bicycle_rental", "bicycle_rental": "docking_station", "brand": "V\u00e9lib\u2019 M\u00e9tropole", "brand:wikidata": "Q1120762", "brand:wikipedia": "fr:V\u00e9lib' M\u00e9tropole", "capacity": "16", "name": "Dunkerque - Trudaine", "network": "V\u00e9lib\u2019 M\u00e9tropole", "network:wikidata": "Q1120762", "network:wikipedia": "fr:V\u00e9lib' M\u00e9tropole", "operator": "Smovengo", "operator:wikidata": "Q47008427", "operator:wikipedia": "fr:Smovengo", "ref": "9006", "wikidata": "Q86254597"}}, {"type": "node", "id": 7426508324, "lat": 48.8613247, "lon": 2.3493569, "tags": {"amenity": "bicycle_rental", "bicycle_rental": "docking_station", "brand": "V\u00e9lib\u2019 M\u00e9tropole", "brand:wikidata": "Q1120762", "brand:wikipedia": "fr:V\u00e9lib' M\u00e9tropole", "capacity": "24", "name": "Cossonnerie - S\u00e9bastopol", "network": "V\u00e9lib\u2019 M\u00e9tropole", "network:wikidata": "Q1120762", "network:wikipedia": "fr:V\u00e9lib' M\u00e9tropole", "operator": "Smovengo", "operator:wikidata": "Q47008427", "operator:wikipedia": "fr:Smovengo", "ref": "1119", "source": "Autolib Velib M\u00e9tropole - 2021-03", "wikidata": "Q86255117"}}, {"type": "node", "id": 7426545135, "lat": 48.8716023, "lon": 2.3458634, "tags": {"amenity": "bicycle_rental", "bicycle_rental": "docking_station", "brand": "V\u00e9lib\u2019 M\u00e9tropole", "brand:wikidata": "Q1120762", "brand:wikipedia": "fr:V\u00e9lib' M\u00e9tropole", "capacity": "30", "name": "Rougemont - Poissonni\u00e8re", "network": "V\u00e9lib\u2019 M\u00e9tropole", "network:wikidata": "Q1120762", "network:wikipedia": "fr:V\u00e9lib' M\u00e9tropole", "operator": "Smovengo", "operator:wikidata": "Q47008427", "operator:wikipedia": "fr:Smovengo", "ref": "9012", "wikidata": "Q86254652"}}, {"type": "node", "id": 7426547569, "lat": 48.8714404, "lon": 2.3382935, "tags": {"amenity": "bicycle_rental", "bicycle_rental": "docking_station", "brand": "V\u00e9lib\u2019 M\u00e9tropole", "brand:wikidata": "Q1120762", "brand:wikipedia": "fr:V\u00e9lib' M\u00e9tropole", "capacity": "17", "name": "Favart - Italiens", "network": "V\u00e9lib\u2019 M\u00e9tropole", "network:wikidata": "Q1120762", "network:wikipedia": "fr:V\u00e9lib' M\u00e9tropole", "operator": "Smovengo", "operator:wikidata": "Q47008427", "operator:wikipedia": "fr:Smovengo", "ref": "2013", "wikidata": "Q86254759"}}, {"type": "node", "id": 7426558086, "lat": 48.8753507, "lon": 2.3228842, "tags": {"amenity": "bicycle_rental", "bicycle_rental": "docking_station", "brand": "V\u00e9lib\u2019 M\u00e9tropole", "brand:wikidata": "Q1120762", "brand:wikipedia": "fr:V\u00e9lib' M\u00e9tropole", "capacity": "18", "name": "Joseph Sansb\u0153uf - Saint-Lazare", "network": "V\u00e9lib\u2019 M\u00e9tropole", "network:wikidata": "Q1120762", "network:wikipedia": "fr:V\u00e9lib' M\u00e9tropole", "operator": "Smovengo", "operator:wikidata": "Q47008427", "operator:wikipedia": "fr:Smovengo", "ref": "8008", "wikidata": "Q86255175"}}, {"type": "node", "id": 7441899749, "lat": 48.8572435, "lon": 2.3152748, "tags": {"amenity": "bicycle_rental", "bicycle_rental": "docking_station", "brand": "V\u00e9lib\u2019 M\u00e9tropole", "brand:wikidata": "Q1120762", "brand:wikipedia": "fr:V\u00e9lib' M\u00e9tropole", "capacity": "47", "name": "Varenne", "network": "V\u00e9lib\u2019 M\u00e9tropole", "network:wikidata": "Q1120762", "network:wikipedia": "fr:V\u00e9lib' M\u00e9tropole", "operator": "Smovengo", "operator:wikidata": "Q47008427", "operator:wikipedia": "fr:Smovengo", "ref": "07015", "source": "Autolib Velib M\u00e9tropole - 04/2020", "wikidata": "Q86252345"}}, {"type": "node", "id": 7531612754, "lat": 48.8724201, "lon": 2.3483952, "tags": {"amenity": "bicycle_rental", "bicycle_rental": "docking_station", "brand": "V\u00e9lib\u2019 M\u00e9tropole", "brand:wikidata": "Q1120762", "brand:wikipedia": "fr:V\u00e9lib' M\u00e9tropole", "capacity": "33", "name": "Enghien - Faubourg Poissonni\u00e8re", "network": "V\u00e9lib\u2019 M\u00e9tropole", "network:wikidata": "Q1120762", "network:wikipedia": "fr:V\u00e9lib' M\u00e9tropole", "operator": "Smovengo", "operator:wikidata": "Q47008427", "operator:wikipedia": "fr:Smovengo", "ref": "10042", "source": "Autolib Velib M\u00e9tropole - 04/2020", "survey:date": "2020-06-05", "wikidata": "Q86253030"}}, {"type": "node", "id": 7792501197, "lat": 48.8673418, "lon": 2.3528841, "tags": {"addr:city": "Paris", "addr:housenumber": "115", "addr:postcode": "75002", "addr:street": "Boulevard de S\u00e9bastopol", "amenity": "bicycle_rental", "bicycle_rental": "shop", "brand": "Swapfiets", "brand:wikidata": "Q62104374", "name": "Swapfiets", "network": "Swapfiets", "network:wikidata": "Q62104374", "opening_hours": "Mo 12:00-18:00; Tu-Sa 10:00-19:00", "operator": "Swapfiets", "operator:wikidata": "Q62104374", "phone": "+33 17 34 40 919", "service:bicycle:rental": "yes", "service:bicycle:repair": "no", "service:bicycle:retail": "no", "shop": "rental", "website": "https://swapfiets.com/fr-FR"}}, {"type": "node", "id": 9487023553, "lat": 48.8670374, "lon": 2.336716, "tags": {"amenity": "bicycle_rental", "bicycle_rental": "docking_station", "brand": "V\u00e9lib\u2019 M\u00e9tropole", "brand:wikidata": "Q1120762", "brand:wikipedia": "fr:V\u00e9lib' M\u00e9tropole", "capacity": "30", "name": "Chabanais - Petits Champs", "network": "V\u00e9lib\u2019 M\u00e9tropole", "network:wikidata": "Q1120762", "network:wikipedia": "fr:V\u00e9lib' M\u00e9tropole", "operator": "Smovengo", "operator:wikidata": "Q47008427", "operator:wikipedia": "fr:Smovengo", "ref": "2111", "source": "Autolib Velib M\u00e9tropole - 2022-01", "wikidata": "Q86254730"}}, {"type": "node", "id": 9617142288, "lat": 48.8637347, "lon": 2.3426487}, {"type": "node", "id": 9617142289, "lat": 48.8637555, "lon": 2.3426578}, {"type": "node", "id": 9844392187, "lat": 48.8639599, "lon": 2.3522937, "tags": {"addr:city": "Paris", "addr:housenumber": "4", "addr:postcode": "75003", "addr:street": "Rue du Bourg l'Abb\u00e9", "amenity": "bicycle_rental", "bicycle_rental": "shop", "email": "contact@parisbybike.eu", "facebook": "https://www.facebook.com/parisbybike.eu/", "name": "Paris By Bike", "phone": "+33 7 63901252", "shop": "rental", "website": "https://www.parisbybike.eu/", "wheelchair": "yes"}}, {"type": "node", "id": 9898240317, "lat": 48.8713772, "lon": 2.3139795, "tags": {"amenity": "bicycle_rental", "opening_hours": "24/7"}}, {"type": "node", "id": 9898240318, "lat": 48.8691712, "lon": 2.3243816, "tags": {"amenity": "bicycle_rental", "bicycle_rental": "docking_station", "capacity": "26"}}, {"type": "node", "id": 9898240319, "lat": 48.8594308, "lon": 2.3560075, "tags": {"amenity": "bicycle_rental"}}, {"type": "node", "id": 9898240417, "lat": 48.856656, "lon": 2.3092175, "tags": {"amenity": "bicycle_rental", "bicycle_rental": "docking_station", "capacity": "21"}}, {"type": "node", "id": 10099545064, "lat": 48.8625199, "lon": 2.3382637}, {"type": "node", "id": 10103805540, "lat": 48.862506, "lon": 2.3382551}, {"type": "node", "id": 10103805541, "lat": 48.8623385, "lon": 2.3388813}, {"type": "node", "id": 10103805542, "lat": 48.8623514, "lon": 2.3388882}, {"type": "node", "id": 10140477020, "lat": 48.8617203, "lon": 2.3195276, "tags": {"amenity": "bicycle_rental", "network": "V\u00e9lib", "survey:date": "2022-10-30"}}, {"type": "node", "id": 10198505424, "lat": 48.8645946, "lon": 2.3461642}, {"type": "node", "id": 10198505425, "lat": 48.8646073, "lon": 2.3461709}, {"type": "node", "id": 10198505426, "lat": 48.8645452, "lon": 2.3464321}, {"type": "node", "id": 10198505427, "lat": 48.8645247, "lon": 2.3464457}, {"type": "node", "id": 10224617033, "lat": 48.8675301, "lon": 2.3447943}, {"type": "node", "id": 10224617034, "lat": 48.8675454, "lon": 2.3447841}, {"type": "node", "id": 10224617035, "lat": 48.8674257, "lon": 2.3443425}, {"type": "node", "id": 10224617036, "lat": 48.8674112, "lon": 2.3443523}, {"type": "node", "id": 10649422135, "lat": 48.8649889, "lon": 2.345063}, {"type": "node", "id": 10649422136, "lat": 48.8649947, "lon": 2.3450909}, {"type": "node", "id": 10649422137, "lat": 48.865054, "lon": 2.3450657}, {"type": "node", "id": 10649422138, "lat": 48.8650488, "lon": 2.3450377}, {"type": "node", "id": 10650894969, "lat": 48.8651263, "lon": 2.3450045}, {"type": "node", "id": 10650894970, "lat": 48.8651314, "lon": 2.3450323}, {"type": "node", "id": 10650894971, "lat": 48.8650717, "lon": 2.3450581}, {"type": "node", "id": 10671861710, "lat": 48.8602947, "lon": 2.3414086, "tags": {"amenity": "bicycle_rental", "bicycle_rental": "docking_station", "brand": "V\u00e9lib\u2019 M\u00e9tropole", "brand:wikidata": "Q1120762", "brand:wikipedia": "fr:V\u00e9lib' M\u00e9tropole", "capacity": "28", "name": "Perrault - Place du Louvre", "network": "V\u00e9lib\u2019 M\u00e9tropole", "network:wikidata": "Q1120762", "network:wikipedia": "fr:V\u00e9lib' M\u00e9tropole", "operator": "Smovengo", "operator:wikidata": "Q47008427", "operator:wikipedia": "fr:Smovengo", "ref": "1201", "wikidata": "Q116796021"}}, {"type": "node", "id": 10671861711, "lat": 48.8845717, "lon": 2.3214695, "tags": {"amenity": "bicycle_rental", "bicycle_rental": "docking_station", "brand": "V\u00e9lib\u2019 M\u00e9tropole", "brand:wikidata": "Q1120762", "brand:wikipedia": "fr:V\u00e9lib' M\u00e9tropole", "capacity": "20", "name": "Mariotte - Batignolles", "network": "V\u00e9lib\u2019 M\u00e9tropole", "network:wikidata": "Q1120762", "network:wikipedia": "fr:V\u00e9lib' M\u00e9tropole", "operator": "Smovengo", "operator:wikidata": "Q47008427", "operator:wikipedia": "fr:Smovengo", "ref": "17202", "wikidata": "Q116796022"}}, {"type": "node", "id": 10683960043, "lat": 48.8603165, "lon": 2.3415441}, {"type": "node", "id": 10683960045, "lat": 48.8602547, "lon": 2.3412499}, {"type": "node", "id": 10683960047, "lat": 48.8603321, "lon": 2.3415362}, {"type": "node", "id": 10683960048, "lat": 48.8602716, "lon": 2.3412428}, {"type": "node", "id": 10698805407, "lat": 48.8630001, "lon": 2.3415821}, {"type": "node", "id": 10698805408, "lat": 48.8629169, "lon": 2.3414213}, {"type": "node", "id": 10698805409, "lat": 48.8629306, "lon": 2.3414031}, {"type": "node", "id": 10698805410, "lat": 48.8630138, "lon": 2.3415644}, {"type": "way", "id": 207286065, "nodes": [2174795266, 2174795264, 2174795259, 2174795260, 2174795266], "tags": {"amenity": "bicycle_rental", "bicycle_rental": "docking_station", "brand": "V\u00e9lib\u2019 M\u00e9tropole", "brand:wikidata": "Q1120762", "brand:wikipedia": "fr:V\u00e9lib' M\u00e9tropole", "capacity": "16", "name": "Sebastopol - Rambuteau", "network": "V\u00e9lib\u2019 M\u00e9tropole", "network:wikidata": "Q1120762", "network:wikipedia": "fr:V\u00e9lib' M\u00e9tropole", "operator": "Smovengo", "operator:wikidata": "Q47008427", "operator:wikipedia": "fr:Smovengo", "ref": "04104", "source": "survey", "survey:date": "2020-08-03", "wikidata": "Q86255044"}}, {"type": "way", "id": 578111481, "nodes": [5540287650, 5540287649, 5540287648, 5540287647, 5540287650], "tags": {"amenity": "bicycle_rental", "brand": "V\u00e9lib\u2019 M\u00e9tropole", "brand:wikidata": "Q1120762", "capacity": "20", "name": "Condorcet - Turgot", "network": "V\u00e9lib\u2019 M\u00e9tropole", "network:wikidata": "Q1120762", "operator": "Smovengo", "operator:wikidata": "Q47008427", "ref": "9007", "source": "survey 2018; BDOrtho IGN", "wikidata": "Q86254724"}}, {"type": "way", "id": 1045530843, "nodes": [9617142288, 9617142289, 5957673015, 5957673016, 9617142288], "tags": {"amenity": "bicycle_rental", "bicycle_rental": "docking_station", "brand": "V\u00e9lib\u2019 M\u00e9tropole", "brand:wikidata": "Q1120762", "brand:wikipedia": "fr:V\u00e9lib' M\u00e9tropole", "capacity": "21", "name": "Coquilli\u00e8re - Louvre", "network": "V\u00e9lib\u2019 M\u00e9tropole", "network:wikidata": "Q1120762", "network:wikipedia": "fr:V\u00e9lib' M\u00e9tropole", "operator": "Smovengo", "operator:wikidata": "Q47008427", "operator:wikipedia": "fr:Smovengo"}}, {"type": "way", "id": 1104150648, "nodes": [10099545064, 10103805540, 10103805541, 10103805542, 10099545064], "tags": {"amenity": "bicycle_rental", "bicycle_rental": "docking_station", "brand": "V\u00e9lib\u2019 M\u00e9tropole", "brand:wikidata": "Q1120762", "capacity": "67", "name": "Place du Palais Royal", "network": "V\u00e9lib\u2019 M\u00e9tropole", "network:wikidata": "Q1120762", "operator": "Smovengo", "operator:wikidata": "Q47008427"}}, {"type": "way", "id": 1115098864, "nodes": [10198505426, 10198505425, 10198505424, 10198505427, 10198505426], "tags": {"amenity": "bicycle_rental", "bicycle_rental": "docking_station", "brand": "V\u00e9lib\u2019 M\u00e9tropole", "brand:wikidata": "Q1120762", "capacity": "28", "name": "\u00c9tienne Marcel - Montorgueil", "network": "V\u00e9lib\u2019 M\u00e9tropole", "network:wikidata": "Q1120762", "operator": "Smovengo", "operator:wikidata": "Q47008427"}}, {"type": "way", "id": 1117941577, "nodes": [10224617033, 10224617034, 10224617035, 10224617036, 10224617033], "tags": {"amenity": "bicycle_rental", "bicycle_rental": "docking_station", "brand": "V\u00e9lib\u2019 M\u00e9tropole", "brand:wikidata": "Q1120762", "capacity": "44", "name": "Cl\u00e9ry - Montmartre", "network": "V\u00e9lib\u2019 M\u00e9tropole", "network:wikidata": "Q1120762", "operator": "Smovengo", "operator:wikidata": "Q47008427"}}, {"type": "way", "id": 1144037197, "nodes": [10649422135, 10649422136, 10649422137, 10650894971, 10650894970, 10650894969, 10649422138, 10649422135], "tags": {"amenity": "bicycle_rental", "bicycle_rental": "docking_station", "brand": "V\u00e9lib\u2019 M\u00e9tropole", "brand:wikidata": "Q1120762", "capacity": "16", "name": "Montmartre - \u00c9tienne Marcel", "network": "V\u00e9lib\u2019 M\u00e9tropole", "network:wikidata": "Q1120762", "operator": "Smovengo", "operator:wikidata": "Q47008427"}}, {"type": "way", "id": 1148303690, "nodes": [10683960047, 10683960043, 10683960045, 10683960048, 10683960047], "tags": {"amenity": "bicycle_rental", "bicycle_rental": "docking_station", "brand": "V\u00e9lib\u2019 M\u00e9tropole", "brand:wikidata": "Q1120762", "capacity": "28", "name": "Perrault - Place du Louvre", "network": "V\u00e9lib\u2019 M\u00e9tropole", "network:wikidata": "Q1120762", "operator": "Smovengo", "operator:wikidata": "Q47008427"}}, {"type": "way", "id": 1150089202, "nodes": [10698805407, 10698805408, 10698805409, 10698805410, 10698805407], "tags": {"amenity": "bicycle_rental", "bicycle_rental": "docking_station", "brand": "V\u00e9lib\u2019 M\u00e9tropole", "brand:wikidata": "Q1120762", "capacity": "22", "network": "V\u00e9lib\u2019 M\u00e9tropole", "network:wikidata": "Q1120762", "operator": "Smovengo", "operator:wikidata": "Q47008427"}}]}