{"version": 0.6, "generator": "Overpass API 0.7.61.5 4133829e", "osm3s": {"timestamp_osm_base": "2023-12-11T10:29:44Z", "copyright": "The data included in this document is from www.openstreetmap.org. The data is made available under ODbL."}, "elements": [{"type": "node", "id": 27362260, "lat": 48.8608027, "lon": 2.3411235, "tags": {"STIF:zone": "1", "check_date:wheelchair": "2023-03-13", "name": "Louvre \u2014 Rivoli", "name:ru": "\u041b\u0443\u0432\u0440 \u2014 \u0420\u0438\u0432\u043e\u043b\u0438", "public_transport": "stop_position", "railway": "station", "ref:FR:FANTOIR": "75101S293T", "ref:FR:RATP": "1809", "ref:FR:STIF": "22081", "source": "STIF - 12/2016", "station": "subway", "subway": "yes", "type:RATP": "metro", "wheelchair": "no", "wikidata": "Q1461794", "wikipedia": "fr:Louvre - Rivoli (m\u00e9tro de Paris)"}}, {"type": "node", "id": 27371862, "lat": 48.8587782, "lon": 2.3474106, "tags": {"STIF:zone": "1", "name": "Ch\u00e2telet", "name:ru": "\u0428\u0430\u0442\u043b\u0435", "old_name": "Pont Notre-Dame;Pont Notre-Dame \u2013 Pont au Change", "operator": "RATP", "public_transport": "station", "railway": "station", "ref:FR:FANTOIR": "75101S090X;75104S090J", "ref:FR:RATP": "1964", "ref:FR:STIF": "21959", "source": "STIF - 12/2016", "station": "subway", "subway": "yes", "type:RATP": "metro", "wheelchair": "no", "wikidata": "Q601484", "wikipedia": "fr:Ch\u00e2telet (m\u00e9tro de Paris)"}}, {"type": "node", "id": 27371867, "lat": 48.8553907, "lon": 2.3604173, "tags": {"STIF:zone": "1", "addr:city": "Paris", "alt_name": "Saint-Paul (Le Marais)", "name": "Saint-Paul", "public_transport": "station", "railway": "station", "ref:FR:FANTOIR": "75104S523E", "ref:FR:RATP": "1695", "ref:FR:STIF": "22074", "source": "STIF - 12/2016", "station": "subway", "subway": "yes", "type:RATP": "metro", "wheelchair": "no", "wikidata": "Q1535005", "wikipedia": "fr:Saint-Paul (m\u00e9tro de Paris)"}}, {"type": "node", "id": 243507793, "lat": 48.8654414, "lon": 2.3561316, "tags": {"STIF:zone": "1", "addr:city": "Paris", "check_date:wheelchair": "2021-02-01", "name": "Arts et M\u00e9tiers", "name:ru": "\u0410\u0440-\u044d-\u041c\u0435\u0442\u044c\u0435", "operator": "RATP", "public_transport": "station", "railway": "station", "ref:FR:RATP": "1988", "ref:FR:STIF": "21994", "source": "STIF - 12/2016", "station": "subway", "subway": "yes", "type:RATP": "metro", "wheelchair": "no", "wikidata": "Q713944", "wikipedia": "fr:Arts et M\u00e9tiers (m\u00e9tro de Paris)"}}, {"type": "node", "id": 243510334, "lat": 48.8686333, "lon": 2.3414766, "tags": {"STIF:zone": "1", "name": "Bourse", "name:ru": "\u0411\u0443\u0440\u0441", "public_transport": "station", "railway": "station", "ref:FR:FANTOIR": "75102S052B", "ref:FR:RATP": "1930", "ref:FR:STIF": "22033", "source": "STIF - 12/2016", "station": "subway", "type:RATP": "metro", "wheelchair": "no", "wikidata": "Q895259", "wikipedia": "fr:Bourse (m\u00e9tro de Paris)"}}, {"type": "node", "id": 243510335, "lat": 48.8695954, "lon": 2.3359026, "tags": {"STIF:zone": "1", "name": "Quatre Septembre", "name:fr": "Quatre Septembre", "name:ru": "\u041a\u0430\u0442\u0440-\u0421\u0435\u043f\u0442\u0430\u043c\u0431\u0440", "public_transport": "station", "railway": "station", "ref:FR:FANTOIR": "75102S473J", "ref:FR:RATP": "1744", "ref:FR:STIF": "22024", "source": "STIF - 12/2016", "station": "subway", "subway": "yes", "type:RATP": "metro", "wheelchair": "no", "wikidata": "Q945229", "wikipedia": "fr:Quatre-Septembre (m\u00e9tro de Paris)"}}, {"type": "node", "id": 256897078, "lat": 48.8706233, "lon": 2.3487498, "tags": {"STIF:zone": "1", "name": "Bonne Nouvelle", "public_transport": "station", "railway": "station", "ref:FR:FANTOIR": "75102P003Z;75102P004A", "ref:FR:RATP": "2015", "ref:FR:STIF": "21933", "source": "STIF - 12/2016", "station": "subway", "subway": "yes", "type:RATP": "metro", "wheelchair": "no", "wikidata": "Q892720", "wikipedia": "fr:Bonne-Nouvelle (m\u00e9tro de Paris)"}}, {"type": "node", "id": 260079322, "lat": 48.8528857, "lon": 2.3349394, "tags": {"STIF:zone": "1", "addr:city": "Paris", "name": "Mabillon", "public_transport": "station", "railway": "station", "ref:FR:FANTOIR": "75106S311Z", "ref:FR:RATP": "1812", "ref:FR:STIF": "21973", "source": "STIF - 12/2016", "station": "subway", "type:RATP": "metro", "wheelchair": "no", "wikidata": "Q974510", "wikipedia": "fr:Mabillon (m\u00e9tro de Paris)"}}, {"type": "node", "id": 264514896, "lat": 48.8553245, "lon": 2.347542, "tags": {"STIF:zone": "1", "elevator": "yes", "level": "-2", "name": "Cit\u00e9", "name:ru": "\u0421\u0438\u0442\u044d", "network": "RATP", "operator": "RATP", "public_transport": "station", "railway": "station", "ref:FR:FANTOIR": "75104S095P", "ref:FR:RATP": "1969", "ref:FR:STIF": "22150", "source": "STIF - 12/2016", "station": "subway", "subway": "yes", "type:RATP": "metro", "wheelchair": "no", "wikidata": "Q1094294", "wikipedia": "fr:Cit\u00e9 (m\u00e9tro de Paris)"}}, {"type": "node", "id": 264515098, "lat": 48.8532864, "lon": 2.3435081, "tags": {"STIF:zone": "1", "heritage": "3", "heritage:operator": "mhs", "location": "underground", "mhs:inscription_date": "1978", "name": "Saint-Michel", "public_transport": "station", "railway": "station", "ref:FR:FANTOIR": "75106S522D", "ref:FR:RATP": "1694", "ref:FR:STIF": "412816", "ref:mhs": "PA00088479", "source": "STIF - 12/2016", "source:heritage": "data.gouv.fr:Minist\u00e8re de la Culture - 08/2011", "station": "subway", "subway": "yes", "type:RATP": "metro", "wheelchair": "yes", "wikidata": "Q1598555", "wikipedia": "fr:Saint-Michel (m\u00e9tro de Paris)"}}, {"type": "node", "id": 264519782, "lat": 48.8536164, "lon": 2.3344524, "tags": {"STIF:zone": "1", "name": "Saint-Germain-des-Pr\u00e9s", "public_transport": "station", "railway": "station", "ref:FR:FANTOIR": "75106S516X", "ref:FR:RATP": "1687", "ref:FR:STIF": "22136", "source": "STIF - 12/2016", "station": "subway", "type:RATP": "metro", "wheelchair": "no", "wikidata": "Q781873", "wikipedia": "fr:Saint-Germain-des-Pr\u00e9s (m\u00e9tro de Paris)"}}, {"type": "node", "id": 264785952, "lat": 48.8537872, "lon": 2.3565905, "tags": {"STIF:zone": "1", "alt_name": "Pont Marie (Cit\u00e9 des Arts)", "name": "Pont Marie", "name:ru": "\u041f\u043e\u043d-\u041c\u0430\u0440\u0438", "public_transport": "stop_position", "railway": "station", "ref:FR:FANTOIR": "75104S425Y", "ref:FR:RATP": "1711", "station": "subway", "subway": "yes", "type:RATP": "metro", "wheelchair": "no", "wikidata": "Q282600", "wikipedia": "fr:Pont Marie (m\u00e9tro de Paris)"}}, {"type": "node", "id": 3190883103, "lat": 48.8616513, "lon": 2.3470129, "tags": {"STIF:zone": "1", "name": "Ch\u00e2telet - Les Halles", "network": "RER (RATP SNCF)", "note": "Please do not add the tag public_transport=station, it is already on the way that defines the footprint of the station", "official_name": "CHATELET LES HALLES", "operator": "RATP", "railway": "station", "ref:FR:RATP": "1967", "ref:FR:STIF": "412815", "ref:FR:uic8": "87758607", "route_ref:FR:RER_D": "SOVA;FUCA;UOVA;VIPE;LOVA;VUCA;FOVA;LUCA;VOVA;MIPE;UUCA;SUCA;VOPA;MOPA;MIPA;FOPA;LOPA", "source": "STIF - 12/2016", "start_date": "1977-12-09", "type:RATP": "rer", "uic_ref": "8775860", "wheelchair": "limited", "wikidata": "Q800627", "wikipedia": "fr:Gare de Ch\u00e2telet - Les Halles"}}, {"type": "node", "id": 3430515272, "lat": 48.8677091, "lon": 2.3457466, "tags": {"STIF:zone": "1", "addr:city": "Paris", "name": "Sentier", "name:ru": "\u0421\u0430\u043d\u0442\u044c\u0435", "public_transport": "station", "railway": "station", "ref:FR:FANTOIR": "75102S531X", "ref:FR:RATP": "1702", "ref:FR:STIF": "22029", "source": "STIF - 12/2016", "station": "subway", "subway": "yes", "type:RATP": "metro", "wheelchair": "no", "wikidata": "Q1783889", "wikipedia": "fr:Sentier (m\u00e9tro de Paris)"}}, {"type": "node", "id": 3572156993, "lat": 48.8533538, "lon": 2.345784, "tags": {"STIF:zone": "1", "name": "Saint-Michel Notre-Dame", "note": "Please do not add the tag public_transport=station, it is already on the way that defines the footprint of the station", "official_name": "Saint-Michel Notre-Dame", "operator": "RATP Transilien SNCF Ile de France Mobilit\u00e9s", "railway": "station", "ref": "RER B, C", "ref:FR:RATP": "5604", "ref:FR:STIF": "22137", "ref:FR:uic8": "87547315", "ref:SNCF": "RER", "ref:SNCF:RER": "C", "source": "STIF - 12/2016", "type:RATP": "rer", "uic_ref": "8754731", "website": "https://www.vianavigo.com/", "wheelchair": "yes", "wikidata": "Q801394", "wikipedia": "fr:Gare Saint-Michel - Notre-Dame"}}, {"type": "node", "id": 5155172764, "lat": 48.8624906, "lon": 2.3360431, "tags": {"STIF:zone": "1", "name": "Palais Royal - Mus\u00e9e du Louvre", "name:ru": "\u041f\u0430\u043b\u0435-\u0420\u0443\u0430\u044f\u043b\u044c \u2014 \u041c\u044e\u0437\u0435-\u0434\u044e-\u041b\u0443\u0432\u0440", "public_transport": "station", "railway": "station", "ref:FR:FANTOIR": "75101S399H", "ref:FR:RATP": "1774", "ref:FR:STIF": "22079", "source": "STIF - 12/2016", "station": "subway", "subway": "yes", "type:RATP": "metro", "wheelchair": "no", "wikidata": "Q1467113", "wikipedia": "fr:Palais Royal - Mus\u00e9e du Louvre (m\u00e9tro de Paris)"}}, {"type": "node", "id": 5226630385, "lat": 48.8574911, "lon": 2.3515316, "tags": {"STIF:zone": "1", "addr:city": "Paris", "name": "H\u00f4tel de Ville", "public_transport": "station", "railway": "station", "ref": "01-15", "ref:FR:FANTOIR": "75104S225F", "ref:FR:RATP": "1855", "ref:FR:STIF": "21990", "source": "cadastre-dgi-fr source : Direction G\u00e9n\u00e9rale des Imp\u00f4ts - Cadastre. Mise \u00e0 jour : 2010", "station": "subway", "subway": "yes", "train": "yes", "type:RATP": "metro", "wheelchair": "no", "wikidata": "Q968939", "wikipedia": "fr:H\u00f4tel de Ville (m\u00e9tro de Paris)"}}, {"type": "node", "id": 5226630386, "lat": 48.8693002, "lon": 2.3542855, "tags": {"STIF:zone": "1", "check_date:opening_hours": "2021-10-26", "name": "Strasbourg - Saint-Denis", "old_name": "Boulevard Saint-Denis", "opening_hours": "Mo-Su 05:00-01:30", "operator": "RATP", "public_transport": "station", "railway": "station", "ref:FR:FANTOIR": "75102S537D", "ref:FR:RATP": "1628", "ref:FR:STIF": "22159", "source": "STIF - 12/2016", "station": "subway", "subway": "yes", "type:RATP": "metro", "wheelchair": "no", "wikidata": "Q1403165", "wikipedia": "fr:Strasbourg - Saint-Denis (m\u00e9tro de Paris)"}}, {"type": "node", "id": 5527702547, "lat": 48.8585776, "lon": 2.3422202, "tags": {"STIF:zone": "1", "addr:city": "Paris", "name": "Pont Neuf", "name:en": "Pont Neuf", "name:es": "Puente Nuevo", "name:pt": "Ponte Nova", "name:ru": "\u041d\u043e\u0432\u044b\u0439 \u043c\u043e\u0441\u0442", "name:zh": "\u65b0\u6865", "public_transport": "station", "railway": "station", "ref:FR:FANTOIR": "75101S426M", "ref:FR:RATP": "1712", "ref:FR:STIF": "22379", "source": "STIF - 12/2016", "station": "subway", "subway": "yes", "type:RATP": "metro", "wheelchair": "no", "wikidata": "Q1458421", "wikipedia": "fr:Pont Neuf (m\u00e9tro de Paris)"}}, {"type": "node", "id": 5527816419, "lat": 48.8624659, "lon": 2.3460086, "tags": {"STIF:zone": "1", "name": "Les Halles", "network": "M\u00e9tro de Paris;RATP", "operator": "RATP", "public_transport": "station", "railway": "station", "ref:FR:FANTOIR": "75101S222R", "ref:FR:RATP": "1801", "ref:FR:STIF": "22146", "source": "STIF - 12/2016", "start_date": "1977-10-03", "station": "subway", "subway": "yes", "type:RATP": "metro", "wikidata": "Q1576810", "wikipedia": "fr:Les Halles (m\u00e9tro de Paris)"}}, {"type": "node", "id": 5527829149, "lat": 48.8662481, "lon": 2.3526084, "tags": {"STIF:zone": "1", "addr:city": "Paris", "name": "R\u00e9aumur - S\u00e9bastopol", "name:fr": "R\u00e9aumur - S\u00e9bastopol", "name:ru": "\u0420\u0435\u043e\u043c\u044e\u0440 \u2014 \u0421\u0435\u0431\u0430\u0441\u0442\u043e\u043f\u043e\u043b\u044c", "old_name": "Rue Saint-Denis", "operator": "RATP", "public_transport": "station", "railway": "station", "ref:FR:FANTOIR": "75102S484W", "ref:FR:RATP": "1676", "ref:FR:STIF": "22018", "station": "subway", "subway": "yes", "type:RATP": "metro", "wheelchair": "no", "wikidata": "Q669850", "wikipedia": "fr:R\u00e9aumur - S\u00e9bastopol (m\u00e9tro de Paris)"}}, {"type": "node", "id": 5527829165, "lat": 48.8638718, "lon": 2.3490301, "tags": {"STIF:zone": "1", "addr:city": "Paris", "name": "\u00c9tienne Marcel", "operator": "RATP", "public_transport": "station", "railway": "station", "ref:FR:FANTOIR": "75101S146H", "ref:FR:RATP": "1914", "ref:FR:STIF": "22147", "station": "subway", "subway": "yes", "type:RATP": "metro", "wheelchair": "no", "wikidata": "Q289916", "wikipedia": "fr:\u00c9tienne Marcel (m\u00e9tro de Paris)"}}, {"type": "node", "id": 5528264337, "lat": 48.8657452, "lon": 2.3344687, "tags": {"STIF:zone": "1", "name": "Pyramides", "public_transport": "station", "railway": "station", "ref:FR:FANTOIR": "75101S452R", "ref:FR:RATP": "1738;50047", "ref:FR:STIF": "22375", "source": "STIF - 12/2016", "station": "subway", "subway": "yes", "type:RATP": "metro", "wheelchair": "limited", "wikidata": "Q1501462", "wikipedia": "fr:Pyramides (m\u00e9tro de Paris)"}}, {"type": "node", "id": 10275184608, "lat": 48.8617648, "lon": 2.3537854, "tags": {"STIF:zone": "1", "name": "Rambuteau", "public_transport": "stop_position", "railway": "station", "ref:FR:FANTOIR": "75103S481N;75104S481J", "ref:FR:RATP": "1745", "ref:FR:STIF": "21992", "source": "STIF - 12/2016", "station": "subway", "subway": "yes", "type:RATP": "metro", "wheelchair": "no", "wikidata": "Q646376", "wikipedia": "fr:Rambuteau (m\u00e9tro de Paris)"}}]}