{"version": 0.6, "generator": "Overpass API 0.7.61.5 4133829e", "osm3s": {"timestamp_osm_base": "2023-12-09T23:49:30Z", "copyright": "The data included in this document is from www.openstreetmap.org. The data is made available under ODbL."}, "elements": [{"type": "node", "id": 26824135, "lat": 48.8448057, "lon": 2.3734794, "tags": {"SNCF:stop_name": "Paris-Gare-de-Lyon", "alt_name": "Paris - Gare de Lyon", "bench": "yes", "name": "Gare de Lyon", "name:ru": "\u041b\u0438\u043e\u043d\u0441\u043a\u0438\u0439 \u0432\u043e\u043a\u0437\u0430\u043b", "name:uk": "\u041b\u0456\u043e\u043d\u0441\u044c\u043a\u0438\u0439 \u0432\u043e\u043a\u0437\u0430\u043b", "note": "Please do not add the tag public_transport=station, it is already on the way that defines the footprint of the station", "opening_hours": "Mo-Su 04:45-01:30", "operator": "SNCF", "railway": "station", "railway:ref": "PLY", "railway:ref:DB": "XFPG", "ref:FR:STIF": "21958", "ref:FR:uic8": "87686006", "ref:SNCF": "PLY", "shelter": "yes", "source": "STIF - 12/2016", "train": "yes", "uic_ref": "8768600", "wheelchair": "yes", "wikidata": "Q747541", "wikipedia": "fr:Paris-Gare-de-Lyon"}}, {"type": "node", "id": 235374383, "lat": 48.8370444, "lon": 2.3728619, "tags": {"STIF:zone": "1", "name": "Quai de la Gare", "public_transport": "station", "railway": "station", "ref:FR:FANTOIR": "75113S471T", "ref:FR:RATP": "1742", "ref:FR:STIF": "22161", "source": "STIF - 12/2016", "station": "subway", "type:RATP": "metro", "wheelchair": "no", "wikidata": "Q1969659", "wikipedia": "fr:Quai de la Gare (m\u00e9tro de Paris)"}}, {"type": "node", "id": 241928557, "lat": 48.847611, "lon": 2.3955668, "tags": {"STIF:zone": "1", "check_date:wheelchair": "2021-10-06", "name": "Nation", "public_transport": "station", "railway": "station", "ref:FR:FANTOIR": "75112S361W", "ref:FR:RATP": "1758", "ref:FR:STIF": "22073", "source": "STIF - 12/2016", "station": "subway", "type:RATP": "metro", "wheelchair": "no", "wikidata": "Q1418711", "wikipedia": "fr:Nation (m\u00e9tro de Paris)"}}, {"type": "node", "id": 243486950, "lat": 48.8518166, "lon": 2.4013757, "tags": {"STIF:zone": "1", "check_date:wheelchair": "2022-08-23", "name": "Buzenval", "public_transport": "station", "railway": "station", "ref:FR:FANTOIR": "75120S057F", "ref:FR:RATP": "1937", "ref:FR:STIF": "25084", "source": "STIF - 12/2016", "station": "subway", "subway": "yes", "type:RATP": "metro", "wheelchair": "no", "wikidata": "Q1018331", "wikipedia": "fr:Buzenval (m\u00e9tro de Paris)"}}, {"type": "node", "id": 245455187, "lat": 48.8413382, "lon": 2.4009129, "tags": {"STIF:zone": "1", "name": "Bel-Air", "public_transport": "station", "railway": "station", "ref:FR:FANTOIR": "75112S037U", "ref:FR:RATP": "2003", "ref:FR:STIF": "22177", "source": "STIF - 12/2016", "station": "subway", "subway": "yes", "type:RATP": "metro", "wheelchair": "no", "wikidata": "Q815061", "wikipedia": "fr:Bel-Air (m\u00e9tro de Paris)"}}, {"type": "node", "id": 256441194, "lat": 48.8526992, "lon": 2.4061094, "tags": {"STIF:zone": "1", "check_date:wheelchair": "2021-07-15", "name": "Mara\u00eechers", "public_transport": "station", "railway": "station", "ref:FR:FANTOIR": "75120S320S", "ref:FR:RATP": "55372", "ref:FR:STIF": "21936", "source": "STIF - 12/2016", "station": "subway", "subway": "yes", "type:RATP": "metro", "wheelchair": "no", "wikidata": "Q631846", "wikipedia": "fr:Mara\u00eechers (m\u00e9tro de Paris)"}}, {"type": "node", "id": 256442845, "lat": 48.8558145, "lon": 2.4237108, "tags": {"STIF:zone": "1", "name": "Robespierre", "name:ru": "\u0420\u043e\u0431\u0435\u0441\u043f\u044c\u0435\u0440", "public_transport": "stop_position", "railway": "station", "ref:FR:RATP": "1667", "ref:FR:STIF": "21942", "source": "STIF - 12/2016", "station": "subway", "subway": "yes", "type:RATP": "metro", "wheelchair": "no", "wikidata": "Q1784141", "wikipedia": "fr:Robespierre (m\u00e9tro de Paris)"}}, {"type": "node", "id": 256443205, "lat": 48.8525808, "lon": 2.3887914, "tags": {"STIF:zone": "1", "name": "Rue des Boulets", "public_transport": "stop_position", "railway": "station", "ref:FR:FANTOIR": "75111S050M", "ref:FR:RATP": "1673", "ref:FR:STIF": "22442", "source": "STIF - 12/2016", "station": "subway", "subway": "yes", "type:RATP": "metro", "wheelchair": "no", "wikidata": "Q1969472", "wikipedia": "fr:Rue des Boulets (m\u00e9tro de Paris)"}}, {"type": "node", "id": 256443438, "lat": 48.8547441, "lon": 2.3853565, "tags": {"STIF:zone": "1", "alt_name": "Charonne (place du 6-F\u00e9vrier-1962)", "name": "Charonne", "public_transport": "station", "railway": "station", "ref:FR:FANTOIR": "75111S085A", "ref:FR:RATP": "1955", "ref:FR:STIF": "21934", "source": "STIF - 12/2016", "station": "subway", "subway": "yes", "type:RATP": "metro", "wheelchair": "no", "wikidata": "Q948012", "wikipedia": "fr:Charonne (m\u00e9tro de Paris)"}}, {"type": "node", "id": 260762378, "lat": 48.8390379, "lon": 2.3897217, "tags": {"STIF:zone": "1", "addr:city": "Paris", "name": "Dugommier", "old_name": "Charenton", "public_transport": "station", "railway": "station", "ref:FR:FANTOIR": "75112S125P", "ref:FR:RATP": "1906", "ref:FR:STIF": "22182", "source": "STIF - 12/2016", "station": "subway", "subway": "yes", "type:RATP": "metro", "wheelchair": "no", "wikidata": "Q602615", "wikipedia": "fr:Dugommier (m\u00e9tro de Paris)"}}, {"type": "node", "id": 260762540, "lat": 48.8401549, "lon": 2.3799474, "tags": {"STIF:zone": "1", "name": "Bercy", "operator": "RATP", "public_transport": "station", "railway": "station", "ref:FR:FANTOIR": "75112S040X", "ref:FR:RATP": "2005", "ref:FR:STIF": "22178", "station": "subway", "type:RATP": "metro", "wheelchair": "yes", "wikidata": "Q818853", "wikipedia": "fr:Bercy (m\u00e9tro de Paris)"}}, {"type": "node", "id": 264480784, "lat": 48.8512945, "lon": 2.3760274, "tags": {"STIF:zone": "1", "name": "Ledru-Rollin", "name:ru": "\u041b\u0435\u0434\u0440\u044e-\u0420\u043e\u043b\u043b\u0435\u043d", "public_transport": "stop_position", "railway": "station", "ref:FR:FANTOIR": "75112S287R", "ref:FR:RATP": "1798", "ref:FR:STIF": "22203", "source": "STIF - 12/2016", "station": "subway", "subway": "yes", "type:RATP": "metro", "wheelchair": "no", "wikidata": "Q680787", "wikipedia": "fr:Ledru-Rollin (m\u00e9tro de Paris)"}}, {"type": "node", "id": 264481019, "lat": 48.8501609, "lon": 2.3842222, "tags": {"STIF:zone": "1", "check_date:wheelchair": "2021-11-19", "name": "Faidherbe \u2014 Chaligny", "name:ru": "\u0424\u0435\u0434\u0435\u0440\u0431 \u2014 \u0428\u0430\u043b\u0438\u043d\u044c\u0438", "public_transport": "station", "railway": "station", "ref:FR:FANTOIR": "75111S161H", "ref:FR:RATP": "1917", "ref:FR:STIF": "22204", "source": "STIF - 12/2016", "station": "subway", "subway": "yes", "type:RATP": "metro", "wheelchair": "no", "wikidata": "Q337855", "wikipedia": "fr:Faidherbe - Chaligny (m\u00e9tro de Paris)"}}, {"type": "node", "id": 264481854, "lat": 48.844304, "lon": 2.3901962, "tags": {"STIF:zone": "1", "name": "Montgallet", "name:ru": "\u041c\u043e\u043d\u0433\u0430\u043b\u0435", "public_transport": "station", "railway": "station", "ref:FR:FANTOIR": "75112S336U", "ref:FR:RATP": "1750", "ref:FR:STIF": "22205", "source": "STIF - 12/2016", "station": "subway", "subway": "yes", "type:RATP": "metro", "wheelchair": "no", "wikidata": "Q999159", "wikipedia": "fr:Montgallet (m\u00e9tro de Paris)"}}, {"type": "node", "id": 264482226, "lat": 48.8370694, "lon": 2.4024586, "tags": {"STIF:zone": "1", "check_date:wheelchair": "2021-03-02", "name": "Michel Bizot", "name:ru": "\u041c\u0438\u0448\u0435\u043b\u044c \u0411\u0438\u0437\u043e", "public_transport": "station", "railway": "station", "ref:FR:FANTOIR": "75112S331N", "ref:FR:RATP": "1835", "ref:FR:STIF": "22206", "source": "STIF - 12/2016", "station": "subway", "subway": "yes", "type:RATP": "metro", "wheelchair": "no", "wikidata": "Q616619", "wikipedia": "fr:Michel Bizot (m\u00e9tro de Paris)"}}, {"type": "node", "id": 264482296, "lat": 48.8264064, "lon": 2.406201, "tags": {"STIF:zone": "1", "name": "Libert\u00e9", "name:ru": "\u041b\u0438\u0431\u0435\u0440\u0442\u0435", "public_transport": "stop_position", "railway": "station", "ref:FR:RATP": "1803", "ref:FR:STIF": "22209", "source": "STIF - 12/2016", "station": "subway", "subway": "yes", "type:RATP": "metro", "wheelchair": "no", "wikidata": "Q1725892", "wikipedia": "fr:Libert\u00e9 (m\u00e9tro de Paris)"}}, {"type": "node", "id": 264482297, "lat": 48.8352765, "lon": 2.4061775, "tags": {"STIF:zone": "1", "name": "Porte Dor\u00e9e", "name:fr": "Porte Dor\u00e9e", "name:ru": "\u041f\u043e\u0440\u0442-\u0414\u043e\u0440\u0435", "public_transport": "station", "railway": "station", "ref:FR:FANTOIR": "75112S437D", "ref:FR:RATP": "1715", "ref:FR:STIF": "22207", "source": "STIF - 12/2016", "station": "subway", "subway": "yes", "type:RATP": "metro", "wheelchair": "no", "wikidata": "Q946441", "wikipedia": "fr:Porte Dor\u00e9e (m\u00e9tro de Paris)"}}, {"type": "node", "id": 264490283, "lat": 48.8450724, "lon": 2.4010857, "tags": {"STIF:zone": "1", "heritage": "3", "heritage:operator": "mhs", "mhs:inscription_date": "1978", "name": "Picpus", "old_name": "Saint-Mand\u00e9", "public_transport": "station", "railway": "station", "ref:FR:FANTOIR": "75112S413C", "ref:FR:RATP": "1785", "ref:FR:STIF": "22167", "ref:mhs": "PA00086581", "source": "data.gouv.fr:Minist\u00e8re de la Culture - 08/2011", "station": "subway", "type:RATP": "metro", "wheelchair": "no", "wikidata": "Q589686", "wikipedia": "fr:Picpus (m\u00e9tro de Paris)"}}, {"type": "node", "id": 264491320, "lat": 48.8322315, "lon": 2.3990408, "tags": {"STIF:zone": "1", "name": "Porte de Charenton", "name:ru": "\u041f\u043e\u0440\u0442-\u0434\u0435-\u0428\u0430\u0440\u0430\u043d\u0442\u043e\u043d", "public_transport": "station", "railway": "station", "ref:FR:FANTOIR": "75112S432Y", "ref:FR:RATP": "1723", "ref:FR:STIF": "22208", "source": "STIF - 12/2016", "station": "subway", "subway": "yes", "type:RATP": "metro", "wheelchair": "no", "wikidata": "Q1666283", "wikipedia": "fr:Porte de Charenton (m\u00e9tro de Paris)"}}, {"type": "node", "id": 300877457, "lat": 48.8215612, "lon": 2.4137829, "tags": {"STIF:zone": "1", "name": "Charenton-\u00c9coles", "public_transport": "station", "railway": "station", "ref:FR:RATP": "1951", "ref:FR:STIF": "22210", "source": "STIF - 12/2016", "station": "subway", "subway": "yes", "train": "yes", "type:RATP": "metro", "wheelchair": "no", "wikidata": "Q1063134", "wikipedia": "fr:Charenton - \u00c9coles (m\u00e9tro de Paris)"}}, {"type": "node", "id": 1224788605, "lat": 48.8514841, "lon": 2.3981859, "tags": {"STIF:zone": "1", "check_date:wheelchair": "2023-07-19", "heritage": "3", "heritage:operator": "mhs", "mhs:inscription_date": "1978", "name": "Avron", "public_transport": "station", "railway": "station", "ref:FR:FANTOIR": "75111S017B", "ref:FR:RATP": "1995", "ref:FR:STIF": "22124", "ref:mhs": "PA00086785", "source": "STIF - 12/2016", "source:heritage": "data.gouv.fr:Minist\u00e8re de la Culture - 08/2011", "station": "subway", "type:RATP": "metro", "wheelchair": "no", "wikidata": "Q517844", "wikipedia": "fr:Avron (m\u00e9tro de Paris)"}}, {"type": "node", "id": 1308998006, "lat": 48.8435522, "lon": 2.3743151, "tags": {"alt_name": "Gare de Lyon RER", "level": "-3", "name": "Gare de Lyon", "note": "Please do not add the tag public_transport=station, it is already on the way that defines the footprint of the station", "official_name": "PARIS GARE DE LYON", "operator": "SNCF", "railway": "station", "ref:FR:STIF": "41396", "ref:FR:uic8": "87686030", "route_ref:FR:RER_D": "SOVA;FUCA;UOVA;VIPE;LOVA;VUCA;FOVA;LUCA;VOVA;MIPE;UUCA;SUCA;VOPA;MOPA;MIPA;FOPA;LOPA", "start_date": "1995-09-24", "station": "train", "train": "yes", "type:RATP": "rer", "uic_ref": "8768603", "wheelchair": "no"}}, {"type": "node", "id": 1731763794, "lat": 48.8482705, "lon": 2.3958306, "tags": {"STIF:zone": "1", "addr:street": "Place de la Nation", "alt_name": "Nation", "internet_access:fee": "no", "name": "Nation", "name:ru": "\u041d\u0430\u0441\u044c\u043e\u043d", "public_transport": "station", "railway": "station", "ref:FR:RATP": "1759", "ref:FR:STIF": "412808", "source": "STIF - 12/2016;https://50ans.apur.org/data/b4s3_home/fiche/102/04_place_nation_3b1ea.pdf", "start_date": "1969-12-14", "type:RATP": "rer", "uic_ref": "8775810", "website": "https://www.ratp.fr/", "wheelchair": "yes", "wikidata": "Q801232", "wikipedia": "fr:Gare de Nation"}}, {"type": "node", "id": 1823210835, "lat": 48.8391964, "lon": 2.382849, "tags": {"STIF:zone": "1", "bench": "yes", "name": "Paris-Bercy - Bourgogne-Pays d'Auvergne", "old_name": "Paris-Bercy", "operator": "SNCF", "railway": "station", "railway:ref": "PBY", "ref": "BERCY", "shelter": "yes", "source": "SNCF - 06/2013", "train": "yes", "uic_ref": "8768666", "wheelchair": "yes", "wikidata": "Q261320", "wikipedia": "fr:Gare de Paris-Bercy-Bourgogne-Pays d'Auvergne"}}, {"type": "node", "id": 2282582663, "lat": 48.8535248, "lon": 2.4106511, "tags": {"STIF:zone": "1", "name": "Porte de Montreuil", "operator": "RATP Ile de France Mobilit\u00e9s", "public_transport": "station", "railway": "station", "ref:FR:FANTOIR": "75120S442Z", "ref:FR:RATP": "1727", "ref:FR:STIF": "21913", "source": "STIF - 12/2016", "station": "subway", "subway": "yes", "type:RATP": "metro", "wheelchair": "no", "wikidata": "Q968336", "wikipedia": "fr:Porte de Montreuil (m\u00e9tro de Paris)"}}, {"type": "node", "id": 3146958064, "lat": 48.8335481, "lon": 2.3859541, "tags": {"STIF:zone": "1", "name": "Cour Saint-\u00c9milion", "public_transport": "stop_position", "railway": "station", "ref:FR:FANTOIR": "75112S105T", "ref:FR:RATP": "50055", "ref:FR:STIF": "21956", "source": "STIF - 12/2016", "station": "subway", "subway": "yes", "type:RATP": "metro", "wheelchair": "yes", "wikidata": "Q1137613", "wikipedia": "fr:Cour Saint-\u00c9milion (m\u00e9tro de Paris)"}}, {"type": "node", "id": 3325110405, "lat": 48.8297207, "lon": 2.3770491, "tags": {"STIF:zone": "1", "name": "Biblioth\u00e8que Fran\u00e7ois Mitterrand", "note": "Please do not add the tag public_transport=station, it is already on the way that defines the footprint of the station", "railway": "station", "ref:FR:FANTOIR": "75113S611V", "ref:FR:RATP": "51020", "ref:FR:STIF": "41128", "ref:FR:uic8": "87328328", "source": "RATP - 07/2012", "train": "yes", "type:RATP": "rer", "uic_ref": "8732832", "wheelchair": "yes", "wikidata": "Q2856214", "wikipedia": "fr:Gare de la Biblioth\u00e8que Fran\u00e7ois Mitterrand"}}, {"type": "node", "id": 5228032208, "lat": 48.8300059, "lon": 2.3768474, "tags": {"STIF:zone": "1", "name": "Biblioth\u00e8que Fran\u00e7ois Mitterrand", "railway": "station", "ref:FR:STIF": "21955", "station": "subway", "type:RATP": "metro", "wheelchair": "yes", "wikidata": "Q2856214", "wikipedia": "fr:Gare de la Biblioth\u00e8que Fran\u00e7ois Mitterrand"}}, {"type": "node", "id": 5228032209, "lat": 48.8451709, "lon": 2.3725553, "tags": {"STIF:zone": "1", "name": "Gare de Lyon", "public_transport": "station", "railway": "station", "ref:FR:RATP": "1839", "ref:FR:STIF": "21958", "source": "STIF - 12/2016", "station": "subway", "subway": "yes", "type:RATP": "metro", "wheelchair": "no", "wikidata": "Q614049", "wikipedia": "fr:Gare de Lyon (m\u00e9tro de Paris)"}}, {"type": "node", "id": 9142503435, "lat": 48.8395922, "lon": 2.3962319, "tags": {"STIF:zone": "1", "alt_name": "Daumesnil (F\u00e9lix Ebou\u00e9)", "check_date:wheelchair": "2021-02-28", "name": "Daumesnil", "name:ru": "\u0414\u043e\u043c\u0435\u043d\u0438\u043b\u044c", "public_transport": "station", "railway": "station", "ref:FR:FANTOIR": "75112S122L", "ref:FR:RATP": "1901", "ref:FR:STIF": "22181", "source": "STIF - 12/2016", "station": "subway", "subway": "yes", "type:RATP": "metro", "wheelchair": "no", "wikidata": "Q1172977", "wikipedia": "fr:Daumesnil (m\u00e9tro de Paris)"}}, {"type": "node", "id": 9415542181, "lat": 48.8473574, "lon": 2.3867982, "tags": {"STIF:zone": "1", "addr:city": "Paris", "layer": "-2", "name": "Reuilly \u2014 Diderot", "name:ru": "\u0420\u0451\u0439\u0438 \u2014 \u0414\u0438\u0434\u0440\u043e", "public_transport": "station", "railway": "station", "ref:FR:FANTOIR": "75112S486G", "ref:FR:RATP": "1662", "ref:FR:STIF": "22098", "source": "STIF - 12/2016", "station": "subway", "subway": "yes", "type:RATP": "metro", "wheelchair": "no", "wikidata": "Q647271", "wikipedia": "fr:Reuilly - Diderot (m\u00e9tro de Paris)"}}, {"type": "node", "id": 9415542182, "lat": 48.8473367, "lon": 2.408086, "tags": {"STIF:zone": "1", "name": "Porte de Vincennes", "public_transport": "station", "railway": "station", "ref:FR:FANTOIR": "75120S450H;75112S450T", "ref:FR:RATP": "1733", "ref:FR:STIF": "22077", "station": "subway", "train": "yes", "type:RATP": "metro", "wheelchair": "no", "wikidata": "Q1576928", "wikipedia": "fr:Porte de Vincennes (m\u00e9tro de Paris)"}}, {"type": "node", "id": 9863472111, "lat": 48.8464372, "lon": 2.4184429, "tags": {"STIF:zone": "1", "name": "Saint-Mand\u00e9", "name:-1937-04-26": "Tourelle", "network": "M\u00e9tro 1", "old_name": "Saint-Mand\u00e9 - Tourelle", "operator": "RATP", "railway": "station", "ref:FR:RATP": "1690", "ref:FR:STIF": "22103", "source": "STIF - 12/2016", "station": "subway", "type:RATP": "metro", "wheelchair": "no", "wikidata": "Q1784678", "wikipedia": "fr:Saint-Mand\u00e9 (m\u00e9tro de Paris)"}}, {"type": "node", "id": 11405200504, "lat": 48.8335395, "lon": 2.385978, "tags": {"STIF:zone": "1", "name": "Cour Saint-\u00c9milion", "public_transport": "stop_position", "railway": "station", "ref:FR:FANTOIR": "75112S105T", "ref:FR:RATP": "50055", "ref:FR:STIF": "21956", "source": "STIF - 12/2016", "station": "subway", "subway": "yes", "type:RATP": "metro", "wheelchair": "yes", "wikidata": "Q1137613", "wikipedia": "fr:Cour Saint-\u00c9milion (m\u00e9tro de Paris)"}}]}