{"version": 0.6, "generator": "Overpass API 0.7.61.5 4133829e", "osm3s": {"timestamp_osm_base": "2023-12-09T23:49:30Z", "copyright": "The data included in this document is from www.openstreetmap.org. The data is made available under ODbL."}, "elements": [{"type": "node", "id": 282489109, "lat": 48.8739628, "lon": 2.3483713, "tags": {"amenity": "bicycle_rental", "bicycle_rental": "docking_station", "brand": "V\u00e9lib\u2019 M\u00e9tropole", "brand:wikidata": "Q1120762", "brand:wikipedia": "fr:V\u00e9lib' M\u00e9tropole", "capacity": "18", "disused:amenity": "bicycle_rental", "end_date": "2017-10-01", "name": "Petites \u00c9curies - Faubourg Poissonni\u00e8re", "network": "V\u00e9lib\u2019 M\u00e9tropole", "network:wikidata": "Q1120762", "network:wikipedia": "fr:V\u00e9lib' M\u00e9tropole", "operator": "Smovengo", "operator:wikidata": "Q47008427", "operator:wikipedia": "fr:Smovengo", "ref": "10005", "source": "Autolib Velib M\u00e9tropole - 04/2020", "wikidata": "Q86253014"}}, {"type": "node", "id": 416674461, "lat": 48.879237, "lon": 2.3686218, "tags": {"amenity": "bicycle_rental", "bicycle_rental": "docking_station", "brand": "V\u00e9lib\u2019 M\u00e9tropole", "brand:wikidata": "Q1120762", "brand:wikipedia": "fr:V\u00e9lib' M\u00e9tropole", "capacity": "31", "disused:amenity": "bicycle_rental", "end_date": "2017-10-01", "name": "Louis Blanc - Jemmapes", "network": "V\u00e9lib\u2019 M\u00e9tropole", "network:wikidata": "Q1120762", "network:wikipedia": "fr:V\u00e9lib' M\u00e9tropole", "operator": "Smovengo", "operator:wikidata": "Q47008427", "operator:wikipedia": "fr:Smovengo", "ref": "10110", "source": "Autolib Velib M\u00e9tropole - 04/2019", "wikidata": "Q86252980"}}, {"type": "node", "id": 428508903, "lat": 48.8803674, "lon": 2.3528307, "tags": {"amenity": "bicycle_rental", "bicycle_rental": "docking_station", "brand": "V\u00e9lib\u2019 M\u00e9tropole", "brand:wikidata": "Q1120762", "brand:wikipedia": "fr:V\u00e9lib' M\u00e9tropole", "capacity": "29", "name": "Gare du Nord - Dunkerque", "network": "V\u00e9lib\u2019 M\u00e9tropole", "network:wikidata": "Q1120762", "network:wikipedia": "fr:V\u00e9lib' M\u00e9tropole", "operator": "Smovengo", "operator:wikidata": "Q47008427", "operator:wikipedia": "fr:Smovengo", "ref": "10028", "source": "survey 10/2018", "wheelchair": "no", "wikidata": "Q86252960"}}, {"type": "node", "id": 2350539184, "lat": 48.8862282, "lon": 2.3688612, "tags": {"amenity": "bicycle_rental", "bicycle_rental": "docking_station", "brand": "V\u00e9lib\u2019 M\u00e9tropole", "brand:wikidata": "Q1120762", "brand:wikipedia": "fr:V\u00e9lib' M\u00e9tropole", "capacity": "19", "name": "Tanger - Place du Maroc", "network": "V\u00e9lib\u2019 M\u00e9tropole", "network:wikidata": "Q1120762", "network:wikipedia": "fr:V\u00e9lib' M\u00e9tropole", "operator": "Smovengo", "operator:wikidata": "Q47008427", "operator:wikipedia": "fr:Smovengo", "ref": "19109", "source": "Autolib Velib M\u00e9tropole - 04/2019", "wikidata": "Q86254929"}}, {"type": "node", "id": 5363801429, "lat": 48.8781041, "lon": 2.3294724, "tags": {"amenity": "bicycle_rental", "bicycle_rental": "docking_station", "brand": "V\u00e9lib\u2019 M\u00e9tropole", "brand:wikidata": "Q1120762", "brand:wikipedia": "fr:V\u00e9lib' M\u00e9tropole", "capacity": "20", "name": "Ath\u00e8nes - Clichy", "network": "V\u00e9lib\u2019 M\u00e9tropole", "network:wikidata": "Q1120762", "network:wikipedia": "fr:V\u00e9lib' M\u00e9tropole", "operator": "Smovengo", "operator:wikidata": "Q47008427", "operator:wikipedia": "fr:Smovengo", "ref": "9036", "source": "Autolib Velib M\u00e9tropole - 04/2020", "wikidata": "Q86254706"}}, {"type": "node", "id": 5422046619, "lat": 48.8866841, "lon": 2.361445, "tags": {"amenity": "bicycle_rental", "bicycle_rental": "docking_station", "brand": "V\u00e9lib\u2019 M\u00e9tropole", "brand:wikidata": "Q1120762", "brand:wikipedia": "fr:V\u00e9lib' M\u00e9tropole", "capacity": "19", "name": "Departement - Pajol", "network": "V\u00e9lib\u2019 M\u00e9tropole", "network:wikidata": "Q1120762", "network:wikipedia": "fr:V\u00e9lib' M\u00e9tropole", "operator": "Smovengo", "operator:wikidata": "Q47008427", "operator:wikipedia": "fr:Smovengo", "ref": "18110", "source": "Autolib Velib M\u00e9tropole - 04/2019", "wikidata": "Q86254459"}}, {"type": "node", "id": 5422420400, "lat": 48.890199, "lon": 2.3603326, "tags": {"amenity": "bicycle_rental", "bicycle_rental": "dropoff_point", "brand": "V\u00e9lib'", "capacity": "29", "name": "Riquet - Marx Dormoy", "network": "V\u00e9lib\u2019", "operator": "Smovengo", "ref": "18010", "source": "Connaissance locale", "wikidata": "Q86254436"}}, {"type": "node", "id": 5470979535, "lat": 48.889479, "lon": 2.3627914, "tags": {"amenity": "bicycle_rental", "bicycle_rental": "docking_station", "brand": "V\u00e9lib\u2019 M\u00e9tropole", "brand:wikidata": "Q1120762", "brand:wikipedia": "fr:V\u00e9lib' M\u00e9tropole", "capacity": "47", "name": "Pajol - Riquet", "network": "V\u00e9lib\u2019 M\u00e9tropole", "network:wikidata": "Q1120762", "network:wikipedia": "fr:V\u00e9lib' M\u00e9tropole", "operator": "Smovengo", "operator:wikidata": "Q47008427", "operator:wikipedia": "fr:Smovengo", "payment:credit_cards": "yes", "ref": "18109", "source": "Autolib Velib M\u00e9tropole - 2021-03", "wikidata": "Q86254444"}}, {"type": "node", "id": 5540287647, "lat": 48.8798271, "lon": 2.3454459}, {"type": "node", "id": 5540287648, "lat": 48.8798141, "lon": 2.3454382}, {"type": "node", "id": 5540287649, "lat": 48.8798674, "lon": 2.3452076}, {"type": "node", "id": 5540287650, "lat": 48.8798815, "lon": 2.3452153}, {"type": "node", "id": 5569041166, "lat": 48.8920988, "lon": 2.323359, "tags": {"amenity": "bicycle_rental", "bicycle_rental": "docking_station", "capacity": "36", "name": "Guy M\u00f4quet - Compoint", "network": "V\u00e9lib\u2019", "operator": "Smovengo", "ref": "17006", "source": "Autolib Velib M\u00e9tropole - 2021-03", "wikidata": "Q86238246"}}, {"type": "node", "id": 5569041170, "lat": 48.8935069, "lon": 2.3366674, "tags": {"amenity": "bicycle_rental", "bicycle_rental": "docking_station", "capacity": "30", "name": "Damr\u00e9mont - Ordener", "network": "V\u00e9lib\u2019", "operator": "Smovengo", "ref": "18027", "source": "Autolib Velib M\u00e9tropole - 2021-03", "wikidata": "Q86254466"}}, {"type": "node", "id": 5569041179, "lat": 48.8912197, "lon": 2.3512598, "tags": {"amenity": "bicycle_rental", "capacity": "35", "name": "Ordener - Poissonniers", "network": "V\u00e9lib\u2019", "operator": "Smovengo", "ref": "18023", "source": "Autolib Velib M\u00e9tropole - 2021-03", "wikidata": "Q86253526"}}, {"type": "node", "id": 5596256890, "lat": 48.8829038, "lon": 2.3463669, "tags": {"amenity": "bicycle_rental", "bicycle_rental": "docking_station", "brand": "V\u00e9lib\u2019 M\u00e9tropole", "brand:wikidata": "Q1120762", "brand:wikipedia": "fr:V\u00e9lib' M\u00e9tropole", "capacity": "21", "name": "G\u00e9rando - Rochechouart", "network": "V\u00e9lib\u2019 M\u00e9tropole", "network:wikidata": "Q1120762", "network:wikipedia": "fr:V\u00e9lib' M\u00e9tropole", "operator": "Smovengo", "operator:wikidata": "Q47008427", "operator:wikipedia": "fr:Smovengo", "ref": "9004", "source": "Autolib Velib M\u00e9tropole - 04/2019", "vending": "no", "wikidata": "Q86254667"}}, {"type": "node", "id": 5596257214, "lat": 48.8826283, "lon": 2.3449016, "tags": {"amenity": "bicycle_rental", "bicycle_rental": "docking_station", "brand": "V\u00e9lib\u2019 M\u00e9tropole", "brand:wikidata": "Q1120762", "brand:wikipedia": "fr:V\u00e9lib' M\u00e9tropole", "capacity": "33", "name": "Square d'Anvers", "network": "V\u00e9lib\u2019 M\u00e9tropole", "network:wikidata": "Q1120762", "network:wikipedia": "fr:V\u00e9lib' M\u00e9tropole", "operator": "Smovengo", "operator:wikidata": "Q47008427", "operator:wikipedia": "fr:Smovengo", "ref": "9005", "source": "Autolib Velib M\u00e9tropole - 04/2020", "vending": "no", "wikidata": "Q86254701"}}, {"type": "node", "id": 5646306477, "lat": 48.8889641, "lon": 2.3225523, "tags": {"amenity": "bicycle_rental", "bicycle_rental": "docking_station", "brand": "V\u00e9lib\u2019 M\u00e9tropole", "brand:wikidata": "Q1120762", "brand:wikipedia": "fr:V\u00e9lib' M\u00e9tropole", "capacity": "40", "name": "Legendre - Clichy", "network": "V\u00e9lib\u2019 M\u00e9tropole", "network:wikidata": "Q1120762", "network:wikipedia": "fr:V\u00e9lib' M\u00e9tropole", "operator": "Smovengo", "operator:wikidata": "Q47008427", "operator:wikipedia": "fr:Smovengo", "ref": "17004", "source": "Autolib Velib M\u00e9tropole - 04/2020", "wikidata": "Q86238266"}}, {"type": "node", "id": 6031787138, "lat": 48.8877521, "lon": 2.3203072, "tags": {"amenity": "bicycle_rental", "bicycle_rental": "docking_station", "brand": "V\u00e9lib\u2019 M\u00e9tropole", "brand:wikidata": "Q1120762", "brand:wikipedia": "fr:V\u00e9lib' M\u00e9tropole", "capacity": "30", "name": "Legendre - Nollet", "network": "V\u00e9lib\u2019 M\u00e9tropole", "network:wikidata": "Q1120762", "network:wikipedia": "fr:V\u00e9lib' M\u00e9tropole", "operator": "Smovengo", "operator:wikidata": "Q47008427", "operator:wikipedia": "fr:Smovengo", "ref": "17110", "source": "Autolib Velib M\u00e9tropole - 04/2020", "wikidata": "Q86238250"}}, {"type": "node", "id": 6134818406, "lat": 48.8768665, "lon": 2.3327976, "tags": {"amenity": "bicycle_rental", "bicycle_rental": "docking_station", "brand": "V\u00e9lib\u2019 M\u00e9tropole", "brand:wikidata": "Q1120762", "brand:wikipedia": "fr:V\u00e9lib' M\u00e9tropole", "capacity": "39", "name": "Saint-Lazare - Place d'Estienne d'Orves", "network": "V\u00e9lib\u2019 M\u00e9tropole", "network:wikidata": "Q1120762", "network:wikipedia": "fr:V\u00e9lib' M\u00e9tropole", "operator": "Smovengo", "operator:wikidata": "Q47008427", "operator:wikipedia": "fr:Smovengo", "ref": "9029", "source": "Autolib Velib M\u00e9tropole - 04/2020", "wikidata": "Q86254588"}}, {"type": "node", "id": 6203928293, "lat": 48.8765329, "lon": 2.3559806, "tags": {"amenity": "bicycle_rental", "bicycle_rental": "docking_station", "brand": "V\u00e9lib\u2019 M\u00e9tropole", "brand:wikidata": "Q1120762", "brand:wikipedia": "fr:V\u00e9lib' M\u00e9tropole", "capacity": "24", "name": "Magenta - Chabrol", "network": "V\u00e9lib\u2019 M\u00e9tropole", "network:wikidata": "Q1120762", "network:wikipedia": "fr:V\u00e9lib' M\u00e9tropole", "operator": "Smovengo", "operator:wikidata": "Q47008427", "operator:wikipedia": "fr:Smovengo", "ref": "10201", "source": "survey 2019-01", "wikidata": "Q86252933"}}, {"type": "node", "id": 6265006490, "lat": 48.8979326, "lon": 2.3285399, "tags": {"amenity": "bicycle_rental", "bicycle_rental": "docking_station", "capacity": "42", "name": "Porte de Saint-Ouen - Bessi\u00e8res", "network": "V\u00e9lib\u2019", "operator": "Smovengo", "ref": "17044", "source": "Autolib Velib M\u00e9tropole - 2021-03", "wikidata": "Q86238320"}}, {"type": "node", "id": 6297078185, "lat": 48.8703804, "lon": 2.323324, "tags": {"amenity": "bicycle_rental", "bicycle_rental": "docking_station", "brand": "V\u00e9lib\u2019 M\u00e9tropole", "brand:wikidata": "Q1120762", "brand:wikipedia": "fr:V\u00e9lib' M\u00e9tropole", "capacity": "67", "name": "Malesherbes - Place de la Madeleine", "network": "V\u00e9lib\u2019 M\u00e9tropole", "network:wikidata": "Q1120762", "network:wikipedia": "fr:V\u00e9lib' M\u00e9tropole", "opening_hours": "24/7", "operator": "Smovengo", "operator:wikidata": "Q47008427", "operator:wikipedia": "fr:Smovengo", "ref": "8004", "source": "Autolib Velib M\u00e9tropole - 04/2020", "website": "https://www.velib-metropole.fr", "wikidata": "Q86255313"}}, {"type": "node", "id": 6320373040, "lat": 48.8926315, "lon": 2.3173091, "tags": {"amenity": "bicycle_rental", "bicycle_rental": "docking_station", "brand": "V\u00e9lib\u2019 M\u00e9tropole", "brand:wikidata": "Q1120762", "brand:wikipedia": "fr:V\u00e9lib' M\u00e9tropole", "capacity": "34", "contact:city": "Paris", "contact:email": "info@velib-metropole.fr", "contact:housenumber": "2", "contact:phone": "+33 1 76 49 12 34", "contact:postcode": "75017", "contact:street": "Rue Paul Bodin", "contact:website": "https://www.velib-metropole.fr", "covered": "no", "fee": "yes", "name": "Paul Bodin - Clichy", "network": "V\u00e9lib\u2019 M\u00e9tropole", "network:wikidata": "Q1120762", "network:wikipedia": "fr:V\u00e9lib' M\u00e9tropole", "opening_hours": "24/7", "operator": "Smovengo", "operator:wikidata": "Q47008427", "operator:wikipedia": "fr:Smovengo", "ref": "17009", "source": "local knowledge;aerial imagery;streetlevel imagery", "wheelchair": "yes", "wikidata": "Q86238392"}}, {"type": "node", "id": 6360315837, "lat": 48.8716565, "lon": 2.3639089, "tags": {"amenity": "bicycle_rental", "bicycle_rental": "docking_station", "brand": "V\u00e9lib\u2019 M\u00e9tropole", "brand:wikidata": "Q1120762", "brand:wikipedia": "fr:V\u00e9lib' M\u00e9tropole", "capacity": "55", "name": "Marseille - Beaurepaire", "network": "V\u00e9lib\u2019 M\u00e9tropole", "network:wikidata": "Q1120762", "network:wikipedia": "fr:V\u00e9lib' M\u00e9tropole", "operator": "Smovengo", "operator:wikidata": "Q47008427", "operator:wikipedia": "fr:Smovengo", "ref": "10014", "source": "Autolib Velib M\u00e9tropole - 04/2020", "wikidata": "Q86252920"}}, {"type": "node", "id": 6389594180, "lat": 48.8710914, "lon": 2.3661602, "tags": {"amenity": "bicycle_rental", "bicycle_rental": "docking_station", "brand": "V\u00e9lib\u2019 M\u00e9tropole", "brand:wikidata": "Q1120762", "brand:wikipedia": "fr:V\u00e9lib' M\u00e9tropole", "capacity": "60", "check_date": "2023-07-07", "name": "Alibert - Jemmapes", "network": "V\u00e9lib\u2019 M\u00e9tropole", "network:wikidata": "Q1120762", "network:wikipedia": "fr:V\u00e9lib' M\u00e9tropole", "operator": "Smovengo", "operator:wikidata": "Q47008427", "operator:wikipedia": "fr:Smovengo", "ref": "10013", "source": "Autolib Velib M\u00e9tropole - 2021-03", "unsigned_ref": "123095125", "wikidata": "Q86253003"}}, {"type": "node", "id": 6389594181, "lat": 48.8690345, "lon": 2.362289, "tags": {"amenity": "bicycle_rental", "bicycle_rental": "docking_station", "brand": "V\u00e9lib\u2019 M\u00e9tropole", "brand:wikidata": "Q1120762", "brand:wikipedia": "fr:V\u00e9lib' M\u00e9tropole", "capacity": "17", "check_date": "2023-03-18", "name": "Bourse du Travail", "network": "V\u00e9lib\u2019 M\u00e9tropole", "network:wikidata": "Q1120762", "network:wikipedia": "fr:V\u00e9lib' M\u00e9tropole", "operator": "Smovengo", "operator:wikidata": "Q47008427", "operator:wikipedia": "fr:Smovengo", "ref": "10011", "source": "Autolib Velib M\u00e9tropole - 04/2020", "wikidata": "Q86253052"}}, {"type": "node", "id": 6418479198, "lat": 48.879226, "lon": 2.3491474, "tags": {"amenity": "bicycle_rental", "bicycle_rental": "docking_station", "brand": "V\u00e9lib\u2019 M\u00e9tropole", "brand:wikidata": "Q1120762", "brand:wikipedia": "fr:V\u00e9lib' M\u00e9tropole", "capacity": "14", "name": "Abbeville - Faubourg Poissonni\u00e8re", "network": "V\u00e9lib\u2019 M\u00e9tropole", "network:wikidata": "Q1120762", "network:wikipedia": "fr:V\u00e9lib' M\u00e9tropole", "operator": "Smovengo", "operator:wikidata": "Q47008427", "operator:wikipedia": "fr:Smovengo", "ref": "9002", "wikidata": "Q86254696"}}, {"type": "node", "id": 6418480208, "lat": 48.8712408, "lon": 2.3414049, "tags": {"amenity": "bicycle_rental", "bicycle_rental": "docking_station", "brand": "V\u00e9lib\u2019 M\u00e9tropole", "brand:wikidata": "Q1120762", "brand:wikipedia": "fr:V\u00e9lib' M\u00e9tropole", "capacity": "39", "name": "Vivienne - Montmartre", "network": "V\u00e9lib\u2019 M\u00e9tropole", "network:wikidata": "Q1120762", "network:wikipedia": "fr:V\u00e9lib' M\u00e9tropole", "operator": "Smovengo", "operator:wikidata": "Q47008427", "operator:wikipedia": "fr:Smovengo", "ref": "2108", "wikidata": "Q86254745"}}, {"type": "node", "id": 6423680104, "lat": 48.8756834, "lon": 2.3266255, "tags": {"amenity": "bicycle_rental", "bicycle_rental": "docking_station", "brand": "V\u00e9lib\u2019 M\u00e9tropole", "brand:wikidata": "Q1120762", "brand:wikipedia": "fr:V\u00e9lib' M\u00e9tropole", "capacity": "45", "level": "0", "name": "Gare Saint-Lazare - Cour du Havre", "network": "V\u00e9lib\u2019 M\u00e9tropole", "network:wikidata": "Q1120762", "network:wikipedia": "fr:V\u00e9lib' M\u00e9tropole", "operator": "Smovengo", "operator:wikidata": "Q47008427", "operator:wikipedia": "fr:Smovengo", "ref": "8002", "source": "Autolib Velib M\u00e9tropole - 04/2020", "wikidata": "Q86255300"}}, {"type": "node", "id": 6424068486, "lat": 48.8811578, "lon": 2.3366444, "tags": {"amenity": "bicycle_rental", "bicycle_rental": "docking_station", "brand": "V\u00e9lib\u2019 M\u00e9tropole", "brand:wikidata": "Q1120762", "brand:wikipedia": "fr:V\u00e9lib' M\u00e9tropole", "capacity": "18", "name": "Victor Mass\u00e9 - Jean-Baptiste Pigalle", "network": "V\u00e9lib\u2019 M\u00e9tropole", "network:wikidata": "Q1120762", "network:wikipedia": "fr:V\u00e9lib' M\u00e9tropole", "operator": "Smovengo", "operator:wikidata": "Q47008427", "operator:wikipedia": "fr:Smovengo", "ref": "9019", "wikidata": "Q86254719"}}, {"type": "node", "id": 6424083985, "lat": 48.8819441, "lon": 2.3523463, "tags": {"amenity": "bicycle_rental", "bicycle_rental": "docking_station", "brand": "V\u00e9lib\u2019 M\u00e9tropole", "brand:wikidata": "Q1120762", "brand:wikipedia": "fr:V\u00e9lib' M\u00e9tropole", "capacity": "49", "name": "Gare du Nord - H\u00f4pital Lariboisi\u00e8re", "network": "V\u00e9lib\u2019 M\u00e9tropole", "network:wikidata": "Q1120762", "network:wikipedia": "fr:V\u00e9lib' M\u00e9tropole", "operator": "Smovengo", "operator:wikidata": "Q47008427", "operator:wikipedia": "fr:Smovengo", "ref": "10107", "wikidata": "Q86253005"}}, {"type": "node", "id": 6424090385, "lat": 48.8809587, "lon": 2.3524469, "tags": {"amenity": "bicycle_rental", "bicycle_rental": "docking_station", "brand": "V\u00e9lib\u2019 M\u00e9tropole", "brand:wikidata": "Q1120762", "brand:wikipedia": "fr:V\u00e9lib' M\u00e9tropole", "capacity": "24", "name": "Gare du Nord - Saint-Vincent de Paul", "network": "V\u00e9lib\u2019 M\u00e9tropole", "network:wikidata": "Q1120762", "network:wikipedia": "fr:V\u00e9lib' M\u00e9tropole", "operator": "Smovengo", "operator:wikidata": "Q47008427", "operator:wikipedia": "fr:Smovengo", "ref": "10033", "source": "Autolib Velib M\u00e9tropole - 04/2020", "wikidata": "Q86252990"}}, {"type": "node", "id": 6424103785, "lat": 48.8756551, "lon": 2.3594045, "tags": {"amenity": "bicycle_rental", "bicycle_rental": "docking_station", "brand": "V\u00e9lib\u2019 M\u00e9tropole", "brand:wikidata": "Q1120762", "brand:wikipedia": "fr:V\u00e9lib' M\u00e9tropole", "capacity": "32", "name": "Gare de l'Est - Faubourg-Saint-Martin", "network": "V\u00e9lib\u2019 M\u00e9tropole", "network:wikidata": "Q1120762", "network:wikipedia": "fr:V\u00e9lib' M\u00e9tropole", "operator": "Smovengo", "operator:wikidata": "Q47008427", "operator:wikipedia": "fr:Smovengo", "ref": "10161", "source": "Autolib Velib M\u00e9tropole - 04/2020", "wikidata": "Q86252896"}}, {"type": "node", "id": 6424116485, "lat": 48.9037969, "lon": 2.3192978, "tags": {"amenity": "bicycle_rental", "brand": "V\u00e9lib\u2019 M\u00e9tropole", "brand:wikidata": "Q1120762", "capacity": "22", "name": "Madame de Sanzillon - Mozart", "network": "V\u00e9lib\u2019 M\u00e9tropole", "network:wikidata": "Q1120762", "operator": "Smovengo", "operator:wikidata": "Q47008427", "ref": "21104", "source": "Autolib Velib M\u00e9tropole - 2022-08", "wikidata": "Q86255933"}}, {"type": "node", "id": 6433028528, "lat": 48.8721989, "lon": 2.3294205, "tags": {"amenity": "bicycle_rental", "bicycle_rental": "docking_station", "brand": "V\u00e9lib\u2019 M\u00e9tropole", "brand:wikidata": "Q1120762", "brand:wikipedia": "fr:V\u00e9lib' M\u00e9tropole", "capacity": "14", "name": "Boudreau - Auber", "network": "V\u00e9lib\u2019 M\u00e9tropole", "network:wikidata": "Q1120762", "network:wikipedia": "fr:V\u00e9lib' M\u00e9tropole", "operator": "Smovengo", "operator:wikidata": "Q47008427", "operator:wikipedia": "fr:Smovengo", "ref": "9106", "source": "Autolib Velib M\u00e9tropole - 04/2020", "wikidata": "Q86254615"}}, {"type": "node", "id": 6433120265, "lat": 48.8729803, "lon": 2.3294795, "tags": {"amenity": "bicycle_rental", "bicycle_rental": "docking_station", "brand": "V\u00e9lib\u2019 M\u00e9tropole", "brand:wikidata": "Q1120762", "brand:wikipedia": "fr:V\u00e9lib' M\u00e9tropole", "capacity": "36", "name": "Mathurins - Auber", "network": "V\u00e9lib\u2019 M\u00e9tropole", "network:wikidata": "Q1120762", "network:wikipedia": "fr:V\u00e9lib' M\u00e9tropole", "operator": "Smovengo", "operator:wikidata": "Q47008427", "operator:wikipedia": "fr:Smovengo", "ref": "9032", "source": "Autolib Velib M\u00e9tropole - 04/2020", "wikidata": "Q86254650"}}, {"type": "node", "id": 6433219548, "lat": 48.8713827, "lon": 2.3699255, "tags": {"amenity": "bicycle_rental", "bicycle_rental": "docking_station", "brand": "V\u00e9lib\u2019 M\u00e9tropole", "brand:wikidata": "Q1120762", "brand:wikipedia": "fr:V\u00e9lib' M\u00e9tropole", "capacity": "43", "check_date": "2023-03-16", "name": "Parmentier - H\u00f4pital Saint-Louis", "network": "V\u00e9lib\u2019 M\u00e9tropole", "network:wikidata": "Q1120762", "network:wikipedia": "fr:V\u00e9lib' M\u00e9tropole", "operator": "Smovengo", "operator:wikidata": "Q47008427", "operator:wikipedia": "fr:Smovengo", "ref": "10113", "source": "Autolib Velib M\u00e9tropole - 2021-03", "unsigned_ref": "66491392", "wikidata": "Q86252972"}}, {"type": "node", "id": 6433805360, "lat": 48.889501, "lon": 2.3333959, "tags": {"amenity": "bicycle_rental", "bicycle_rental": "docking_station", "capacity": "25", "name": "F\u00e9lix Ziem - Armand Gauthier", "network": "V\u00e9lib\u2019", "operator": "Smovengo", "ref": "18111", "source": "Autolib Velib M\u00e9tropole - 2021-03", "wikidata": "Q86253552"}}, {"type": "node", "id": 6458491741, "lat": 48.8761455, "lon": 2.3680801, "tags": {"amenity": "bicycle_rental", "bicycle_rental": "docking_station", "brand": "V\u00e9lib\u2019 M\u00e9tropole", "brand:wikidata": "Q1120762", "brand:wikipedia": "fr:V\u00e9lib' M\u00e9tropole", "capacity": "27", "name": "Grange aux Belles", "network": "V\u00e9lib\u2019 M\u00e9tropole", "network:wikidata": "Q1120762", "network:wikipedia": "fr:V\u00e9lib' M\u00e9tropole", "operator": "Smovengo", "operator:wikidata": "Q47008427", "operator:wikipedia": "fr:Smovengo", "ref": "10115", "source": "Autolib Velib M\u00e9tropole - 04/2020", "unsigned_ref": "54000565", "wikidata": "Q86253044"}}, {"type": "node", "id": 6459314024, "lat": 48.8774682, "lon": 2.3660218, "tags": {"amenity": "bicycle_rental", "bicycle_rental": "docking_station", "brand": "V\u00e9lib\u2019 M\u00e9tropole", "brand:wikidata": "Q1120762", "brand:wikipedia": "fr:V\u00e9lib' M\u00e9tropole", "capacity": "15", "name": "Jemmapes - \u00c9cluses Saint-Martin", "network": "V\u00e9lib\u2019 M\u00e9tropole", "network:wikidata": "Q1120762", "network:wikipedia": "fr:V\u00e9lib' M\u00e9tropole", "operator": "Smovengo", "operator:wikidata": "Q47008427", "operator:wikipedia": "fr:Smovengo", "ref": "10025", "source": "Autolib Velib M\u00e9tropole - 04/2020", "unsigned_ref": "35642049", "wikidata": "Q86252952"}}, {"type": "node", "id": 6459314025, "lat": 48.8747959, "lon": 2.3666693, "tags": {"amenity": "bicycle_rental", "bicycle_rental": "docking_station", "brand": "V\u00e9lib\u2019 M\u00e9tropole", "brand:wikidata": "Q1120762", "brand:wikipedia": "fr:V\u00e9lib' M\u00e9tropole", "capacity": "60", "check_date": "2022-07-22", "name": "Granges aux Belles - H\u00f4pital Saint-Louis", "network": "V\u00e9lib\u2019 M\u00e9tropole", "network:wikidata": "Q1120762", "network:wikipedia": "fr:V\u00e9lib' M\u00e9tropole", "operator": "Smovengo", "operator:wikidata": "Q47008427", "operator:wikipedia": "fr:Smovengo", "ref": "10114", "source": "Autolib Velib M\u00e9tropole - 2022-01", "unsigned_ref": "129042700", "wikidata": "Q86253055"}}, {"type": "node", "id": 6459434545, "lat": 48.8775176, "lon": 2.369785, "tags": {"amenity": "bicycle_rental", "bicycle_rental": "docking_station", "brand": "V\u00e9lib\u2019 M\u00e9tropole", "brand:wikidata": "Q1120762", "brand:wikipedia": "fr:V\u00e9lib' M\u00e9tropole", "capacity": "27", "check_date": "2023-08-19", "name": "Place du Colonel Fabien", "network": "V\u00e9lib\u2019 M\u00e9tropole", "network:wikidata": "Q1120762", "network:wikipedia": "fr:V\u00e9lib' M\u00e9tropole", "operator": "Smovengo", "operator:wikidata": "Q47008427", "operator:wikipedia": "fr:Smovengo", "ref": "10038", "source": "Autolib Velib M\u00e9tropole - 04/2019", "survey:date": "2019-05-08", "unsigned_ref": "123546861", "wikidata": "Q86252969"}}, {"type": "node", "id": 6466763535, "lat": 48.8811703, "lon": 2.3584076, "tags": {"amenity": "bicycle_rental", "bicycle_rental": "docking_station", "brand": "V\u00e9lib\u2019 M\u00e9tropole", "brand:wikidata": "Q1120762", "brand:wikipedia": "fr:V\u00e9lib' M\u00e9tropole", "capacity": "30", "name": "Gare du Nord - Demarquay", "network": "V\u00e9lib\u2019 M\u00e9tropole", "network:wikidata": "Q1120762", "network:wikipedia": "fr:V\u00e9lib' M\u00e9tropole", "operator": "Smovengo", "operator:wikidata": "Q47008427", "operator:wikipedia": "fr:Smovengo", "ref": "10163", "source": "Autolib Velib M\u00e9tropole - 04/2019;survey 2019-05", "wikidata": "Q86252941"}}, {"type": "node", "id": 6487689671, "lat": 48.8974811, "lon": 2.3439945, "tags": {"amenity": "bicycle_rental", "bicycle_rental": "docking_station", "brand": "V\u00e9lib\u2019 M\u00e9tropole", "brand:wikidata": "Q1120762", "brand:wikipedia": "fr:V\u00e9lib' M\u00e9tropole", "capacity": "56", "name": "Porte de Clignancourt", "network": "V\u00e9lib\u2019 M\u00e9tropole", "network:wikidata": "Q1120762", "network:wikipedia": "fr:V\u00e9lib' M\u00e9tropole", "operator": "Smovengo", "operator:wikidata": "Q47008427", "operator:wikipedia": "fr:Smovengo", "ref": "18032", "source": "Autolib Velib M\u00e9tropole - 04/2020", "wikidata": "Q86254465"}}, {"type": "node", "id": 6549488949, "lat": 48.8762106, "lon": 2.3198369, "tags": {"amenity": "bicycle_rental", "bicycle_rental": "docking_station", "brand": "V\u00e9lib\u2019 M\u00e9tropole", "brand:wikidata": "Q1120762", "brand:wikipedia": "fr:V\u00e9lib' M\u00e9tropole", "capacity": "31", "fee": "yes", "name": "Saint-Augustin", "network": "V\u00e9lib\u2019 M\u00e9tropole", "network:wikidata": "Q1120762", "network:wikipedia": "fr:V\u00e9lib' M\u00e9tropole", "opening_hours": "24/7", "operator": "Smovengo", "operator:wikidata": "Q47008427", "operator:wikipedia": "fr:Smovengo", "payment:debit_cards": "yes", "ref": "8018", "source": "Autolib Velib M\u00e9tropole - 04/2020", "wikidata": "Q86255330"}}, {"type": "node", "id": 6596334443, "lat": 48.876741, "lon": 2.3304734, "tags": {"amenity": "bicycle_rental", "bicycle_rental": "docking_station", "brand": "V\u00e9lib\u2019 M\u00e9tropole", "brand:wikidata": "Q1120762", "brand:wikipedia": "fr:V\u00e9lib' M\u00e9tropole", "capacity": "25", "name": "Londres - Place d'Estienne d'Orves", "network": "V\u00e9lib\u2019 M\u00e9tropole", "network:wikidata": "Q1120762", "network:wikipedia": "fr:V\u00e9lib' M\u00e9tropole", "operator": "Smovengo", "operator:wikidata": "Q47008427", "operator:wikipedia": "fr:Smovengo", "ref": "9102", "source": "Autolib Velib M\u00e9tropole - 04/2020", "wikidata": "Q86254594"}}, {"type": "node", "id": 6596334444, "lat": 48.877754, "lon": 2.32735, "tags": {"amenity": "bicycle_rental", "bicycle_rental": "docking_station", "brand": "V\u00e9lib\u2019 M\u00e9tropole", "brand:wikidata": "Q1120762", "brand:wikipedia": "fr:V\u00e9lib' M\u00e9tropole", "capacity": "44", "name": "Gare Saint-Lazare - Place de Budapest", "network": "V\u00e9lib\u2019 M\u00e9tropole", "network:wikidata": "Q1120762", "network:wikipedia": "fr:V\u00e9lib' M\u00e9tropole", "operator": "Smovengo", "operator:wikidata": "Q47008427", "operator:wikipedia": "fr:Smovengo", "ref": "9035", "source": "Autolib Velib M\u00e9tropole - 04/2020", "wikidata": "Q86254622"}}, {"type": "node", "id": 6596334447, "lat": 48.8785057, "lon": 2.3250424, "tags": {"amenity": "bicycle_rental", "bicycle_rental": "docking_station", "brand": "V\u00e9lib\u2019 M\u00e9tropole", "brand:wikidata": "Q1120762", "brand:wikipedia": "fr:V\u00e9lib' M\u00e9tropole", "capacity": "27", "fee": "yes", "name": "Londres - Europe", "network": "V\u00e9lib\u2019 M\u00e9tropole", "network:wikidata": "Q1120762", "network:wikipedia": "fr:V\u00e9lib' M\u00e9tropole", "operator": "Smovengo", "operator:wikidata": "Q47008427", "operator:wikipedia": "fr:Smovengo", "ref": "8202", "source": "Autolib Velib M\u00e9tropole - 04/2020", "wikidata": "Q86255244"}}, {"type": "node", "id": 6723048792, "lat": 48.8761319, "lon": 2.3608479, "tags": {"amenity": "bicycle_rental", "bicycle_rental": "docking_station", "brand": "V\u00e9lib\u2019 M\u00e9tropole", "brand:wikidata": "Q1120762", "brand:wikipedia": "fr:V\u00e9lib' M\u00e9tropole", "capacity": "14", "name": "Gare de l'Est - Verdun", "network": "V\u00e9lib\u2019 M\u00e9tropole", "network:wikidata": "Q1120762", "network:wikipedia": "fr:V\u00e9lib' M\u00e9tropole", "operator": "Smovengo", "operator:wikidata": "Q47008427", "operator:wikipedia": "fr:Smovengo", "ref": "10023", "source": "Autolib Velib M\u00e9tropole - 04/2019", "wikidata": "Q86252938"}}, {"type": "node", "id": 6723052342, "lat": 48.8741038, "lon": 2.3624959, "tags": {"amenity": "bicycle_rental", "bicycle_rental": "docking_station", "brand": "V\u00e9lib\u2019 M\u00e9tropole", "brand:wikidata": "Q1120762", "brand:wikipedia": "fr:V\u00e9lib' M\u00e9tropole", "capacity": "46", "check_date": "2022-09-13", "description": "deuxi\u00e8me partie de la station v\u00e9lib'", "name": "Lucien Sampaix - R\u00e9collets", "network": "V\u00e9lib\u2019 M\u00e9tropole", "network:wikidata": "Q1120762", "network:wikipedia": "fr:V\u00e9lib' M\u00e9tropole", "operator": "Smovengo", "operator:wikidata": "Q47008427", "operator:wikipedia": "fr:Smovengo", "ref": "10015", "source": "local knowledge", "vending": "no", "wikidata": "Q86252900"}}, {"type": "node", "id": 6723052343, "lat": 48.8743772, "lon": 2.3620391, "tags": {"amenity": "bicycle_rental", "bicycle_rental": "docking_station", "brand": "V\u00e9lib\u2019 M\u00e9tropole", "brand:wikidata": "Q1120762", "brand:wikipedia": "fr:V\u00e9lib' M\u00e9tropole", "capacity": "46", "name": "Lucien Sampaix - R\u00e9collets", "network": "V\u00e9lib\u2019 M\u00e9tropole", "network:wikidata": "Q1120762", "network:wikipedia": "fr:V\u00e9lib' M\u00e9tropole", "operator": "Smovengo", "operator:wikidata": "Q47008427", "operator:wikipedia": "fr:Smovengo", "payment:contactless": "yes", "payment:mastercard": "yes", "payment:visa": "yes", "ref": "10015", "source": "Autolib Velib M\u00e9tropole - 04/2019", "vending": "yes", "wikidata": "Q86252900"}}, {"type": "node", "id": 6736637867, "lat": 48.8708236, "lon": 2.3538271, "tags": {"amenity": "bicycle_rental", "bicycle_rental": "docking_station", "brand": "V\u00e9lib\u2019 M\u00e9tropole", "brand:wikidata": "Q1120762", "brand:wikipedia": "fr:V\u00e9lib' M\u00e9tropole", "capacity": "48", "name": "Metz - Faubourg Saint-Denis", "network": "V\u00e9lib\u2019 M\u00e9tropole", "network:wikidata": "Q1120762", "network:wikipedia": "fr:V\u00e9lib' M\u00e9tropole", "operator": "Smovengo", "operator:wikidata": "Q47008427", "operator:wikipedia": "fr:Smovengo", "ref": "10004", "source": "Autolib Velib M\u00e9tropole - 04/2019", "wikidata": "Q86253038"}}, {"type": "node", "id": 6736639209, "lat": 48.8707979, "lon": 2.3496534, "tags": {"amenity": "bicycle_rental", "bicycle_rental": "docking_station", "brand": "V\u00e9lib\u2019 M\u00e9tropole", "brand:wikidata": "Q1120762", "brand:wikipedia": "fr:V\u00e9lib' M\u00e9tropole", "capacity": "17", "name": "Hauteville - Bonne Nouvelle", "network": "V\u00e9lib\u2019 M\u00e9tropole", "network:wikidata": "Q1120762", "network:wikipedia": "fr:V\u00e9lib' M\u00e9tropole", "operator": "Smovengo", "operator:wikidata": "Q47008427", "operator:wikipedia": "fr:Smovengo", "ref": "10003", "source": "Autolib Velib M\u00e9tropole - 04/2020", "wikidata": "Q86252986"}}, {"type": "node", "id": 6742656166, "lat": 48.8707655, "lon": 2.3587313, "tags": {"amenity": "bicycle_rental", "bicycle_rental": "docking_station", "brand": "V\u00e9lib\u2019 M\u00e9tropole", "brand:wikidata": "Q1120762", "brand:wikipedia": "fr:V\u00e9lib' M\u00e9tropole", "capacity": "18", "name": "Cit\u00e9 Riverin - Ch\u00e2teau d'Eau", "network": "V\u00e9lib\u2019 M\u00e9tropole", "network:wikidata": "Q1120762", "network:wikipedia": "fr:V\u00e9lib' M\u00e9tropole", "operator": "Smovengo", "operator:wikidata": "Q47008427", "operator:wikipedia": "fr:Smovengo", "ref": "10008", "source": "Autolib Velib M\u00e9tropole - 04/2020", "wikidata": "Q86252912"}}, {"type": "node", "id": 6742672134, "lat": 48.8720861, "lon": 2.3576627, "tags": {"amenity": "bicycle_rental", "bicycle_rental": "docking_station", "brand": "V\u00e9lib\u2019 M\u00e9tropole", "brand:wikidata": "Q1120762", "brand:wikipedia": "fr:V\u00e9lib' M\u00e9tropole", "capacity": "19", "name": "Mairie du 10\u00e8me", "network": "V\u00e9lib\u2019 M\u00e9tropole", "network:wikidata": "Q1120762", "network:wikipedia": "fr:V\u00e9lib' M\u00e9tropole", "operator": "Smovengo", "operator:wikidata": "Q47008427", "operator:wikipedia": "fr:Smovengo", "ref": "10009", "source": "Autolib Velib M\u00e9tropole - 04/2020", "wikidata": "Q86252948"}}, {"type": "node", "id": 6742674363, "lat": 48.8710305, "lon": 2.3611261, "tags": {"amenity": "bicycle_rental", "bicycle_rental": "docking_station", "brand": "V\u00e9lib\u2019 M\u00e9tropole", "brand:wikidata": "Q1120762", "capacity": "33", "check_date": "2022-09-01", "name": "Place Jacques Bonsergent", "network": "V\u00e9lib\u2019 M\u00e9tropole", "network:wikidata": "Q1120762", "operator": "Smovengo", "operator:wikidata": "Q47008427", "ref": "10010", "source": "Autolib Velib M\u00e9tropole - 2021-03", "wikidata": "Q86253035"}}, {"type": "node", "id": 6742675422, "lat": 48.8729626, "lon": 2.353959, "tags": {"amenity": "bicycle_rental", "bicycle_rental": "docking_station", "brand": "V\u00e9lib\u2019 M\u00e9tropole", "brand:wikidata": "Q1120762", "brand:wikipedia": "fr:V\u00e9lib' M\u00e9tropole", "capacity": "28", "name": "Petites Ecuries - Faubourg Saint-Denis", "network": "V\u00e9lib\u2019 M\u00e9tropole", "network:wikidata": "Q1120762", "network:wikipedia": "fr:V\u00e9lib' M\u00e9tropole", "operator": "Smovengo", "operator:wikidata": "Q47008427", "operator:wikipedia": "fr:Smovengo", "ref": "10006", "source": "Autolib Velib M\u00e9tropole - 04/2020", "wikidata": "Q86253042"}}, {"type": "node", "id": 6742682210, "lat": 48.8745725, "lon": 2.3567936, "tags": {"amenity": "bicycle_rental", "bicycle_rental": "docking_station", "brand": "V\u00e9lib\u2019 M\u00e9tropole", "brand:wikidata": "Q1120762", "brand:wikipedia": "fr:V\u00e9lib' M\u00e9tropole", "capacity": "15", "name": "Gare de l'Est - Fid\u00e9lit\u00e9", "network": "V\u00e9lib\u2019 M\u00e9tropole", "network:wikidata": "Q1120762", "network:wikipedia": "fr:V\u00e9lib' M\u00e9tropole", "operator": "Smovengo", "operator:wikidata": "Q47008427", "operator:wikipedia": "fr:Smovengo", "ref": "10017", "source": "Autolib Velib M\u00e9tropole - 04/2020", "wikidata": "Q86252975"}}, {"type": "node", "id": 6742698515, "lat": 48.875028, "lon": 2.3598013, "tags": {"amenity": "bicycle_rental", "bicycle_rental": "docking_station", "brand": "V\u00e9lib\u2019 M\u00e9tropole", "brand:wikidata": "Q1120762", "brand:wikipedia": "fr:V\u00e9lib' M\u00e9tropole", "capacity": "17", "check_date": "2023-04-09", "name": "R\u00e9collets - Square Villemin", "network": "V\u00e9lib\u2019 M\u00e9tropole", "network:wikidata": "Q1120762", "network:wikipedia": "fr:V\u00e9lib' M\u00e9tropole", "operator": "Smovengo", "operator:wikidata": "Q47008427", "operator:wikipedia": "fr:Smovengo", "ref": "10016", "source": "Autolib Velib M\u00e9tropole - 04/2020", "wikidata": "Q86252915"}}, {"type": "node", "id": 6742703257, "lat": 48.8732653, "lon": 2.3593232, "tags": {"amenity": "bicycle_rental", "bicycle_rental": "docking_station", "brand": "V\u00e9lib\u2019 M\u00e9tropole", "brand:wikidata": "Q1120762", "brand:wikipedia": "fr:V\u00e9lib' M\u00e9tropole", "capacity": "25", "name": "Vinaigriers - Magenta", "network": "V\u00e9lib\u2019 M\u00e9tropole", "network:wikidata": "Q1120762", "network:wikipedia": "fr:V\u00e9lib' M\u00e9tropole", "operator": "Smovengo", "operator:wikidata": "Q47008427", "operator:wikipedia": "fr:Smovengo", "ref": "10012", "source": "Autolib Velib M\u00e9tropole - 04/2020", "wikidata": "Q86253019"}}, {"type": "node", "id": 6742710306, "lat": 48.8753816, "lon": 2.3560915, "tags": {"amenity": "bicycle_rental", "bicycle_rental": "docking_station", "brand": "V\u00e9lib\u2019 M\u00e9tropole", "brand:wikidata": "Q1120762", "brand:wikipedia": "fr:V\u00e9lib' M\u00e9tropole", "capacity": "30", "name": "Square Alban Satragne", "network": "V\u00e9lib\u2019 M\u00e9tropole", "network:wikidata": "Q1120762", "network:wikipedia": "fr:V\u00e9lib' M\u00e9tropole", "operator": "Smovengo", "operator:wikidata": "Q47008427", "operator:wikipedia": "fr:Smovengo", "ref": "10018", "source": "Autolib Velib M\u00e9tropole - 04/2020", "wikidata": "Q86252905"}}, {"type": "node", "id": 6755991828, "lat": 48.8779506, "lon": 2.3374655, "tags": {"amenity": "bicycle_rental", "bicycle_rental": "docking_station", "brand": "V\u00e9lib\u2019 M\u00e9tropole", "brand:wikidata": "Q1120762", "brand:wikipedia": "fr:V\u00e9lib' M\u00e9tropole", "capacity": "23", "name": "Saint-Georges - d'Aumale", "network": "V\u00e9lib\u2019 M\u00e9tropole", "network:wikidata": "Q1120762", "network:wikipedia": "fr:V\u00e9lib' M\u00e9tropole", "operator": "Smovengo", "operator:wikidata": "Q47008427", "operator:wikipedia": "fr:Smovengo", "payment:contactless": "yes", "payment:mastercard": "yes", "payment:visa": "yes", "ref": "9021", "source": "Autolib Velib M\u00e9tropole - 04/2020", "vending": "yes", "wikidata": "Q86254704"}}, {"type": "node", "id": 6763682114, "lat": 48.875038, "lon": 2.3521409, "tags": {"amenity": "bicycle_rental", "bicycle_rental": "docking_station", "brand": "V\u00e9lib\u2019 M\u00e9tropole", "brand:wikidata": "Q1120762", "brand:wikipedia": "fr:V\u00e9lib' M\u00e9tropole", "capacity": "31", "name": "Paradis - Hauteville", "network": "V\u00e9lib\u2019 M\u00e9tropole", "network:wikidata": "Q1120762", "network:wikipedia": "fr:V\u00e9lib' M\u00e9tropole", "operator": "Smovengo", "operator:wikidata": "Q47008427", "operator:wikipedia": "fr:Smovengo", "ref": "10019", "source": "Autolib Velib M\u00e9tropole - 04/2020", "wikidata": "Q86253061"}}, {"type": "node", "id": 6763682115, "lat": 48.877101, "lon": 2.3512033, "tags": {"amenity": "bicycle_rental", "bicycle_rental": "docking_station", "brand": "V\u00e9lib\u2019 M\u00e9tropole", "brand:wikidata": "Q1120762", "brand:wikipedia": "fr:V\u00e9lib' M\u00e9tropole", "capacity": "11", "name": "Chabrol - d'Hauteville", "network": "V\u00e9lib\u2019 M\u00e9tropole", "network:wikidata": "Q1120762", "network:wikipedia": "fr:V\u00e9lib' M\u00e9tropole", "operator": "Smovengo", "operator:wikidata": "Q47008427", "operator:wikipedia": "fr:Smovengo", "ref": "10020", "source": "Autolib Velib M\u00e9tropole - 04/2019", "wikidata": "Q86252958"}}, {"type": "node", "id": 6763682116, "lat": 48.8773562, "lon": 2.3545046, "tags": {"amenity": "bicycle_rental", "bicycle_rental": "docking_station", "brand": "V\u00e9lib\u2019 M\u00e9tropole", "brand:wikidata": "Q1120762", "brand:wikipedia": "fr:V\u00e9lib' M\u00e9tropole", "capacity": "15", "name": "March\u00e9 Saint-Quentin", "network": "V\u00e9lib\u2019 M\u00e9tropole", "network:wikidata": "Q1120762", "network:wikipedia": "fr:V\u00e9lib' M\u00e9tropole", "operator": "Smovengo", "operator:wikidata": "Q47008427", "operator:wikipedia": "fr:Smovengo", "ref": "10021", "source": "Autolib Velib M\u00e9tropole - 04/2019", "wikidata": "Q86253011"}}, {"type": "node", "id": 6763717995, "lat": 48.8793585, "lon": 2.3583226, "tags": {"amenity": "bicycle_rental", "bicycle_rental": "docking_station", "brand": "V\u00e9lib\u2019 M\u00e9tropole", "brand:wikidata": "Q1120762", "brand:wikipedia": "fr:V\u00e9lib' M\u00e9tropole", "capacity": "18", "name": "Dunkerque - Alsace", "network": "V\u00e9lib\u2019 M\u00e9tropole", "network:wikidata": "Q1120762", "network:wikipedia": "fr:V\u00e9lib' M\u00e9tropole", "operator": "Smovengo", "operator:wikidata": "Q47008427", "operator:wikipedia": "fr:Smovengo", "ref": "10027", "source": "Autolib Velib M\u00e9tropole - 04/2019", "wikidata": "Q86253026"}}, {"type": "node", "id": 6763717996, "lat": 48.8807212, "lon": 2.3514536, "tags": {"amenity": "bicycle_rental", "bicycle_rental": "docking_station", "brand": "V\u00e9lib\u2019 M\u00e9tropole", "brand:wikidata": "Q1120762", "brand:wikipedia": "fr:V\u00e9lib' M\u00e9tropole", "capacity": "24", "name": "Dunkerque - Rocroy", "network": "V\u00e9lib\u2019 M\u00e9tropole", "network:wikidata": "Q1120762", "network:wikipedia": "fr:V\u00e9lib' M\u00e9tropole", "operator": "Smovengo", "operator:wikidata": "Q47008427", "operator:wikipedia": "fr:Smovengo", "ref": "10029", "source": "Autolib Velib M\u00e9tropole - 04/2020", "wikidata": "Q86252893"}}, {"type": "node", "id": 6763717997, "lat": 48.8819673, "lon": 2.363676, "tags": {"amenity": "bicycle_rental", "bicycle_rental": "docking_station", "brand": "V\u00e9lib\u2019 M\u00e9tropole", "brand:wikidata": "Q1120762", "brand:wikipedia": "fr:V\u00e9lib' M\u00e9tropole", "capacity": "37", "name": "Louis Blanc - Aqueduc", "network": "V\u00e9lib\u2019 M\u00e9tropole", "network:wikidata": "Q1120762", "network:wikipedia": "fr:V\u00e9lib' M\u00e9tropole", "operator": "Smovengo", "operator:wikidata": "Q47008427", "operator:wikipedia": "fr:Smovengo", "ref": "10031", "source": "Autolib Velib M\u00e9tropole - 04/2019", "wikidata": "Q86252936"}}, {"type": "node", "id": 6763717998, "lat": 48.8728595, "lon": 2.3700298, "tags": {"amenity": "bicycle_rental", "bicycle_rental": "docking_station", "brand": "V\u00e9lib\u2019 M\u00e9tropole", "brand:wikidata": "Q1120762", "brand:wikipedia": "fr:V\u00e9lib' M\u00e9tropole", "capacity": "32", "check_date": "2023-07-06", "name": "Claude Vellefaux - H\u00f4pital Saint-Louis", "network": "V\u00e9lib\u2019 M\u00e9tropole", "network:wikidata": "Q1120762", "network:wikipedia": "fr:V\u00e9lib' M\u00e9tropole", "operator": "Smovengo", "operator:wikidata": "Q47008427", "operator:wikipedia": "fr:Smovengo", "ref": "10032", "source": "Autolib Velib M\u00e9tropole - 04/2020", "wikidata": "Q86253048"}}, {"type": "node", "id": 6763717999, "lat": 48.8839076, "lon": 2.3600648, "tags": {"amenity": "bicycle_rental", "bicycle_rental": "docking_station", "brand": "V\u00e9lib\u2019 M\u00e9tropole", "brand:wikidata": "Q1120762", "brand:wikipedia": "fr:V\u00e9lib' M\u00e9tropole", "capacity": "21", "name": "Louis Blanc - La Chapelle", "network": "V\u00e9lib\u2019 M\u00e9tropole", "network:wikidata": "Q1120762", "network:wikipedia": "fr:V\u00e9lib' M\u00e9tropole", "operator": "Smovengo", "operator:wikidata": "Q47008427", "operator:wikipedia": "fr:Smovengo", "ref": "10034", "source": "Autolib Velib M\u00e9tropole - 2021-03", "wikidata": "Q86252945"}}, {"type": "node", "id": 6763718000, "lat": 48.8838446, "lon": 2.3671108, "tags": {"amenity": "bicycle_rental", "bicycle_rental": "docking_station", "brand": "V\u00e9lib\u2019 M\u00e9tropole", "brand:wikidata": "Q1120762", "brand:wikipedia": "fr:V\u00e9lib' M\u00e9tropole", "capacity": "28", "name": "Aqueduc - Villette", "network": "V\u00e9lib\u2019 M\u00e9tropole", "network:wikidata": "Q1120762", "network:wikipedia": "fr:V\u00e9lib' M\u00e9tropole", "operator": "Smovengo", "operator:wikidata": "Q47008427", "operator:wikipedia": "fr:Smovengo", "ref": "10036", "source": "Autolib Velib M\u00e9tropole - 04/2019", "wikidata": "Q86252993"}}, {"type": "node", "id": 6763718001, "lat": 48.8812617, "lon": 2.368116, "tags": {"amenity": "bicycle_rental", "bicycle_rental": "docking_station", "brand": "V\u00e9lib\u2019 M\u00e9tropole", "brand:wikidata": "Q1120762", "brand:wikipedia": "fr:V\u00e9lib' M\u00e9tropole", "capacity": "26", "name": "Quai de Valmy", "network": "V\u00e9lib\u2019 M\u00e9tropole", "network:wikidata": "Q1120762", "network:wikipedia": "fr:V\u00e9lib' M\u00e9tropole", "operator": "Smovengo", "operator:wikidata": "Q47008427", "operator:wikipedia": "fr:Smovengo", "ref": "10037", "source": "Autolib Velib M\u00e9tropole - 04/2019", "wikidata": "Q86252964"}}, {"type": "node", "id": 6763718004, "lat": 48.8702627, "lon": 2.3512688, "tags": {"amenity": "bicycle_rental", "bicycle_rental": "docking_station", "brand": "V\u00e9lib\u2019 M\u00e9tropole", "brand:wikidata": "Q1120762", "brand:wikipedia": "fr:V\u00e9lib' M\u00e9tropole", "capacity": "25", "name": "Mazagran - Bonne Nouvelle", "network": "V\u00e9lib\u2019 M\u00e9tropole", "network:wikidata": "Q1120762", "network:wikipedia": "fr:V\u00e9lib' M\u00e9tropole", "operator": "Smovengo", "operator:wikidata": "Q47008427", "operator:wikipedia": "fr:Smovengo", "ref": "10105", "source": "Autolib Velib M\u00e9tropole - 04/2019", "wikidata": "Q86252929"}}, {"type": "node", "id": 6795914872, "lat": 48.8734686, "lon": 2.3640343, "tags": {"amenity": "bicycle_rental", "bicycle_rental": "docking_station", "brand": "V\u00e9lib\u2019 M\u00e9tropole", "brand:wikidata": "Q1120762", "brand:wikipedia": "fr:V\u00e9lib' M\u00e9tropole", "capacity": "23", "name": "Jemmapes - Grange aux Belles", "network": "V\u00e9lib\u2019 M\u00e9tropole", "network:wikidata": "Q1120762", "network:wikipedia": "fr:V\u00e9lib' M\u00e9tropole", "operator": "Smovengo", "operator:wikidata": "Q47008427", "operator:wikipedia": "fr:Smovengo", "ref": "10111", "source": "Autolib Velib M\u00e9tropole - 04/2019", "wikidata": "Q86252955"}}, {"type": "node", "id": 6795916695, "lat": 48.8796362, "lon": 2.3568989, "tags": {"amenity": "bicycle_rental", "bicycle_rental": "docking_station", "brand": "V\u00e9lib\u2019 M\u00e9tropole", "brand:wikidata": "Q1120762", "brand:wikipedia": "fr:V\u00e9lib' M\u00e9tropole", "capacity": "28", "name": "Gare du Nord - Faubourg Saint-Denis", "network": "V\u00e9lib\u2019 M\u00e9tropole", "network:wikidata": "Q1120762", "network:wikipedia": "fr:V\u00e9lib' M\u00e9tropole", "operator": "Smovengo", "operator:wikidata": "Q47008427", "operator:wikipedia": "fr:Smovengo", "ref": "10151", "source": "Autolib Velib M\u00e9tropole - 04/2019", "wikidata": "Q86253058"}}, {"type": "node", "id": 6795916696, "lat": 48.8791079, "lon": 2.354235, "tags": {"amenity": "bicycle_rental", "bicycle_rental": "docking_station", "brand": "V\u00e9lib\u2019 M\u00e9tropole", "brand:wikidata": "Q1120762", "brand:wikipedia": "fr:V\u00e9lib' M\u00e9tropole", "capacity": "25", "name": "Gare du Nord - Place de Valenciennes", "network": "V\u00e9lib\u2019 M\u00e9tropole", "network:wikidata": "Q1120762", "network:wikipedia": "fr:V\u00e9lib' M\u00e9tropole", "operator": "Smovengo", "operator:wikidata": "Q47008427", "operator:wikipedia": "fr:Smovengo", "ref": "10152", "source": "Autolib Velib M\u00e9tropole - 04/2020", "wikidata": "Q86252943"}}, {"type": "node", "id": 6795916697, "lat": 48.8795828, "lon": 2.3544902, "tags": {"amenity": "bicycle_rental", "bicycle_rental": "docking_station", "brand": "V\u00e9lib\u2019 M\u00e9tropole", "brand:wikidata": "Q1120762", "brand:wikipedia": "fr:V\u00e9lib' M\u00e9tropole", "capacity": "20", "name": "Gare du Nord - Denain", "network": "V\u00e9lib\u2019 M\u00e9tropole", "network:wikidata": "Q1120762", "network:wikipedia": "fr:V\u00e9lib' M\u00e9tropole", "operator": "Smovengo", "operator:wikidata": "Q47008427", "operator:wikipedia": "fr:Smovengo", "ref": "10153", "source": "Autolib Velib M\u00e9tropole - 04/2019", "wikidata": "Q86252983"}}, {"type": "node", "id": 6795916699, "lat": 48.876361, "lon": 2.358636, "tags": {"amenity": "bicycle_rental", "bicycle_rental": "docking_station", "brand": "V\u00e9lib\u2019 M\u00e9tropole", "brand:wikidata": "Q1120762", "brand:wikipedia": "fr:V\u00e9lib' M\u00e9tropole", "capacity": "40", "name": "Gare de l'Est - Place du 11 Novembre 1918", "network": "V\u00e9lib\u2019 M\u00e9tropole", "network:wikidata": "Q1120762", "network:wikipedia": "fr:V\u00e9lib' M\u00e9tropole", "operator": "Smovengo", "operator:wikidata": "Q47008427", "operator:wikipedia": "fr:Smovengo", "ref": "10165", "source": "Autolib Velib M\u00e9tropole - 04/2019", "wikidata": "Q86252917"}}, {"type": "node", "id": 6932803054, "lat": 48.879299, "lon": 2.3624186, "tags": {"amenity": "bicycle_rental", "bicycle_rental": "docking_station", "brand": "V\u00e9lib\u2019 M\u00e9tropole", "brand:wikidata": "Q1120762", "brand:wikipedia": "fr:V\u00e9lib' M\u00e9tropole", "capacity": "59", "name": "Gare de l'Est - Chateau Landon", "network": "V\u00e9lib\u2019 M\u00e9tropole", "network:wikidata": "Q1120762", "network:wikipedia": "fr:V\u00e9lib' M\u00e9tropole", "operator": "Smovengo", "operator:wikidata": "Q47008427", "operator:wikipedia": "fr:Smovengo", "ref": "10026", "source": "GPS", "wikidata": "Q86253028"}}, {"type": "node", "id": 7075760808, "lat": 48.892501, "lon": 2.3522178, "tags": {"amenity": "bicycle_rental", "bicycle_rental": "docking_station", "brand": "V\u00e9lib\u2019 M\u00e9tropole", "brand:wikidata": "Q1120762", "brand:wikipedia": "fr:V\u00e9lib' M\u00e9tropole", "capacity": "28", "name": "Poissonniers - Nord", "network": "V\u00e9lib\u2019 M\u00e9tropole", "network:wikidata": "Q1120762", "network:wikipedia": "fr:V\u00e9lib' M\u00e9tropole", "operator": "Smovengo", "operator:wikidata": "Q47008427", "operator:wikipedia": "fr:Smovengo", "ref": "18137", "source": "Autolib Velib M\u00e9tropole - 04/2019", "wikidata": "Q86253572"}}, {"type": "node", "id": 7075760809, "lat": 48.8954506, "lon": 2.3529971, "tags": {"amenity": "bicycle_rental", "bicycle_rental": "docking_station", "brand": "V\u00e9lib\u2019 M\u00e9tropole", "brand:wikidata": "Q1120762", "brand:wikipedia": "fr:V\u00e9lib' M\u00e9tropole", "capacity": "28", "name": "Poissonniers - Championnet", "network": "V\u00e9lib\u2019 M\u00e9tropole", "network:wikidata": "Q1120762", "network:wikipedia": "fr:V\u00e9lib' M\u00e9tropole", "operator": "Smovengo", "operator:wikidata": "Q47008427", "operator:wikipedia": "fr:Smovengo", "ref": "18139", "source": "Autolib Velib M\u00e9tropole - 04/2019", "wikidata": "Q86254414"}}, {"type": "node", "id": 7075874105, "lat": 48.8760948, "lon": 2.3227115, "tags": {"amenity": "bicycle_rental", "bicycle_rental": "docking_station", "brand": "V\u00e9lib\u2019 M\u00e9tropole", "brand:wikidata": "Q1120762", "brand:wikipedia": "fr:V\u00e9lib' M\u00e9tropole", "capacity": "65", "name": "Rocher - Laborde", "network": "V\u00e9lib\u2019 M\u00e9tropole", "network:wikidata": "Q1120762", "network:wikipedia": "fr:V\u00e9lib' M\u00e9tropole", "operator": "Smovengo", "operator:wikidata": "Q47008427", "operator:wikipedia": "fr:Smovengo", "ref": "8017", "source": "Autolib Velib M\u00e9tropole - 04/2020", "unsigned_ref": "88140066", "wikidata": "Q86255282"}}, {"type": "node", "id": 7075896234, "lat": 48.8954673, "lon": 2.3498792, "tags": {"amenity": "bicycle_rental", "bicycle_rental": "docking_station", "brand": "V\u00e9lib\u2019 M\u00e9tropole", "brand:wikidata": "Q1120762", "brand:wikipedia": "fr:V\u00e9lib' M\u00e9tropole", "capacity": "22", "name": "Championnet", "network": "V\u00e9lib\u2019 M\u00e9tropole", "network:wikidata": "Q1120762", "network:wikipedia": "fr:V\u00e9lib' M\u00e9tropole", "operator": "Smovengo", "operator:wikidata": "Q47008427", "operator:wikipedia": "fr:Smovengo", "ref": "18101", "source": "Autolib Velib M\u00e9tropole - 04/2019", "wikidata": "Q86254447"}}, {"type": "node", "id": 7075965462, "lat": 48.8957977, "lon": 2.3455801, "tags": {"amenity": "bicycle_rental", "capacity": "46", "name": "Place Albert Kahn", "network": "V\u00e9lib\u2019", "operator": "Smovengo", "ref": "18031", "source": "Autolib Velib M\u00e9tropole - 2021-03", "wikidata": "Q86253605"}}, {"type": "node", "id": 7076001695, "lat": 48.8937071, "lon": 2.3476008, "tags": {"amenity": "bicycle_rental", "bicycle_rental": "docking_station", "capacity": "37", "name": "Joseph Dijon - Ornano", "network": "V\u00e9lib\u2019", "operator": "Smovengo", "ref": "18030", "source": "Autolib Velib M\u00e9tropole - 2021-03", "wikidata": "Q86254423"}}, {"type": "node", "id": 7079900516, "lat": 48.8979289, "lon": 2.3456827, "tags": {"amenity": "bicycle_rental", "capacity": "25", "name": "Ney - Porte de Clignancourt", "network": "V\u00e9lib\u2019", "operator": "Smovengo", "ref": "18134", "source": "Autolib Velib M\u00e9tropole - 2021-03", "wikidata": "Q86254470"}}, {"type": "node", "id": 7079919198, "lat": 48.8996945, "lon": 2.3443429, "tags": {"amenity": "bicycle_rental", "bicycle_rental": "docking_station", "brand": "V\u00e9lib\u2019 M\u00e9tropole", "brand:wikidata": "Q1120762", "brand:wikipedia": "fr:V\u00e9lib' M\u00e9tropole", "capacity": "40", "name": "Porte de Clignancourt - Ney", "network": "V\u00e9lib\u2019 M\u00e9tropole", "network:wikidata": "Q1120762", "network:wikipedia": "fr:V\u00e9lib' M\u00e9tropole", "operator": "Smovengo", "operator:wikidata": "Q47008427", "operator:wikipedia": "fr:Smovengo", "ref": "18140", "source": "Autolib Velib M\u00e9tropole - 04/2019", "wikidata": "Q86254432"}}, {"type": "node", "id": 7104646166, "lat": 48.8888491, "lon": 2.3559626, "tags": {"amenity": "bicycle_rental", "bicycle_rental": "docking_station", "capacity": "36", "name": "Stephenson - Doudeauville", "network": "V\u00e9lib\u2019", "operator": "Smovengo", "payment:credit_cards": "yes", "ref": "18012", "source": "Autolib Velib M\u00e9tropole - 2021-03", "wikidata": "Q86253523"}}, {"type": "node", "id": 7104646167, "lat": 48.8861262, "lon": 2.3568086, "tags": {"amenity": "bicycle_rental", "bicycle_rental": "docking_station", "brand": "V\u00e9lib\u2019 M\u00e9tropole", "brand:wikidata": "Q1120762", "brand:wikipedia": "fr:V\u00e9lib' M\u00e9tropole", "capacity": "22", "name": "Jean-Fran\u00e7ois L\u00e9pine - Stephenson", "network": "V\u00e9lib\u2019 M\u00e9tropole", "network:wikidata": "Q1120762", "network:wikipedia": "fr:V\u00e9lib' M\u00e9tropole", "operator": "Smovengo", "operator:wikidata": "Q47008427", "operator:wikipedia": "fr:Smovengo", "payment:credit_cards": "yes", "ref": "18009", "source": "Autolib Velib M\u00e9tropole - 04/2020", "wikidata": "Q86254471"}}, {"type": "node", "id": 7104646168, "lat": 48.8866532, "lon": 2.3531454, "tags": {"amenity": "bicycle_rental", "bicycle_rental": "docking_station", "brand": "V\u00e9lib\u2019 M\u00e9tropole", "brand:wikidata": "Q1120762", "brand:wikipedia": "fr:V\u00e9lib' M\u00e9tropole", "capacity": "33", "name": "Square L\u00e9on", "network": "V\u00e9lib\u2019 M\u00e9tropole", "network:wikidata": "Q1120762", "network:wikipedia": "fr:V\u00e9lib' M\u00e9tropole", "operator": "Smovengo", "operator:wikidata": "Q47008427", "operator:wikipedia": "fr:Smovengo", "payment:credit_cards": "no", "ref": "18008", "source": "Autolib Velib M\u00e9tropole - 04/2020", "wikidata": "Q86254476"}}, {"type": "node", "id": 7104646169, "lat": 48.8883276, "lon": 2.3535768, "tags": {"amenity": "bicycle_rental", "bicycle_rental": "docking_station", "capacity": "13", "name": "L\u00e9on - Doudeauville", "network": "V\u00e9lib\u2019", "operator": "Smovengo", "payment:credit_cards": "no", "ref": "18014", "source": "Autolib Velib M\u00e9tropole - 2021-03", "wikidata": "Q86254418"}}, {"type": "node", "id": 7117966124, "lat": 48.8745619, "lon": 2.3284733, "tags": {"amenity": "bicycle_rental", "bicycle_rental": "docking_station", "brand": "V\u00e9lib\u2019 M\u00e9tropole", "brand:wikidata": "Q1120762", "brand:wikipedia": "fr:V\u00e9lib' M\u00e9tropole", "capacity": "22", "name": "Caumartin - Provence", "network": "V\u00e9lib\u2019 M\u00e9tropole", "network:wikidata": "Q1120762", "network:wikipedia": "fr:V\u00e9lib' M\u00e9tropole", "operator": "Smovengo", "operator:wikidata": "Q47008427", "operator:wikipedia": "fr:Smovengo", "ref": "9104", "source": "Autolib Velib M\u00e9tropole - 04/2020", "wikidata": "Q86254591"}}, {"type": "node", "id": 7117966125, "lat": 48.8718894, "lon": 2.3372173, "tags": {"amenity": "bicycle_rental", "bicycle_rental": "docking_station", "brand": "V\u00e9lib\u2019 M\u00e9tropole", "brand:wikidata": "Q1120762", "brand:wikipedia": "fr:V\u00e9lib' M\u00e9tropole", "capacity": "33", "name": "Laffitte - Italiens", "network": "V\u00e9lib\u2019 M\u00e9tropole", "network:wikidata": "Q1120762", "network:wikipedia": "fr:V\u00e9lib' M\u00e9tropole", "operator": "Smovengo", "operator:wikidata": "Q47008427", "operator:wikipedia": "fr:Smovengo", "ref": "9023", "source": "Autolib Velib M\u00e9tropole - 04/2020", "wikidata": "Q86254617"}}, {"type": "node", "id": 7117966126, "lat": 48.8733281, "lon": 2.3380856, "tags": {"amenity": "bicycle_rental", "bicycle_rental": "docking_station", "brand": "V\u00e9lib\u2019 M\u00e9tropole", "brand:wikidata": "Q1120762", "brand:wikipedia": "fr:V\u00e9lib' M\u00e9tropole", "capacity": "33", "name": "Rossini - Laffitte", "network": "V\u00e9lib\u2019 M\u00e9tropole", "network:wikidata": "Q1120762", "network:wikipedia": "fr:V\u00e9lib' M\u00e9tropole", "operator": "Smovengo", "operator:wikidata": "Q47008427", "operator:wikipedia": "fr:Smovengo", "ref": "9022", "source": "Autolib Velib M\u00e9tropole - 04/2020", "wikidata": "Q86254690"}}, {"type": "node", "id": 7117966127, "lat": 48.8751415, "lon": 2.3381176, "tags": {"amenity": "bicycle_rental", "bicycle_rental": "docking_station", "brand": "V\u00e9lib\u2019 M\u00e9tropole", "brand:wikidata": "Q1120762", "brand:wikipedia": "fr:V\u00e9lib' M\u00e9tropole", "capacity": "20", "name": "Victoire - Laffitte", "network": "V\u00e9lib\u2019 M\u00e9tropole", "network:wikidata": "Q1120762", "network:wikipedia": "fr:V\u00e9lib' M\u00e9tropole", "operator": "Smovengo", "operator:wikidata": "Q47008427", "operator:wikipedia": "fr:Smovengo", "ref": "9111", "source": "Autolib Velib M\u00e9tropole - 04/2020", "wikidata": "Q86254679"}}, {"type": "node", "id": 7117966128, "lat": 48.8733852, "lon": 2.3352971, "tags": {"amenity": "bicycle_rental", "bicycle_rental": "docking_station", "brand": "V\u00e9lib\u2019 M\u00e9tropole", "brand:wikidata": "Q1120762", "brand:wikipedia": "fr:V\u00e9lib' M\u00e9tropole", "capacity": "53", "name": "Taitbout - La Fayette", "network": "V\u00e9lib\u2019 M\u00e9tropole", "network:wikidata": "Q1120762", "network:wikipedia": "fr:V\u00e9lib' M\u00e9tropole", "operator": "Smovengo", "operator:wikidata": "Q47008427", "operator:wikipedia": "fr:Smovengo", "ref": "9024", "source": "Autolib Velib M\u00e9tropole - 04/2020", "wikidata": "Q86254612"}}, {"type": "node", "id": 7117966129, "lat": 48.876436, "lon": 2.3353612, "tags": {"amenity": "bicycle_rental", "bicycle_rental": "docking_station", "brand": "V\u00e9lib\u2019 M\u00e9tropole", "brand:wikidata": "Q1120762", "brand:wikipedia": "fr:V\u00e9lib' M\u00e9tropole", "capacity": "39", "name": "Taitbout - Ch\u00e2teaudun", "network": "V\u00e9lib\u2019 M\u00e9tropole", "network:wikidata": "Q1120762", "network:wikipedia": "fr:V\u00e9lib' M\u00e9tropole", "operator": "Smovengo", "operator:wikidata": "Q47008427", "operator:wikipedia": "fr:Smovengo", "ref": "9025", "source": "Autolib Velib M\u00e9tropole - 04/2020", "wikidata": "Q86254606"}}, {"type": "node", "id": 7117966130, "lat": 48.875053, "lon": 2.3316195, "tags": {"amenity": "bicycle_rental", "bicycle_rental": "docking_station", "brand": "V\u00e9lib\u2019 M\u00e9tropole", "brand:wikidata": "Q1120762", "brand:wikipedia": "fr:V\u00e9lib' M\u00e9tropole", "capacity": "24", "name": "Victoire - Chauss\u00e9e d'Antin", "network": "V\u00e9lib\u2019 M\u00e9tropole", "network:wikidata": "Q1120762", "network:wikipedia": "fr:V\u00e9lib' M\u00e9tropole", "operator": "Smovengo", "operator:wikidata": "Q47008427", "operator:wikipedia": "fr:Smovengo", "ref": "9116", "source": "Autolib Velib M\u00e9tropole - 04/2020", "wikidata": "Q86254698"}}, {"type": "node", "id": 7117966131, "lat": 48.872446, "lon": 2.3335802, "tags": {"amenity": "bicycle_rental", "bicycle_rental": "docking_station", "brand": "V\u00e9lib\u2019 M\u00e9tropole", "brand:wikidata": "Q1120762", "brand:wikipedia": "fr:V\u00e9lib' M\u00e9tropole", "capacity": "28", "name": "Chauss\u00e9e d'Antin - Haussmann", "network": "V\u00e9lib\u2019 M\u00e9tropole", "network:wikidata": "Q1120762", "network:wikipedia": "fr:V\u00e9lib' M\u00e9tropole", "operator": "Smovengo", "operator:wikidata": "Q47008427", "operator:wikipedia": "fr:Smovengo", "ref": "9039", "source": "Autolib Velib M\u00e9tropole - 04/2020", "wikidata": "Q86254692"}}, {"type": "node", "id": 7117966132, "lat": 48.8742783, "lon": 2.3331245, "tags": {"amenity": "bicycle_rental", "bicycle_rental": "docking_station", "brand": "V\u00e9lib\u2019 M\u00e9tropole", "brand:wikidata": "Q1120762", "brand:wikipedia": "fr:V\u00e9lib' M\u00e9tropole", "capacity": "25", "name": "Provence - Chauss\u00e9e d'Antin", "network": "V\u00e9lib\u2019 M\u00e9tropole", "network:wikidata": "Q1120762", "network:wikipedia": "fr:V\u00e9lib' M\u00e9tropole", "operator": "Smovengo", "operator:wikidata": "Q47008427", "operator:wikipedia": "fr:Smovengo", "ref": "9031", "source": "survey 01/2020", "wikidata": "Q86254661"}}, {"type": "node", "id": 7149870071, "lat": 48.8841668, "lon": 2.3560692, "tags": {"amenity": "bicycle_rental", "bicycle_rental": "dropoff_point", "capacity": "18", "name": "Gare du Nord - La Chapelle", "network": "V\u00e9lib\u2019", "operator": "Smovengo", "ref": "10041", "source": "survey 01/2020", "unsigned_ref": "549876068", "wikidata": "Q86252977"}}, {"type": "node", "id": 7168850254, "lat": 48.8951187, "lon": 2.360038, "tags": {"amenity": "bicycle_rental", "bicycle_rental": "docking_station", "brand": "V\u00e9lib\u2019 M\u00e9tropole", "brand:wikidata": "Q1120762", "brand:wikipedia": "fr:V\u00e9lib' M\u00e9tropole", "capacity": "49", "name": "Rond-Point de la Chapelle", "network": "V\u00e9lib\u2019 M\u00e9tropole", "network:wikidata": "Q1120762", "network:wikipedia": "fr:V\u00e9lib' M\u00e9tropole", "operator": "Smovengo", "operator:wikidata": "Q47008427", "operator:wikipedia": "fr:Smovengo", "ref": "18038", "source": "Autolib Velib M\u00e9tropole - 04/2020", "wikidata": "Q86253582"}}, {"type": "node", "id": 7174435964, "lat": 48.8809357, "lon": 2.3245049, "tags": {"amenity": "bicycle_rental", "bicycle_rental": "docking_station", "brand": "V\u00e9lib\u2019 M\u00e9tropole", "brand:wikidata": "Q1120762", "brand:wikipedia": "fr:V\u00e9lib' M\u00e9tropole", "capacity": "15", "name": "Clapeyron - Moscou", "network": "V\u00e9lib\u2019 M\u00e9tropole", "network:wikidata": "Q1120762", "network:wikipedia": "fr:V\u00e9lib' M\u00e9tropole", "operator": "Smovengo", "operator:wikidata": "Q47008427", "operator:wikipedia": "fr:Smovengo", "ref": "8011", "source": "Autolib Velib M\u00e9tropole - 04/2020", "wikidata": "Q86255223"}}, {"type": "node", "id": 7363119256, "lat": 48.879351, "lon": 2.3665968, "tags": {"amenity": "bicycle_rental", "bicycle_rental": "docking_station", "brand": "V\u00e9lib\u2019 M\u00e9tropole", "brand:wikidata": "Q1120762", "brand:wikipedia": "fr:V\u00e9lib' M\u00e9tropole", "capacity": "24", "name": "Alexandre Parodi - Quai de Valmy", "network": "V\u00e9lib\u2019 M\u00e9tropole", "network:wikidata": "Q1120762", "network:wikipedia": "fr:V\u00e9lib' M\u00e9tropole", "operator": "Smovengo", "operator:wikidata": "Q47008427", "operator:wikipedia": "fr:Smovengo", "ref": "10162", "source": "Autolib Velib M\u00e9tropole - 04/2020", "wikidata": "Q86252950"}}, {"type": "node", "id": 7368384963, "lat": 48.9032822, "lon": 2.3680725, "tags": {"amenity": "bicycle_rental", "bicycle_rental": "docking_station", "brand": "V\u00e9lib\u2019 M\u00e9tropole", "brand:wikidata": "Q1120762", "brand:wikipedia": "fr:V\u00e9lib' M\u00e9tropole", "capacity": "34", "name": "Victor Hugo - Magasins G\u00e9n\u00e9raux", "network": "V\u00e9lib\u2019 M\u00e9tropole", "network:wikidata": "Q1120762", "network:wikipedia": "fr:V\u00e9lib' M\u00e9tropole", "operator": "Smovengo", "operator:wikidata": "Q47008427", "operator:wikipedia": "fr:Smovengo", "ref": "33001", "source": "Autolib Velib M\u00e9tropole - 04/2019", "wikidata": "Q86255949"}}, {"type": "node", "id": 7368440044, "lat": 48.9018478, "lon": 2.3172724, "tags": {"amenity": "bicycle_rental", "bicycle_rental": "docking_station", "capacity": "24", "name": "Belfort - Victor Hugo", "network": "V\u00e9lib\u2019", "operator": "Smovengo", "payment:app": "no", "payment:cards": "yes", "payment:cash": "no", "payment:membership_card": "yes", "ref": "21119", "rental": "ebike;city_bike", "source": "Autolib Velib M\u00e9tropole - 2022-08", "wikidata": "Q86255931"}}, {"type": "node", "id": 7368652152, "lat": 48.8908831, "lon": 2.3688579, "tags": {"amenity": "bicycle_rental", "bicycle_rental": "docking_station", "brand": "V\u00e9lib\u2019 M\u00e9tropole", "brand:wikidata": "Q1120762", "brand:wikipedia": "fr:V\u00e9lib' M\u00e9tropole", "capacity": "23", "name": "Aubervilliers - Curial", "network": "V\u00e9lib\u2019 M\u00e9tropole", "network:wikidata": "Q1120762", "network:wikipedia": "fr:V\u00e9lib' M\u00e9tropole", "operator": "Smovengo", "operator:wikidata": "Q47008427", "operator:wikipedia": "fr:Smovengo", "ref": "19127", "source": "Autolib Velib M\u00e9tropole - 04/2020", "wikidata": "Q86254885"}}, {"type": "node", "id": 7368652160, "lat": 48.8928693, "lon": 2.3634273, "tags": {"amenity": "bicycle_rental", "bicycle_rental": "docking_station", "capacity": "39", "name": "Pajol - Place Herbert", "network": "V\u00e9lib'", "operator": "Smovengo", "ref": "18011", "source": "Autolib Velib M\u00e9tropole - 2022-09", "wikidata": "Q86254425"}}, {"type": "node", "id": 7368652161, "lat": 48.8950395, "lon": 2.3687969, "tags": {"amenity": "bicycle_rental", "bicycle_rental": "docking_station", "brand": "V\u00e9lib\u2019 M\u00e9tropole", "brand:wikidata": "Q1120762", "brand:wikipedia": "fr:V\u00e9lib' M\u00e9tropole", "capacity": "21", "name": "Evangile - Aubervilliers", "network": "V\u00e9lib\u2019 M\u00e9tropole", "network:wikidata": "Q1120762", "network:wikipedia": "fr:V\u00e9lib' M\u00e9tropole", "operator": "Smovengo", "operator:wikidata": "Q47008427", "operator:wikipedia": "fr:Smovengo", "ref": "18108", "source": "Autolib Velib M\u00e9tropole - 04/2019", "wikidata": "Q86254463"}}, {"type": "node", "id": 7368652169, "lat": 48.898445, "lon": 2.368975, "tags": {"amenity": "bicycle_rental", "bicycle_rental": "docking_station", "brand": "V\u00e9lib\u2019 M\u00e9tropole", "brand:wikidata": "Q1120762", "brand:wikipedia": "fr:V\u00e9lib' M\u00e9tropole", "capacity": "55", "name": "Porte d'Aubervilliers", "network": "V\u00e9lib\u2019 M\u00e9tropole", "network:wikidata": "Q1120762", "network:wikipedia": "fr:V\u00e9lib' M\u00e9tropole", "operator": "Smovengo", "operator:wikidata": "Q47008427", "operator:wikipedia": "fr:Smovengo", "ref": "18049", "source": "Autolib Velib M\u00e9tropole - 04/2020", "wikidata": "Q86254431"}}, {"type": "node", "id": 7368652170, "lat": 48.8987613, "lon": 2.3646371, "tags": {"amenity": "bicycle_rental", "bicycle_rental": "docking_station", "brand": "V\u00e9lib\u2019 M\u00e9tropole", "brand:wikidata": "Q1120762", "brand:wikipedia": "fr:V\u00e9lib' M\u00e9tropole", "capacity": "20", "name": "Ney - Charles Hermite", "network": "V\u00e9lib\u2019 M\u00e9tropole", "network:wikidata": "Q1120762", "network:wikipedia": "fr:V\u00e9lib' M\u00e9tropole", "operator": "Smovengo", "operator:wikidata": "Q47008427", "operator:wikipedia": "fr:Smovengo", "ref": "18138", "source": "Autolib Velib M\u00e9tropole - 04/2019", "wikidata": "Q86253598"}}, {"type": "node", "id": 7368681556, "lat": 48.8847466, "lon": 2.3534589, "tags": {"amenity": "bicycle_rental", "capacity": "34", "name": "Chartres - La Charbonni\u00e8re", "network": "V\u00e9lib\u2019", "operator": "Smovengo", "ref": "18107", "source": "Autolib Velib M\u00e9tropole - 2021-03", "wikidata": "Q86254457"}}, {"type": "node", "id": 7368681557, "lat": 48.8848454, "lon": 2.3589304, "tags": {"amenity": "bicycle_rental", "capacity": "30", "name": "JesSaint-- Marx Dormoy", "network": "V\u00e9lib\u2019", "operator": "Smovengo", "ref": "18142", "source": "Autolib Velib M\u00e9tropole - 2021-03", "wikidata": "Q86253541"}}, {"type": "node", "id": 7368681571, "lat": 48.8870325, "lon": 2.3668972, "tags": {"amenity": "bicycle_rental", "bicycle_rental": "docking_station", "brand": "V\u00e9lib\u2019 M\u00e9tropole", "brand:wikidata": "Q1120762", "brand:wikipedia": "fr:V\u00e9lib' M\u00e9tropole", "capacity": "20", "name": "Jardins d'Eole", "network": "V\u00e9lib\u2019 M\u00e9tropole", "network:wikidata": "Q1120762", "network:wikipedia": "fr:V\u00e9lib' M\u00e9tropole", "operator": "Smovengo", "operator:wikidata": "Q47008427", "operator:wikipedia": "fr:Smovengo", "ref": "18039", "source": "Autolib Velib M\u00e9tropole - 04/2019", "wikidata": "Q86254468"}}, {"type": "node", "id": 7368986182, "lat": 48.8734512, "lon": 2.3204045, "tags": {"amenity": "bicycle_rental", "bicycle_rental": "docking_station", "brand": "V\u00e9lib\u2019 M\u00e9tropole", "brand:wikidata": "Q1120762", "brand:wikipedia": "fr:V\u00e9lib' M\u00e9tropole", "capacity": "37", "name": "Roqu\u00e9pine - Malesherbes", "network": "V\u00e9lib\u2019 M\u00e9tropole", "network:wikidata": "Q1120762", "network:wikipedia": "fr:V\u00e9lib' M\u00e9tropole", "operator": "Smovengo", "operator:wikidata": "Q47008427", "operator:wikipedia": "fr:Smovengo", "ref": "8015", "source": "Autolib Velib M\u00e9tropole - 04/2019", "wikidata": "Q86255192"}}, {"type": "node", "id": 7368986183, "lat": 48.8732044, "lon": 2.3236622, "tags": {"amenity": "bicycle_rental", "bicycle_rental": "docking_station", "brand": "V\u00e9lib\u2019 M\u00e9tropole", "brand:wikidata": "Q1120762", "brand:wikipedia": "fr:V\u00e9lib' M\u00e9tropole", "capacity": "29", "name": "Square Louis XVI", "network": "V\u00e9lib\u2019 M\u00e9tropole", "network:wikidata": "Q1120762", "network:wikipedia": "fr:V\u00e9lib' M\u00e9tropole", "operator": "Smovengo", "operator:wikidata": "Q47008427", "operator:wikipedia": "fr:Smovengo", "ref": "8016", "source": "Autolib Velib M\u00e9tropole - 04/2019", "wikidata": "Q86255295"}}, {"type": "node", "id": 7368986184, "lat": 48.8697891, "lon": 2.3263471, "tags": {"amenity": "bicycle_rental", "bicycle_rental": "docking_station", "brand": "V\u00e9lib\u2019 M\u00e9tropole", "brand:wikidata": "Q1120762", "brand:wikipedia": "fr:V\u00e9lib' M\u00e9tropole", "capacity": "22", "name": "Godot de Mauroy - Madeleine", "network": "V\u00e9lib\u2019 M\u00e9tropole", "network:wikidata": "Q1120762", "network:wikipedia": "fr:V\u00e9lib' M\u00e9tropole", "operator": "Smovengo", "operator:wikidata": "Q47008427", "operator:wikipedia": "fr:Smovengo", "ref": "9034", "source": "Autolib Velib M\u00e9tropole - 04/2019", "wikidata": "Q86254675"}}, {"type": "node", "id": 7369001585, "lat": 48.8691022, "lon": 2.3244502, "tags": {"amenity": "bicycle_rental", "bicycle_rental": "docking_station", "brand": "V\u00e9lib\u2019 M\u00e9tropole", "brand:wikidata": "Q1120762", "brand:wikipedia": "fr:V\u00e9lib' M\u00e9tropole", "capacity": "26", "name": "Place de la Madeleine - Royale", "network": "V\u00e9lib\u2019 M\u00e9tropole", "network:wikidata": "Q1120762", "network:wikipedia": "fr:V\u00e9lib' M\u00e9tropole", "operator": "Smovengo", "operator:wikidata": "Q47008427", "operator:wikipedia": "fr:Smovengo", "ref": "8117", "source": "Autolib Velib M\u00e9tropole - 04/2019", "wikidata": "Q86255285"}}, {"type": "node", "id": 7369001586, "lat": 48.8732681, "lon": 2.3407533, "tags": {"amenity": "bicycle_rental", "bicycle_rental": "docking_station", "brand": "V\u00e9lib\u2019 M\u00e9tropole", "brand:wikidata": "Q1120762", "brand:wikipedia": "fr:V\u00e9lib' M\u00e9tropole", "capacity": "24", "name": "Mairie du 9\u00e8me", "network": "V\u00e9lib\u2019 M\u00e9tropole", "network:wikidata": "Q1120762", "network:wikipedia": "fr:V\u00e9lib' M\u00e9tropole", "operator": "Smovengo", "operator:wikidata": "Q47008427", "operator:wikipedia": "fr:Smovengo", "ref": "9013", "source": "Autolib Velib M\u00e9tropole - 04/2019", "wikidata": "Q86254644"}}, {"type": "node", "id": 7369001587, "lat": 48.8737831, "lon": 2.3445139, "tags": {"amenity": "bicycle_rental", "bicycle_rental": "docking_station", "brand": "V\u00e9lib\u2019 M\u00e9tropole", "brand:wikidata": "Q1120762", "brand:wikipedia": "fr:V\u00e9lib' M\u00e9tropole", "capacity": "20", "name": "Geoffroy - Marie", "network": "V\u00e9lib\u2019 M\u00e9tropole", "network:wikidata": "Q1120762", "network:wikipedia": "fr:V\u00e9lib' M\u00e9tropole", "operator": "Smovengo", "operator:wikidata": "Q47008427", "operator:wikipedia": "fr:Smovengo", "ref": "9011", "source": "Autolib Velib M\u00e9tropole - 04/2019", "wikidata": "Q86254687"}}, {"type": "node", "id": 7369001588, "lat": 48.8708267, "lon": 2.345926, "tags": {"amenity": "bicycle_rental", "bicycle_rental": "docking_station", "brand": "V\u00e9lib\u2019 M\u00e9tropole", "brand:wikidata": "Q1120762", "brand:wikipedia": "fr:V\u00e9lib' M\u00e9tropole", "capacity": "35", "name": "Saint-Fiacre - Poissoni\u00e8re", "network": "V\u00e9lib\u2019 M\u00e9tropole", "network:wikidata": "Q1120762", "network:wikipedia": "fr:V\u00e9lib' M\u00e9tropole", "operator": "Smovengo", "operator:wikidata": "Q47008427", "operator:wikipedia": "fr:Smovengo", "ref": "2022", "source": "Autolib Velib M\u00e9tropole - 04/2019", "wikidata": "Q86254766"}}, {"type": "node", "id": 7369001589, "lat": 48.870791, "lon": 2.343101, "tags": {"amenity": "bicycle_rental", "bicycle_rental": "docking_station", "brand": "V\u00e9lib\u2019 M\u00e9tropole", "brand:wikidata": "Q1120762", "brand:wikipedia": "fr:V\u00e9lib' M\u00e9tropole", "capacity": "29", "name": "Uz\u00e8s - Montmartre", "network": "V\u00e9lib\u2019 M\u00e9tropole", "network:wikidata": "Q1120762", "network:wikipedia": "fr:V\u00e9lib' M\u00e9tropole", "operator": "Smovengo", "operator:wikidata": "Q47008427", "operator:wikipedia": "fr:Smovengo", "ref": "2010", "source": "Autolib Velib M\u00e9tropole - 04/2019", "wikidata": "Q86254739"}}, {"type": "node", "id": 7369001590, "lat": 48.8689829, "lon": 2.3469129, "tags": {"amenity": "bicycle_rental", "bicycle_rental": "docking_station", "brand": "V\u00e9lib\u2019 M\u00e9tropole", "brand:wikidata": "Q1120762", "brand:wikipedia": "fr:V\u00e9lib' M\u00e9tropole", "capacity": "28", "name": "Je\u00fbneurs - Mulhouse", "network": "V\u00e9lib\u2019 M\u00e9tropole", "network:wikidata": "Q1120762", "network:wikipedia": "fr:V\u00e9lib' M\u00e9tropole", "operator": "Smovengo", "operator:wikidata": "Q47008427", "operator:wikipedia": "fr:Smovengo", "ref": "2110", "source": "Autolib Velib M\u00e9tropole - 04/2019", "wikidata": "Q86254778"}}, {"type": "node", "id": 7369001592, "lat": 48.8703107, "lon": 2.3419792, "tags": {"amenity": "bicycle_rental", "bicycle_rental": "docking_station", "brand": "V\u00e9lib\u2019 M\u00e9tropole", "brand:wikidata": "Q1120762", "brand:wikipedia": "fr:V\u00e9lib' M\u00e9tropole", "capacity": "37", "name": "Saint-Marc - Feydeau", "network": "V\u00e9lib\u2019 M\u00e9tropole", "network:wikidata": "Q1120762", "network:wikipedia": "fr:V\u00e9lib' M\u00e9tropole", "operator": "Smovengo", "operator:wikidata": "Q47008427", "operator:wikipedia": "fr:Smovengo", "ref": "2102", "source": "Autolib Velib M\u00e9tropole - 04/2019", "wikidata": "Q86254728"}}, {"type": "node", "id": 7369001593, "lat": 48.868866, "lon": 2.3397317, "tags": {"amenity": "bicycle_rental", "bicycle_rental": "docking_station", "brand": "V\u00e9lib\u2019 M\u00e9tropole", "brand:wikidata": "Q1120762", "brand:wikipedia": "fr:V\u00e9lib' M\u00e9tropole", "capacity": "58", "check_date": "2023-03-19", "name": "Filles Saint-Thomas - Place de la Bourse", "network": "V\u00e9lib\u2019 M\u00e9tropole", "network:wikidata": "Q1120762", "network:wikipedia": "fr:V\u00e9lib' M\u00e9tropole", "operator": "Smovengo", "operator:wikidata": "Q47008427", "operator:wikipedia": "fr:Smovengo", "ref": "2009", "source": "Autolib Velib M\u00e9tropole - 04/2019", "wikidata": "Q86254741"}}, {"type": "node", "id": 7369001594, "lat": 48.8699355, "lon": 2.3359975, "tags": {"amenity": "bicycle_rental", "bicycle_rental": "docking_station", "brand": "V\u00e9lib\u2019 M\u00e9tropole", "brand:wikidata": "Q1120762", "brand:wikipedia": "fr:V\u00e9lib' M\u00e9tropole", "capacity": "44", "name": "Choiseul - Quatre Septembre", "network": "V\u00e9lib\u2019 M\u00e9tropole", "network:wikidata": "Q1120762", "network:wikipedia": "fr:V\u00e9lib' M\u00e9tropole", "operator": "Smovengo", "operator:wikidata": "Q47008427", "operator:wikipedia": "fr:Smovengo", "ref": "2012", "source": "Autolib Velib M\u00e9tropole - 04/2019", "wikidata": "Q86254757"}}, {"type": "node", "id": 7369001595, "lat": 48.8705107, "lon": 2.3340478, "tags": {"amenity": "bicycle_rental", "bicycle_rental": "docking_station", "brand": "V\u00e9lib\u2019 M\u00e9tropole", "brand:wikidata": "Q1120762", "brand:wikipedia": "fr:V\u00e9lib' M\u00e9tropole", "capacity": "33", "name": "Louis le Grand - Italiens", "network": "V\u00e9lib\u2019 M\u00e9tropole", "network:wikidata": "Q1120762", "network:wikipedia": "fr:V\u00e9lib' M\u00e9tropole", "operator": "Smovengo", "operator:wikidata": "Q47008427", "operator:wikipedia": "fr:Smovengo", "ref": "2015", "source": "Autolib Velib M\u00e9tropole - 04/2019", "wikidata": "Q86254775"}}, {"type": "node", "id": 7369001596, "lat": 48.8691101, "lon": 2.3325069, "tags": {"amenity": "bicycle_rental", "bicycle_rental": "docking_station", "brand": "V\u00e9lib\u2019 M\u00e9tropole", "brand:wikidata": "Q1120762", "brand:wikipedia": "fr:V\u00e9lib' M\u00e9tropole", "capacity": "17", "name": "Daunou - Louis le Grand", "network": "V\u00e9lib\u2019 M\u00e9tropole", "network:wikidata": "Q1120762", "network:wikipedia": "fr:V\u00e9lib' M\u00e9tropole", "operator": "Smovengo", "operator:wikidata": "Q47008427", "operator:wikipedia": "fr:Smovengo", "ref": "2014", "source": "Autolib Velib M\u00e9tropole - 04/2019", "wikidata": "Q86254738"}}, {"type": "node", "id": 7369001600, "lat": 48.8696016, "lon": 2.3542909, "tags": {"amenity": "bicycle_rental", "bicycle_rental": "docking_station", "brand": "V\u00e9lib\u2019 M\u00e9tropole", "brand:wikidata": "Q1120762", "brand:wikipedia": "fr:V\u00e9lib' M\u00e9tropole", "capacity": "16", "name": "Strasbourg - Saint-Denis", "network": "V\u00e9lib\u2019 M\u00e9tropole", "network:wikidata": "Q1120762", "network:wikipedia": "fr:V\u00e9lib' M\u00e9tropole", "operator": "Smovengo", "operator:wikidata": "Q47008427", "operator:wikipedia": "fr:Smovengo", "ref": "10166", "source": "Autolib Velib M\u00e9tropole - 04/2019", "wikidata": "Q86252926"}}, {"type": "node", "id": 7369032812, "lat": 48.8737259, "lon": 2.3158615, "tags": {"amenity": "bicycle_rental", "bicycle_rental": "docking_station", "brand": "V\u00e9lib\u2019 M\u00e9tropole", "brand:wikidata": "Q1120762", "brand:wikipedia": "fr:V\u00e9lib' M\u00e9tropole", "capacity": "35", "name": "Miromesnil - La Bo\u00e9tie", "network": "V\u00e9lib\u2019 M\u00e9tropole", "network:wikidata": "Q1120762", "network:wikipedia": "fr:V\u00e9lib' M\u00e9tropole", "operator": "Smovengo", "operator:wikidata": "Q47008427", "operator:wikipedia": "fr:Smovengo", "ref": "8025", "source": "Autolib Velib M\u00e9tropole - 04/2019", "wikidata": "Q86255297"}}, {"type": "node", "id": 7369043458, "lat": 48.8853645, "lon": 2.3163829, "tags": {"amenity": "bicycle_rental", "bicycle_rental": "docking_station", "brand": "V\u00e9lib\u2019 M\u00e9tropole", "brand:wikidata": "Q1120762", "capacity": "23", "name": "Legendre - Dulong", "network": "V\u00e9lib\u2019 M\u00e9tropole", "network:wikidata": "Q1120762", "operator": "Smovengo", "operator:wikidata": "Q47008427", "ref": "17013", "source": "Autolib Velib M\u00e9tropole - 2021-03", "wikidata": "Q86238225"}}, {"type": "node", "id": 7369043461, "lat": 48.8821487, "lon": 2.3198547, "tags": {"amenity": "bicycle_rental", "bicycle_rental": "docking_station", "brand": "V\u00e9lib\u2019 M\u00e9tropole", "brand:wikidata": "Q1120762", "brand:wikipedia": "fr:V\u00e9lib' M\u00e9tropole", "capacity": "44", "name": "Batignolles - Beudant", "network": "V\u00e9lib\u2019 M\u00e9tropole", "network:wikidata": "Q1120762", "network:wikipedia": "fr:V\u00e9lib' M\u00e9tropole", "operator": "Smovengo", "operator:wikidata": "Q47008427", "operator:wikipedia": "fr:Smovengo", "ref": "8020", "source": "Autolib Velib M\u00e9tropole - 04/2019", "wheelchair": "limited", "wikidata": "Q86238299"}}, {"type": "node", "id": 7369043462, "lat": 48.881176, "lon": 2.316535, "tags": {"amenity": "bicycle_rental", "bicycle_rental": "docking_station", "capacity": "23", "name": "Villiers - Batignolles", "network": "V\u00e9lib\u2019", "operator": "Smovengo", "ref": "17024", "source": "Autolib Velib M\u00e9tropole - 2021-03", "wikidata": "Q86255248"}}, {"type": "node", "id": 7369043463, "lat": 48.8818798, "lon": 2.3202214, "tags": {"amenity": "bicycle_rental", "bicycle_rental": "docking_station", "brand": "V\u00e9lib\u2019 M\u00e9tropole", "brand:wikidata": "Q1120762", "brand:wikipedia": "fr:V\u00e9lib' M\u00e9tropole", "capacity": "15", "name": "Batignolles - Rome", "network": "V\u00e9lib\u2019 M\u00e9tropole", "network:wikidata": "Q1120762", "network:wikipedia": "fr:V\u00e9lib' M\u00e9tropole", "operator": "Smovengo", "operator:wikidata": "Q47008427", "operator:wikipedia": "fr:Smovengo", "ref": "8051", "source": "Autolib Velib M\u00e9tropole - 04/2019", "wheelchair": "yes", "wikidata": "Q86255210"}}, {"type": "node", "id": 7369043464, "lat": 48.8799553, "lon": 2.3213587, "tags": {"amenity": "bicycle_rental", "bicycle_rental": "docking_station", "brand": "V\u00e9lib\u2019 M\u00e9tropole", "brand:wikidata": "Q1120762", "brand:wikipedia": "fr:V\u00e9lib' M\u00e9tropole", "capacity": "26", "name": "Naples - Rome", "network": "V\u00e9lib\u2019 M\u00e9tropole", "network:wikidata": "Q1120762", "network:wikipedia": "fr:V\u00e9lib' M\u00e9tropole", "operator": "Smovengo", "operator:wikidata": "Q47008427", "operator:wikipedia": "fr:Smovengo", "ref": "8019", "source": "Autolib Velib M\u00e9tropole - 04/2019", "wikidata": "Q86255173"}}, {"type": "node", "id": 7369043465, "lat": 48.8779335, "lon": 2.318264, "tags": {"amenity": "bicycle_rental", "bicycle_rental": "docking_station", "brand": "V\u00e9lib\u2019 M\u00e9tropole", "brand:wikidata": "Q1120762", "brand:wikipedia": "fr:V\u00e9lib' M\u00e9tropole", "capacity": "14", "name": "Mairie du 8\u00e8me", "network": "V\u00e9lib\u2019 M\u00e9tropole", "network:wikidata": "Q1120762", "network:wikipedia": "fr:V\u00e9lib' M\u00e9tropole", "operator": "Smovengo", "operator:wikidata": "Q47008427", "operator:wikipedia": "fr:Smovengo", "ref": "8027", "source": "Autolib Velib M\u00e9tropole - 04/2019", "wikidata": "Q86255304"}}, {"type": "node", "id": 7369043466, "lat": 48.8771286, "lon": 2.3224173, "tags": {"amenity": "bicycle_rental", "bicycle_rental": "docking_station", "brand": "V\u00e9lib\u2019 M\u00e9tropole", "brand:wikidata": "Q1120762", "brand:wikipedia": "fr:V\u00e9lib' M\u00e9tropole", "capacity": "32", "name": "Gare Saint-Lazare - Stockholm", "network": "V\u00e9lib\u2019 M\u00e9tropole", "network:wikidata": "Q1120762", "network:wikipedia": "fr:V\u00e9lib' M\u00e9tropole", "operator": "Smovengo", "operator:wikidata": "Q47008427", "operator:wikipedia": "fr:Smovengo", "ref": "8110", "source": "Autolib Velib M\u00e9tropole - 04/2019", "wikidata": "Q86255306"}}, {"type": "node", "id": 7369043467, "lat": 48.8742294, "lon": 2.3255701, "tags": {"amenity": "bicycle_rental", "bicycle_rental": "docking_station", "brand": "V\u00e9lib\u2019 M\u00e9tropole", "brand:wikidata": "Q1120762", "brand:wikipedia": "fr:V\u00e9lib' M\u00e9tropole", "capacity": "30", "name": "Rome - Provence", "network": "V\u00e9lib\u2019 M\u00e9tropole", "network:wikidata": "Q1120762", "network:wikipedia": "fr:V\u00e9lib' M\u00e9tropole", "operator": "Smovengo", "operator:wikidata": "Q47008427", "operator:wikipedia": "fr:Smovengo", "ref": "8007", "source": "Autolib Velib M\u00e9tropole - 04/2019", "wikidata": "Q86255198"}}, {"type": "node", "id": 7369043468, "lat": 48.8747902, "lon": 2.3265264, "tags": {"amenity": "bicycle_rental", "bicycle_rental": "docking_station", "brand": "V\u00e9lib\u2019 M\u00e9tropole", "brand:wikidata": "Q1120762", "brand:wikipedia": "fr:V\u00e9lib' M\u00e9tropole", "capacity": "27", "name": "Gare Saint-Lazare - Isly", "network": "V\u00e9lib\u2019 M\u00e9tropole", "network:wikidata": "Q1120762", "network:wikipedia": "fr:V\u00e9lib' M\u00e9tropole", "operator": "Smovengo", "operator:wikidata": "Q47008427", "operator:wikipedia": "fr:Smovengo", "ref": "8009", "source": "Autolib Velib M\u00e9tropole - 04/2019", "wikidata": "Q86255188"}}, {"type": "node", "id": 7371231527, "lat": 48.8833969, "lon": 2.3264488, "tags": {"amenity": "bicycle_rental", "bicycle_rental": "docking_station", "brand": "V\u00e9lib\u2019 M\u00e9tropole", "brand:wikidata": "Q1120762", "capacity": "47", "name": "Batignolles - Place de Clichy", "network": "V\u00e9lib\u2019 M\u00e9tropole", "network:wikidata": "Q1120762", "operator": "Smovengo", "operator:wikidata": "Q47008427", "ref": "8012", "source": "Autolib Velib M\u00e9tropole - 2021-03", "wheelchair": "yes", "wikidata": "Q86238306"}}, {"type": "node", "id": 7371231528, "lat": 48.8841171, "lon": 2.3287287, "tags": {"amenity": "bicycle_rental", "bicycle_rental": "dropoff_point", "capacity": "32", "name": "Clichy - Douai", "network": "V\u00e9lib\u2019", "operator": "Smovengo", "ref": "18044", "source": "Autolib Velib M\u00e9tropole - 2021-03", "wheelchair": "yes", "wikidata": "Q86253601"}}, {"type": "node", "id": 7371231529, "lat": 48.8832092, "lon": 2.3308451, "tags": {"amenity": "bicycle_rental", "bicycle_rental": "docking_station", "brand": "V\u00e9lib\u2019 M\u00e9tropole", "brand:wikidata": "Q1120762", "capacity": "27", "name": "Douai - Bruxelles", "network": "V\u00e9lib\u2019 M\u00e9tropole", "network:wikidata": "Q1120762", "operator": "Smovengo", "operator:wikidata": "Q47008427", "ref": "9038", "source": "Autolib Velib M\u00e9tropole - 2021-03", "wikidata": "Q86254709"}}, {"type": "node", "id": 7371231530, "lat": 48.882343, "lon": 2.3332645, "tags": {"amenity": "bicycle_rental", "bicycle_rental": "docking_station", "brand": "V\u00e9lib\u2019 M\u00e9tropole", "brand:wikidata": "Q1120762", "brand:wikipedia": "fr:V\u00e9lib' M\u00e9tropole", "capacity": "25", "name": "Douai - Pierre Fontaine", "network": "V\u00e9lib\u2019 M\u00e9tropole", "network:wikidata": "Q1120762", "network:wikipedia": "fr:V\u00e9lib' M\u00e9tropole", "operator": "Smovengo", "operator:wikidata": "Q47008427", "operator:wikipedia": "fr:Smovengo", "ref": "9027", "source": "Autolib Velib M\u00e9tropole - 04/2020", "wikidata": "Q86254655"}}, {"type": "node", "id": 7371231531, "lat": 48.8825569, "lon": 2.3497293, "tags": {"amenity": "bicycle_rental", "bicycle_rental": "docking_station", "capacity": "36", "name": "Faubourg Poissonniere - Delta", "network": "V\u00e9lib\u2019", "operator": "Smovengo", "ref": "9118", "source": "Autolib Velib M\u00e9tropole - 2021-03", "wikidata": "Q86253008"}}, {"type": "node", "id": 7371231532, "lat": 48.8808834, "lon": 2.3499182, "tags": {"amenity": "bicycle_rental", "bicycle_rental": "docking_station", "brand": "V\u00e9lib\u2019 M\u00e9tropole", "brand:wikidata": "Q1120762", "brand:wikipedia": "fr:V\u00e9lib' M\u00e9tropole", "capacity": "30", "name": "Faubourg Poissonni\u00e8re - Dunkerque", "network": "V\u00e9lib\u2019 M\u00e9tropole", "network:wikidata": "Q1120762", "network:wikipedia": "fr:V\u00e9lib' M\u00e9tropole", "operator": "Smovengo", "operator:wikidata": "Q47008427", "operator:wikipedia": "fr:Smovengo", "ref": "9114", "source": "Autolib Velib M\u00e9tropole - 04/2020", "wikidata": "Q86252922"}}, {"type": "node", "id": 7371231533, "lat": 48.8810969, "lon": 2.3408171, "tags": {"amenity": "bicycle_rental", "bicycle_rental": "docking_station", "brand": "V\u00e9lib\u2019 M\u00e9tropole", "brand:wikidata": "Q1120762", "brand:wikipedia": "fr:V\u00e9lib' M\u00e9tropole", "capacity": "29", "name": "Lallier - Trudaine", "network": "V\u00e9lib\u2019 M\u00e9tropole", "network:wikidata": "Q1120762", "network:wikipedia": "fr:V\u00e9lib' M\u00e9tropole", "operator": "Smovengo", "operator:wikidata": "Q47008427", "operator:wikipedia": "fr:Smovengo", "ref": "9017", "source": "Autolib Velib M\u00e9tropole - 04/2020", "wikidata": "Q86254639"}}, {"type": "node", "id": 7371231535, "lat": 48.8812664, "lon": 2.3281971, "tags": {"amenity": "bicycle_rental", "bicycle_rental": "docking_station", "brand": "V\u00e9lib\u2019 M\u00e9tropole", "brand:wikidata": "Q1120762", "brand:wikipedia": "fr:V\u00e9lib' M\u00e9tropole", "capacity": "24", "name": "Parme - Clichy", "network": "V\u00e9lib\u2019 M\u00e9tropole", "network:wikidata": "Q1120762", "network:wikipedia": "fr:V\u00e9lib' M\u00e9tropole", "operator": "Smovengo", "operator:wikidata": "Q47008427", "operator:wikipedia": "fr:Smovengo", "ref": "9037", "source": "Autolib Velib M\u00e9tropole - 04/2020", "wikidata": "Q86254658"}}, {"type": "node", "id": 7371231536, "lat": 48.880085, "lon": 2.3310797, "tags": {"amenity": "bicycle_rental", "bicycle_rental": "docking_station", "brand": "V\u00e9lib\u2019 M\u00e9tropole", "brand:wikidata": "Q1120762", "brand:wikipedia": "fr:V\u00e9lib' M\u00e9tropole", "capacity": "17", "name": "Moncey - Blanche", "network": "V\u00e9lib\u2019 M\u00e9tropole", "network:wikidata": "Q1120762", "network:wikipedia": "fr:V\u00e9lib' M\u00e9tropole", "operator": "Smovengo", "operator:wikidata": "Q47008427", "operator:wikipedia": "fr:Smovengo", "ref": "9028", "source": "Autolib Velib M\u00e9tropole - 04/2020", "wikidata": "Q86254683"}}, {"type": "node", "id": 7371231537, "lat": 48.8793983, "lon": 2.3337092, "tags": {"amenity": "bicycle_rental", "bicycle_rental": "docking_station", "brand": "V\u00e9lib\u2019 M\u00e9tropole", "brand:wikidata": "Q1120762", "brand:wikipedia": "fr:V\u00e9lib' M\u00e9tropole", "capacity": "17", "name": "Jean-Baptiste Pigalle - La Bruyere", "network": "V\u00e9lib\u2019 M\u00e9tropole", "network:wikidata": "Q1120762", "network:wikipedia": "fr:V\u00e9lib' M\u00e9tropole", "operator": "Smovengo", "operator:wikidata": "Q47008427", "operator:wikipedia": "fr:Smovengo", "ref": "9026", "source": "Autolib Velib M\u00e9tropole - 04/2020", "wikidata": "Q86254722"}}, {"type": "node", "id": 7371231538, "lat": 48.8795243, "lon": 2.3371209, "tags": {"amenity": "bicycle_rental", "bicycle_rental": "docking_station", "brand": "V\u00e9lib\u2019 M\u00e9tropole", "brand:wikidata": "Q1120762", "brand:wikipedia": "fr:V\u00e9lib' M\u00e9tropole", "capacity": "21", "name": "Toudouze - Clauzel", "network": "V\u00e9lib\u2019 M\u00e9tropole", "network:wikidata": "Q1120762", "network:wikipedia": "fr:V\u00e9lib' M\u00e9tropole", "operator": "Smovengo", "operator:wikidata": "Q47008427", "operator:wikipedia": "fr:Smovengo", "ref": "9020", "source": "Autolib Velib M\u00e9tropole - 04/2020", "wikidata": "Q86254572"}}, {"type": "node", "id": 7371231539, "lat": 48.879161, "lon": 2.343698, "tags": {"amenity": "bicycle_rental", "bicycle_rental": "docking_station", "brand": "V\u00e9lib\u2019 M\u00e9tropole", "brand:wikidata": "Q1120762", "brand:wikipedia": "fr:V\u00e9lib' M\u00e9tropole", "capacity": "17", "check_date": "2023-01-26", "name": "Tour d'Auvergne - Rodier", "network": "V\u00e9lib\u2019 M\u00e9tropole", "network:wikidata": "Q1120762", "network:wikipedia": "fr:V\u00e9lib' M\u00e9tropole", "operator": "Smovengo", "operator:wikidata": "Q47008427", "operator:wikipedia": "fr:Smovengo", "ref": "9008", "source": "Autolib Velib M\u00e9tropole - 04/2020", "wikidata": "Q86254603"}}, {"type": "node", "id": 7371231540, "lat": 48.8782554, "lon": 2.3452642, "tags": {"amenity": "bicycle_rental", "bicycle_rental": "docking_station", "brand": "V\u00e9lib\u2019 M\u00e9tropole", "brand:wikidata": "Q1120762", "brand:wikipedia": "fr:V\u00e9lib' M\u00e9tropole", "capacity": "31", "name": "Bellefond - Maubeuge", "network": "V\u00e9lib\u2019 M\u00e9tropole", "network:wikidata": "Q1120762", "network:wikipedia": "fr:V\u00e9lib' M\u00e9tropole", "operator": "Smovengo", "operator:wikidata": "Q47008427", "operator:wikipedia": "fr:Smovengo", "ref": "9117", "source": "Autolib Velib M\u00e9tropole - 04/2020", "wikidata": "Q86254609"}}, {"type": "node", "id": 7371231541, "lat": 48.8774704, "lon": 2.3487104, "tags": {"amenity": "bicycle_rental", "bicycle_rental": "docking_station", "brand": "V\u00e9lib\u2019 M\u00e9tropole", "brand:wikidata": "Q1120762", "brand:wikipedia": "fr:V\u00e9lib' M\u00e9tropole", "capacity": "17", "name": "Bellefond - Poissonni\u00e8re", "network": "V\u00e9lib\u2019 M\u00e9tropole", "network:wikidata": "Q1120762", "network:wikipedia": "fr:V\u00e9lib' M\u00e9tropole", "operator": "Smovengo", "operator:wikidata": "Q47008427", "operator:wikipedia": "fr:Smovengo", "ref": "9001", "source": "Autolib Velib M\u00e9tropole - 04/2020", "wikidata": "Q86254647"}}, {"type": "node", "id": 7371231542, "lat": 48.8766136, "lon": 2.3457634, "tags": {"amenity": "bicycle_rental", "bicycle_rental": "docking_station", "brand": "V\u00e9lib\u2019 M\u00e9tropole", "brand:wikidata": "Q1120762", "brand:wikipedia": "fr:V\u00e9lib' M\u00e9tropole", "capacity": "21", "name": "Square Montholon", "network": "V\u00e9lib\u2019 M\u00e9tropole", "network:wikidata": "Q1120762", "network:wikipedia": "fr:V\u00e9lib' M\u00e9tropole", "operator": "Smovengo", "operator:wikidata": "Q47008427", "operator:wikipedia": "fr:Smovengo", "ref": "9009", "source": "Autolib Velib M\u00e9tropole - 04/2020", "wikidata": "Q86254601"}}, {"type": "node", "id": 7371231543, "lat": 48.8767199, "lon": 2.344393, "tags": {"amenity": "bicycle_rental", "bicycle_rental": "docking_station", "brand": "V\u00e9lib\u2019 M\u00e9tropole", "brand:wikidata": "Q1120762", "brand:wikipedia": "fr:V\u00e9lib' M\u00e9tropole", "capacity": "24", "name": "Rochechouart lamartine", "network": "V\u00e9lib\u2019 M\u00e9tropole", "network:wikidata": "Q1120762", "network:wikipedia": "fr:V\u00e9lib' M\u00e9tropole", "operator": "Smovengo", "operator:wikidata": "Q47008427", "operator:wikipedia": "fr:Smovengo", "ref": "9010", "source": "Autolib Velib M\u00e9tropole - 04/2020", "wikidata": "Q86254633"}}, {"type": "node", "id": 7371231544, "lat": 48.8782486, "lon": 2.3411569, "tags": {"amenity": "bicycle_rental", "bicycle_rental": "docking_station", "brand": "V\u00e9lib\u2019 M\u00e9tropole", "brand:wikidata": "Q1120762", "brand:wikipedia": "fr:V\u00e9lib' M\u00e9tropole", "capacity": "22", "name": "Milton - Manuel", "network": "V\u00e9lib\u2019 M\u00e9tropole", "network:wikidata": "Q1120762", "network:wikipedia": "fr:V\u00e9lib' M\u00e9tropole", "operator": "Smovengo", "operator:wikidata": "Q47008427", "operator:wikipedia": "fr:Smovengo", "ref": "9115", "source": "Autolib Velib M\u00e9tropole - 04/2020", "wikidata": "Q86254635"}}, {"type": "node", "id": 7371231545, "lat": 48.8777733, "lon": 2.3397465, "tags": {"amenity": "bicycle_rental", "bicycle_rental": "docking_station", "brand": "V\u00e9lib\u2019 M\u00e9tropole", "brand:wikidata": "Q1120762", "brand:wikipedia": "fr:V\u00e9lib' M\u00e9tropole", "capacity": "17", "name": "Choron - Martyrs", "network": "V\u00e9lib\u2019 M\u00e9tropole", "network:wikidata": "Q1120762", "network:wikipedia": "fr:V\u00e9lib' M\u00e9tropole", "operator": "Smovengo", "operator:wikidata": "Q47008427", "operator:wikipedia": "fr:Smovengo", "ref": "9016", "source": "Autolib Velib M\u00e9tropole - 04/2020", "wikidata": "Q86254586"}}, {"type": "node", "id": 7371231546, "lat": 48.876614, "lon": 2.3397657, "tags": {"amenity": "bicycle_rental", "bicycle_rental": "docking_station", "brand": "V\u00e9lib\u2019 M\u00e9tropole", "brand:wikidata": "Q1120762", "brand:wikipedia": "fr:V\u00e9lib' M\u00e9tropole", "capacity": "32", "name": "Lamartine - Faubourg Montmartre", "network": "V\u00e9lib\u2019 M\u00e9tropole", "network:wikidata": "Q1120762", "network:wikipedia": "fr:V\u00e9lib' M\u00e9tropole", "operator": "Smovengo", "operator:wikidata": "Q47008427", "operator:wikipedia": "fr:Smovengo", "ref": "9015", "source": "Autolib Velib M\u00e9tropole - 04/2020", "wikidata": "Q86254712"}}, {"type": "node", "id": 7371231547, "lat": 48.8752976, "lon": 2.3407941, "tags": {"amenity": "bicycle_rental", "bicycle_rental": "docking_station", "brand": "V\u00e9lib\u2019 M\u00e9tropole", "brand:wikidata": "Q1120762", "brand:wikipedia": "fr:V\u00e9lib' M\u00e9tropole", "capacity": "35", "name": "Faubourg Montmartre - La Fayette", "network": "V\u00e9lib\u2019 M\u00e9tropole", "network:wikidata": "Q1120762", "network:wikipedia": "fr:V\u00e9lib' M\u00e9tropole", "operator": "Smovengo", "operator:wikidata": "Q47008427", "operator:wikipedia": "fr:Smovengo", "ref": "9014", "source": "Autolib Velib M\u00e9tropole - 04/2020", "wikidata": "Q86254581"}}, {"type": "node", "id": 7371231548, "lat": 48.8758037, "lon": 2.3472903, "tags": {"amenity": "bicycle_rental", "bicycle_rental": "docking_station", "brand": "V\u00e9lib\u2019 M\u00e9tropole", "brand:wikidata": "Q1120762", "brand:wikipedia": "fr:V\u00e9lib' M\u00e9tropole", "capacity": "30", "name": "Bleue - Tr\u00e9vise", "network": "V\u00e9lib\u2019 M\u00e9tropole", "network:wikidata": "Q1120762", "network:wikipedia": "fr:V\u00e9lib' M\u00e9tropole", "operator": "Smovengo", "operator:wikidata": "Q47008427", "operator:wikipedia": "fr:Smovengo", "ref": "9113", "source": "Autolib Velib M\u00e9tropole - 04/2020", "wikidata": "Q86254641"}}, {"type": "node", "id": 7371263875, "lat": 48.8910294, "lon": 2.3399918, "tags": {"amenity": "bicycle_rental", "bicycle_rental": "docking_station", "brand": "V\u00e9lib\u2019 M\u00e9tropole", "brand:wikidata": "Q1120762", "brand:wikipedia": "fr:V\u00e9lib' M\u00e9tropole", "capacity": "20", "name": "Franc\u0153ur - Marcadet", "network": "V\u00e9lib\u2019 M\u00e9tropole", "network:wikidata": "Q1120762", "network:wikipedia": "fr:V\u00e9lib' M\u00e9tropole", "operator": "Smovengo", "operator:wikidata": "Q47008427", "operator:wikipedia": "fr:Smovengo", "ref": "18020", "source": "Autolib Velib M\u00e9tropole - 04/2020", "wikidata": "Q86254416"}}, {"type": "node", "id": 7371263876, "lat": 48.8918469, "lon": 2.3354181, "tags": {"amenity": "bicycle_rental", "bicycle_rental": "docking_station", "capacity": "52", "name": "Square Raymond Souplex", "network": "V\u00e9lib\u2019", "operator": "Smovengo", "ref": "18019", "source": "Autolib Velib M\u00e9tropole - 2021-03", "wikidata": "Q86254454"}}, {"type": "node", "id": 7371263877, "lat": 48.8875351, "lon": 2.3343077, "tags": {"amenity": "bicycle_rental", "bicycle_rental": "docking_station", "brand": "V\u00e9lib\u2019 M\u00e9tropole", "brand:wikidata": "Q1120762", "brand:wikipedia": "fr:V\u00e9lib' M\u00e9tropole", "capacity": "24", "name": "Lepic - Arm\u00e9e d'Orient", "network": "V\u00e9lib\u2019 M\u00e9tropole", "network:wikidata": "Q1120762", "network:wikipedia": "fr:V\u00e9lib' M\u00e9tropole", "operator": "Smovengo", "operator:wikidata": "Q47008427", "operator:wikipedia": "fr:Smovengo", "ref": "18113", "source": "Autolib Velib M\u00e9tropole - 04/2020", "wikidata": "Q86253594"}}, {"type": "node", "id": 7371263878, "lat": 48.8896779, "lon": 2.3381787, "tags": {"amenity": "bicycle_rental", "bicycle_rental": "docking_station", "brand": "V\u00e9lib\u2019 M\u00e9tropole", "brand:wikidata": "Q1120762", "brand:wikipedia": "fr:V\u00e9lib' M\u00e9tropole", "capacity": "44", "name": "Caulaincourt - Place Constantin Pecqueur", "network": "V\u00e9lib\u2019 M\u00e9tropole", "network:wikidata": "Q1120762", "network:wikipedia": "fr:V\u00e9lib' M\u00e9tropole", "operator": "Smovengo", "operator:wikidata": "Q47008427", "operator:wikipedia": "fr:Smovengo", "ref": "18017", "source": "Autolib Velib M\u00e9tropole - 04/2020", "wikidata": "Q86254405"}}, {"type": "node", "id": 7371263879, "lat": 48.8899847, "lon": 2.3425217, "tags": {"amenity": "bicycle_rental", "bicycle_rental": "docking_station", "brand": "V\u00e9lib\u2019 M\u00e9tropole", "brand:wikidata": "Q1120762", "brand:wikipedia": "fr:V\u00e9lib' M\u00e9tropole", "capacity": "34", "name": "Franc\u0153ur - Caulaincourt", "network": "V\u00e9lib\u2019 M\u00e9tropole", "network:wikidata": "Q1120762", "network:wikipedia": "fr:V\u00e9lib' M\u00e9tropole", "operator": "Smovengo", "operator:wikidata": "Q47008427", "operator:wikipedia": "fr:Smovengo", "ref": "18016", "source": "Autolib Velib M\u00e9tropole - 04/2020", "wikidata": "Q86254461"}}, {"type": "node", "id": 7371263880, "lat": 48.8886381, "lon": 2.3468967, "tags": {"amenity": "bicycle_rental", "bicycle_rental": "docking_station", "brand": "V\u00e9lib\u2019 M\u00e9tropole", "brand:wikidata": "Q1120762", "brand:wikipedia": "fr:V\u00e9lib' M\u00e9tropole", "capacity": "41", "name": "Custine - Ramey", "network": "V\u00e9lib\u2019 M\u00e9tropole", "network:wikidata": "Q1120762", "network:wikipedia": "fr:V\u00e9lib' M\u00e9tropole", "operator": "Smovengo", "operator:wikidata": "Q47008427", "operator:wikipedia": "fr:Smovengo", "ref": "18015", "source": "Autolib Velib M\u00e9tropole - 04/2020", "wikidata": "Q86253591"}}, {"type": "node", "id": 7371263881, "lat": 48.8871269, "lon": 2.349076, "tags": {"amenity": "bicycle_rental", "capacity": "20", "name": "Poulet - Barb\u00e8s", "network": "V\u00e9lib\u2019", "operator": "Smovengo", "ref": "18136", "source": "Autolib Velib M\u00e9tropole - 2021-03", "wikidata": "Q86253531"}}, {"type": "node", "id": 7371263882, "lat": 48.8851287, "lon": 2.3496882, "tags": {"amenity": "bicycle_rental", "bicycle_rental": "docking_station", "brand": "V\u00e9lib\u2019 M\u00e9tropole", "brand:wikidata": "Q1120762", "brand:wikipedia": "fr:V\u00e9lib' M\u00e9tropole", "capacity": "20", "name": "Goutte d'or - Barb\u00e8s", "network": "V\u00e9lib\u2019 M\u00e9tropole", "network:wikidata": "Q1120762", "network:wikipedia": "fr:V\u00e9lib' M\u00e9tropole", "operator": "Smovengo", "operator:wikidata": "Q47008427", "operator:wikipedia": "fr:Smovengo", "ref": "18007", "source": "Autolib Velib M\u00e9tropole - 2021-03", "wikidata": "Q86253580"}}, {"type": "node", "id": 7371263883, "lat": 48.8851199, "lon": 2.3471949, "tags": {"amenity": "bicycle_rental", "bicycle_rental": "docking_station", "brand": "V\u00e9lib\u2019 M\u00e9tropole", "brand:wikidata": "Q1120762", "brand:wikipedia": "fr:V\u00e9lib' M\u00e9tropole", "capacity": "19", "name": "Clignancourt - Sofia", "network": "V\u00e9lib\u2019 M\u00e9tropole", "network:wikidata": "Q1120762", "network:wikipedia": "fr:V\u00e9lib' M\u00e9tropole", "operator": "Smovengo", "operator:wikidata": "Q47008427", "operator:wikipedia": "fr:Smovengo", "ref": "18141", "source": "Autolib Velib M\u00e9tropole - 04/2020", "wikidata": "Q86253563"}}, {"type": "node", "id": 7371263884, "lat": 48.8846855, "lon": 2.3441293, "tags": {"amenity": "bicycle_rental", "bicycle_rental": "docking_station", "brand": "V\u00e9lib\u2019 M\u00e9tropole", "brand:wikidata": "Q1120762", "brand:wikipedia": "fr:V\u00e9lib' M\u00e9tropole", "capacity": "36", "name": "Square Louise Michel", "network": "V\u00e9lib\u2019 M\u00e9tropole", "network:wikidata": "Q1120762", "network:wikipedia": "fr:V\u00e9lib' M\u00e9tropole", "operator": "Smovengo", "operator:wikidata": "Q47008427", "operator:wikipedia": "fr:Smovengo", "ref": "18006", "source": "Autolib Velib M\u00e9tropole - 04/2020", "wikidata": "Q86254421"}}, {"type": "node", "id": 7371318685, "lat": 48.8841515, "lon": 2.3418427, "tags": {"amenity": "bicycle_rental", "bicycle_rental": "docking_station", "brand": "V\u00e9lib\u2019 M\u00e9tropole", "brand:wikidata": "Q1120762", "brand:wikipedia": "fr:V\u00e9lib' M\u00e9tropole", "capacity": "18", "name": "Tardieu - Chappe", "network": "V\u00e9lib\u2019 M\u00e9tropole", "network:wikidata": "Q1120762", "network:wikipedia": "fr:V\u00e9lib' M\u00e9tropole", "operator": "Smovengo", "operator:wikidata": "Q47008427", "operator:wikipedia": "fr:Smovengo", "ref": "18005", "source": "Autolib Velib M\u00e9tropole - 04/2020", "wikidata": "Q86254449"}}, {"type": "node", "id": 7371318686, "lat": 48.8845135, "lon": 2.3388287, "tags": {"amenity": "bicycle_rental", "bicycle_rental": "docking_station", "brand": "V\u00e9lib\u2019 M\u00e9tropole", "brand:wikidata": "Q1120762", "brand:wikipedia": "fr:V\u00e9lib' M\u00e9tropole", "capacity": "12", "name": "Place des Abbesses", "network": "V\u00e9lib\u2019 M\u00e9tropole", "network:wikidata": "Q1120762", "network:wikipedia": "fr:V\u00e9lib' M\u00e9tropole", "operator": "Smovengo", "operator:wikidata": "Q47008427", "operator:wikipedia": "fr:Smovengo", "ref": "18004", "source": "Autolib Velib M\u00e9tropole - 04/2020", "wikidata": "Q86254424"}}, {"type": "node", "id": 7371318687, "lat": 48.8852692, "lon": 2.3345721, "tags": {"amenity": "bicycle_rental", "capacity": "23", "name": "V\u00e9ron - Lepic", "network": "V\u00e9lib\u2019", "operator": "Smovengo", "ref": "18114", "source": "Autolib Velib M\u00e9tropole - 2021-03", "wikidata": "Q86253587"}}, {"type": "node", "id": 7371318688, "lat": 48.8864725, "lon": 2.3328902, "tags": {"amenity": "bicycle_rental", "bicycle_rental": "docking_station", "capacity": "43", "name": "Cimeti\u00e8re de Montmartre", "network": "V\u00e9lib\u2019", "operator": "Smovengo", "ref": "18003", "source": "Autolib Velib M\u00e9tropole - 2021-03", "wikidata": "Q86253555"}}, {"type": "node", "id": 7371318689, "lat": 48.8871422, "lon": 2.3326149, "tags": {"amenity": "bicycle_rental", "bicycle_rental": "docking_station", "brand": "V\u00e9lib\u2019 M\u00e9tropole", "brand:wikidata": "Q1120762", "brand:wikipedia": "fr:V\u00e9lib' M\u00e9tropole", "capacity": "18", "name": "Damr\u00e9mont - Caulaincourt", "network": "V\u00e9lib\u2019 M\u00e9tropole", "network:wikidata": "Q1120762", "network:wikipedia": "fr:V\u00e9lib' M\u00e9tropole", "operator": "Smovengo", "operator:wikidata": "Q47008427", "operator:wikipedia": "fr:Smovengo", "ref": "18001", "source": "Autolib Velib M\u00e9tropole - 04/2020", "wikidata": "Q86253539"}}, {"type": "node", "id": 7371318690, "lat": 48.8907013, "lon": 2.3308771, "tags": {"amenity": "bicycle_rental", "capacity": "19", "name": "Carpeaux - Place Jacques Froment", "network": "V\u00e9lib\u2019", "operator": "Smovengo", "ref": "18018", "source": "Autolib Velib M\u00e9tropole - 2021-03", "wikidata": "Q86254415"}}, {"type": "node", "id": 7371318691, "lat": 48.8867683, "lon": 2.3262279, "tags": {"amenity": "bicycle_rental", "bicycle_rental": "docking_station", "brand": "V\u00e9lib\u2019 M\u00e9tropole", "brand:wikidata": "Q1120762", "brand:wikipedia": "fr:V\u00e9lib' M\u00e9tropole", "capacity": "16", "name": "Pierre Ginier - Clichy", "network": "V\u00e9lib\u2019 M\u00e9tropole", "network:wikidata": "Q1120762", "network:wikipedia": "fr:V\u00e9lib' M\u00e9tropole", "operator": "Smovengo", "operator:wikidata": "Q47008427", "operator:wikipedia": "fr:Smovengo", "ref": "18045", "source": "Autolib Velib M\u00e9tropole - 04/2020", "wikidata": "Q86254429"}}, {"type": "node", "id": 7371318692, "lat": 48.8879402, "lon": 2.3261244, "tags": {"amenity": "bicycle_rental", "bicycle_rental": "docking_station", "brand": "V\u00e9lib\u2019 M\u00e9tropole", "brand:wikidata": "Q1120762", "brand:wikipedia": "fr:V\u00e9lib' M\u00e9tropole", "capacity": "33", "name": "\u00c9tienne Jodelle - Saint-Ouen", "network": "V\u00e9lib\u2019 M\u00e9tropole", "network:wikidata": "Q1120762", "network:wikipedia": "fr:V\u00e9lib' M\u00e9tropole", "operator": "Smovengo", "operator:wikidata": "Q47008427", "operator:wikipedia": "fr:Smovengo", "ref": "18046", "source": "Autolib Velib M\u00e9tropole - 04/2020", "wikidata": "Q86254411"}}, {"type": "node", "id": 7371318693, "lat": 48.891083, "lon": 2.3267357, "tags": {"amenity": "bicycle_rental", "bicycle_rental": "docking_station", "brand": "V\u00e9lib\u2019 M\u00e9tropole", "brand:wikidata": "Q1120762", "brand:wikipedia": "fr:V\u00e9lib' M\u00e9tropole", "capacity": "45", "fixme": "pas de station \u00e0 cet endroit", "name": "St-Ouen - Lamarck", "network": "V\u00e9lib\u2019 M\u00e9tropole", "network:wikidata": "Q1120762", "network:wikipedia": "fr:V\u00e9lib' M\u00e9tropole", "operator": "Smovengo", "operator:wikidata": "Q47008427", "operator:wikipedia": "fr:Smovengo", "ref": "18047", "source": "Autolib Velib M\u00e9tropole - 2021-03", "wikidata": "Q86238378"}}, {"type": "node", "id": 7371318694, "lat": 48.8928033, "lon": 2.3268463, "tags": {"amenity": "bicycle_rental", "bicycle_rental": "docking_station", "brand": "V\u00e9lib\u2019 M\u00e9tropole", "brand:wikidata": "Q1120762", "brand:wikipedia": "fr:V\u00e9lib' M\u00e9tropole", "capacity": "53", "name": "Guy M\u00f4quet - Saint-Ouen", "network": "V\u00e9lib\u2019 M\u00e9tropole", "network:wikidata": "Q1120762", "network:wikipedia": "fr:V\u00e9lib' M\u00e9tropole", "operator": "Smovengo", "operator:wikidata": "Q47008427", "operator:wikipedia": "fr:Smovengo", "ref": "17001", "source": "Autolib Velib M\u00e9tropole - 2021-03", "wikidata": "Q86238236"}}, {"type": "node", "id": 7371318695, "lat": 48.8938391, "lon": 2.325954, "tags": {"amenity": "bicycle_rental", "bicycle_rental": "docking_station", "brand": "V\u00e9lib\u2019 M\u00e9tropole", "brand:wikidata": "Q1120762", "brand:wikipedia": "fr:V\u00e9lib' M\u00e9tropole", "capacity": "20", "name": "Square des Epinettes", "network": "V\u00e9lib\u2019 M\u00e9tropole", "network:wikidata": "Q1120762", "network:wikipedia": "fr:V\u00e9lib' M\u00e9tropole", "operator": "Smovengo", "operator:wikidata": "Q47008427", "operator:wikipedia": "fr:Smovengo", "ref": "17121", "source": "Autolib Velib M\u00e9tropole - 2021-03", "wikidata": "Q86238346"}}, {"type": "node", "id": 7371318696, "lat": 48.8958092, "lon": 2.3278973, "tags": {"amenity": "bicycle_rental", "bicycle_rental": "docking_station", "brand": "V\u00e9lib\u2019 M\u00e9tropole", "brand:wikidata": "Q1120762", "brand:wikipedia": "fr:V\u00e9lib' M\u00e9tropole", "capacity": "45", "name": "Jacques Kellner - Saint-Ouen", "network": "V\u00e9lib\u2019 M\u00e9tropole", "network:wikidata": "Q1120762", "network:wikipedia": "fr:V\u00e9lib' M\u00e9tropole", "operator": "Smovengo", "operator:wikidata": "Q47008427", "operator:wikipedia": "fr:Smovengo", "ref": "17003", "source": "Autolib Velib M\u00e9tropole - 2021-03", "wikidata": "Q86238368"}}, {"type": "node", "id": 7371318697, "lat": 48.8987083, "lon": 2.3295362, "tags": {"amenity": "bicycle_rental", "bicycle_rental": "docking_station", "brand": "V\u00e9lib\u2019 M\u00e9tropole", "brand:wikidata": "Q1120762", "brand:wikipedia": "fr:V\u00e9lib' M\u00e9tropole", "capacity": "26", "name": "Porte de Saint-Ouen - Henri Huchard", "network": "V\u00e9lib\u2019 M\u00e9tropole", "network:wikidata": "Q1120762", "network:wikipedia": "fr:V\u00e9lib' M\u00e9tropole", "operator": "Smovengo", "operator:wikidata": "Q47008427", "operator:wikipedia": "fr:Smovengo", "ref": "17124", "source": "Autolib Velib M\u00e9tropole - 2021-03", "wikidata": "Q86254422"}}, {"type": "node", "id": 7371318698, "lat": 48.8978767, "lon": 2.3230901, "tags": {"amenity": "bicycle_rental", "bicycle_rental": "docking_station", "brand": "V\u00e9lib\u2019 M\u00e9tropole", "brand:wikidata": "Q1120762", "brand:wikipedia": "fr:V\u00e9lib' M\u00e9tropole", "capacity": "23", "name": "Porte Pouchet-Bessi\u00e8res", "network": "V\u00e9lib\u2019 M\u00e9tropole", "network:wikidata": "Q1120762", "network:wikipedia": "fr:V\u00e9lib' M\u00e9tropole", "operator": "Smovengo", "operator:wikidata": "Q47008427", "operator:wikipedia": "fr:Smovengo", "ref": "17008", "source": "Autolib Velib M\u00e9tropole - 04/2020", "wikidata": "Q86238342"}}, {"type": "node", "id": 7371318699, "lat": 48.8958813, "lon": 2.322677, "tags": {"amenity": "bicycle_rental", "bicycle_rental": "docking_station", "brand": "V\u00e9lib\u2019 M\u00e9tropole", "brand:wikidata": "Q1120762", "brand:wikipedia": "fr:V\u00e9lib' M\u00e9tropole", "capacity": "36", "name": "Navier - Epinettes", "network": "V\u00e9lib\u2019 M\u00e9tropole", "network:wikidata": "Q1120762", "network:wikipedia": "fr:V\u00e9lib' M\u00e9tropole", "operator": "Smovengo", "operator:wikidata": "Q47008427", "operator:wikipedia": "fr:Smovengo", "ref": "17007", "source": "Autolib Velib M\u00e9tropole - 04/2020", "wikidata": "Q86252066"}}, {"type": "node", "id": 7371318700, "lat": 48.8961423, "lon": 2.3179492, "tags": {"amenity": "bicycle_rental", "bicycle_rental": "docking_station", "brand": "V\u00e9lib\u2019 M\u00e9tropole", "brand:wikidata": "Q1120762", "brand:wikipedia": "fr:V\u00e9lib' M\u00e9tropole", "capacity": "33", "name": "Bessi\u00e8res - Porte de Clichy", "network": "V\u00e9lib\u2019 M\u00e9tropole", "network:wikidata": "Q1120762", "network:wikipedia": "fr:V\u00e9lib' M\u00e9tropole", "operator": "Smovengo", "operator:wikidata": "Q47008427", "operator:wikipedia": "fr:Smovengo", "ref": "17108", "source": "Autolib Velib M\u00e9tropole - 04/2020", "wikidata": "Q86238324"}}, {"type": "node", "id": 7371318701, "lat": 48.8947549, "lon": 2.3188045, "tags": {"amenity": "bicycle_rental", "bicycle_rental": "docking_station", "brand": "V\u00e9lib\u2019 M\u00e9tropole", "brand:wikidata": "Q1120762", "brand:wikipedia": "fr:V\u00e9lib' M\u00e9tropole", "capacity": "40", "name": "Jonqui\u00e8re - Docteur Paul Brousse", "network": "V\u00e9lib\u2019 M\u00e9tropole", "network:wikidata": "Q1120762", "network:wikipedia": "fr:V\u00e9lib' M\u00e9tropole", "operator": "Smovengo", "operator:wikidata": "Q47008427", "operator:wikipedia": "fr:Smovengo", "ref": "17010", "source": "Autolib Velib M\u00e9tropole - 04/2020", "wikidata": "Q86238260"}}, {"type": "node", "id": 7371318702, "lat": 48.8900132, "lon": 2.3175738, "tags": {"amenity": "bicycle_rental", "bicycle_rental": "docking_station", "brand": "V\u00e9lib\u2019 M\u00e9tropole", "brand:wikidata": "Q1120762", "brand:wikipedia": "fr:V\u00e9lib' M\u00e9tropole", "capacity": "24", "name": "Lemercier - Cardinet", "network": "V\u00e9lib\u2019 M\u00e9tropole", "network:wikidata": "Q1120762", "network:wikipedia": "fr:V\u00e9lib' M\u00e9tropole", "operator": "Smovengo", "operator:wikidata": "Q47008427", "operator:wikipedia": "fr:Smovengo", "ref": "17111", "source": "Autolib Velib M\u00e9tropole - 04/2020", "wikidata": "Q86238196"}}, {"type": "node", "id": 7371318703, "lat": 48.8903236, "lon": 2.3197231, "tags": {"amenity": "bicycle_rental", "bicycle_rental": "docking_station", "brand": "V\u00e9lib\u2019 M\u00e9tropole", "brand:wikidata": "Q1120762", "brand:wikipedia": "fr:V\u00e9lib' M\u00e9tropole", "capacity": "53", "name": "Brochant - Clichy", "network": "V\u00e9lib\u2019 M\u00e9tropole", "network:wikidata": "Q1120762", "network:wikipedia": "fr:V\u00e9lib' M\u00e9tropole", "operator": "Smovengo", "operator:wikidata": "Q47008427", "operator:wikipedia": "fr:Smovengo", "ref": "17005", "source": "Autolib Velib M\u00e9tropole - 04/2020", "wikidata": "Q86238230"}}, {"type": "node", "id": 7371318704, "lat": 48.888187, "lon": 2.3168611, "tags": {"amenity": "bicycle_rental", "bicycle_rental": "docking_station", "brand": "V\u00e9lib\u2019 M\u00e9tropole", "brand:wikidata": "Q1120762", "brand:wikipedia": "fr:V\u00e9lib' M\u00e9tropole", "capacity": "31", "name": "Brochant - Square des Batignolles", "network": "V\u00e9lib\u2019 M\u00e9tropole", "network:wikidata": "Q1120762", "network:wikipedia": "fr:V\u00e9lib' M\u00e9tropole", "operator": "Smovengo", "operator:wikidata": "Q47008427", "operator:wikipedia": "fr:Smovengo", "ref": "17016", "source": "Autolib Velib M\u00e9tropole - 04/2020", "wikidata": "Q86238352"}}, {"type": "node", "id": 7371318705, "lat": 48.8861686, "lon": 2.3206239, "tags": {"amenity": "bicycle_rental", "capacity": "29", "name": "Bridaine - Lamand\u00e9", "network": "V\u00e9lib\u2019", "operator": "Smovengo", "ref": "17122", "source": "Autolib Velib M\u00e9tropole - 2021-03", "wikidata": "Q86238273"}}, {"type": "node", "id": 7371318706, "lat": 48.8844382, "lon": 2.32131, "tags": {"amenity": "bicycle_rental", "bicycle_rental": "docking_station", "brand": "V\u00e9lib\u2019 M\u00e9tropole", "brand:wikidata": "Q1120762", "capacity": "20", "name": "Mairie du 17\u00e8me", "network": "V\u00e9lib\u2019 M\u00e9tropole", "network:wikidata": "Q1120762", "operator": "Smovengo", "operator:wikidata": "Q47008427", "ref": "17012", "source": "Autolib Velib M\u00e9tropole - 2021-03", "wikidata": "Q86237831"}}, {"type": "node", "id": 7371318707, "lat": 48.8831024, "lon": 2.3238347, "tags": {"amenity": "bicycle_rental", "bicycle_rental": "docking_station", "brand": "V\u00e9lib\u2019 M\u00e9tropole", "brand:wikidata": "Q1120762", "brand:wikipedia": "fr:V\u00e9lib' M\u00e9tropole", "capacity": "28", "name": "Batignolles - Abel Truchet", "network": "V\u00e9lib\u2019 M\u00e9tropole", "network:wikidata": "Q1120762", "network:wikipedia": "fr:V\u00e9lib' M\u00e9tropole", "operator": "Smovengo", "operator:wikidata": "Q47008427", "operator:wikipedia": "fr:Smovengo", "ref": "17050", "source": "Autolib Velib M\u00e9tropole - 04/2020", "wikidata": "Q86237858"}}, {"type": "node", "id": 7371318708, "lat": 48.8836011, "lon": 2.3332238, "tags": {"amenity": "bicycle_rental", "bicycle_rental": "docking_station", "capacity": "20", "name": "Clichy - Place Blanche", "network": "V\u00e9lib\u2019", "operator": "Smovengo", "ref": "18043", "source": "Autolib Velib M\u00e9tropole - 2021-03", "wikidata": "Q86254685"}}, {"type": "node", "id": 7371318709, "lat": 48.8827555, "lon": 2.3361566, "tags": {"amenity": "bicycle_rental", "bicycle_rental": "docking_station", "brand": "V\u00e9lib\u2019 M\u00e9tropole", "brand:wikidata": "Q1120762", "brand:wikipedia": "fr:V\u00e9lib' M\u00e9tropole", "capacity": "21", "name": "Place Pigalle", "network": "V\u00e9lib\u2019 M\u00e9tropole", "network:wikidata": "Q1120762", "network:wikipedia": "fr:V\u00e9lib' M\u00e9tropole", "operator": "Smovengo", "operator:wikidata": "Q47008427", "operator:wikipedia": "fr:Smovengo", "ref": "18042", "source": "Autolib Velib M\u00e9tropole - 04/2020", "wikidata": "Q86253535"}}, {"type": "node", "id": 7371318710, "lat": 48.8821938, "lon": 2.3405496, "tags": {"amenity": "bicycle_rental", "bicycle_rental": "docking_station", "brand": "V\u00e9lib\u2019 M\u00e9tropole", "brand:wikidata": "Q1120762", "brand:wikipedia": "fr:V\u00e9lib' M\u00e9tropole", "capacity": "20", "name": "Rochechouart - Martyrs", "network": "V\u00e9lib\u2019 M\u00e9tropole", "network:wikidata": "Q1120762", "network:wikipedia": "fr:V\u00e9lib' M\u00e9tropole", "operator": "Smovengo", "operator:wikidata": "Q47008427", "operator:wikipedia": "fr:Smovengo", "ref": "18041", "source": "Autolib Velib M\u00e9tropole - 04/2020", "wikidata": "Q86254413"}}, {"type": "node", "id": 7371329386, "lat": 48.8990511, "lon": 2.3365534, "tags": {"amenity": "bicycle_rental", "bicycle_rental": "docking_station", "brand": "V\u00e9lib\u2019 M\u00e9tropole", "brand:wikidata": "Q1120762", "brand:wikipedia": "fr:V\u00e9lib' M\u00e9tropole", "capacity": "37", "name": "Ren\u00e9 Binet - Porte de Montmartre", "network": "V\u00e9lib\u2019 M\u00e9tropole", "network:wikidata": "Q1120762", "network:wikipedia": "fr:V\u00e9lib' M\u00e9tropole", "operator": "Smovengo", "operator:wikidata": "Q47008427", "operator:wikipedia": "fr:Smovengo", "ref": "18035", "source": "Autolib Velib M\u00e9tropole - 04/2020", "wikidata": "Q86254434"}}, {"type": "node", "id": 7371329387, "lat": 48.8979187, "lon": 2.3364873, "tags": {"amenity": "bicycle_rental", "bicycle_rental": "docking_station", "brand": "V\u00e9lib\u2019 M\u00e9tropole", "brand:wikidata": "Q1120762", "brand:wikipedia": "fr:V\u00e9lib' M\u00e9tropole", "capacity": "25", "name": "Ney - Porte de Montmartre", "network": "V\u00e9lib\u2019 M\u00e9tropole", "network:wikidata": "Q1120762", "network:wikipedia": "fr:V\u00e9lib' M\u00e9tropole", "operator": "Smovengo", "operator:wikidata": "Q47008427", "operator:wikipedia": "fr:Smovengo", "ref": "18135", "source": "Autolib Velib M\u00e9tropole - 2021-03", "wikidata": "Q86254446"}}, {"type": "node", "id": 7371329388, "lat": 48.8980018, "lon": 2.3336492, "tags": {"amenity": "bicycle_rental", "bicycle_rental": "docking_station", "brand": "V\u00e9lib\u2019 M\u00e9tropole", "brand:wikidata": "Q1120762", "brand:wikipedia": "fr:V\u00e9lib' M\u00e9tropole", "capacity": "26", "name": "Arthur Ranc - H\u00f4pital Bichat", "network": "V\u00e9lib\u2019 M\u00e9tropole", "network:wikidata": "Q1120762", "network:wikipedia": "fr:V\u00e9lib' M\u00e9tropole", "operator": "Smovengo", "operator:wikidata": "Q47008427", "operator:wikipedia": "fr:Smovengo", "ref": "18112", "source": "Autolib Velib M\u00e9tropole - 2021-03", "wikidata": "Q86253549"}}, {"type": "node", "id": 7371329389, "lat": 48.8966924, "lon": 2.3380235, "tags": {"amenity": "bicycle_rental", "capacity": "34", "name": "Belliard - Damr\u00e9mont", "network": "V\u00e9lib\u2019", "operator": "Smovengo", "ref": "18033", "source": "Autolib Velib M\u00e9tropole - 2021-03", "wikidata": "Q86253611"}}, {"type": "node", "id": 7371329390, "lat": 48.8963283, "lon": 2.3333904, "tags": {"amenity": "bicycle_rental", "bicycle_rental": "docking_station", "capacity": "32", "name": "Leibniz - Jean Dollfus", "network": "V\u00e9lib\u2019", "operator": "Smovengo", "ref": "18034", "source": "Autolib Velib M\u00e9tropole - 2021-03", "wikidata": "Q86254460"}}, {"type": "node", "id": 7371329391, "lat": 48.8940125, "lon": 2.33199, "tags": {"amenity": "bicycle_rental", "bicycle_rental": "docking_station", "brand": "V\u00e9lib\u2019 M\u00e9tropole", "brand:wikidata": "Q1120762", "brand:wikipedia": "fr:V\u00e9lib' M\u00e9tropole", "capacity": "33", "name": "Championnet - Vauvenargues", "network": "V\u00e9lib\u2019 M\u00e9tropole", "network:wikidata": "Q1120762", "network:wikipedia": "fr:V\u00e9lib' M\u00e9tropole", "operator": "Smovengo", "operator:wikidata": "Q47008427", "operator:wikipedia": "fr:Smovengo", "ref": "18028", "source": "Autolib Velib M\u00e9tropole - 04/2020", "wikidata": "Q86253561"}}, {"type": "node", "id": 7371329392, "lat": 48.8943954, "lon": 2.3414726, "tags": {"amenity": "bicycle_rental", "capacity": "39", "name": "Emile Blemont - Poteau", "network": "V\u00e9lib\u2019", "operator": "Smovengo", "ref": "18029", "source": "Autolib Velib M\u00e9tropole - 2021-03", "wikidata": "Q86253607"}}, {"type": "node", "id": 7371329393, "lat": 48.8929946, "lon": 2.3401449, "tags": {"amenity": "bicycle_rental", "bicycle_rental": "docking_station", "capacity": "35", "name": "Ruisseau - Ordener", "network": "V\u00e9lib\u2019", "operator": "Smovengo", "ref": "18026", "source": "Autolib Velib M\u00e9tropole - 2021-03", "wikidata": "Q86253544"}}, {"type": "node", "id": 7371329394, "lat": 48.892949, "lon": 2.344531, "tags": {"amenity": "bicycle_rental", "bicycle_rental": "docking_station", "capacity": "40", "name": "Mairie du 18\u00e8me", "network": "V\u00e9lib\u2019", "operator": "Smovengo", "ref": "18025", "source": "Autolib Velib M\u00e9tropole - 2021-03", "wikidata": "Q86253558"}}, {"type": "node", "id": 7371329395, "lat": 48.8908882, "lon": 2.3449099, "tags": {"amenity": "bicycle_rental", "bicycle_rental": "docking_station", "brand": "V\u00e9lib\u2019 M\u00e9tropole", "brand:wikidata": "Q1120762", "brand:wikipedia": "fr:V\u00e9lib' M\u00e9tropole", "capacity": "21", "name": "Marcadet - Ramey", "network": "V\u00e9lib\u2019 M\u00e9tropole", "network:wikidata": "Q1120762", "network:wikipedia": "fr:V\u00e9lib' M\u00e9tropole", "operator": "Smovengo", "operator:wikidata": "Q47008427", "operator:wikipedia": "fr:Smovengo", "ref": "18021", "source": "Autolib Velib M\u00e9tropole - 04/2020", "wikidata": "Q86254456"}}, {"type": "node", "id": 7371329396, "lat": 48.8914577, "lon": 2.3486365, "tags": {"amenity": "bicycle_rental", "bicycle_rental": "docking_station", "capacity": "35", "name": "Clignancourt - Ordener", "network": "V\u00e9lib\u2019", "operator": "Smovengo", "ref": "18024", "source": "Autolib Velib M\u00e9tropole - 2021-03", "wikidata": "Q86254464"}}, {"type": "node", "id": 7371329397, "lat": 48.8904495, "lon": 2.3490574, "tags": {"amenity": "bicycle_rental", "capacity": "37", "name": "Marcadet - Barb\u00e8s", "network": "V\u00e9lib\u2019", "operator": "Smovengo", "ref": "18022", "source": "Autolib Velib M\u00e9tropole - 2021-03", "wikidata": "Q86254427"}}, {"type": "node", "id": 7426505264, "lat": 48.8821526, "lon": 2.3463187, "tags": {"amenity": "bicycle_rental", "bicycle_rental": "docking_station", "brand": "V\u00e9lib\u2019 M\u00e9tropole", "brand:wikidata": "Q1120762", "brand:wikipedia": "fr:V\u00e9lib' M\u00e9tropole", "capacity": "16", "name": "Dunkerque - Trudaine", "network": "V\u00e9lib\u2019 M\u00e9tropole", "network:wikidata": "Q1120762", "network:wikipedia": "fr:V\u00e9lib' M\u00e9tropole", "operator": "Smovengo", "operator:wikidata": "Q47008427", "operator:wikipedia": "fr:Smovengo", "ref": "9006", "wikidata": "Q86254597"}}, {"type": "node", "id": 7426545135, "lat": 48.8716023, "lon": 2.3458634, "tags": {"amenity": "bicycle_rental", "bicycle_rental": "docking_station", "brand": "V\u00e9lib\u2019 M\u00e9tropole", "brand:wikidata": "Q1120762", "brand:wikipedia": "fr:V\u00e9lib' M\u00e9tropole", "capacity": "30", "name": "Rougemont - Poissonni\u00e8re", "network": "V\u00e9lib\u2019 M\u00e9tropole", "network:wikidata": "Q1120762", "network:wikipedia": "fr:V\u00e9lib' M\u00e9tropole", "operator": "Smovengo", "operator:wikidata": "Q47008427", "operator:wikipedia": "fr:Smovengo", "ref": "9012", "wikidata": "Q86254652"}}, {"type": "node", "id": 7426547569, "lat": 48.8714404, "lon": 2.3382935, "tags": {"amenity": "bicycle_rental", "bicycle_rental": "docking_station", "brand": "V\u00e9lib\u2019 M\u00e9tropole", "brand:wikidata": "Q1120762", "brand:wikipedia": "fr:V\u00e9lib' M\u00e9tropole", "capacity": "17", "name": "Favart - Italiens", "network": "V\u00e9lib\u2019 M\u00e9tropole", "network:wikidata": "Q1120762", "network:wikipedia": "fr:V\u00e9lib' M\u00e9tropole", "operator": "Smovengo", "operator:wikidata": "Q47008427", "operator:wikipedia": "fr:Smovengo", "ref": "2013", "wikidata": "Q86254759"}}, {"type": "node", "id": 7426558086, "lat": 48.8753507, "lon": 2.3228842, "tags": {"amenity": "bicycle_rental", "bicycle_rental": "docking_station", "brand": "V\u00e9lib\u2019 M\u00e9tropole", "brand:wikidata": "Q1120762", "brand:wikipedia": "fr:V\u00e9lib' M\u00e9tropole", "capacity": "18", "name": "Joseph Sansb\u0153uf - Saint-Lazare", "network": "V\u00e9lib\u2019 M\u00e9tropole", "network:wikidata": "Q1120762", "network:wikipedia": "fr:V\u00e9lib' M\u00e9tropole", "operator": "Smovengo", "operator:wikidata": "Q47008427", "operator:wikipedia": "fr:Smovengo", "ref": "8008", "wikidata": "Q86255175"}}, {"type": "node", "id": 7531612754, "lat": 48.8724201, "lon": 2.3483952, "tags": {"amenity": "bicycle_rental", "bicycle_rental": "docking_station", "brand": "V\u00e9lib\u2019 M\u00e9tropole", "brand:wikidata": "Q1120762", "brand:wikipedia": "fr:V\u00e9lib' M\u00e9tropole", "capacity": "33", "name": "Enghien - Faubourg Poissonni\u00e8re", "network": "V\u00e9lib\u2019 M\u00e9tropole", "network:wikidata": "Q1120762", "network:wikipedia": "fr:V\u00e9lib' M\u00e9tropole", "operator": "Smovengo", "operator:wikidata": "Q47008427", "operator:wikipedia": "fr:Smovengo", "ref": "10042", "source": "Autolib Velib M\u00e9tropole - 04/2020", "survey:date": "2020-06-05", "wikidata": "Q86253030"}}, {"type": "node", "id": 7981641086, "lat": 48.8949713, "lon": 2.3647617, "tags": {"amenity": "bicycle_rental", "bicycle_rental": "docking_station", "brand": "V\u00e9lib\u2019 M\u00e9tropole", "brand:wikidata": "Q1120762", "brand:wikipedia": "fr:V\u00e9lib' M\u00e9tropole", "capacity": "33", "name": "Tzara", "network": "V\u00e9lib\u2019 M\u00e9tropole", "network:wikidata": "Q1120762", "network:wikipedia": "fr:V\u00e9lib' M\u00e9tropole", "operator": "Smovengo", "operator:wikidata": "Q47008427", "operator:wikipedia": "fr:Smovengo", "ref": "18201", "source": "Autolib Velib M\u00e9tropole - 04/2020", "survey:date": "2020-10-06", "wikidata": "Q100587045"}}, {"type": "node", "id": 8680460680, "lat": 48.8987072, "lon": 2.3524106, "tags": {"amenity": "bicycle_rental", "bicycle_rental": "docking_station", "brand": "V\u00e9lib\u2019 M\u00e9tropole", "brand:wikidata": "Q1120762", "brand:wikipedia": "fr:V\u00e9lib' M\u00e9tropole", "capacity": "38", "name": "Diane Arbus", "network": "V\u00e9lib\u2019 M\u00e9tropole", "network:wikidata": "Q1120762", "network:wikipedia": "fr:V\u00e9lib' M\u00e9tropole", "operator": "Smovengo", "operator:wikidata": "Q47008427", "operator:wikipedia": "fr:Smovengo", "ref": "18202", "wikidata": "Q110496306"}}, {"type": "node", "id": 9023657513, "lat": 48.9026387, "lon": 2.3482481, "tags": {"amenity": "bicycle_rental", "bicycle_rental": "docking_station", "brand": "V\u00e9lib\u2019 M\u00e9tropole", "brand:wikidata": "Q1120762", "brand:wikipedia": "fr:V\u00e9lib' M\u00e9tropole", "capacity": "30", "fixme": "V\u00e9rifier emplacement", "name": "Adrien Lesesne - Docteur Bauer", "network": "V\u00e9lib\u2019 M\u00e9tropole", "network:wikidata": "Q1120762", "network:wikipedia": "fr:V\u00e9lib' M\u00e9tropole", "operator": "Smovengo", "operator:wikidata": "Q47008427", "operator:wikipedia": "fr:Smovengo", "ref": "34005", "wikidata": "Q110496277"}}, {"type": "node", "id": 9023657516, "lat": 48.9024499, "lon": 2.3304808, "tags": {"amenity": "bicycle_rental", "bicycle_rental": "docking_station", "brand": "V\u00e9lib\u2019 M\u00e9tropole", "brand:wikidata": "Q1120762", "brand:wikipedia": "fr:V\u00e9lib' M\u00e9tropole", "capacity": "27", "fixme": "V\u00e9rifier emplacement", "name": "Capitaine Glarner - Gabriel P\u00e9ri", "network": "V\u00e9lib\u2019 M\u00e9tropole", "network:wikidata": "Q1120762", "network:wikipedia": "fr:V\u00e9lib' M\u00e9tropole", "operator": "Smovengo", "operator:wikidata": "Q47008427", "operator:wikipedia": "fr:Smovengo", "ref": "34002", "wikidata": "Q110496280"}}, {"type": "node", "id": 9216339355, "lat": 48.8997312, "lon": 2.3214627, "tags": {"amenity": "bicycle_rental", "bicycle_rental": "docking_station", "brand": "V\u00e9lib\u2019 M\u00e9tropole", "brand:wikidata": "Q1120762", "brand:wikipedia": "fr:V\u00e9lib' M\u00e9tropole", "capacity": "31", "name": "H\u00e9l\u00e8ne et Fran\u00e7ois Missoffe - \u00c9mile Borel", "network": "V\u00e9lib\u2019 M\u00e9tropole", "network:wikidata": "Q1120762", "network:wikipedia": "fr:V\u00e9lib' M\u00e9tropole", "operator": "Smovengo", "operator:wikidata": "Q47008427", "operator:wikipedia": "fr:Smovengo", "ref": "17126", "wikidata": "Q86238240"}}, {"type": "node", "id": 9406253411, "lat": 48.8999065, "lon": 2.321544, "tags": {"amenity": "bicycle_rental", "bicycle_rental": "docking_station", "brand": "V\u00e9lib\u2019 M\u00e9tropole", "brand:wikidata": "Q1120762", "brand:wikipedia": "fr:V\u00e9lib' M\u00e9tropole", "capacity": "32", "name": "H\u00e9l\u00e8ne et Fran\u00e7ois Missoffe - Emile Borel", "network": "V\u00e9lib\u2019 M\u00e9tropole", "network:wikidata": "Q1120762", "network:wikipedia": "fr:V\u00e9lib' M\u00e9tropole", "operator": "Smovengo", "operator:wikidata": "Q47008427", "operator:wikipedia": "fr:Smovengo", "ref": "17126", "wikidata": "Q110496307"}}, {"type": "node", "id": 9406340522, "lat": 48.8736083, "lon": 2.3651313, "tags": {"amenity": "bicycle_rental", "bicycle_rental": "docking_station", "brand": "V\u00e9lib\u2019 M\u00e9tropole", "brand:wikidata": "Q1120762", "brand:wikipedia": "fr:V\u00e9lib' M\u00e9tropole", "capacity": "30", "check_date": "2022-07-22", "name": "Bichat - Grange aux Belles", "network": "V\u00e9lib\u2019 M\u00e9tropole", "network:wikidata": "Q1120762", "network:wikipedia": "fr:V\u00e9lib' M\u00e9tropole", "operator": "Smovengo", "operator:wikidata": "Q47008427", "operator:wikipedia": "fr:Smovengo", "ref": "10202", "wikidata": "Q110496309"}}, {"type": "node", "id": 9870916177, "lat": 48.8747179, "lon": 2.365989, "tags": {"amenity": "bicycle_rental", "bicycle_rental": "docking_station", "brand": "V\u00e9lib\u2019 M\u00e9tropole", "brand:wikidata": "Q1120762", "brand:wikipedia": "fr:V\u00e9lib' M\u00e9tropole", "capacity": "60", "check_date": "2022-07-22", "name": "Granges aux Belles - H\u00f4pital Saint-Louis", "network": "V\u00e9lib\u2019 M\u00e9tropole", "network:wikidata": "Q1120762", "network:wikipedia": "fr:V\u00e9lib' M\u00e9tropole", "note": "station rajouter a la mains suite visite terrain, ref a verifier", "operator": "Smovengo", "operator:wikidata": "Q47008427", "operator:wikipedia": "fr:Smovengo", "ref": "?", "source": "Autolib Velib M\u00e9tropole - 2022-01", "unsigned_ref": "129042700", "wikidata": "Q86253055"}}, {"type": "node", "id": 9898240318, "lat": 48.8691712, "lon": 2.3243816, "tags": {"amenity": "bicycle_rental", "bicycle_rental": "docking_station", "capacity": "26"}}, {"type": "node", "id": 10671861707, "lat": 48.8913346, "lon": 2.3272445, "tags": {"amenity": "bicycle_rental", "bicycle_rental": "docking_station", "brand": "V\u00e9lib\u2019 M\u00e9tropole", "brand:wikidata": "Q1120762", "brand:wikipedia": "fr:V\u00e9lib' M\u00e9tropole", "capacity": "40", "name": "Lamarck - Saint-Ouen", "network": "V\u00e9lib\u2019 M\u00e9tropole", "network:wikidata": "Q1120762", "network:wikipedia": "fr:V\u00e9lib' M\u00e9tropole", "operator": "Smovengo", "operator:wikidata": "Q47008427", "operator:wikipedia": "fr:Smovengo", "ref": "18203", "wikidata": "Q116796016"}}, {"type": "node", "id": 10671861711, "lat": 48.8845717, "lon": 2.3214695, "tags": {"amenity": "bicycle_rental", "bicycle_rental": "docking_station", "brand": "V\u00e9lib\u2019 M\u00e9tropole", "brand:wikidata": "Q1120762", "brand:wikipedia": "fr:V\u00e9lib' M\u00e9tropole", "capacity": "20", "name": "Mariotte - Batignolles", "network": "V\u00e9lib\u2019 M\u00e9tropole", "network:wikidata": "Q1120762", "network:wikipedia": "fr:V\u00e9lib' M\u00e9tropole", "operator": "Smovengo", "operator:wikidata": "Q47008427", "operator:wikipedia": "fr:Smovengo", "ref": "17202", "wikidata": "Q116796022"}}, {"type": "way", "id": 578111481, "nodes": [5540287650, 5540287649, 5540287648, 5540287647, 5540287650], "tags": {"amenity": "bicycle_rental", "brand": "V\u00e9lib\u2019 M\u00e9tropole", "brand:wikidata": "Q1120762", "capacity": "20", "name": "Condorcet - Turgot", "network": "V\u00e9lib\u2019 M\u00e9tropole", "network:wikidata": "Q1120762", "operator": "Smovengo", "operator:wikidata": "Q47008427", "ref": "9007", "source": "survey 2018; BDOrtho IGN", "wikidata": "Q86254724"}}]}